{
  "generatedAt": "2026-03-25T15:50:25.904Z",
  "airports": {
    "KPIT": {
      "status": "OK",
      "delay": "—",
      "metarCat": "VFR",
      "metarRaw": "METAR KPIT 251451Z 07004KT 10SM FEW130 BKN180 OVC250 07/M06 A3024 RMK AO2 SLP255 T00721056 50002",
      "metarObsTime": 1774450260
    },
    "KAGC": {
      "status": "OK",
      "delay": "—",
      "metarCat": "VFR",
      "metarRaw": "METAR KAGC 251453Z 10003KT 10SM SCT100 07/M04 A3024 RMK AO2 SLP251 T00671044 50004",
      "metarObsTime": 1774450380
    },
    "KLBE": {
      "status": "OK",
      "delay": "—",
      "metarCat": "VFR",
      "metarRaw": "METAR KLBE 251547Z 04005KT 10SM BKN110 10/M03 A3023",
      "metarObsTime": 1774453620
    },
    "KJST": {
      "status": "OK",
      "delay": "—",
      "metarCat": "VFR",
      "metarRaw": "METAR KJST 251454Z AUTO 08004KT 10SM OVC110 05/M06 A3024 RMK AO2 SLP256 T00501061 53003",
      "metarObsTime": 1774450440
    },
    "KERI": {
      "status": "OK",
      "delay": "—",
      "metarCat": "VFR",
      "metarRaw": "METAR KERI 251451Z 17009KT 10SM CLR 09/M07 A3022 RMK AO2 SLP240 T00891067 58023",
      "metarObsTime": 1774450260
    },
    "KDUJ": {
      "status": "OK",
      "delay": "—",
      "metarCat": "VFR",
      "metarRaw": "METAR KDUJ 251453Z AUTO 12007KT 10SM CLR 05/M07 A3024 RMK AO2 SLP253 T00501072 58005",
      "metarObsTime": 1774450380
    },
    "KBFD": {
      "status": "OK",
      "delay": "—",
      "metarCat": "VFR",
      "metarRaw": "METAR KBFD 251453Z AUTO 14011G16KT 10SM CLR 04/M10 A3022 RMK AO2 SLP251 T00441100 58010",
      "metarObsTime": 1774450380
    },
    "KBTP": {
      "status": "OK",
      "delay": "—",
      "metarCat": "VFR",
      "metarRaw": "METAR KBTP 251456Z AUTO 12006KT 10SM CLR 07/M06 A3024 RMK AO2 SLP256 T00721056 58003 $",
      "metarObsTime": 1774450560
    },
    "KFKL": {
      "status": "OK",
      "delay": "—",
      "metarCat": "VFR",
      "metarRaw": "METAR KFKL 251456Z AUTO 14010KT 10SM CLR 07/M06 A3024 RMK AO2 SLP252 T00721061 58006",
      "metarObsTime": 1774450560
    },
    "KIDI": {
      "status": "OK",
      "delay": "—",
      "metarCat": "VFR",
      "metarRaw": "METAR KIDI 251535Z AUTO 17008KT 10SM CLR 09/M06 A3024 RMK A01",
      "metarObsTime": 1774452900
    },
    "KMDT": {
      "status": "OK",
      "delay": "—",
      "metarCat": "VFR",
      "metarRaw": "METAR KMDT 251456Z 13005KT 10SM FEW090 BKN220 OVC250 07/00 A3037 RMK AO2 SLP286 T00720000 52004",
      "metarObsTime": 1774450560
    },
    "KCXY": {
      "status": "OK",
      "delay": "—",
      "metarCat": "VFR",
      "metarRaw": "METAR KCXY 251456Z VRB04KT 10SM BKN090 OVC110 07/00 A3037 RMK AO2 SLP288 T00720000 53003",
      "metarObsTime": 1774450560
    },
    "KMUI": {
      "status": "OK",
      "delay": "—",
      "metarCat": "VFR",
      "metarRaw": "METAR KMUI 251455Z 10005KT 10SM BKN080 BKN120 07/00 A3035 RMK AO2A SLP284 T00720004 50002",
      "metarObsTime": 1774450500
    },
    "KUNV": {
      "status": "OK",
      "delay": "—",
      "metarCat": "—",
      "metarRaw": "—",
      "metarObsTime": null
    },
    "KAOO": {
      "status": "OK",
      "delay": "—",
      "metarCat": "VFR",
      "metarRaw": "METAR KAOO 251453Z AUTO 04004KT 10SM OVC095 05/M05 A3029 RMK AO2 SLP268 T00501050 55000",
      "metarObsTime": 1774450380
    },
    "KLNS": {
      "status": "OK",
      "delay": "—",
      "metarCat": "VFR",
      "metarRaw": "METAR KLNS 251453Z 13004KT 10SM SCT100 07/00 A3037 RMK AO2 SLP287 T00670000 53002",
      "metarObsTime": 1774450380
    },
    "KIPT": {
      "status": "OK",
      "delay": "—",
      "metarCat": "VFR",
      "metarRaw": "METAR KIPT 251454Z 00000KT 10SM CLR 03/M03 A3033 RMK AO2 SLP276 T00331028 58010 $",
      "metarObsTime": 1774450440
    },
    "KPHL": {
      "status": "OK",
      "delay": "—",
      "metarCat": "VFR",
      "metarRaw": "METAR KPHL 251454Z 23006KT 10SM BKN100 BKN210 BKN330 09/01 A3042 RMK AO2 SLP299 VIRGA T00890011 50001 $",
      "metarObsTime": 1774450440
    },
    "KABE": {
      "status": "OK",
      "delay": "—",
      "metarCat": "VFR",
      "metarRaw": "METAR KABE 251451Z 08004KT 10SM SCT090 07/M03 A3039 RMK AO2 SLP293 T00671033 51002 $",
      "metarObsTime": 1774450260
    },
    "KAVP": {
      "status": "OK",
      "delay": "—",
      "metarCat": "VFR",
      "metarRaw": "METAR KAVP 251454Z 00000KT 10SM CLR 05/M05 A3033 RMK AO2 SLP276 T00501050 58006",
      "metarObsTime": 1774450440
    },
    "KHZL": {
      "status": "OK",
      "delay": "—",
      "metarCat": "VFR",
      "metarRaw": "METAR KHZL 251535Z AUTO 14006KT 10SM CLR 06/M08 A3033 RMK AO2",
      "metarObsTime": 1774452900
    }
  }
}