{
  "generatedAt": "2026-03-23T09:10:35.892Z",
  "airports": {
    "KPIT": {
      "status": "OK",
      "delay": "—",
      "metarCat": "LIFR",
      "metarRaw": "METAR KPIT 230851Z 32016KT 1SM R28R/6000VP6000FT BR OVC002 06/06 A2978 RMK AO2 RAB08E26 SLP087 P0000 60006 T00560056 51019",
      "metarObsTime": 1774255860
    },
    "KAGC": {
      "status": "OK",
      "delay": "—",
      "metarCat": "LIFR",
      "metarRaw": "METAR KAGC 230853Z 33015G21KT 1/4SM R28/2200V2600FT FG VV002 07/07 A2974 RMK AO2 SLP071 60013 T00720067 53010",
      "metarObsTime": 1774255980
    },
    "KLBE": {
      "status": "OK",
      "delay": "—",
      "metarCat": "MVFR",
      "metarRaw": "METAR KLBE 230855Z AUTO 25004KT 10SM SCT009 BKN019 OVC024 12/12 A2974 RMK AO2 P0001",
      "metarObsTime": 1774256100
    },
    "KJST": {
      "status": "OK",
      "delay": "—",
      "metarCat": "MVFR",
      "metarRaw": "METAR KJST 230854Z AUTO 29010KT 10SM FEW009 BKN013 OVC022 10/09 A2969 RMK AO2 RAE10 SLP044 P0000 60032 T01000094 56016",
      "metarObsTime": 1774256040
    },
    "KERI": {
      "status": "OK",
      "delay": "—",
      "metarCat": "IFR",
      "metarRaw": "METAR KERI 230851Z AUTO 02013G22KT 10SM OVC007 01/M01 A2990 RMK AO2 SLP131 T00061011 53024",
      "metarObsTime": 1774255860
    },
    "KDUJ": {
      "status": "OK",
      "delay": "—",
      "metarCat": "LIFR",
      "metarRaw": "METAR KDUJ 230853Z AUTO 33006KT 3/4SM BR VV002 06/06 A2972 RMK AO2 SLP063 60001 T00610061 53007",
      "metarObsTime": 1774255980
    },
    "KBFD": {
      "status": "OK",
      "delay": "—",
      "metarCat": "LIFR",
      "metarRaw": "METAR KBFD 230853Z AUTO 05004KT 10SM OVC004 00/M01 A2976 RMK AO2 CIG 003V007 SLP083 60000 T00001006 53002 $",
      "metarObsTime": 1774255980
    },
    "KBTP": {
      "status": "OK",
      "delay": "—",
      "metarCat": "LIFR",
      "metarRaw": "METAR KBTP 230856Z AUTO 29009G15KT 1 1/4SM BR OVC003 04/ A2979 RMK AO2 SLP092 60002 T0044 53009 $",
      "metarObsTime": 1774256160
    },
    "KFKL": {
      "status": "OK",
      "delay": "—",
      "metarCat": "LIFR",
      "metarRaw": "SPECI KFKL 230904Z AUTO 32005KT 3/4SM BR OVC002 03/02 A2980 RMK AO2",
      "metarObsTime": 1774256640
    },
    "KIDI": {
      "status": "OK",
      "delay": "—",
      "metarCat": "IFR",
      "metarRaw": "METAR KIDI 230855Z AUTO 29008KT 10SM BKN006 BKN010 OVC021 10/10 A2973 RMK A01",
      "metarObsTime": 1774256100
    },
    "KMDT": {
      "status": "OK",
      "delay": "—",
      "metarCat": "MVFR",
      "metarRaw": "METAR KMDT 230856Z 14004KT 5SM RA BR FEW060 BKN075 OVC090 11/11 A2969 RMK AO2 SLP054 P0010 60036 T01110106 56009 $",
      "metarObsTime": 1774256160
    },
    "KCXY": {
      "status": "OK",
      "delay": "—",
      "metarCat": "IFR",
      "metarRaw": "METAR KCXY 230856Z AUTO 00000KT 4SM RA BR BKN005 BKN075 OVC090 11/11 A2969 RMK AO2 SLP052 P0008 60039 T01110111 58004",
      "metarObsTime": 1774256160
    },
    "KMUI": {
      "status": "OK",
      "delay": "—",
      "metarCat": "LIFR",
      "metarRaw": "METAR KMUI 230855Z AUTO 00000KT 4SM RA BR BKN004 OVC009 11/11 A2967 RMK AO2 SLP048 P0008 60030 T01100107 50000",
      "metarObsTime": 1774256100
    },
    "KUNV": {
      "status": "OK",
      "delay": "—",
      "metarCat": "IFR",
      "metarRaw": "METAR KUNV 230855Z AUTO 04009KT 10SM OVC008 05/05 A2973 RMK AO2 60022 T00480048",
      "metarObsTime": 1774256100
    },
    "KAOO": {
      "status": "OK",
      "delay": "—",
      "metarCat": "MVFR",
      "metarRaw": "METAR KAOO 230853Z AUTO 23005KT 10SM BKN025 OVC030 12/10 A2969 RMK AO2 RAE08 SLP045 P0000 60019 T01170100 56020",
      "metarObsTime": 1774255980
    },
    "KLNS": {
      "status": "OK",
      "delay": "—",
      "metarCat": "MVFR",
      "metarRaw": "METAR KLNS 230853Z AUTO 00000KT 5SM RA BR OVC075 11/11 A2969 RMK AO2 SLP052 P0015 60024 T01110106 56000",
      "metarObsTime": 1774255980
    },
    "KIPT": {
      "status": "OK",
      "delay": "—",
      "metarCat": "MVFR",
      "metarRaw": "METAR KIPT 230854Z AUTO 33004KT 10SM OVC014 04/02 A2975 RMK AO2 RAE04 SLP077 P0000 60007 T00390022 50001 $",
      "metarObsTime": 1774256040
    },
    "KPHL": {
      "status": "OK",
      "delay": "—",
      "metarCat": "MVFR",
      "metarRaw": "SPECI KPHL 230902Z 06008KT 7SM -RA SCT015 BKN029 OVC038 14/11 A2969 RMK AO2 RAB01 PRESFR P0000 T01390106 $",
      "metarObsTime": 1774256520
    },
    "KABE": {
      "status": "OK",
      "delay": "—",
      "metarCat": "MVFR",
      "metarRaw": "SPECI KABE 230904Z 35007KT 5SM +RA BR OVC013 08/08 A2971 RMK AO2 P0005 T00830078 $",
      "metarObsTime": 1774256640
    },
    "KAVP": {
      "status": "OK",
      "delay": "—",
      "metarCat": "IFR",
      "metarRaw": "METAR KAVP 230854Z 01005KT 5SM -RA BR OVC006 04/03 A2975 RMK AO2 CIG 005V011 SLP075 P0003 60021 T00390028 53004",
      "metarObsTime": 1774256040
    },
    "KHZL": {
      "status": "OK",
      "delay": "—",
      "metarCat": "LIFR",
      "metarRaw": "METAR KHZL 230855Z AUTO 33008KT 5SM RA OVC003 03/02 A2975 RMK AO2 P0006",
      "metarObsTime": 1774256100
    }
  }
}