{
  "generatedAt": "2026-04-20T22:10:58.496Z",
  "airports": {
    "KPIT": {
      "status": "OK",
      "delay": "—",
      "metarCat": "VFR",
      "metarRaw": "METAR KPIT 202151Z 34012G16KT 10SM SCT070 08/M09 A3029 RMK AO2 SLP273 T00781094",
      "metarObsTime": 1776721860
    },
    "KAGC": {
      "status": "OK",
      "delay": "—",
      "metarCat": "VFR",
      "metarRaw": "METAR KAGC 202153Z 34006G16KT 10SM FEW070 07/M09 A3029 RMK AO2 SLP270 T00671089",
      "metarObsTime": 1776721980
    },
    "KLBE": {
      "status": "OK",
      "delay": "—",
      "metarCat": "VFR",
      "metarRaw": "METAR KLBE 202155Z 27009KT 10SM SCT060 07/M08 A3031",
      "metarObsTime": 1776722100
    },
    "KJST": {
      "status": "OK",
      "delay": "—",
      "metarCat": "VFR",
      "metarRaw": "METAR KJST 202154Z AUTO 29011G22KT 10SM FEW060 03/M10 A3023 RMK AO2 SLP260 T00281100",
      "metarObsTime": 1776722040
    },
    "KERI": {
      "status": "OK",
      "delay": "—",
      "metarCat": "VFR",
      "metarRaw": "METAR KERI 202151Z 28009KT 10SM CLR 04/M07 A3035 RMK AO2 SLP285 T00391072",
      "metarObsTime": 1776721860
    },
    "KDUJ": {
      "status": "OK",
      "delay": "—",
      "metarCat": "VFR",
      "metarRaw": "METAR KDUJ 202153Z AUTO 28012G17KT 10SM SCT065 04/M12 A3025 RMK AO2 SLP259 T00391117",
      "metarObsTime": 1776721980
    },
    "KBFD": {
      "status": "OK",
      "delay": "—",
      "metarCat": "VFR",
      "metarRaw": "METAR KBFD 202153Z AUTO 35007KT 10SM CLR 01/M11 A3025 RMK AO2 SLP264 T00111111",
      "metarObsTime": 1776721980
    },
    "KBTP": {
      "status": "OK",
      "delay": "—",
      "metarCat": "VFR",
      "metarRaw": "METAR KBTP 202156Z AUTO 31009KT 10SM FEW065 06/M08 A3030 RMK AO2 SLP277 T00611083 $",
      "metarObsTime": 1776722160
    },
    "KFKL": {
      "status": "OK",
      "delay": "—",
      "metarCat": "—",
      "metarRaw": "—",
      "metarObsTime": null
    },
    "KIDI": {
      "status": "OK",
      "delay": "—",
      "metarCat": "VFR",
      "metarRaw": "METAR KIDI 202155Z AUTO 29011G19KT 10SM SCT065 06/M09 A3028 RMK A01",
      "metarObsTime": 1776722100
    },
    "KMDT": {
      "status": "OK",
      "delay": "—",
      "metarCat": "VFR",
      "metarRaw": "METAR KMDT 202156Z 31013G24KT 10SM BKN070 09/M08 A3025 RMK AO2 SLP246 T00891083",
      "metarObsTime": 1776722160
    },
    "KCXY": {
      "status": "OK",
      "delay": "—",
      "metarCat": "VFR",
      "metarRaw": "METAR KCXY 202156Z 31014KT 10SM BKN080 08/M11 A3026 RMK AO2 SLP251 T00781106",
      "metarObsTime": 1776722160
    },
    "KMUI": {
      "status": "OK",
      "delay": "—",
      "metarCat": "VFR",
      "metarRaw": "METAR KMUI 202155Z 29008G20KT 10SM BKN080 09/M10 A3023 RMK AO2A SLP243 T00861103",
      "metarObsTime": 1776722100
    },
    "KUNV": {
      "status": "OK",
      "delay": "—",
      "metarCat": "VFR",
      "metarRaw": "METAR KUNV 202153Z 33008G14KT 10SM BKN070 06/M10 A3026",
      "metarObsTime": 1776721980
    },
    "KAOO": {
      "status": "OK",
      "delay": "—",
      "metarCat": "VFR",
      "metarRaw": "METAR KAOO 202153Z AUTO 31011KT 10SM BKN070 04/M10 A3026 RMK AO2 SLP260 T00441100",
      "metarObsTime": 1776721980
    },
    "KLNS": {
      "status": "OK",
      "delay": "—",
      "metarCat": "VFR",
      "metarRaw": "METAR KLNS 202153Z 34011G20KT 10SM OVC080 08/M07 A3023 RMK AO2 SLP239 T00831067",
      "metarObsTime": 1776721980
    },
    "KIPT": {
      "status": "OK",
      "delay": "—",
      "metarCat": "VFR",
      "metarRaw": "METAR KIPT 202154Z 33010KT 10SM BKN080 07/M09 A3026 RMK AO2 SLP250 T00671094 $",
      "metarObsTime": 1776722040
    },
    "KPHL": {
      "status": "OK",
      "delay": "—",
      "metarCat": "VFR",
      "metarRaw": "METAR KPHL 202154Z 33014G25KT 10SM FEW065 SCT085 11/M07 A3021 RMK AO2 PK WND 33026/2057 SLP229 T01111072 $",
      "metarObsTime": 1776722040
    },
    "KABE": {
      "status": "OK",
      "delay": "—",
      "metarCat": "VFR",
      "metarRaw": "METAR KABE 202151Z 33014G20KT 10SM CLR 08/M08 A3023 RMK AO2 SLP238 T00831078",
      "metarObsTime": 1776721860
    },
    "KAVP": {
      "status": "OK",
      "delay": "—",
      "metarCat": "VFR",
      "metarRaw": "SPECI KAVP 202201Z 34014G22KT 10SM OVC065 04/M09 A3025 RMK AO2 T00441089",
      "metarObsTime": 1776722460
    },
    "KHZL": {
      "status": "OK",
      "delay": "—",
      "metarCat": "VFR",
      "metarRaw": "METAR KHZL 202155Z AUTO 32004KT 10SM SCT060 03/M10 A3024 RMK AO2",
      "metarObsTime": 1776722100
    }
  }
}