{
  "generatedAt": "2026-03-20T21:00:21.934Z",
  "airports": {
    "KPIT": {
      "status": "OK",
      "delay": "—",
      "metarCat": "VFR",
      "metarRaw": "METAR KPIT 202051Z 23010G19KT 8SM FEW055 BKN080 OVC100 17/07 A2973 RMK AO2 RAE40 SLP075 P0000 60001 T01670067 56029",
      "metarObsTime": 1774039860
    },
    "KAGC": {
      "status": "OK",
      "delay": "—",
      "metarCat": "VFR",
      "metarRaw": "METAR KAGC 202053Z 21012G25KT 10SM OVC090 15/07 A2973 RMK AO2 RAB10E38 SLP073 P0001 60003 T01500072 56028",
      "metarObsTime": 1774039980
    },
    "KLBE": {
      "status": "OK",
      "delay": "—",
      "metarCat": "VFR",
      "metarRaw": "METAR KLBE 201947Z 22012G20KT 7SM -RA FEW022 SCT037 OVC050 14/10 A2980",
      "metarObsTime": 1774036020
    },
    "KJST": {
      "status": "OK",
      "delay": "—",
      "metarCat": "VFR",
      "metarRaw": "METAR KJST 202054Z AUTO 22009G19KT 7SM -RA SCT037 OVC050 11/08 A2977 RMK AO2 SLP087 P0004 60007 T01060078 56022",
      "metarObsTime": 1774040040
    },
    "KERI": {
      "status": "OK",
      "delay": "—",
      "metarCat": "VFR",
      "metarRaw": "METAR KERI 202051Z 21008KT 9SM -RA BKN075 OVC090 13/09 A2969 RMK AO2 RAB00E11B27 SLP055 P0001 60006 T01280089 56014",
      "metarObsTime": 1774039860
    },
    "KDUJ": {
      "status": "OK",
      "delay": "—",
      "metarCat": "MVFR",
      "metarRaw": "METAR KDUJ 202053Z AUTO 23005KT 3SM -RA BR SCT039 OVC050 09/08 A2974 RMK AO2 SLP078 P0006 60015 T00890078 55012",
      "metarObsTime": 1774039980
    },
    "KBFD": {
      "status": "OK",
      "delay": "—",
      "metarCat": "MVFR",
      "metarRaw": "METAR KBFD 202053Z AUTO 22008G18KT 5SM -RA BR BKN010 OVC015 08/07 A2971 RMK AO2 CIG 007V011 SLP073 P0010 60026 T00830072 55009",
      "metarObsTime": 1774039980
    },
    "KBTP": {
      "status": "OK",
      "delay": "—",
      "metarCat": "VFR",
      "metarRaw": "METAR KBTP 201956Z AUTO 20011KT 10SM -RA FEW027 SCT070 OVC090 13/08 A2974 RMK AO2 SLP081 P0000 T01280083 $",
      "metarObsTime": 1774036560
    },
    "KFKL": {
      "status": "OK",
      "delay": "—",
      "metarCat": "VFR",
      "metarRaw": "METAR KFKL 201956Z AUTO 24006KT 10SM RA OVC050 10/08 A2974 RMK AO2 SLP079 P0002 T01000083",
      "metarObsTime": 1774036560
    },
    "KIDI": {
      "status": "OK",
      "delay": "—",
      "metarCat": "MVFR",
      "metarRaw": "METAR KIDI 202035Z AUTO 20007G13KT 3SM BR FEW036 SCT046 BKN070 11/10 A2976 RMK A01",
      "metarObsTime": 1774038900
    },
    "KMDT": {
      "status": "OK",
      "delay": "—",
      "metarCat": "VFR",
      "metarRaw": "METAR KMDT 201956Z 22008G18KT 190V270 10SM -RA FEW055 BKN080 OVC095 18/03 A2978 RMK AO2 RAB28 SLP086 P0000 T01830033",
      "metarObsTime": 1774036560
    },
    "KCXY": {
      "status": "OK",
      "delay": "—",
      "metarCat": "VFR",
      "metarRaw": "METAR KCXY 201956Z 22010KT 10SM FEW055 BKN080 OVC095 19/04 A2978 RMK AO2 RAB24E33 SLP086 P0000 T01890039",
      "metarObsTime": 1774036560
    },
    "KMUI": {
      "status": "OK",
      "delay": "—",
      "metarCat": "VFR",
      "metarRaw": "SPECI KMUI 202016Z 21010G19KT 10SM -RA SCT043 BKN070 OVC085 19/05 A2974 RMK AO2A RAE09RAB16 SLP075",
      "metarObsTime": 1774037760
    },
    "KUNV": {
      "status": "OK",
      "delay": "—",
      "metarCat": "VFR",
      "metarRaw": "METAR KUNV 202053Z 23008KT 7SM RA BKN041 OVC050 12/09 A2975",
      "metarObsTime": 1774039980
    },
    "KAOO": {
      "status": "OK",
      "delay": "—",
      "metarCat": "VFR",
      "metarRaw": "METAR KAOO 202053Z AUTO 23016G25KT 10SM -RA SCT050 OVC060 13/08 A2977 RMK AO2 PK WND 25031/2011 SLP086 P0003 60003 T01330078 55021",
      "metarObsTime": 1774039980
    },
    "KLNS": {
      "status": "OK",
      "delay": "—",
      "metarCat": "VFR",
      "metarRaw": "METAR KLNS 202053Z 18012KT 10SM SCT080 SCT100 BKN120 16/04 A2976 RMK AO2 SLP079 T01610039 56041",
      "metarObsTime": 1774039980
    },
    "KIPT": {
      "status": "OK",
      "delay": "—",
      "metarCat": "IFR",
      "metarRaw": "METAR KIPT 202054Z 22004KT 2 1/2SM -RA BR OVC060 07/06 A2974 RMK AO2 SLP074 P0009 60009 T00720061 56022 $",
      "metarObsTime": 1774040040
    },
    "KPHL": {
      "status": "OK",
      "delay": "—",
      "metarCat": "VFR",
      "metarRaw": "METAR KPHL 202054Z 20013KT 10SM FEW055 SCT090 BKN260 19/04 A2980 RMK AO2 SLP092 T01890044 56049 $",
      "metarObsTime": 1774040040
    },
    "KABE": {
      "status": "OK",
      "delay": "—",
      "metarCat": "VFR",
      "metarRaw": "METAR KABE 202051Z 19011KT 10SM OVC085 17/03 A2975 RMK AO2 SLP076 T01670033 56045 $",
      "metarObsTime": 1774039860
    },
    "KAVP": {
      "status": "OK",
      "delay": "—",
      "metarCat": "VFR",
      "metarRaw": "METAR KAVP 202054Z 21004KT 6SM -RA OVC055 12/07 A2972 RMK AO2 SLP068 P0000 60001 T01220067 56032",
      "metarObsTime": 1774040040
    },
    "KHZL": {
      "status": "OK",
      "delay": "—",
      "metarCat": "VFR",
      "metarRaw": "METAR KHZL 202035Z AUTO 16006KT 10SM -RA OVC055 13/05 A2977 RMK AO2",
      "metarObsTime": 1774038900
    }
  }
}