{
  "generatedAt": "2026-03-06T04:00:18.083Z",
  "airports": {
    "KPIT": {
      "status": "OK",
      "delay": "—",
      "metarCat": "MVFR",
      "metarRaw": "METAR KPIT 060351Z 22005KT 10SM FEW012 OVC027 14/13 A3011 RMK AO2 SLP203 T01440128",
      "metarObsTime": 1772769060
    },
    "KAGC": {
      "status": "OK",
      "delay": "—",
      "metarCat": "MVFR",
      "metarRaw": "METAR KAGC 060353Z 22006KT 10SM BKN029 OVC036 14/13 A3011 RMK AO2 SLP201 T01390128",
      "metarObsTime": 1772769180
    },
    "KLBE": {
      "status": "OK",
      "delay": "—",
      "metarCat": "VFR",
      "metarRaw": "METAR KLBE 060355Z AUTO 19006KT 10SM FEW021 SCT030 SCT055 15/14 A3014 RMK AO2",
      "metarObsTime": 1772769300
    },
    "KJST": {
      "status": "OK",
      "delay": "—",
      "metarCat": "MVFR",
      "metarRaw": "METAR KJST 060354Z AUTO 26012KT 10SM BKN011 BKN016 OVC028 13/12 A3012 RMK AO2 SLP198 T01280117",
      "metarObsTime": 1772769240
    },
    "KERI": {
      "status": "OK",
      "delay": "—",
      "metarCat": "LIFR",
      "metarRaw": "METAR KERI 060351Z 01004KT 1 1/4SM BR OVC002 01/00 A3014 RMK AO2 SLP213 T00060000",
      "metarObsTime": 1772769060
    },
    "KDUJ": {
      "status": "OK",
      "delay": "—",
      "metarCat": "IFR",
      "metarRaw": "METAR KDUJ 060353Z AUTO 25012KT 9SM OVC005 12/12 A3008 RMK AO2 SLP190 T01220117",
      "metarObsTime": 1772769180
    },
    "KBFD": {
      "status": "OK",
      "delay": "—",
      "metarCat": "LIFR",
      "metarRaw": "METAR KBFD 060353Z AUTO 23003KT 1/4SM FG VV002 09/09 A3006 RMK AO2 SLP187 T00890089",
      "metarObsTime": 1772769180
    },
    "KBTP": {
      "status": "OK",
      "delay": "—",
      "metarCat": "MVFR",
      "metarRaw": "METAR KBTP 060356Z AUTO 24007KT 10SM BKN011 BKN025 OVC050 13/ A3012 RMK AO2 SLP204 T0133 401500094 $",
      "metarObsTime": 1772769360
    },
    "KFKL": {
      "status": "OK",
      "delay": "—",
      "metarCat": "LIFR",
      "metarRaw": "METAR KFKL 060356Z AUTO 26006KT 8SM OVC003 12/12 A3010 RMK AO2 RAE10 SLP196 P0000 T01220122",
      "metarObsTime": 1772769360
    },
    "KIDI": {
      "status": "OK",
      "delay": "—",
      "metarCat": "MVFR",
      "metarRaw": "METAR KIDI 060355Z AUTO 23008KT 10SM BKN013 OVC023 14/13 A3011 RMK A01",
      "metarObsTime": 1772769300
    },
    "KMDT": {
      "status": "OK",
      "delay": "—",
      "metarCat": "IFR",
      "metarRaw": "METAR KMDT 060356Z 08005KT 10SM BKN008 OVC026 07/07 A3019 RMK AO2 RAE23 SLP224 P0002 T00720067",
      "metarObsTime": 1772769360
    },
    "KCXY": {
      "status": "OK",
      "delay": "—",
      "metarCat": "IFR",
      "metarRaw": "METAR KCXY 060356Z AUTO 10004KT 9SM OVC006 07/07 A3018 RMK AO2 RAE11 SLP224 P0000 T00720067",
      "metarObsTime": 1772769360
    },
    "KMUI": {
      "status": "OK",
      "delay": "—",
      "metarCat": "MVFR",
      "metarRaw": "METAR KMUI 060355Z AUTO 08005KT 10SM OVC014 07/06 A3018 RMK AO2 LTG DSNT NW RAB0256E25 SLP226 P0004 T00670064",
      "metarObsTime": 1772769300
    },
    "KUNV": {
      "status": "OK",
      "delay": "—",
      "metarCat": "IFR",
      "metarRaw": "METAR KUNV 060355Z AUTO 00000KT 1 3/4SM -RA OVC008 07/07 A3012 RMK AO2 P0005 T00720072",
      "metarObsTime": 1772769300
    },
    "KAOO": {
      "status": "OK",
      "delay": "—",
      "metarCat": "VFR",
      "metarRaw": "METAR KAOO 060353Z AUTO 26006KT 9SM BKN042 11/10 A3013 RMK AO2 SLP206 T01060100",
      "metarObsTime": 1772769180
    },
    "KLNS": {
      "status": "OK",
      "delay": "—",
      "metarCat": "IFR",
      "metarRaw": "METAR KLNS 060353Z 04006KT 7SM -RA BKN005 OVC012 06/06 A3019 RMK AO2 SLP227 P0013 T00610056",
      "metarObsTime": 1772769180
    },
    "KIPT": {
      "status": "OK",
      "delay": "—",
      "metarCat": "MVFR",
      "metarRaw": "METAR KIPT 060354Z AUTO 11007KT 8SM BKN010 BKN014 OVC022 08/07 A3014 RMK AO2 RAB0259E08 SLP210 P0001 T00780067 $",
      "metarObsTime": 1772769240
    },
    "KPHL": {
      "status": "OK",
      "delay": "—",
      "metarCat": "LIFR",
      "metarRaw": "METAR KPHL 060354Z 01009KT 2 1/2SM -RA BR OVC004 06/05 A3022 RMK AO2 DZE05RAB05 SLP234 P0005 T00610050 $",
      "metarObsTime": 1772769240
    },
    "KABE": {
      "status": "OK",
      "delay": "—",
      "metarCat": "IFR",
      "metarRaw": "METAR KABE 060351Z 10009KT 6SM RA BR BKN008 BKN017 OVC023 05/04 A3021 RMK AO2 LTG DSNT SE PRESFR SLP233 P0026 T00500044",
      "metarObsTime": 1772769060
    },
    "KAVP": {
      "status": "OK",
      "delay": "—",
      "metarCat": "MVFR",
      "metarRaw": "METAR KAVP 060354Z VRB03KT 10SM -RA BKN016 OVC024 05/03 A3018 RMK AO2 SLP224 P0001 T00500033",
      "metarObsTime": 1772769240
    },
    "KHZL": {
      "status": "OK",
      "delay": "—",
      "metarCat": "IFR",
      "metarRaw": "METAR KHZL 060355Z AUTO 12004KT 10SM OVC006 04/03 A3019 RMK AO2 LTG DSNT SE P0001",
      "metarObsTime": 1772769300
    }
  }
}