{
  "generatedAt": "2026-05-09T22:11:23.566Z",
  "faaFlow": {
    "updatedAt": "2026-05-09T22:11:22.968Z",
    "source": "https://www.fly.faa.gov/adv/adv_spt",
    "terminal": [
      {
        "time": "—",
        "text": "UNTIL",
        "code": "FLOW",
        "label": "FAA flow impact",
        "level": "yellow",
        "section": "Terminal Planned",
        "airports": []
      },
      {
        "time": "2300",
        "text": "LGA GROUND STOP/DELAY PROGRAM POSSIBLE",
        "code": "GS",
        "label": "Ground stop possible",
        "level": "yellow",
        "section": "Terminal Planned",
        "airports": []
      },
      {
        "time": "—",
        "text": "UNTIL",
        "code": "FLOW",
        "label": "FAA flow impact",
        "level": "yellow",
        "section": "Terminal Planned",
        "airports": []
      },
      {
        "time": "2300",
        "text": "SFO GROUND STOP/DELAY PROGRAM POSSIBLE",
        "code": "GS",
        "label": "Ground stop possible",
        "level": "yellow",
        "section": "Terminal Planned",
        "airports": []
      }
    ],
    "enroute": [
      {
        "time": "—",
        "text": "UNTIL",
        "code": "FLOW",
        "label": "FAA flow impact",
        "level": "yellow",
        "section": "En Route Planned",
        "airports": []
      },
      {
        "time": "2300",
        "text": "N90/PHL SWAP/CDRS/ESCAPE ROUTES POSSIBLE",
        "code": "ROUTE",
        "label": "Route impact possible",
        "level": "blue",
        "section": "En Route Planned",
        "airports": [
          "KPHL"
        ]
      },
      {
        "time": "—",
        "text": "UNTIL",
        "code": "FLOW",
        "label": "FAA flow impact",
        "level": "yellow",
        "section": "En Route Planned",
        "airports": []
      },
      {
        "time": "2300",
        "text": "AR/ATLANTIC Y-ROUTE CLOSURES POSSIBLE",
        "code": "CLOSURE",
        "label": "Closure possible",
        "level": "yellow",
        "section": "En Route Planned",
        "airports": []
      },
      {
        "time": "—",
        "text": "UNTIL",
        "code": "FLOW",
        "label": "FAA flow impact",
        "level": "yellow",
        "section": "En Route Planned",
        "airports": []
      },
      {
        "time": "2300",
        "text": "CAN/TRANSCON/REGIONAL ROUTES POSSIBLE",
        "code": "ROUTE",
        "label": "Route impact possible",
        "level": "blue",
        "section": "En Route Planned",
        "airports": []
      },
      {
        "time": "—",
        "text": "UNTIL",
        "code": "FLOW",
        "label": "FAA flow impact",
        "level": "yellow",
        "section": "En Route Planned",
        "airports": []
      },
      {
        "time": "0000",
        "text": "DEN ARRIVAL ROUTES POSSIBLE CDRS/SWAP/CAPPING/TUNNELING/HOTLINE/DIVERSION RECOVERY:",
        "code": "ROUTE",
        "label": "Route impact possible",
        "level": "blue",
        "section": "En Route Planned",
        "airports": []
      },
      {
        "time": "—",
        "text": "UNTIL",
        "code": "FLOW",
        "label": "FAA flow impact",
        "level": "yellow",
        "section": "En Route Planned",
        "airports": []
      },
      {
        "time": "0000",
        "text": "ORD/MDW CDRS",
        "code": "ROUTE",
        "label": "Route impact possible",
        "level": "blue",
        "section": "En Route Planned",
        "airports": []
      },
      {
        "time": "—",
        "text": "UNTIL",
        "code": "FLOW",
        "label": "FAA flow impact",
        "level": "yellow",
        "section": "En Route Planned",
        "airports": []
      },
      {
        "time": "0215",
        "text": "ZDV SWAP STATEMENT",
        "code": "ROUTE",
        "label": "Route impact possible",
        "level": "blue",
        "section": "En Route Planned",
        "airports": []
      },
      {
        "time": "—",
        "text": "UNTIL",
        "code": "FLOW",
        "label": "FAA flow impact",
        "level": "yellow",
        "section": "En Route Planned",
        "airports": []
      },
      {
        "time": "0400",
        "text": "ZNY SWAP STATEMENT",
        "code": "ROUTE",
        "label": "Route impact possible",
        "level": "blue",
        "section": "En Route Planned",
        "airports": []
      },
      {
        "time": "—",
        "text": "UNTIL",
        "code": "FLOW",
        "label": "FAA flow impact",
        "level": "yellow",
        "section": "En Route Planned",
        "airports": []
      },
      {
        "time": "0400",
        "text": "ZBW SWAP STATEMENT",
        "code": "ROUTE",
        "label": "Route impact possible",
        "level": "blue",
        "section": "En Route Planned",
        "airports": []
      },
      {
        "time": "—",
        "text": "UNTIL",
        "code": "FLOW",
        "label": "FAA flow impact",
        "level": "yellow",
        "section": "En Route Planned",
        "airports": []
      },
      {
        "time": "0500",
        "text": "ZBW INTERNATIONAL SWAP STATEMENT RUNWAY/EQUIPMENT/POSSIBLE SYSTEM IMPACT REPORTS(SIRs): MSP - RWY 12R/30L CLOSED 05/09/26",
        "code": "CLOSURE",
        "label": "Closure possible",
        "level": "yellow",
        "section": "En Route Planned",
        "airports": []
      },
      {
        "time": "2026",
        "text": "SAN - CONSTRUCTION PHASE 5.2 UNTIL 05/26/26",
        "code": "FLOW",
        "label": "FAA flow impact",
        "level": "yellow",
        "section": "En Route Planned",
        "airports": []
      }
    ],
    "airports": {
      "KPIT": null,
      "KAGC": null,
      "KLBE": null,
      "KJST": null,
      "KERI": null,
      "KDUJ": null,
      "KBFD": null,
      "KBTP": null,
      "KFKL": null,
      "KIDI": null,
      "KMDT": null,
      "KCXY": null,
      "KMUI": null,
      "KUNV": null,
      "KAOO": null,
      "KLNS": null,
      "KIPT": null,
      "KPHL": {
        "code": "ROUTE",
        "level": "blue",
        "label": "Route impact possible",
        "time": "2300",
        "text": "N90/PHL SWAP/CDRS/ESCAPE ROUTES POSSIBLE",
        "section": "En Route Planned"
      },
      "KABE": null,
      "KAVP": null,
      "KHZL": null
    }
  },
  "airports": {
    "KPIT": {
      "status": "OK",
      "delay": "—",
      "metarCat": "VFR",
      "metarRaw": "METAR KPIT 092151Z 20013G22KT 10SM SCT042 SCT250 19/08 A2973 RMK AO2 SLP072 T01940078 $",
      "metarObsTime": 1778363460,
      "faaFlow": null
    },
    "KAGC": {
      "status": "OK",
      "delay": "—",
      "metarCat": "VFR",
      "metarRaw": "METAR KAGC 092153Z 23011KT 10SM FEW047 19/08 A2974 RMK AO2 SLP075 T01890083",
      "metarObsTime": 1778363580,
      "faaFlow": null
    },
    "KLBE": {
      "status": "OK",
      "delay": "—",
      "metarCat": "VFR",
      "metarRaw": "METAR KLBE 092045Z 23015KT 10SM FEW035 SCT045 SCT100 19/11 A2981",
      "metarObsTime": 1778359500,
      "faaFlow": null
    },
    "KJST": {
      "status": "OK",
      "delay": "—",
      "metarCat": "VFR",
      "metarRaw": "METAR KJST 092154Z AUTO 26012G23KT 10SM FEW046 16/07 A2978 RMK AO2 SLP084 T01560067",
      "metarObsTime": 1778363640,
      "faaFlow": null
    },
    "KERI": {
      "status": "OK",
      "delay": "—",
      "metarCat": "VFR",
      "metarRaw": "METAR KERI 092151Z 20014G26KT 10SM SCT100 19/08 A2962 RMK AO2 PK WND 19029/2058 LTG DSNT NW SLP029 T01940078",
      "metarObsTime": 1778363460,
      "faaFlow": null
    },
    "KDUJ": {
      "status": "OK",
      "delay": "—",
      "metarCat": "VFR",
      "metarRaw": "METAR KDUJ 092153Z AUTO 21009KT 10SM FEW035 SCT045 16/08 A2973 RMK AO2 SLP065 T01560083",
      "metarObsTime": 1778363580,
      "faaFlow": null
    },
    "KBFD": {
      "status": "OK",
      "delay": "—",
      "metarCat": "VFR",
      "metarRaw": "METAR KBFD 092153Z AUTO 21008G19KT 10SM FEW029 SCT036 15/08 A2970 RMK AO2 SLP054 T01500083",
      "metarObsTime": 1778363580,
      "faaFlow": null
    },
    "KBTP": {
      "status": "OK",
      "delay": "—",
      "metarCat": "VFR",
      "metarRaw": "METAR KBTP 092156Z AUTO 19013G16KT 10SM FEW045 19/09 A2973 RMK AO2 SLP071 T01940094 $",
      "metarObsTime": 1778363760,
      "faaFlow": null
    },
    "KFKL": {
      "status": "OK",
      "delay": "—",
      "metarCat": "VFR",
      "metarRaw": "METAR KFKL 092156Z AUTO 19017G21KT 10SM FEW044 18/09 A2970 RMK AO2 SLP055 T01830089",
      "metarObsTime": 1778363760,
      "faaFlow": null
    },
    "KIDI": {
      "status": "OK",
      "delay": "—",
      "metarCat": "VFR",
      "metarRaw": "METAR KIDI 092155Z AUTO 22013G19KT 10SM FEW040 17/10 A2976 RMK A01",
      "metarObsTime": 1778363700,
      "faaFlow": null
    },
    "KMDT": {
      "status": "OK",
      "delay": "—",
      "metarCat": "VFR",
      "metarRaw": "METAR KMDT 092156Z 15004KT 10SM FEW080 17/12 A2979 RMK AO2 SLP089 T01670117",
      "metarObsTime": 1778363760,
      "faaFlow": null
    },
    "KCXY": {
      "status": "OK",
      "delay": "—",
      "metarCat": "VFR",
      "metarRaw": "METAR KCXY 092156Z 09005KT 10SM CLR 17/11 A2979 RMK AO2 SLP090 T01670111",
      "metarObsTime": 1778363760,
      "faaFlow": null
    },
    "KMUI": {
      "status": "OK",
      "delay": "—",
      "metarCat": "VFR",
      "metarRaw": "METAR KMUI 092155Z AUTO 00000KT 10SM CLR 19/16 A2978 RMK AO2 SLP086 T01870157",
      "metarObsTime": 1778363700,
      "faaFlow": null
    },
    "KUNV": {
      "status": "OK",
      "delay": "—",
      "metarCat": "VFR",
      "metarRaw": "METAR KUNV 092153Z 19010G16KT 10SM SCT032 BKN039 16/10 A2976",
      "metarObsTime": 1778363580,
      "faaFlow": null
    },
    "KAOO": {
      "status": "OK",
      "delay": "—",
      "metarCat": "VFR",
      "metarRaw": "METAR KAOO 092153Z AUTO 19007KT 10SM BKN055 16/09 A2978 RMK AO2 SLP084 T01610094",
      "metarObsTime": 1778363580,
      "faaFlow": null
    },
    "KLNS": {
      "status": "OK",
      "delay": "—",
      "metarCat": "VFR",
      "metarRaw": "METAR KLNS 092153Z 09003KT 10SM BKN085 OVC110 17/11 A2980 RMK AO2 SLP092 T01670111",
      "metarObsTime": 1778363580,
      "faaFlow": null
    },
    "KIPT": {
      "status": "OK",
      "delay": "—",
      "metarCat": "VFR",
      "metarRaw": "METAR KIPT 092154Z 00000KT 10SM SCT024 SCT030 BKN036 16/12 A2975 RMK AO2 SLP076 T01560117",
      "metarObsTime": 1778363640,
      "faaFlow": null
    },
    "KPHL": {
      "status": "OK",
      "delay": "—",
      "metarCat": "VFR",
      "metarRaw": "METAR KPHL 092154Z 05004KT 10SM FEW060 SCT075 BKN110 OVC250 16/11 A2983 RMK AO2 RAB06E50 SLP101 P0002 T01610111",
      "metarObsTime": 1778363640,
      "faaFlow": {
        "code": "ROUTE",
        "level": "blue",
        "label": "Route impact possible",
        "time": "2300",
        "text": "N90/PHL SWAP/CDRS/ESCAPE ROUTES POSSIBLE",
        "section": "En Route Planned"
      }
    },
    "KABE": {
      "status": "OK",
      "delay": "—",
      "metarCat": "VFR",
      "metarRaw": "METAR KABE 092151Z 24004KT 10SM BKN085 14/11 A2982 RMK AO2 SLP097 T01390106",
      "metarObsTime": 1778363460,
      "faaFlow": null
    },
    "KAVP": {
      "status": "OK",
      "delay": "—",
      "metarCat": "VFR",
      "metarRaw": "METAR KAVP 092154Z 23007KT 10SM FEW019 OVC095 14/10 A2979 RMK AO2 SLP086 T01390100",
      "metarObsTime": 1778363640,
      "faaFlow": null
    },
    "KHZL": {
      "status": "OK",
      "delay": "—",
      "metarCat": "VFR",
      "metarRaw": "METAR KHZL 092155Z AUTO 00000KT 10SM SCT043 OVC050 13/10 A2983 RMK AO2",
      "metarObsTime": 1778363700,
      "faaFlow": null
    }
  }
}