{
  "generatedAt": "2026-04-03T02:30:33.968Z",
  "airports": {
    "KPIT": {
      "status": "OK",
      "delay": "—",
      "metarCat": "VFR",
      "metarRaw": "METAR KPIT 030151Z 14011KT 10SM FEW060 SCT100 BKN120 21/15 A3006 RMK AO2 RAE14 SLP182 P0000 T02110150",
      "metarObsTime": 1775181060
    },
    "KAGC": {
      "status": "OK",
      "delay": "—",
      "metarCat": "VFR",
      "metarRaw": "METAR KAGC 030153Z 16011KT 6SM -RA BKN080 OVC095 19/14 A3009 RMK AO2 RAB51 SLP189 P0001 T01940144",
      "metarObsTime": 1775181180
    },
    "KLBE": {
      "status": "OK",
      "delay": "—",
      "metarCat": "VFR",
      "metarRaw": "METAR KLBE 030215Z AUTO VRB04KT 10SM CLR 17/14 A3011 RMK AO2",
      "metarObsTime": 1775182500
    },
    "KJST": {
      "status": "OK",
      "delay": "—",
      "metarCat": "LIFR",
      "metarRaw": "METAR KJST 030154Z AUTO 15012G19KT 8SM OVC004 11/11 A3020 RMK AO2 SLP227 T01110106",
      "metarObsTime": 1775181240
    },
    "KERI": {
      "status": "OK",
      "delay": "—",
      "metarCat": "VFR",
      "metarRaw": "METAR KERI 030151Z 15011G22KT 10SM CLR 21/14 A2996 RMK AO2 SLP145 T02110139 $",
      "metarObsTime": 1775181060
    },
    "KDUJ": {
      "status": "OK",
      "delay": "—",
      "metarCat": "IFR",
      "metarRaw": "METAR KDUJ 030153Z AUTO 12012G20KT 10SM OVC006 11/10 A3014 RMK AO2 SLP208 T01110100",
      "metarObsTime": 1775181180
    },
    "KBFD": {
      "status": "OK",
      "delay": "—",
      "metarCat": "LIFR",
      "metarRaw": "SPECI KBFD 030222Z AUTO 15011G22KT 2 1/2SM BR OVC002 09/09 A3013 RMK AO2 T00940089",
      "metarObsTime": 1775182920
    },
    "KBTP": {
      "status": "OK",
      "delay": "—",
      "metarCat": "VFR",
      "metarRaw": "METAR KBTP 030156Z AUTO 13012KT 10SM BKN110 19/16 A3007 RMK AO2 RAB10E32 SLP187 P0000 T01940156 $",
      "metarObsTime": 1775181360
    },
    "KFKL": {
      "status": "OK",
      "delay": "—",
      "metarCat": "VFR",
      "metarRaw": "METAR KFKL 030156Z AUTO 13012G19KT 10SM -RA FEW070 SCT090 BKN100 16/13 A3007 RMK AO2 LTG DSNT W RAB43 SLP184 P0003 T01560133",
      "metarObsTime": 1775181360
    },
    "KIDI": {
      "status": "OK",
      "delay": "—",
      "metarCat": "MVFR",
      "metarRaw": "METAR KIDI 030215Z AUTO 15012KT 10SM BKN015 BKN095 15/13 A3013 RMK A01",
      "metarObsTime": 1775182500
    },
    "KMDT": {
      "status": "OK",
      "delay": "—",
      "metarCat": "MVFR",
      "metarRaw": "SPECI KMDT 030221Z 12013KT 9SM OVC010 07/06 A3035 RMK AO2 CIG 006V013 T00670056",
      "metarObsTime": 1775182860
    },
    "KCXY": {
      "status": "OK",
      "delay": "—",
      "metarCat": "IFR",
      "metarRaw": "METAR KCXY 030156Z AUTO 11013KT 6SM BR OVC006 07/06 A3036 RMK AO2 CIG 005V011 SLP283 T00670061",
      "metarObsTime": 1775181360
    },
    "KMUI": {
      "status": "OK",
      "delay": "—",
      "metarCat": "IFR",
      "metarRaw": "SPECI KMUI 030148Z AUTO 09009KT 6SM -RA BR OVC005 07/06 A3035 RMK AO2 RAB48 SLP283",
      "metarObsTime": 1775180880
    },
    "KUNV": {
      "status": "OK",
      "delay": "—",
      "metarCat": "IFR",
      "metarRaw": "METAR KUNV 030215Z AUTO 00000KT 10SM OVC006 08/08 A3027 RMK AO2 T00760076",
      "metarObsTime": 1775182500
    },
    "KAOO": {
      "status": "OK",
      "delay": "—",
      "metarCat": "LIFR",
      "metarRaw": "SPECI KAOO 030213Z AUTO 15009KT 2SM BR OVC004 09/08 A3026 RMK AO2 T00890083",
      "metarObsTime": 1775182380
    },
    "KLNS": {
      "status": "OK",
      "delay": "—",
      "metarCat": "IFR",
      "metarRaw": "METAR KLNS 030153Z 12012G18KT 5SM BR BKN007 OVC011 06/06 A3037 RMK AO2 CIG 004V009 SLP287 T00610056",
      "metarObsTime": 1775181180
    },
    "KIPT": {
      "status": "OK",
      "delay": "—",
      "metarCat": "IFR",
      "metarRaw": "SPECI KIPT 030201Z 08009G18KT 6SM BR OVC009 07/06 A3031 RMK AO2 T00720061 $",
      "metarObsTime": 1775181660
    },
    "KPHL": {
      "status": "OK",
      "delay": "—",
      "metarCat": "IFR",
      "metarRaw": "SPECI KPHL 030209Z 09010KT 1 3/4SM -DZ BR BKN006 OVC011 07/05 A3041 RMK AO2 P0000 T00670050 $",
      "metarObsTime": 1775182140
    },
    "KABE": {
      "status": "OK",
      "delay": "—",
      "metarCat": "IFR",
      "metarRaw": "METAR KABE 030151Z 11013KT 6SM BR OVC008 05/04 A3041 RMK AO2 SLP300 T00500039 $",
      "metarObsTime": 1775181060
    },
    "KAVP": {
      "status": "OK",
      "delay": "—",
      "metarCat": "MVFR",
      "metarRaw": "METAR KAVP 030154Z VRB03KT 10SM OVC012 06/03 A3034 RMK AO2 SLP276 T00560028",
      "metarObsTime": 1775181240
    },
    "KHZL": {
      "status": "OK",
      "delay": "—",
      "metarCat": "LIFR",
      "metarRaw": "METAR KHZL 030215Z AUTO 13010G18KT 5SM BR OVC004 04/03 A3034 RMK AO2",
      "metarObsTime": 1775182500
    }
  }
}