{
  "generatedAt": "2026-04-07T02:30:39.611Z",
  "airports": {
    "KPIT": {
      "status": "OK",
      "delay": "—",
      "metarCat": "VFR",
      "metarRaw": "METAR KPIT 070151Z 28010KT 10SM FEW015 FEW050 SCT080 07/01 A3009 RMK AO2 SLP203 T00720006",
      "metarObsTime": 1775526660
    },
    "KAGC": {
      "status": "OK",
      "delay": "—",
      "metarCat": "VFR",
      "metarRaw": "METAR KAGC 070153Z 26007KT 10SM SCT060 BKN080 07/02 A3008 RMK AO2 RAB22E34 SLP198 P0000 T00670017",
      "metarObsTime": 1775526780
    },
    "KLBE": {
      "status": "OK",
      "delay": "—",
      "metarCat": "VFR",
      "metarRaw": "METAR KLBE 070215Z AUTO 25005KT 10SM FEW033 SCT049 BKN060 05/04 A3012 RMK AO2",
      "metarObsTime": 1775528100
    },
    "KJST": {
      "status": "OK",
      "delay": "—",
      "metarCat": "VFR",
      "metarRaw": "METAR KJST 070154Z AUTO 16004KT 10SM FEW060 02/01 A3005 RMK AO2 RAE06B08E09UPB06E08 SLP192 P0000 T00220011",
      "metarObsTime": 1775526840
    },
    "KERI": {
      "status": "OK",
      "delay": "—",
      "metarCat": "VFR",
      "metarRaw": "METAR KERI 070151Z 22005KT 6SM -RA BR FEW023 SCT028 OVC037 03/02 A3009 RMK AO2 RAB29 SLP195 P0001 T00280017 $",
      "metarObsTime": 1775526660
    },
    "KDUJ": {
      "status": "OK",
      "delay": "—",
      "metarCat": "VFR",
      "metarRaw": "METAR KDUJ 070153Z AUTO 22004KT 9SM BKN075 01/01 A3003 RMK AO2 UPB05E17 SLP183 P0000 T00110006",
      "metarObsTime": 1775526780
    },
    "KBFD": {
      "status": "OK",
      "delay": "—",
      "metarCat": "VFR",
      "metarRaw": "SPECI KBFD 070205Z AUTO 22004KT 9SM SCT005 BKN040 OVC070 01/00 A3001 RMK AO2 SNE03 P0000 T00060000",
      "metarObsTime": 1775527500
    },
    "KBTP": {
      "status": "OK",
      "delay": "—",
      "metarCat": "VFR",
      "metarRaw": "METAR KBTP 070156Z AUTO 28003KT 10SM FEW040 SCT049 BKN070 04/03 A3009 RMK AO2 SLP205 T00440028 $",
      "metarObsTime": 1775526960
    },
    "KFKL": {
      "status": "OK",
      "delay": "—",
      "metarCat": "MVFR",
      "metarRaw": "SPECI KFKL 070219Z AUTO 30015G18KT 10SM BKN019 BKN027 OVC043 04/01 A3009 RMK AO2 RAE13 P0000",
      "metarObsTime": 1775528340
    },
    "KIDI": {
      "status": "OK",
      "delay": "—",
      "metarCat": "VFR",
      "metarRaw": "METAR KIDI 070215Z AUTO 00000KT 10SM OVC070 03/03 A3008 RMK A01",
      "metarObsTime": 1775528100
    },
    "KMDT": {
      "status": "OK",
      "delay": "—",
      "metarCat": "VFR",
      "metarRaw": "METAR KMDT 070156Z 33003KT 10SM SCT110 08/01 A3008 RMK AO2 SLP188 T00830006",
      "metarObsTime": 1775526960
    },
    "KCXY": {
      "status": "OK",
      "delay": "—",
      "metarCat": "VFR",
      "metarRaw": "METAR KCXY 070156Z AUTO 25006KT 10SM SCT095 08/00 A3008 RMK AO2 SLP190 T00830000",
      "metarObsTime": 1775526960
    },
    "KMUI": {
      "status": "OK",
      "delay": "—",
      "metarCat": "—",
      "metarRaw": "—",
      "metarObsTime": null
    },
    "KUNV": {
      "status": "OK",
      "delay": "—",
      "metarCat": "VFR",
      "metarRaw": "METAR KUNV 070215Z AUTO 24009KT 10SM SCT060 BKN075 OVC095 06/01 A3007 RMK AO2 T00550007",
      "metarObsTime": 1775528100
    },
    "KAOO": {
      "status": "OK",
      "delay": "—",
      "metarCat": "VFR",
      "metarRaw": "METAR KAOO 070153Z AUTO 29005KT 10SM FEW017 SCT060 BKN090 04/02 A3009 RMK AO2 RAB12E42 SLPNO P0004 T00390022",
      "metarObsTime": 1775526780
    },
    "KLNS": {
      "status": "OK",
      "delay": "—",
      "metarCat": "VFR",
      "metarRaw": "METAR KLNS 070153Z 00000KT 10SM SCT110 08/00 A3008 RMK AO2 SLP189 T00830000",
      "metarObsTime": 1775526780
    },
    "KIPT": {
      "status": "OK",
      "delay": "—",
      "metarCat": "VFR",
      "metarRaw": "METAR KIPT 070154Z 28008KT 10SM FEW050 OVC070 08/M02 A3006 RMK AO2 SLP181 T00781017",
      "metarObsTime": 1775526840
    },
    "KPHL": {
      "status": "OK",
      "delay": "—",
      "metarCat": "VFR",
      "metarRaw": "METAR KPHL 070154Z 15003KT 10SM BKN085 OVC100 12/M01 A3010 RMK AO2 SLP191 T01221011 $",
      "metarObsTime": 1775526840
    },
    "KABE": {
      "status": "OK",
      "delay": "—",
      "metarCat": "VFR",
      "metarRaw": "METAR KABE 070151Z 00000KT 10SM BKN100 07/M02 A3008 RMK AO2 SLP190 T00721017 $",
      "metarObsTime": 1775526660
    },
    "KAVP": {
      "status": "OK",
      "delay": "—",
      "metarCat": "VFR",
      "metarRaw": "METAR KAVP 070154Z 00000KT 10SM OVC100 03/M02 A3007 RMK AO2 SLP187 T00331022 $",
      "metarObsTime": 1775526840
    },
    "KHZL": {
      "status": "OK",
      "delay": "—",
      "metarCat": "VFR",
      "metarRaw": "METAR KHZL 070215Z AUTO 22003KT 10SM SCT043 OVC060 06/M02 A3008 RMK AO2",
      "metarObsTime": 1775528100
    }
  }
}