{
  "generatedAt": "2026-04-09T15:10:49.952Z",
  "airports": {
    "KPIT": {
      "status": "OK",
      "delay": "—",
      "metarCat": "VFR",
      "metarRaw": "METAR KPIT 091451Z 20008G17KT 10SM FEW250 17/M01 A3033 RMK AO2 SLP277 T01671006 58006",
      "metarObsTime": 1775746260
    },
    "KAGC": {
      "status": "OK",
      "delay": "—",
      "metarCat": "VFR",
      "metarRaw": "METAR KAGC 091453Z 19009KT 10SM CLR 16/M01 A3034 RMK AO2 SLP280 T01561006 58004",
      "metarObsTime": 1775746380
    },
    "KLBE": {
      "status": "OK",
      "delay": "—",
      "metarCat": "VFR",
      "metarRaw": "METAR KLBE 091453Z 18013G25KT 10SM CLR 18/00 A3038",
      "metarObsTime": 1775746380
    },
    "KJST": {
      "status": "OK",
      "delay": "—",
      "metarCat": "VFR",
      "metarRaw": "METAR KJST 091454Z AUTO 17011KT 10SM CLR 11/M05 A3039 RMK AO2 SLP302 T01111050 50000",
      "metarObsTime": 1775746440
    },
    "KERI": {
      "status": "OK",
      "delay": "—",
      "metarCat": "VFR",
      "metarRaw": "METAR KERI 091451Z 18018G24KT 10SM CLR 18/01 A3019 RMK AO2 PK WND 18030/1405 SLP225 T01830011 58014 $",
      "metarObsTime": 1775746260
    },
    "KDUJ": {
      "status": "OK",
      "delay": "—",
      "metarCat": "VFR",
      "metarRaw": "METAR KDUJ 091453Z AUTO 18008G15KT 130V200 10SM CLR 12/M05 A3035 RMK AO2 SLP282 T01221050 58003",
      "metarObsTime": 1775746380
    },
    "KBFD": {
      "status": "OK",
      "delay": "—",
      "metarCat": "VFR",
      "metarRaw": "METAR KBFD 091453Z AUTO 19010G20KT 10SM CLR 12/M05 A3032 RMK AO2 SLP274 T01171050 58007",
      "metarObsTime": 1775746380
    },
    "KBTP": {
      "status": "OK",
      "delay": "—",
      "metarCat": "VFR",
      "metarRaw": "METAR KBTP 091456Z AUTO 19010KT 10SM CLR 16/00 A3034 RMK AO2 SLP281 T01610000 58005 $",
      "metarObsTime": 1775746560
    },
    "KFKL": {
      "status": "OK",
      "delay": "—",
      "metarCat": "VFR",
      "metarRaw": "METAR KFKL 091456Z AUTO 20014KT 10SM CLR 15/00 A3031 RMK AO2 SLP267 T01500000 58008",
      "metarObsTime": 1775746560
    },
    "KIDI": {
      "status": "OK",
      "delay": "—",
      "metarCat": "VFR",
      "metarRaw": "METAR KIDI 091455Z AUTO 15009KT 10SM CLR 15/M02 A3037 RMK A01",
      "metarObsTime": 1775746500
    },
    "KMDT": {
      "status": "OK",
      "delay": "—",
      "metarCat": "VFR",
      "metarRaw": "METAR KMDT 091456Z 13009KT 10SM BKN250 08/M01 A3055 RMK AO2 SLP348 T00831006 58007",
      "metarObsTime": 1775746560
    },
    "KCXY": {
      "status": "OK",
      "delay": "—",
      "metarCat": "VFR",
      "metarRaw": "METAR KCXY 091456Z VRB06KT 10SM CLR 08/M03 A3055 RMK AO2 SLP350 T00831033 58006 $",
      "metarObsTime": 1775746560
    },
    "KMUI": {
      "status": "OK",
      "delay": "—",
      "metarCat": "VFR",
      "metarRaw": "METAR KMUI 091455Z 17006KT 10SM FEW025 BKN250 08/01 A3054 RMK AO2A SLP348 T00800009 58006",
      "metarObsTime": 1775746500
    },
    "KUNV": {
      "status": "OK",
      "delay": "—",
      "metarCat": "VFR",
      "metarRaw": "METAR KUNV 091453Z 19008G14KT 10SM CLR 09/M03 A3046",
      "metarObsTime": 1775746380
    },
    "KAOO": {
      "status": "OK",
      "delay": "—",
      "metarCat": "VFR",
      "metarRaw": "METAR KAOO 091453Z AUTO 20008KT 160V250 10SM CLR 09/M03 A3045 RMK AO2 SLP321 T00941028 57003 $",
      "metarObsTime": 1775746380
    },
    "KLNS": {
      "status": "OK",
      "delay": "—",
      "metarCat": "VFR",
      "metarRaw": "METAR KLNS 091453Z 15008KT 110V180 10SM CLR 08/02 A3056 RMK AO2 SLP352 T00780017 56006",
      "metarObsTime": 1775746380
    },
    "KIPT": {
      "status": "OK",
      "delay": "—",
      "metarCat": "VFR",
      "metarRaw": "METAR KIPT 091454Z 06008G15KT 030V090 10SM CLR 09/00 A3050 RMK AO2 SLP330 T00890000 58005",
      "metarObsTime": 1775746440
    },
    "KPHL": {
      "status": "OK",
      "delay": "—",
      "metarCat": "VFR",
      "metarRaw": "METAR KPHL 091454Z 16006KT 10SM FEW022 BKN280 BKN350 09/01 A3060 RMK AO2 SLP363 T00940011 58007",
      "metarObsTime": 1775746440
    },
    "KABE": {
      "status": "OK",
      "delay": "—",
      "metarCat": "VFR",
      "metarRaw": "METAR KABE 091451Z 22005KT 10SM CLR 07/M01 A3058 RMK AO2 SLP357 T00671011 58009 $",
      "metarObsTime": 1775746260
    },
    "KAVP": {
      "status": "OK",
      "delay": "—",
      "metarCat": "VFR",
      "metarRaw": "METAR KAVP 091454Z 21012G27KT 10SM CLR 08/M08 A3049 RMK AO2 PK WND 22027/1449 SLP329 T00831083 58008",
      "metarObsTime": 1775746440
    },
    "KHZL": {
      "status": "OK",
      "delay": "—",
      "metarCat": "VFR",
      "metarRaw": "METAR KHZL 091455Z AUTO 16003KT 10SM CLR 07/M06 A3052 RMK AO2",
      "metarObsTime": 1775746500
    }
  }
}