{
  "generatedAt": "2026-04-01T14:50:31.895Z",
  "airports": {
    "KPIT": {
      "status": "OK",
      "delay": "—",
      "metarCat": "IFR",
      "metarRaw": "SPECI KPIT 011440Z 24005KT 10SM BKN005 BKN013 OVC065 16/14 A3011 RMK AO2 RAE31 P0001 T01560144",
      "metarObsTime": 1775054400
    },
    "KAGC": {
      "status": "OK",
      "delay": "—",
      "metarCat": "LIFR",
      "metarRaw": "SPECI KAGC 011444Z 20005KT 10SM BKN004 BKN028 OVC110 16/14 A3011 RMK AO2 RAE34 P0005 T01560144",
      "metarObsTime": 1775054640
    },
    "KLBE": {
      "status": "OK",
      "delay": "—",
      "metarCat": "IFR",
      "metarRaw": "METAR KLBE 011447Z 19006KT 3SM -RA BR BKN007 OVC035 15/15 A3014",
      "metarObsTime": 1775054820
    },
    "KJST": {
      "status": "OK",
      "delay": "—",
      "metarCat": "IFR",
      "metarRaw": "METAR KJST 011354Z AUTO 28009KT 9SM -RA OVC006 13/12 A3011 RMK AO2 RAB10 CIG 004V009 SLP190 P0001 T01280122",
      "metarObsTime": 1775051640
    },
    "KERI": {
      "status": "OK",
      "delay": "—",
      "metarCat": "IFR",
      "metarRaw": "METAR KERI 011351Z 01011KT 10SM BKN009 OVC014 04/03 A3019 RMK AO2 SLP227 T00390028 $",
      "metarObsTime": 1775051460
    },
    "KDUJ": {
      "status": "OK",
      "delay": "—",
      "metarCat": "LIFR",
      "metarRaw": "METAR KDUJ 011353Z AUTO 23010KT 10SM OVC004 13/13 A3009 RMK AO2 RAB00E51 CIG 003V008 SLP186 P0003 T01330128",
      "metarObsTime": 1775051580
    },
    "KBFD": {
      "status": "OK",
      "delay": "—",
      "metarCat": "LIFR",
      "metarRaw": "SPECI KBFD 011356Z AUTO 35005KT 3/4SM BR OVC002 09/08 A3010 RMK AO2 T00890083",
      "metarObsTime": 1775051760
    },
    "KBTP": {
      "status": "OK",
      "delay": "—",
      "metarCat": "LIFR",
      "metarRaw": "METAR KBTP 011356Z AUTO 25005KT 10SM -RA OVC004 14/ A3011 RMK AO2 SLP200 P0000 T0139 $",
      "metarObsTime": 1775051760
    },
    "KFKL": {
      "status": "OK",
      "delay": "—",
      "metarCat": "LIFR",
      "metarRaw": "METAR KFKL 011356Z AUTO 35004KT 10SM -RA OVC003 08/07 A3012 RMK AO2 SLP205 P0010 T00780072",
      "metarObsTime": 1775051760
    },
    "KIDI": {
      "status": "OK",
      "delay": "—",
      "metarCat": "IFR",
      "metarRaw": "METAR KIDI 011435Z AUTO 24008KT 10SM BKN007 OVC013 15/15 A3013 RMK A01",
      "metarObsTime": 1775054100
    },
    "KMDT": {
      "status": "OK",
      "delay": "—",
      "metarCat": "VFR",
      "metarRaw": "METAR KMDT 011356Z 30003KT 10SM FEW040 SCT110 SCT160 BKN250 19/14 A3004 RMK AO2 RAE20 SLP172 P0000 T01940139",
      "metarObsTime": 1775051760
    },
    "KCXY": {
      "status": "OK",
      "delay": "—",
      "metarCat": "VFR",
      "metarRaw": "METAR KCXY 011356Z 33004KT 10SM CLR 18/14 A3005 RMK AO2 RAE1259 SLP173 P0000 T01830144",
      "metarObsTime": 1775051760
    },
    "KMUI": {
      "status": "OK",
      "delay": "—",
      "metarCat": "VFR",
      "metarRaw": "METAR KMUI 011355Z 22006KT 10SM FEW130 SCT150 BKN170 20/16 A3001 RMK AO2A RAB29E53 SLP163 T01950157",
      "metarObsTime": 1775051700
    },
    "KUNV": {
      "status": "OK",
      "delay": "—",
      "metarCat": "VFR",
      "metarRaw": "METAR KUNV 011353Z 28008KT 10SM SCT019 BKN090 17/13 A3007",
      "metarObsTime": 1775051580
    },
    "KAOO": {
      "status": "OK",
      "delay": "—",
      "metarCat": "VFR",
      "metarRaw": "METAR KAOO 011353Z AUTO 30004KT 10SM FEW024 BKN110 16/13 A3009 RMK AO2 SLP185 T01560128",
      "metarObsTime": 1775051580
    },
    "KLNS": {
      "status": "OK",
      "delay": "—",
      "metarCat": "VFR",
      "metarRaw": "METAR KLNS 011353Z 00000KT 10SM -RA FEW040 SCT065 BKN090 19/14 A3004 RMK AO2 RAB29 SLP168 P0000 T01940139",
      "metarObsTime": 1775051580
    },
    "KIPT": {
      "status": "OK",
      "delay": "—",
      "metarCat": "VFR",
      "metarRaw": "METAR KIPT 011354Z 28008KT 10SM BKN100 18/14 A3002 RMK AO2 SLP162 T01780139 $",
      "metarObsTime": 1775051640
    },
    "KPHL": {
      "status": "OK",
      "delay": "—",
      "metarCat": "VFR",
      "metarRaw": "METAR KPHL 011354Z 23009KT 10SM FEW110 BKN150 BKN220 23/13 A3004 RMK AO2 SLP173 T02280133 $",
      "metarObsTime": 1775051640
    },
    "KABE": {
      "status": "OK",
      "delay": "—",
      "metarCat": "VFR",
      "metarRaw": "METAR KABE 011351Z 24010KT 10SM -RA FEW090 OVC110 19/14 A3003 RMK AO2 RAB47 SLP166 P0000 T01940139 $",
      "metarObsTime": 1775051460
    },
    "KAVP": {
      "status": "OK",
      "delay": "—",
      "metarCat": "MVFR",
      "metarRaw": "METAR KAVP 011354Z 22008KT 10SM SCT020 BKN027 17/14 A3003 RMK AO2 SLP164 T01720139",
      "metarObsTime": 1775051640
    },
    "KHZL": {
      "status": "OK",
      "delay": "—",
      "metarCat": "MVFR",
      "metarRaw": "METAR KHZL 011435Z AUTO 28003KT 10SM BKN018 18/12 A3009 RMK AO2 LTG DSNT SW",
      "metarObsTime": 1775054100
    }
  }
}