{
  "generatedAt": "2026-04-17T21:00:58.115Z",
  "airports": {
    "KPIT": {
      "status": "OK",
      "delay": "—",
      "metarCat": "VFR",
      "metarRaw": "METAR KPIT 172051Z 31008KT 10SM SCT038 BKN250 24/11 A2999 RMK AO2 SLP156 T02440111 56013",
      "metarObsTime": 1776459060
    },
    "KAGC": {
      "status": "OK",
      "delay": "—",
      "metarCat": "VFR",
      "metarRaw": "METAR KAGC 172053Z 00000KT 10SM CLR 23/11 A2998 RMK AO2 SLP152 T02330106 58012",
      "metarObsTime": 1776459180
    },
    "KLBE": {
      "status": "OK",
      "delay": "—",
      "metarCat": "VFR",
      "metarRaw": "METAR KLBE 172054Z 25006KT 10SM SCT034 BKN150 23/13 A3000",
      "metarObsTime": 1776459240
    },
    "KJST": {
      "status": "OK",
      "delay": "—",
      "metarCat": "VFR",
      "metarRaw": "METAR KJST 172054Z AUTO 31007KT 10SM FEW044 21/10 A3001 RMK AO2 SLP154 T02060100 58005",
      "metarObsTime": 1776459240
    },
    "KERI": {
      "status": "OK",
      "delay": "—",
      "metarCat": "VFR",
      "metarRaw": "METAR KERI 172051Z 34005KT 10SM CLR 14/09 A3002 RMK AO2 SLP167 T01390094 58003 $",
      "metarObsTime": 1776459060
    },
    "KDUJ": {
      "status": "OK",
      "delay": "—",
      "metarCat": "VFR",
      "metarRaw": "METAR KDUJ 172053Z AUTO 23006KT 10SM CLR 22/07 A2998 RMK AO2 SLP145 T02220067 56008",
      "metarObsTime": 1776459180
    },
    "KBFD": {
      "status": "OK",
      "delay": "—",
      "metarCat": "VFR",
      "metarRaw": "METAR KBFD 172053Z AUTO 31007KT 10SM BKN060 21/08 A3000 RMK AO2 SLP148 T02110083 56006",
      "metarObsTime": 1776459180
    },
    "KBTP": {
      "status": "OK",
      "delay": "—",
      "metarCat": "VFR",
      "metarRaw": "METAR KBTP 172056Z AUTO 30009KT 10SM CLR 23/10 A3000 RMK AO2 SLP160 6//// T02330100 58011 PNO $",
      "metarObsTime": 1776459360
    },
    "KFKL": {
      "status": "OK",
      "delay": "—",
      "metarCat": "—",
      "metarRaw": "—",
      "metarObsTime": null
    },
    "KIDI": {
      "status": "OK",
      "delay": "—",
      "metarCat": "VFR",
      "metarRaw": "METAR KIDI 172055Z AUTO 28005KT 10SM FEW048 23/12 A2999 RMK A01",
      "metarObsTime": 1776459300
    },
    "KMDT": {
      "status": "OK",
      "delay": "—",
      "metarCat": "VFR",
      "metarRaw": "METAR KMDT 172056Z 34012KT 10SM FEW050 BKN080 24/12 A2991 RMK AO2 SLP128 T02440122 55002",
      "metarObsTime": 1776459360
    },
    "KCXY": {
      "status": "OK",
      "delay": "—",
      "metarCat": "VFR",
      "metarRaw": "METAR KCXY 172056Z 32009KT 10SM BKN080 25/12 A2992 RMK AO2 SLP131 T02500122 55003 $",
      "metarObsTime": 1776459360
    },
    "KMUI": {
      "status": "OK",
      "delay": "—",
      "metarCat": "VFR",
      "metarRaw": "METAR KMUI 171955Z 34009KT 10SM SCT055 BKN080 26/12 A2988 RMK AO2A SLP118 T02550116",
      "metarObsTime": 1776455700
    },
    "KUNV": {
      "status": "OK",
      "delay": "—",
      "metarCat": "VFR",
      "metarRaw": "METAR KUNV 172053Z VRB05KT 10SM SCT060 24/10 A2996",
      "metarObsTime": 1776459180
    },
    "KAOO": {
      "status": "OK",
      "delay": "—",
      "metarCat": "VFR",
      "metarRaw": "METAR KAOO 172053Z AUTO 31008KT 10SM OVC065 23/10 A2998 RMK AO2 SLP145 T02330100 56008",
      "metarObsTime": 1776459180
    },
    "KLNS": {
      "status": "OK",
      "delay": "—",
      "metarCat": "VFR",
      "metarRaw": "METAR KLNS 172053Z 31012G17KT 10SM OVC090 24/12 A2991 RMK AO2 SLP125 T02390117 55000",
      "metarObsTime": 1776459180
    },
    "KIPT": {
      "status": "OK",
      "delay": "—",
      "metarCat": "VFR",
      "metarRaw": "METAR KIPT 172054Z 34010KT 10SM BKN055 23/11 A2993 RMK AO2 SLP132 T02330106 55002 $",
      "metarObsTime": 1776459240
    },
    "KPHL": {
      "status": "OK",
      "delay": "—",
      "metarCat": "VFR",
      "metarRaw": "METAR KPHL 172054Z 29009G18KT 10SM BKN065 BKN080 BKN110 28/10 A2986 RMK AO2 SLP111 T02780100 55003 $",
      "metarObsTime": 1776459240
    },
    "KABE": {
      "status": "OK",
      "delay": "—",
      "metarCat": "VFR",
      "metarRaw": "METAR KABE 172051Z AUTO 32008KT 10SM OVC095 26/12 A2987 RMK AO2 SLP113 60000 T02610117 55000",
      "metarObsTime": 1776459060
    },
    "KAVP": {
      "status": "OK",
      "delay": "—",
      "metarCat": "VFR",
      "metarRaw": "METAR KAVP 172054Z 33009KT 10SM FEW038 SCT050 22/12 A2993 RMK AO2 SLP130 T02170122 55001",
      "metarObsTime": 1776459240
    },
    "KHZL": {
      "status": "OK",
      "delay": "—",
      "metarCat": "VFR",
      "metarRaw": "METAR KHZL 172055Z AUTO 32006KT 10SM SCT038 BKN048 20/11 A2999 RMK AO2",
      "metarObsTime": 1776459300
    }
  }
}