{
  "generatedAt": "2026-04-14T19:00:51.216Z",
  "airports": {
    "KPIT": {
      "status": "OK",
      "delay": "—",
      "metarCat": "VFR",
      "metarRaw": "METAR KPIT 141851Z 26008KT 10SM -RA BKN043 BKN075 BKN100 24/15 A2996 RMK AO2 RAB50 SLP145 OCNL LTG DSNT N P0000 T02390150",
      "metarObsTime": 1776192660
    },
    "KAGC": {
      "status": "OK",
      "delay": "—",
      "metarCat": "VFR",
      "metarRaw": "METAR KAGC 141853Z 24012KT 10SM BKN047 24/14 A2996 RMK AO2 LTG DSNT SE AND S AND NW SLP142 T02440144",
      "metarObsTime": 1776192780
    },
    "KLBE": {
      "status": "OK",
      "delay": "—",
      "metarCat": "VFR",
      "metarRaw": "METAR KLBE 141753Z 22015G25KT 10SM BKN039 SCT047 25/15 A2999",
      "metarObsTime": 1776189180
    },
    "KJST": {
      "status": "OK",
      "delay": "—",
      "metarCat": "VFR",
      "metarRaw": "METAR KJST 141854Z AUTO 24011G21KT 10SM FEW041 23/13 A2999 RMK AO2 SLP144 T02280128",
      "metarObsTime": 1776192840
    },
    "KERI": {
      "status": "OK",
      "delay": "—",
      "metarCat": "VFR",
      "metarRaw": "METAR KERI 141851Z AUTO 27013G28KT 10SM FEW042 BKN065 OVC080 19/14 A2986 RMK AO2 PK WND 28028/1847 WSHFT 1801 SLP110 T01940144 $",
      "metarObsTime": 1776192660
    },
    "KDUJ": {
      "status": "OK",
      "delay": "—",
      "metarCat": "VFR",
      "metarRaw": "METAR KDUJ 141853Z AUTO 22012G17KT 10SM SCT042 BKN050 BKN070 23/14 A2995 RMK AO2 LTG DSNT SW SLP130 T02330144",
      "metarObsTime": 1776192780
    },
    "KBFD": {
      "status": "OK",
      "delay": "—",
      "metarCat": "VFR",
      "metarRaw": "METAR KBFD 141853Z AUTO 23011G20KT 10SM BKN037 BKN050 OVC060 22/13 A2993 RMK AO2 SLP122 T02170133",
      "metarObsTime": 1776192780
    },
    "KBTP": {
      "status": "OK",
      "delay": "—",
      "metarCat": "VFR",
      "metarRaw": "METAR KBTP 141856Z AUTO 23011KT 10SM BKN041 OVC050 24/16 A2996 RMK AO2 LTG DSNT E TSB01E16RAE19 SLP143 P0000 T02390161 $",
      "metarObsTime": 1776192960
    },
    "KFKL": {
      "status": "OK",
      "delay": "—",
      "metarCat": "VFR",
      "metarRaw": "METAR KFKL 141856Z AUTO 24013G21KT 10SM SCT036 24/16 A2993 RMK AO2 SLP127 T02390156",
      "metarObsTime": 1776192960
    },
    "KIDI": {
      "status": "OK",
      "delay": "—",
      "metarCat": "VFR",
      "metarRaw": "METAR KIDI 141855Z AUTO 22015KT 10SM BKN049 OVC055 25/15 A2996 RMK A01",
      "metarObsTime": 1776192900
    },
    "KMDT": {
      "status": "OK",
      "delay": "—",
      "metarCat": "VFR",
      "metarRaw": "METAR KMDT 141856Z 23015G24KT 10SM SCT045 BKN080 28/13 A2990 RMK AO2 SLP125 T02830128",
      "metarObsTime": 1776192960
    },
    "KCXY": {
      "status": "OK",
      "delay": "—",
      "metarCat": "VFR",
      "metarRaw": "METAR KCXY 141856Z 22013G21KT 10SM SCT070 BKN090 29/14 A2991 RMK AO2 SLP127 T02940144 $",
      "metarObsTime": 1776192960
    },
    "KMUI": {
      "status": "OK",
      "delay": "—",
      "metarCat": "—",
      "metarRaw": "—",
      "metarObsTime": null
    },
    "KUNV": {
      "status": "OK",
      "delay": "—",
      "metarCat": "VFR",
      "metarRaw": "METAR KUNV 141853Z 24015G20KT 10SM SCT050 26/15 A2994",
      "metarObsTime": 1776192780
    },
    "KAOO": {
      "status": "OK",
      "delay": "—",
      "metarCat": "VFR",
      "metarRaw": "METAR KAOO 141853Z AUTO 24017G22KT 10SM SCT055 BKN070 26/13 A2996 RMK AO2 SLP137 T02610128",
      "metarObsTime": 1776192780
    },
    "KLNS": {
      "status": "OK",
      "delay": "—",
      "metarCat": "VFR",
      "metarRaw": "METAR KLNS 141853Z 24016G24KT 10SM BKN065 28/14 A2993 RMK AO2 SLP130 T02830139",
      "metarObsTime": 1776192780
    },
    "KIPT": {
      "status": "OK",
      "delay": "—",
      "metarCat": "VFR",
      "metarRaw": "METAR KIPT 141854Z VRB05G18KT 10SM FEW060 28/14 A2985 RMK AO2 PK WND 26026/1807 SLP104 T02830144 $",
      "metarObsTime": 1776192840
    },
    "KPHL": {
      "status": "OK",
      "delay": "—",
      "metarCat": "VFR",
      "metarRaw": "METAR KPHL 141854Z 22012KT 10SM FEW065 FEW100 SCT240 BKN330 30/13 A2993 RMK AO2 SLP133 T03000128 $",
      "metarObsTime": 1776192840
    },
    "KABE": {
      "status": "OK",
      "delay": "—",
      "metarCat": "VFR",
      "metarRaw": "METAR KABE 141851Z 25016G25KT 10SM CLR 28/14 A2991 RMK AO2 SLP126 T02830139 $",
      "metarObsTime": 1776192660
    },
    "KAVP": {
      "status": "OK",
      "delay": "—",
      "metarCat": "VFR",
      "metarRaw": "METAR KAVP 141854Z 23011G25KT 10SM CLR 27/12 A2988 RMK AO2 SLP109 T02670122",
      "metarObsTime": 1776192840
    },
    "KHZL": {
      "status": "OK",
      "delay": "—",
      "metarCat": "VFR",
      "metarRaw": "METAR KHZL 141855Z AUTO 23005KT 10SM BKN055 OVC080 26/11 A2997 RMK AO2",
      "metarObsTime": 1776192900
    }
  }
}