{
  "generatedAt": "2026-03-23T18:00:28.366Z",
  "airports": {
    "KPIT": {
      "status": "OK",
      "delay": "—",
      "metarCat": "MVFR",
      "metarRaw": "METAR KPIT 231751Z 29017KT 8SM -RASN SCT009 BKN014 OVC030 03/01 A3014 RMK AO2 RAB11SNB11E29B50 SLP220 P0000 60000 T00280006 10039 20022 51020",
      "metarObsTime": 1774288260
    },
    "KAGC": {
      "status": "OK",
      "delay": "—",
      "metarCat": "MVFR",
      "metarRaw": "METAR KAGC 231753Z 30009G20KT 10SM SCT022 BKN027 OVC040 03/M01 A3011 RMK AO2 SLP208 60000 T00331011 10033 20022 51018",
      "metarObsTime": 1774288380
    },
    "KLBE": {
      "status": "OK",
      "delay": "—",
      "metarCat": "MVFR",
      "metarRaw": "METAR KLBE 231747Z 29009G22KT 10SM BKN030 OVC035 04/M01 A3012",
      "metarObsTime": 1774288020
    },
    "KJST": {
      "status": "OK",
      "delay": "—",
      "metarCat": "MVFR",
      "metarRaw": "METAR KJST 231754Z AUTO 30020G31KT 10SM OVC025 01/M03 A3001 RMK AO2 PK WND 32034/1707 SLP175 60004 T00111033 10028 21006 53008",
      "metarObsTime": 1774288440
    },
    "KERI": {
      "status": "OK",
      "delay": "—",
      "metarCat": "IFR",
      "metarRaw": "SPECI KERI 231757Z 30007KT 3SM -SN BR BKN007 OVC014 00/M01 A3016 RMK AO2 P0001 T00001011",
      "metarObsTime": 1774288620
    },
    "KDUJ": {
      "status": "OK",
      "delay": "—",
      "metarCat": "MVFR",
      "metarRaw": "METAR KDUJ 231753Z AUTO 33012G18KT 10SM BKN029 OVC037 01/M04 A3004 RMK AO2 SLP183 60001 T00111044 10022 21006 51022",
      "metarObsTime": 1774288380
    },
    "KBFD": {
      "status": "OK",
      "delay": "—",
      "metarCat": "MVFR",
      "metarRaw": "METAR KBFD 231753Z AUTO 33011G21KT 10SM SCT023 BKN029 OVC042 M01/M04 A3003 RMK AO2 SLP186 60000 I6001 T10061039 10000 21028 51021",
      "metarObsTime": 1774288380
    },
    "KBTP": {
      "status": "OK",
      "delay": "—",
      "metarCat": "MVFR",
      "metarRaw": "METAR KBTP 231756Z AUTO 29011G18KT 10SM -RA BKN011 OVC016 03/03 A3013 RMK AO2 RAB05 SLP216 P0000 60000 T00330033 10033 20011 51019 $",
      "metarObsTime": 1774288560
    },
    "KFKL": {
      "status": "OK",
      "delay": "—",
      "metarCat": "MVFR",
      "metarRaw": "METAR KFKL 231756Z AUTO 29010KT 10SM -RA BKN017 OVC024 01/M02 A3011 RMK AO2 RAB24 SLP211 P0000 60000 T00111022 10022 21011 51018 FZRANO",
      "metarObsTime": 1774288560
    },
    "KIDI": {
      "status": "OK",
      "delay": "—",
      "metarCat": "VFR",
      "metarRaw": "METAR KIDI 231755Z AUTO 31016G22KT 280V340 10SM OVC039 03/M02 A3009 RMK A01",
      "metarObsTime": 1774288500
    },
    "KMDT": {
      "status": "OK",
      "delay": "—",
      "metarCat": "MVFR",
      "metarRaw": "METAR KMDT 231756Z 34014KT 10SM OVC029 07/01 A2997 RMK AO2 PK WND 34026/1725 SLP151 T00720011 10083 20061 51031",
      "metarObsTime": 1774288560
    },
    "KCXY": {
      "status": "OK",
      "delay": "—",
      "metarCat": "MVFR",
      "metarRaw": "METAR KCXY 231756Z 36009KT 10SM BKN030 OVC035 07/01 A2998 RMK AO2 SLP154 T00720006 10078 20056 51028",
      "metarObsTime": 1774288560
    },
    "KMUI": {
      "status": "OK",
      "delay": "—",
      "metarCat": "MVFR",
      "metarRaw": "METAR KMUI 231655Z 33007G15KT 280V350 7SM OVC017 05/02 A2994 RMK AO2A SLP143 T00530023",
      "metarObsTime": 1774284900
    },
    "KUNV": {
      "status": "OK",
      "delay": "—",
      "metarCat": "MVFR",
      "metarRaw": "METAR KUNV 231753Z 33007G17KT 310V010 10SM VCSH BKN020 OVC026 03/M02 A3003",
      "metarObsTime": 1774288380
    },
    "KAOO": {
      "status": "OK",
      "delay": "—",
      "metarCat": "MVFR",
      "metarRaw": "METAR KAOO 231753Z AUTO 32014G23KT 10SM OVC026 03/M03 A3003 RMK AO2 PK WND 30032/1655 SLP176 60001 T00281028 10106 20028 51035",
      "metarObsTime": 1774288380
    },
    "KLNS": {
      "status": "OK",
      "delay": "—",
      "metarCat": "MVFR",
      "metarRaw": "METAR KLNS 231753Z 33015G23KT 10SM OVC023 07/02 A2996 RMK AO2 SLP145 T00670017 10100 20061 51036",
      "metarObsTime": 1774288380
    },
    "KIPT": {
      "status": "OK",
      "delay": "—",
      "metarCat": "MVFR",
      "metarRaw": "METAR KIPT 231754Z 31016G24KT 10SM OVC025 02/M03 A3003 RMK AO2 SLP173 T00221033 10022 20017 51026",
      "metarObsTime": 1774288440
    },
    "KPHL": {
      "status": "OK",
      "delay": "—",
      "metarCat": "MVFR",
      "metarRaw": "METAR KPHL 231754Z 33014KT 10SM BKN013 OVC032 08/06 A2991 RMK AO2 RAE08 SLP127 P0000 60004 T00830061 10117 20078 53019",
      "metarObsTime": 1774288440
    },
    "KABE": {
      "status": "OK",
      "delay": "—",
      "metarCat": "MVFR",
      "metarRaw": "METAR KABE 231751Z 31010G19KT 10SM BKN018 OVC036 04/01 A2993 RMK AO2 RAE1657 SLP136 P0000 60000 T00390006 10067 20039 53015 $",
      "metarObsTime": 1774288260
    },
    "KAVP": {
      "status": "OK",
      "delay": "—",
      "metarCat": "MVFR",
      "metarRaw": "METAR KAVP 231754Z 32013G23KT 10SM OVC014 M01/M03 A2996 RMK AO2 SLP151 60003 T10061033 10017 21006 51027",
      "metarObsTime": 1774288440
    },
    "KHZL": {
      "status": "OK",
      "delay": "—",
      "metarCat": "IFR",
      "metarRaw": "METAR KHZL 231735Z AUTO 31009G15KT 10SM OVC009 00/M01 A2995 RMK AO2",
      "metarObsTime": 1774287300
    }
  }
}