{
  "generatedAt": "2026-03-22T17:00:20.284Z",
  "airports": {
    "KPIT": {
      "status": "OK",
      "delay": "—",
      "metarCat": "VFR",
      "metarRaw": "METAR KPIT 221651Z 22013G23KT 10SM BKN120 BKN250 24/11 A2968 RMK AO2 PK WND 23027/1615 SLP051 T02440106",
      "metarObsTime": 1774198260
    },
    "KAGC": {
      "status": "OK",
      "delay": "—",
      "metarCat": "VFR",
      "metarRaw": "METAR KAGC 221653Z 25016G26KT 10SM CLR 25/10 A2969 RMK AO2 PK WND 24028/1640 SLP053 T02500100",
      "metarObsTime": 1774198380
    },
    "KLBE": {
      "status": "OK",
      "delay": "—",
      "metarCat": "VFR",
      "metarRaw": "METAR KLBE 221547Z 22023G30KT 10SM CLR 23/10 A2975",
      "metarObsTime": 1774194420
    },
    "KJST": {
      "status": "OK",
      "delay": "—",
      "metarCat": "VFR",
      "metarRaw": "METAR KJST 221654Z AUTO 23015G29KT 10SM CLR 23/08 A2973 RMK AO2 PK WND 24031/1625 SLP056 T02330083",
      "metarObsTime": 1774198440
    },
    "KERI": {
      "status": "OK",
      "delay": "—",
      "metarCat": "VFR",
      "metarRaw": "METAR KERI 221651Z 00000KT 10SM FEW046 SCT075 BKN120 12/05 A2972 RMK AO2 RAB36E49 SLP065 P0000 T01170050",
      "metarObsTime": 1774198260
    },
    "KDUJ": {
      "status": "OK",
      "delay": "—",
      "metarCat": "VFR",
      "metarRaw": "METAR KDUJ 221653Z AUTO 23013G21KT 10SM CLR 21/08 A2968 RMK AO2 PK WND 25026/1606 SLP044 T02060078",
      "metarObsTime": 1774198380
    },
    "KBFD": {
      "status": "OK",
      "delay": "—",
      "metarCat": "VFR",
      "metarRaw": "METAR KBFD 221653Z AUTO 28009KT 10SM BKN049 BKN110 16/07 A2970 RMK AO2 RAB00E09 SLP054 P0000 T01610072 $",
      "metarObsTime": 1774198380
    },
    "KBTP": {
      "status": "OK",
      "delay": "—",
      "metarCat": "VFR",
      "metarRaw": "METAR KBTP 221656Z AUTO 26010G20KT 10SM CLR 23/11 A2970 RMK AO2 SLP057 T02330111 $",
      "metarObsTime": 1774198560
    },
    "KFKL": {
      "status": "OK",
      "delay": "—",
      "metarCat": "VFR",
      "metarRaw": "METAR KFKL 221656Z AUTO 28013G20KT 10SM SCT040 19/11 A2970 RMK AO2 SLP054 T01940111",
      "metarObsTime": 1774198560
    },
    "KIDI": {
      "status": "OK",
      "delay": "—",
      "metarCat": "VFR",
      "metarRaw": "METAR KIDI 221655Z AUTO 25016G27KT 10SM CLR 24/11 A2970 RMK A01",
      "metarObsTime": 1774198500
    },
    "KMDT": {
      "status": "OK",
      "delay": "—",
      "metarCat": "VFR",
      "metarRaw": "METAR KMDT 221556Z 12009KT 10SM FEW150 BKN250 17/09 A2974 RMK AO2 SLP073 T01720094",
      "metarObsTime": 1774194960
    },
    "KCXY": {
      "status": "OK",
      "delay": "—",
      "metarCat": "VFR",
      "metarRaw": "METAR KCXY 221556Z VRB05KT 10SM CLR 17/09 A2974 RMK AO2 SLP073 T01720094",
      "metarObsTime": 1774194960
    },
    "KMUI": {
      "status": "OK",
      "delay": "—",
      "metarCat": "VFR",
      "metarRaw": "METAR KMUI 221655Z AUTO 12004KT 10SM CLR 16/11 A2974 RMK AO2 SLP074 T01580108",
      "metarObsTime": 1774198500
    },
    "KUNV": {
      "status": "OK",
      "delay": "—",
      "metarCat": "VFR",
      "metarRaw": "METAR KUNV 221553Z 21006KT 10SM CLR 21/06 A2971",
      "metarObsTime": 1774194780
    },
    "KAOO": {
      "status": "OK",
      "delay": "—",
      "metarCat": "VFR",
      "metarRaw": "METAR KAOO 221653Z AUTO 23020G27KT 10SM CLR 26/07 A2970 RMK AO2 PK WND 23031/1632 SLP049 T02610067",
      "metarObsTime": 1774198380
    },
    "KLNS": {
      "status": "OK",
      "delay": "—",
      "metarCat": "VFR",
      "metarRaw": "METAR KLNS 221653Z 23006KT 10SM CLR 18/10 A2975 RMK AO2 SLP073 T01830100",
      "metarObsTime": 1774198380
    },
    "KIPT": {
      "status": "OK",
      "delay": "—",
      "metarCat": "VFR",
      "metarRaw": "METAR KIPT 221654Z 09009KT 10SM FEW110 17/08 A2969 RMK AO2 SLP053 T01670083 $",
      "metarObsTime": 1774198440
    },
    "KPHL": {
      "status": "OK",
      "delay": "—",
      "metarCat": "VFR",
      "metarRaw": "METAR KPHL 221654Z 19010KT 10SM FEW016 FEW150 BKN330 16/10 A2977 RMK AO2 SLP082 T01610100 $",
      "metarObsTime": 1774198440
    },
    "KABE": {
      "status": "OK",
      "delay": "—",
      "metarCat": "VFR",
      "metarRaw": "METAR KABE 221651Z 10SM CLR A2976 RMK AO2 SLPNO $",
      "metarObsTime": 1774198260
    },
    "KAVP": {
      "status": "OK",
      "delay": "—",
      "metarCat": "VFR",
      "metarRaw": "METAR KAVP 221654Z VRB05KT 10SM OVC100 14/07 A2973 RMK AO2 SLP067 T01390067",
      "metarObsTime": 1774198440
    },
    "KHZL": {
      "status": "OK",
      "delay": "—",
      "metarCat": "VFR",
      "metarRaw": "METAR KHZL 221635Z AUTO 20003KT 10SM SCT085 SCT110 17/05 A2978 RMK AO2",
      "metarObsTime": 1774197300
    }
  }
}