{
  "generatedAt": "2026-03-17T01:30:16.527Z",
  "airports": {
    "KPIT": {
      "status": "OK",
      "delay": "—",
      "metarCat": "LIFR",
      "metarRaw": "METAR KPIT 170051Z 25009G22KT 1/2SM R28R/4500VP6000FT SN FZFG VV007 M02/M02 A2954 RMK AO2 SLP016 P0005 T10221022 $",
      "metarObsTime": 1773708660
    },
    "KAGC": {
      "status": "OK",
      "delay": "—",
      "metarCat": "IFR",
      "metarRaw": "SPECI KAGC 170125Z 27015G31KT 1SM R28/P6000FT -SN BR BKN008 OVC016 M03/M04 A2956 RMK AO2 PK WND 28031/0116 P0000 T10331039 $",
      "metarObsTime": 1773710700
    },
    "KLBE": {
      "status": "OK",
      "delay": "—",
      "metarCat": "LIFR",
      "metarRaw": "METAR KLBE 170047Z 24017G31KT 1/2SM -SN FZFG VV001 M01/M01 A2956",
      "metarObsTime": 1773708420
    },
    "KJST": {
      "status": "OK",
      "delay": "—",
      "metarCat": "LIFR",
      "metarRaw": "SPECI KJST 170058Z AUTO 26019G27KT 1/2SM SN FZFG VV005 M03/M04 A2944 RMK AO2 PK WND 25027/0058 P0000 T10331039",
      "metarObsTime": 1773709080
    },
    "KERI": {
      "status": "OK",
      "delay": "—",
      "metarCat": "LIFR",
      "metarRaw": "SPECI KERI 170126Z 25013G26KT 3/4SM R06/3500VP6000FT -SN BR FEW009 OVC014 M03/M04 A2946 RMK AO2 PK WND 24029/0053 P0001 T10281044 $",
      "metarObsTime": 1773710760
    },
    "KDUJ": {
      "status": "OK",
      "delay": "—",
      "metarCat": "LIFR",
      "metarRaw": "SPECI KDUJ 170126Z AUTO 25019G27KT 1/4SM +SN FZFG VV005 M03/M04 A2946 RMK AO2 PK WND 26029/0054 PRESRR P0001 T10331044",
      "metarObsTime": 1773710760
    },
    "KBFD": {
      "status": "OK",
      "delay": "—",
      "metarCat": "LIFR",
      "metarRaw": "SPECI KBFD 170107Z AUTO 27016G30KT 1/2SM SN FZFG VV006 M03/M04 A2937 RMK AO2 PK WND 24030/0103 P0000 T10331044",
      "metarObsTime": 1773709620
    },
    "KBTP": {
      "status": "OK",
      "delay": "—",
      "metarCat": "—",
      "metarRaw": "—",
      "metarObsTime": null
    },
    "KFKL": {
      "status": "OK",
      "delay": "—",
      "metarCat": "LIFR",
      "metarRaw": "METAR KFKL 170056Z AUTO 26014G23KT 1/2SM SN FZFG OVC006 M03/M04 A2951 RMK AO2 PRESRR SLP003 P0000 T10331039 FZRANO",
      "metarObsTime": 1773708960
    },
    "KIDI": {
      "status": "OK",
      "delay": "—",
      "metarCat": "LIFR",
      "metarRaw": "METAR KIDI 170115Z AUTO 26013G25KT 1/4SM FZFG OVC002 M02/M02 A2953 RMK A01",
      "metarObsTime": 1773710100
    },
    "KMDT": {
      "status": "OK",
      "delay": "—",
      "metarCat": "MVFR",
      "metarRaw": "SPECI KMDT 170127Z 31027G43KT 4SM RA BR FEW011 BKN029 OVC037 06/05 A2933 RMK AO2 PK WND 32043/0125 WSHFT 0043 P0008 T00610050",
      "metarObsTime": 1773710820
    },
    "KCXY": {
      "status": "OK",
      "delay": "—",
      "metarCat": "MVFR",
      "metarRaw": "SPECI KCXY 170111Z AUTO 28014G25KT 4SM +RA BR FEW008 BKN013 OVC025 07/06 A2934 RMK AO2 PK WND 28028/0101 P0008 T00670056",
      "metarObsTime": 1773709860
    },
    "KMUI": {
      "status": "OK",
      "delay": "—",
      "metarCat": "MVFR",
      "metarRaw": "SPECI KMUI 170118Z 31023G40KT 4SM +RA BR SCT005 OVC017 09/07 A2924 RMK AO2A RAB09 PRESRR SLP904",
      "metarObsTime": 1773710280
    },
    "KUNV": {
      "status": "OK",
      "delay": "—",
      "metarCat": "MVFR",
      "metarRaw": "METAR KUNV 170053Z 27016G23KT 3SM -SN BKN015 OVC021 01/01 A2941",
      "metarObsTime": 1773708780
    },
    "KAOO": {
      "status": "OK",
      "delay": "—",
      "metarCat": "LIFR",
      "metarRaw": "SPECI KAOO 170057Z AUTO 26017G28KT 1/2SM SN FZFG VV009 M01/M02 A2945 RMK AO2 PK WND 25028/0057 PRESRR P0000 T10061022",
      "metarObsTime": 1773709020
    },
    "KLNS": {
      "status": "OK",
      "delay": "—",
      "metarCat": "MVFR",
      "metarRaw": "METAR KLNS 170053Z 17016G29KT 10SM SCT017 BKN026 OVC039 17/14 A2924 RMK AO2 PK WND 17029/0050 SLP900 T01670144",
      "metarObsTime": 1773708780
    },
    "KIPT": {
      "status": "OK",
      "delay": "—",
      "metarCat": "MVFR",
      "metarRaw": "METAR KIPT 170054Z 28016G24KT 4SM RA BR BKN012 BKN023 OVC033 06/05 A2930 RMK AO2 PK WND 27029/0029 SLP922 P0022 T00610050",
      "metarObsTime": 1773708840
    },
    "KPHL": {
      "status": "OK",
      "delay": "—",
      "metarCat": "VFR",
      "metarRaw": "SPECI KPHL 170116Z 16013G21KT 10SM SCT013 BKN095 OVC230 17/14 A2933 RMK AO2 T01670144 $",
      "metarObsTime": 1773710160
    },
    "KABE": {
      "status": "OK",
      "delay": "—",
      "metarCat": "MVFR",
      "metarRaw": "METAR KABE 170051Z 15009G24KT 10SM SCT014 BKN020 OVC090 17/14 A2927 RMK AO2 PK WND 17027/0035 PRESFR SLP909 T01670139 $",
      "metarObsTime": 1773708660
    },
    "KAVP": {
      "status": "OK",
      "delay": "—",
      "metarCat": "VFR",
      "metarRaw": "METAR KAVP 170054Z 17011G29KT 140V210 10SM FEW031 SCT041 BKN050 17/13 A2920 RMK AO2 PK WND 18029/0049 RAB33E45 SLP881 P0000 T01670128",
      "metarObsTime": 1773708840
    },
    "KHZL": {
      "status": "OK",
      "delay": "—",
      "metarCat": "MVFR",
      "metarRaw": "METAR KHZL 170115Z AUTO 16011G21KT 110V200 10SM -RA OVC014 15/12 A2924 RMK AO2",
      "metarObsTime": 1773710100
    }
  }
}