{
  "generatedAt": "2026-03-22T22:50:15.761Z",
  "airports": {
    "KPIT": {
      "status": "OK",
      "delay": "—",
      "metarCat": "VFR",
      "metarRaw": "SPECI KPIT 222231Z 35011KT 9SM SCT048 BKN110 BKN250 18/12 A2965 RMK AO2 RAE26 TSE31 OCNL LTG DSNT SE-S P0007 T01780122",
      "metarObsTime": 1774218660
    },
    "KAGC": {
      "status": "OK",
      "delay": "—",
      "metarCat": "VFR",
      "metarRaw": "SPECI KAGC 222237Z 35010G15KT 6SM VCTS -RA BR FEW037 SCT065 BKN085 17/14 A2965 RMK AO2 LTG DSNT SE AND SW TSE2154B14E31 P0005 T01670144",
      "metarObsTime": 1774219020
    },
    "KLBE": {
      "status": "OK",
      "delay": "—",
      "metarCat": "MVFR",
      "metarRaw": "METAR KLBE 222247Z 33011G22KT 6SM VCTS RA HZ BKN012 BKN040 19/16 A2966 RMK LTG DSNT ALQDS",
      "metarObsTime": 1774219620
    },
    "KJST": {
      "status": "OK",
      "delay": "—",
      "metarCat": "VFR",
      "metarRaw": "SPECI KJST 222243Z AUTO 32012KT 8SM -RA FEW060 BKN075 OVC090 17/13 A2968 RMK AO2 PK WND 33047/2208 WSHFT 2159 LTG DSNT NE AND E RAB06 TSB08E23B24E39 P0008 T01670128",
      "metarObsTime": 1774219380
    },
    "KERI": {
      "status": "OK",
      "delay": "—",
      "metarCat": "MVFR",
      "metarRaw": "SPECI KERI 222237Z 04016KT 3SM -RA BR SCT007 BKN014 OVC070 04/03 A2979 RMK AO2 RAE2156B16 P0000 T00390033",
      "metarObsTime": 1774219020
    },
    "KDUJ": {
      "status": "OK",
      "delay": "—",
      "metarCat": "VFR",
      "metarRaw": "SPECI KDUJ 222235Z AUTO 00000KT 10SM FEW060 SCT070 BKN090 13/12 A2968 RMK AO2 LTG DSNT ALQDS RAE17 TSB03E21 PRESRR P0005 T01330117",
      "metarObsTime": 1774218900
    },
    "KBFD": {
      "status": "OK",
      "delay": "—",
      "metarCat": "LIFR",
      "metarRaw": "SPECI KBFD 222239Z AUTO 34010KT 5SM -RA BR BKN004 OVC009 08/08 A2972 RMK AO2 CIG 003V006 P0000 T00830078 $",
      "metarObsTime": 1774219140
    },
    "KBTP": {
      "status": "OK",
      "delay": "—",
      "metarCat": "VFR",
      "metarRaw": "METAR KBTP 222156Z AUTO 33015G20KT 10SM SCT100 19/12 A2966 RMK AO2 LTG DSNT SW TSB00E24 SLP045 T01890117 $",
      "metarObsTime": 1774216560
    },
    "KFKL": {
      "status": "OK",
      "delay": "—",
      "metarCat": "MVFR",
      "metarRaw": "SPECI KFKL 222209Z AUTO 01007G17KT 8SM -TSRA BKN012 BKN028 OVC110 09/08 A2970 RMK AO2 LTG DSNT E AND W TSB03 P0002",
      "metarObsTime": 1774217340
    },
    "KIDI": {
      "status": "OK",
      "delay": "—",
      "metarCat": "VFR",
      "metarRaw": "METAR KIDI 222235Z AUTO 01010KT 10SM SCT085 SCT110 19/13 A2966 RMK A01",
      "metarObsTime": 1774218900
    },
    "KMDT": {
      "status": "OK",
      "delay": "—",
      "metarCat": "VFR",
      "metarRaw": "METAR KMDT 222156Z 23008KT 180V250 10SM BKN150 26/08 A2954 RMK AO2 PK WND 22029/2108 LTG DSNT NE SLP003 T02610078",
      "metarObsTime": 1774216560
    },
    "KCXY": {
      "status": "OK",
      "delay": "—",
      "metarCat": "VFR",
      "metarRaw": "METAR KCXY 222156Z 21012G24KT 10SM CLR 26/08 A2954 RMK AO2 PK WND 18027/2110 LTG DSNT NE SLP004 T02610083",
      "metarObsTime": 1774216560
    },
    "KMUI": {
      "status": "OK",
      "delay": "—",
      "metarCat": "VFR",
      "metarRaw": "SPECI KMUI 222232Z AUTO 02006KT 10SM FEW048 SCT100 BKN130 OVC150 22/14 A2955 RMK AO2 LTG DSNT W-NW RAE2155RAB21E32 TSB2155E2156 SLP009",
      "metarObsTime": 1774218720
    },
    "KUNV": {
      "status": "OK",
      "delay": "—",
      "metarCat": "VFR",
      "metarRaw": "SPECI KUNV 222236Z 06009KT 10SM VCTS SCT026 BKN075 OVC110 16/15 A2966 RMK TSE2236 LTG DSNT NW AND E",
      "metarObsTime": 1774218960
    },
    "KAOO": {
      "status": "OK",
      "delay": "—",
      "metarCat": "IFR",
      "metarRaw": "SPECI KAOO 222246Z AUTO 31014G37KT 2 1/2SM +TSRA SCT050 BKN065 OVC090 18/13 A2969 RMK AO2 PK WND 31040/2234 LTG DSNT E AND W RAB15 TSB43 P0008 T01780133",
      "metarObsTime": 1774219560
    },
    "KLNS": {
      "status": "OK",
      "delay": "—",
      "metarCat": "VFR",
      "metarRaw": "METAR KLNS 222153Z 17011G21KT 10SM CLR 23/10 A2958 RMK AO2 LTG DSNT NW SLP015 T02280100",
      "metarObsTime": 1774216380
    },
    "KIPT": {
      "status": "OK",
      "delay": "—",
      "metarCat": "MVFR",
      "metarRaw": "SPECI KIPT 222224Z 00000KT 3SM -RA BR SCT050 BKN075 OVC100 14/13 A2964 RMK AO2 LTG DSNT E-SW P0009 T01390133 $",
      "metarObsTime": 1774218240
    },
    "KPHL": {
      "status": "OK",
      "delay": "—",
      "metarCat": "VFR",
      "metarRaw": "METAR KPHL 222154Z 18010KT 10SM SCT095 BKN210 23/12 A2962 RMK AO2 SLP029 T02330122 $",
      "metarObsTime": 1774216440
    },
    "KABE": {
      "status": "OK",
      "delay": "—",
      "metarCat": "VFR",
      "metarRaw": "SPECI KABE 222246Z 11008KT 10SM SCT015 18/12 A2961 RMK AO2 PK WND 35028/2205 RAB2153E44 P0000 $",
      "metarObsTime": 1774219560
    },
    "KAVP": {
      "status": "OK",
      "delay": "—",
      "metarCat": "IFR",
      "metarRaw": "SPECI KAVP 222244Z 00000KT 1 3/4SM +RA BR SCT055 SCT070 OVC090 12/11 A2969 RMK AO2 LTG DSNT SW RAB33 P0003 T01220111",
      "metarObsTime": 1774219440
    },
    "KHZL": {
      "status": "OK",
      "delay": "—",
      "metarCat": "VFR",
      "metarRaw": "METAR KHZL 222235Z AUTO 00000KT 10SM BKN090 OVC120 13/11 A2968 RMK AO2 LTG DSNT W",
      "metarObsTime": 1774218900
    }
  }
}