{
  "generatedAt": "2026-04-15T19:31:01.950Z",
  "airports": {
    "KPIT": {
      "status": "OK",
      "delay": "—",
      "metarCat": "VFR",
      "metarRaw": "METAR KPIT 151851Z 21010KT 10SM BKN043 BKN055 OVC200 26/16 A2993 RMK AO2 SLP135 T02560156 $",
      "metarObsTime": 1776279060
    },
    "KAGC": {
      "status": "OK",
      "delay": "—",
      "metarCat": "VFR",
      "metarRaw": "METAR KAGC 151853Z 20012KT 10SM FEW046 26/16 A2993 RMK AO2 SLP133 T02560156",
      "metarObsTime": 1776279180
    },
    "KLBE": {
      "status": "OK",
      "delay": "—",
      "metarCat": "VFR",
      "metarRaw": "METAR KLBE 151850Z 20013KT 10SM CLR 27/17 A2996",
      "metarObsTime": 1776279000
    },
    "KJST": {
      "status": "OK",
      "delay": "—",
      "metarCat": "VFR",
      "metarRaw": "METAR KJST 151854Z AUTO 25012G22KT 10SM CLR 24/14 A2999 RMK AO2 SLP141 T02440139",
      "metarObsTime": 1776279240
    },
    "KERI": {
      "status": "OK",
      "delay": "—",
      "metarCat": "VFR",
      "metarRaw": "METAR KERI 151851Z AUTO 30007KT 10SM SCT048 BKN060 18/12 A2986 RMK AO2 SLP110 T01780117 $",
      "metarObsTime": 1776279060
    },
    "KDUJ": {
      "status": "OK",
      "delay": "—",
      "metarCat": "VFR",
      "metarRaw": "METAR KDUJ 151853Z AUTO 23017G29KT 10SM FEW039 25/15 A2994 RMK AO2 PK WND 23029/1851 SLP129 T02500150",
      "metarObsTime": 1776279180
    },
    "KBFD": {
      "status": "OK",
      "delay": "—",
      "metarCat": "VFR",
      "metarRaw": "METAR KBFD 151853Z AUTO VRB05G17KT 10SM SCT040 BKN060 23/14 A2993 RMK AO2 SLP126 T02330144",
      "metarObsTime": 1776279180
    },
    "KBTP": {
      "status": "OK",
      "delay": "—",
      "metarCat": "VFR",
      "metarRaw": "METAR KBTP 151856Z AUTO 19007KT 10SM OVC043 25/16 A2994 RMK AO2 SLP137 T02500161 PNO $",
      "metarObsTime": 1776279360
    },
    "KFKL": {
      "status": "OK",
      "delay": "—",
      "metarCat": "VFR",
      "metarRaw": "METAR KFKL 151856Z AUTO 23009G17KT 170V290 10SM FEW036 26/17 A2992 RMK AO2 SLP125 T02610172",
      "metarObsTime": 1776279360
    },
    "KIDI": {
      "status": "OK",
      "delay": "—",
      "metarCat": "VFR",
      "metarRaw": "METAR KIDI 151915Z AUTO 20008KT 10SM FEW042 SCT049 26/16 A2994 RMK A01",
      "metarObsTime": 1776280500
    },
    "KMDT": {
      "status": "OK",
      "delay": "—",
      "metarCat": "VFR",
      "metarRaw": "METAR KMDT 151856Z 22011G21KT 10SM FEW050 BKN250 29/16 A2987 RMK AO2 SLP114 T02890161",
      "metarObsTime": 1776279360
    },
    "KCXY": {
      "status": "OK",
      "delay": "—",
      "metarCat": "VFR",
      "metarRaw": "METAR KCXY 151856Z 21009G19KT 10SM CLR 31/17 A2987 RMK AO2 PK WND 23026/1823 SLP113 T03060167 $",
      "metarObsTime": 1776279360
    },
    "KMUI": {
      "status": "OK",
      "delay": "—",
      "metarCat": "VFR",
      "metarRaw": "METAR KMUI 151855Z 21013KT 10SM FEW060 BKN200 31/17 A2986 RMK AO2A SLP111 T03100169",
      "metarObsTime": 1776279300
    },
    "KUNV": {
      "status": "OK",
      "delay": "—",
      "metarCat": "VFR",
      "metarRaw": "METAR KUNV 151853Z 25008G18KT 210V280 10SM FEW050 28/15 A2992",
      "metarObsTime": 1776279180
    },
    "KAOO": {
      "status": "OK",
      "delay": "—",
      "metarCat": "VFR",
      "metarRaw": "METAR KAOO 151853Z AUTO 25009KT 10SM CLR 28/16 A2995 RMK AO2 SLP131 T02830156",
      "metarObsTime": 1776279180
    },
    "KLNS": {
      "status": "OK",
      "delay": "—",
      "metarCat": "VFR",
      "metarRaw": "METAR KLNS 151853Z 24015G22KT 10SM CLR 29/16 A2989 RMK AO2 SLP119 T02890161",
      "metarObsTime": 1776279180
    },
    "KIPT": {
      "status": "OK",
      "delay": "—",
      "metarCat": "VFR",
      "metarRaw": "METAR KIPT 151854Z 27011G17KT 10SM CLR 29/15 A2985 RMK AO2 SLP104 T02940150 $",
      "metarObsTime": 1776279240
    },
    "KPHL": {
      "status": "OK",
      "delay": "—",
      "metarCat": "VFR",
      "metarRaw": "METAR KPHL 151854Z 22013KT 10SM FEW055 FEW100 SCT210 BKN300 32/16 A2988 RMK AO2 SLP118 T03170161 $",
      "metarObsTime": 1776279240
    },
    "KABE": {
      "status": "OK",
      "delay": "—",
      "metarCat": "VFR",
      "metarRaw": "METAR KABE 151851Z 25015G25KT 10SM CLR 30/16 A2987 RMK AO2 PK WND 24029/1801 SLP112 T03000161",
      "metarObsTime": 1776279060
    },
    "KAVP": {
      "status": "OK",
      "delay": "—",
      "metarCat": "VFR",
      "metarRaw": "METAR KAVP 151854Z 22008G19KT 190V260 10SM BKN055 27/16 A2989 RMK AO2 SLP112 T02720156",
      "metarObsTime": 1776279240
    },
    "KHZL": {
      "status": "OK",
      "delay": "—",
      "metarCat": "VFR",
      "metarRaw": "METAR KHZL 151915Z AUTO 30006KT 10SM SCT050 28/13 A2995 RMK AO2",
      "metarObsTime": 1776280500
    }
  }
}