{
  "generatedAt": "2026-04-30T09:53:45.247Z",
  "faaFlow": {
    "updatedAt": "2026-04-30T09:53:44.283Z",
    "source": "https://www.fly.faa.gov/adv/adv_spt",
    "terminal": [
      {
        "time": "—",
        "text": "AFTER",
        "code": "FLOW",
        "label": "FAA flow impact",
        "level": "yellow",
        "section": "Terminal Planned",
        "airports": []
      },
      {
        "time": "1300",
        "text": "BOS GROUND STOP/DELAY PROGRAM EXPECTED",
        "code": "GS",
        "label": "Ground stop possible",
        "level": "orange",
        "section": "Terminal Planned",
        "airports": []
      },
      {
        "time": "—",
        "text": "AFTER",
        "code": "FLOW",
        "label": "FAA flow impact",
        "level": "yellow",
        "section": "Terminal Planned",
        "airports": []
      },
      {
        "time": "1300",
        "text": "LGA/HPN GROUND STOP/DELAY PROGRAM POSSIBLE",
        "code": "GS",
        "label": "Ground stop possible",
        "level": "yellow",
        "section": "Terminal Planned",
        "airports": []
      },
      {
        "time": "—",
        "text": "AFTER",
        "code": "FLOW",
        "label": "FAA flow impact",
        "level": "yellow",
        "section": "Terminal Planned",
        "airports": []
      },
      {
        "time": "1300",
        "text": "EWR GROUND STOP/DELAY PROGRAM POSSIBLE",
        "code": "GS",
        "label": "Ground stop possible",
        "level": "yellow",
        "section": "Terminal Planned",
        "airports": []
      },
      {
        "time": "—",
        "text": "AFTER",
        "code": "FLOW",
        "label": "FAA flow impact",
        "level": "yellow",
        "section": "Terminal Planned",
        "airports": []
      },
      {
        "time": "1400",
        "text": "DEN GROUND STOP/DELAY PROGRAM POSSIBLE",
        "code": "GS",
        "label": "Ground stop possible",
        "level": "yellow",
        "section": "Terminal Planned",
        "airports": []
      },
      {
        "time": "—",
        "text": "AFTER",
        "code": "FLOW",
        "label": "FAA flow impact",
        "level": "yellow",
        "section": "Terminal Planned",
        "airports": []
      },
      {
        "time": "1500",
        "text": "SFO GROUND STOP/DELAY PROGRAM POSSIBLE",
        "code": "GS",
        "label": "Ground stop possible",
        "level": "yellow",
        "section": "Terminal Planned",
        "airports": []
      },
      {
        "time": "—",
        "text": "AFTER",
        "code": "FLOW",
        "label": "FAA flow impact",
        "level": "yellow",
        "section": "Terminal Planned",
        "airports": []
      },
      {
        "time": "1900",
        "text": "DCA GROUND STOP POSSIBLE",
        "code": "GS",
        "label": "Ground stop possible",
        "level": "yellow",
        "section": "Terminal Planned",
        "airports": []
      }
    ],
    "enroute": [
      {
        "time": "—",
        "text": "AFTER",
        "code": "FLOW",
        "label": "FAA flow impact",
        "level": "yellow",
        "section": "En Route Planned",
        "airports": []
      },
      {
        "time": "1100",
        "text": "AR/ATLANTIC Y ROUTE CLOSURES POSSIBLE",
        "code": "CLOSURE",
        "label": "Closure possible",
        "level": "yellow",
        "section": "En Route Planned",
        "airports": []
      },
      {
        "time": "—",
        "text": "AFTER",
        "code": "FLOW",
        "label": "FAA flow impact",
        "level": "yellow",
        "section": "En Route Planned",
        "airports": []
      },
      {
        "time": "1200",
        "text": "NO Q34-2 ROUTES POSSIBLE",
        "code": "ROUTE",
        "label": "Route impact possible",
        "level": "blue",
        "section": "En Route Planned",
        "airports": []
      },
      {
        "time": "—",
        "text": "AFTER",
        "code": "FLOW",
        "label": "FAA flow impact",
        "level": "yellow",
        "section": "En Route Planned",
        "airports": []
      },
      {
        "time": "1200",
        "text": "OCEANIC ROUTE CLOSURES POSSIBLE",
        "code": "CLOSURE",
        "label": "Closure possible",
        "level": "yellow",
        "section": "En Route Planned",
        "airports": []
      },
      {
        "time": "—",
        "text": "AFTER",
        "code": "FLOW",
        "label": "FAA flow impact",
        "level": "yellow",
        "section": "En Route Planned",
        "airports": []
      },
      {
        "time": "1300",
        "text": "MIDWEST TO FLORIDA 1 PARTIAL POSSIBLE",
        "code": "FLOW",
        "label": "FAA flow impact",
        "level": "yellow",
        "section": "En Route Planned",
        "airports": []
      },
      {
        "time": "—",
        "text": "AFTER",
        "code": "FLOW",
        "label": "FAA flow impact",
        "level": "yellow",
        "section": "En Route Planned",
        "airports": []
      },
      {
        "time": "1400",
        "text": "NY SATS TO FLORIDA ROUTES POSSIBLE",
        "code": "ROUTE",
        "label": "Route impact possible",
        "level": "blue",
        "section": "En Route Planned",
        "airports": []
      },
      {
        "time": "—",
        "text": "AFTER",
        "code": "FLOW",
        "label": "FAA flow impact",
        "level": "yellow",
        "section": "En Route Planned",
        "airports": []
      },
      {
        "time": "1530",
        "text": "EGLIN WATER TEST ROUTES EXPECTED",
        "code": "ROUTE",
        "label": "Route impact possible",
        "level": "orange",
        "section": "En Route Planned",
        "airports": []
      },
      {
        "time": "—",
        "text": "AFTER",
        "code": "FLOW",
        "label": "FAA flow impact",
        "level": "yellow",
        "section": "En Route Planned",
        "airports": []
      },
      {
        "time": "1600",
        "text": "DFW/DAL CDRS/SWAP/ARRIVAL ROUTES POSSIBLE",
        "code": "ROUTE",
        "label": "Route impact possible",
        "level": "blue",
        "section": "En Route Planned",
        "airports": []
      },
      {
        "time": "—",
        "text": "AFTER",
        "code": "FLOW",
        "label": "FAA flow impact",
        "level": "yellow",
        "section": "En Route Planned",
        "airports": []
      },
      {
        "time": "1900",
        "text": "IAH/HOU CDRS/SWAP/ARRIVAL ROUTES POSSIBLE CDRS/SWAP/CAPPING/TUNNELING/HOTLINE/DIVERSION RECOVERY: NONE RUNWAY/EQUIPMENT/POSSIBLE SYSTEM IMPACT REPORTS(SIRs): LAX - RWY 24R/06L CLOSED",
        "code": "CLOSURE",
        "label": "Closure possible",
        "level": "yellow",
        "section": "En Route Planned",
        "airports": []
      },
      {
        "time": "—",
        "text": "2026",
        "code": "FLOW",
        "label": "FAA flow impact",
        "level": "yellow",
        "section": "En Route Planned",
        "airports": []
      },
      {
        "time": "2026",
        "text": "SAN - CONSTRUCTION PHASE 5.2 UNTIL 05/26/26",
        "code": "FLOW",
        "label": "FAA flow impact",
        "level": "yellow",
        "section": "En Route Planned",
        "airports": []
      },
      {
        "time": "—",
        "text": "UNTIL",
        "code": "FLOW",
        "label": "FAA flow impact",
        "level": "yellow",
        "section": "En Route Planned",
        "airports": []
      },
      {
        "time": "2000",
        "text": "FCAJX PLANNED LAUNCH/REENTRY: SPACEX STARLINK 17-36, VANDENBERG SFB, CA PRIMARY: 04/30/26",
        "code": "FLOW",
        "label": "FAA flow impact",
        "level": "yellow",
        "section": "En Route Planned",
        "airports": []
      },
      {
        "time": "—",
        "text": "AFTER",
        "code": "FLOW",
        "label": "FAA flow impact",
        "level": "yellow",
        "section": "En Route Planned",
        "airports": []
      },
      {
        "time": "1700",
        "text": "DEN VIP MOVEMENT(S):",
        "code": "FLOW",
        "label": "FAA flow impact",
        "level": "yellow",
        "section": "En Route Planned",
        "airports": []
      },
      {
        "time": "—",
        "text": "AFTER",
        "code": "FLOW",
        "label": "FAA flow impact",
        "level": "yellow",
        "section": "En Route Planned",
        "airports": []
      },
      {
        "time": "1700",
        "text": "DEP NKX",
        "code": "FLOW",
        "label": "FAA flow impact",
        "level": "yellow",
        "section": "En Route Planned",
        "airports": []
      },
      {
        "time": "—",
        "text": "AFTER",
        "code": "FLOW",
        "label": "FAA flow impact",
        "level": "yellow",
        "section": "En Route Planned",
        "airports": []
      },
      {
        "time": "2100",
        "text": "ARR ADW NEXT PLANNING WEBINAR:",
        "code": "FLOW",
        "label": "FAA flow impact",
        "level": "yellow",
        "section": "En Route Planned",
        "airports": []
      }
    ],
    "airports": {
      "KPIT": null,
      "KAGC": null,
      "KLBE": null,
      "KJST": null,
      "KERI": null,
      "KDUJ": null,
      "KBFD": null,
      "KBTP": null,
      "KFKL": null,
      "KIDI": null,
      "KMDT": null,
      "KCXY": null,
      "KMUI": null,
      "KUNV": null,
      "KAOO": null,
      "KLNS": null,
      "KIPT": null,
      "KPHL": null,
      "KABE": null,
      "KAVP": null,
      "KHZL": null
    }
  },
  "airports": {
    "KPIT": {
      "status": "OK",
      "delay": "—",
      "metarCat": "MVFR",
      "metarRaw": "METAR KPIT 300951Z 24005KT 10SM FEW011 OVC021 09/07 A2982 RMK AO2 SLP106 T00890067",
      "metarObsTime": 1777542660,
      "faaFlow": null
    },
    "KAGC": {
      "status": "OK",
      "delay": "—",
      "metarCat": "IFR",
      "metarRaw": "METAR KAGC 300853Z 25005KT 10SM BKN009 BKN025 OVC039 08/07 A2982 RMK AO2 SLP101 T00780067 55000",
      "metarObsTime": 1777539180,
      "faaFlow": null
    },
    "KLBE": {
      "status": "OK",
      "delay": "—",
      "metarCat": "IFR",
      "metarRaw": "METAR KLBE 300935Z AUTO 22003KT 10SM OVC009 09/08 A2985 RMK AO2",
      "metarObsTime": 1777541700,
      "faaFlow": null
    },
    "KJST": {
      "status": "OK",
      "delay": "—",
      "metarCat": "LIFR",
      "metarRaw": "SPECI KJST 300944Z AUTO 29007KT 2SM -RA BR OVC002 06/06 A2980 RMK AO2 P0000 T00560056",
      "metarObsTime": 1777542240,
      "faaFlow": null
    },
    "KERI": {
      "status": "OK",
      "delay": "—",
      "metarCat": "IFR",
      "metarRaw": "METAR KERI 300951Z 28005KT 10SM -RA BKN007 OVC021 06/05 A2984 RMK AO2 SLP107 P0002 T00610050",
      "metarObsTime": 1777542660,
      "faaFlow": null
    },
    "KDUJ": {
      "status": "OK",
      "delay": "—",
      "metarCat": "IFR",
      "metarRaw": "SPECI KDUJ 300931Z AUTO 26005KT 6SM -RA BR BKN006 OVC012 06/06 A2979 RMK AO2 RAB18 P0000 T00610056",
      "metarObsTime": 1777541460,
      "faaFlow": null
    },
    "KBFD": {
      "status": "OK",
      "delay": "—",
      "metarCat": "VFR",
      "metarRaw": "METAR KBFD 300853Z AUTO 00000KT 10SM FEW010 SCT024 OVC090 03/03 A2978 RMK AO2 SLP090 T00330028 53003",
      "metarObsTime": 1777539180,
      "faaFlow": null
    },
    "KBTP": {
      "status": "OK",
      "delay": "—",
      "metarCat": "MVFR",
      "metarRaw": "SPECI KBTP 300930Z AUTO 20004KT 10SM OVC014 08/ A2982 RMK AO2 $",
      "metarObsTime": 1777541400,
      "faaFlow": null
    },
    "KFKL": {
      "status": "OK",
      "delay": "—",
      "metarCat": "LIFR",
      "metarRaw": "SPECI KFKL 300939Z AUTO 31004KT 3SM RA BR BKN003 BKN007 OVC016 07/06 A2982 RMK AO2 P0002",
      "metarObsTime": 1777541940,
      "faaFlow": null
    },
    "KIDI": {
      "status": "OK",
      "delay": "—",
      "metarCat": "MVFR",
      "metarRaw": "METAR KIDI 300935Z AUTO 00000KT 10SM OVC011 08/07 A2983 RMK A01",
      "metarObsTime": 1777541700,
      "faaFlow": null
    },
    "KMDT": {
      "status": "OK",
      "delay": "—",
      "metarCat": "LIFR",
      "metarRaw": "METAR KMDT 300856Z 33003KT 4SM BR OVC004 10/09 A2975 RMK AO2 SLP073 60001 T01000094 52004",
      "metarObsTime": 1777539360,
      "faaFlow": null
    },
    "KCXY": {
      "status": "OK",
      "delay": "—",
      "metarCat": "LIFR",
      "metarRaw": "METAR KCXY 300856Z AUTO 31005KT 6SM BR OVC004 10/09 A2975 RMK AO2 SLP076 60001 T01000094 53001",
      "metarObsTime": 1777539360,
      "faaFlow": null
    },
    "KMUI": {
      "status": "OK",
      "delay": "—",
      "metarCat": "MVFR",
      "metarRaw": "SPECI KMUI 300941Z AUTO 00000KT 10SM SCT004 SCT010 BKN029 OVC050 13/12 A2974 RMK AO2 RAB0855E04DZB04E05RAB05E15DZB15E17 CIG 004V029 SLP073",
      "metarObsTime": 1777542060,
      "faaFlow": null
    },
    "KUNV": {
      "status": "OK",
      "delay": "—",
      "metarCat": "MVFR",
      "metarRaw": "METAR KUNV 300953Z 28004KT 6SM BR OVC017 08/05 A2979",
      "metarObsTime": 1777542780,
      "faaFlow": null
    },
    "KAOO": {
      "status": "OK",
      "delay": "—",
      "metarCat": "MVFR",
      "metarRaw": "METAR KAOO 300853Z AUTO 31007KT 10SM BKN010 OVC015 09/07 A2979 RMK AO2 CIG 008V012 SLP091 T00890072 53009",
      "metarObsTime": 1777539180,
      "faaFlow": null
    },
    "KLNS": {
      "status": "OK",
      "delay": "—",
      "metarCat": "IFR",
      "metarRaw": "METAR KLNS 300853Z AUTO 00000KT 9SM OVC008 09/08 A2975 RMK AO2 SLP073 60000 T00940083 55004",
      "metarObsTime": 1777539180,
      "faaFlow": null
    },
    "KIPT": {
      "status": "OK",
      "delay": "—",
      "metarCat": "MVFR",
      "metarRaw": "METAR KIPT 300854Z AUTO 27004KT 10SM OVC024 10/09 A2974 RMK AO2 SLP071 60001 T01000089 53008",
      "metarObsTime": 1777539240,
      "faaFlow": null
    },
    "KPHL": {
      "status": "OK",
      "delay": "—",
      "metarCat": "MVFR",
      "metarRaw": "SPECI KPHL 300929Z 00000KT 10SM SCT008 OVC016 10/08 A2975 RMK AO2 T01000083 $",
      "metarObsTime": 1777541340,
      "faaFlow": null
    },
    "KABE": {
      "status": "OK",
      "delay": "—",
      "metarCat": "IFR",
      "metarRaw": "METAR KABE 300951Z 21005KT 10SM OVC007 09/08 A2975 RMK AO2 SLP075 T00890078",
      "metarObsTime": 1777542660,
      "faaFlow": null
    },
    "KAVP": {
      "status": "OK",
      "delay": "—",
      "metarCat": "IFR",
      "metarRaw": "SPECI KAVP 300940Z AUTO 24004KT 4SM -RA BR OVC009 08/08 A2973 RMK AO2 RAB23 CIG 005V010 P0000 T00830078",
      "metarObsTime": 1777542000,
      "faaFlow": null
    },
    "KHZL": {
      "status": "OK",
      "delay": "—",
      "metarCat": "LIFR",
      "metarRaw": "METAR KHZL 300935Z AUTO 00000KT 2SM -DZ OVC002 07/06 A2976 RMK AO2",
      "metarObsTime": 1777541700,
      "faaFlow": null
    }
  }
}