{
  "generatedAt": "2026-04-19T04:30:53.141Z",
  "airports": {
    "KPIT": {
      "status": "OK",
      "delay": "—",
      "metarCat": "VFR",
      "metarRaw": "METAR KPIT 190351Z 29011KT 10SM SCT037 OVC045 11/08 A2991 RMK AO2 SLP130 T01110083 $",
      "metarObsTime": 1776570660
    },
    "KAGC": {
      "status": "OK",
      "delay": "—",
      "metarCat": "VFR",
      "metarRaw": "SPECI KAGC 190405Z 32009G18KT 10SM OVC031 11/08 A2989 RMK AO2 T01110083",
      "metarObsTime": 1776571500
    },
    "KLBE": {
      "status": "OK",
      "delay": "—",
      "metarCat": "MVFR",
      "metarRaw": "METAR KLBE 190415Z AUTO 00000KT 10SM FEW007 OVC014 12/11 A2991 RMK AO2",
      "metarObsTime": 1776572100
    },
    "KJST": {
      "status": "OK",
      "delay": "—",
      "metarCat": "IFR",
      "metarRaw": "SPECI KJST 190403Z AUTO 32014G26KT 4SM -RA BR BKN006 BKN012 OVC017 10/09 A2988 RMK AO2 PK WND 32026/0400 WSHFT 0343 CIG 005V010 P0000 T01000089",
      "metarObsTime": 1776571380
    },
    "KERI": {
      "status": "OK",
      "delay": "—",
      "metarCat": "VFR",
      "metarRaw": "METAR KERI 190351Z AUTO 27009G19KT 10SM OVC085 08/04 A2991 RMK AO2 SLP127 T00830044 $",
      "metarObsTime": 1776570660
    },
    "KDUJ": {
      "status": "OK",
      "delay": "—",
      "metarCat": "VFR",
      "metarRaw": "SPECI KDUJ 190409Z AUTO 27005KT 10SM OVC031 09/08 A2987 RMK AO2 T00890083",
      "metarObsTime": 1776571740
    },
    "KBFD": {
      "status": "OK",
      "delay": "—",
      "metarCat": "VFR",
      "metarRaw": "METAR KBFD 190353Z AUTO 28008G17KT 10SM OVC033 09/06 A2986 RMK AO2 RAE12 SLP105 P0000 T00890061",
      "metarObsTime": 1776570780
    },
    "KBTP": {
      "status": "OK",
      "delay": "—",
      "metarCat": "VFR",
      "metarRaw": "SPECI KBTP 190416Z AUTO 28011KT 10SM FEW019 SCT026 OVC050 11/08 A2993 RMK AO2 $",
      "metarObsTime": 1776572160
    },
    "KFKL": {
      "status": "OK",
      "delay": "—",
      "metarCat": "—",
      "metarRaw": "—",
      "metarObsTime": null
    },
    "KIDI": {
      "status": "OK",
      "delay": "—",
      "metarCat": "MVFR",
      "metarRaw": "METAR KIDI 190415Z AUTO 00000KT 10SM OVC025 10/08 A2989 RMK A01",
      "metarObsTime": 1776572100
    },
    "KMDT": {
      "status": "OK",
      "delay": "—",
      "metarCat": "MVFR",
      "metarRaw": "METAR KMDT 190356Z 12009KT 7SM -RA BKN026 OVC070 15/13 A2985 RMK AO2 RAB02 SLP107 P0000 T01500128",
      "metarObsTime": 1776570960
    },
    "KCXY": {
      "status": "OK",
      "delay": "—",
      "metarCat": "VFR",
      "metarRaw": "METAR KCXY 190356Z AUTO 13007KT 7SM -RA FEW055 SCT075 OVC095 15/13 A2985 RMK AO2 RAB39 SLP110 P0002 T01500133 $",
      "metarObsTime": 1776570960
    },
    "KMUI": {
      "status": "OK",
      "delay": "—",
      "metarCat": "VFR",
      "metarRaw": "SPECI KMUI 190404Z AUTO 10003KT 10SM -RA OVC060 16/15 A2985 RMK AO2 RAB04 SLP110",
      "metarObsTime": 1776571440
    },
    "KUNV": {
      "status": "OK",
      "delay": "—",
      "metarCat": "VFR",
      "metarRaw": "METAR KUNV 190415Z AUTO 25006KT 10SM SCT025 BKN041 OVC075 16/16 A2983 RMK AO2 T01580158",
      "metarObsTime": 1776572100
    },
    "KAOO": {
      "status": "OK",
      "delay": "—",
      "metarCat": "MVFR",
      "metarRaw": "SPECI KAOO 190426Z AUTO 23007KT 10SM -RA BKN027 OVC060 16/14 A2984 RMK AO2 RAB12 P0000 T01610139",
      "metarObsTime": 1776572760
    },
    "KLNS": {
      "status": "OK",
      "delay": "—",
      "metarCat": "VFR",
      "metarRaw": "SPECI KLNS 190423Z AUTO 11007KT 10SM SCT015 OVC090 13/12 A2987 RMK AO2 T01330117",
      "metarObsTime": 1776572580
    },
    "KIPT": {
      "status": "OK",
      "delay": "—",
      "metarCat": "VFR",
      "metarRaw": "SPECI KIPT 190421Z AUTO 17008KT 8SM -RA SCT028 BKN050 OVC090 17/15 A2978 RMK AO2 P0002 T01720150 $",
      "metarObsTime": 1776572460
    },
    "KPHL": {
      "status": "OK",
      "delay": "—",
      "metarCat": "IFR",
      "metarRaw": "METAR KPHL 190354Z 11006KT 10SM OVC005 12/10 A2989 RMK AO2 SLP122 T01170100 $",
      "metarObsTime": 1776570840
    },
    "KABE": {
      "status": "OK",
      "delay": "—",
      "metarCat": "MVFR",
      "metarRaw": "METAR KABE 190351Z VRB04KT 10SM OVC011 12/09 A2991 RMK AO2 SLP126 T01170089 $",
      "metarObsTime": 1776570660
    },
    "KAVP": {
      "status": "OK",
      "delay": "—",
      "metarCat": "VFR",
      "metarRaw": "METAR KAVP 190354Z VRB06KT 10SM -RA FEW027 BKN065 OVC100 13/11 A2985 RMK AO2 RAB18 PRESFR SLP102 P0000 T01330106",
      "metarObsTime": 1776570840
    },
    "KHZL": {
      "status": "OK",
      "delay": "—",
      "metarCat": "MVFR",
      "metarRaw": "METAR KHZL 190415Z AUTO 14006KT 7SM -RA BKN010 BKN019 OVC090 11/09 A2988 RMK AO2 P0001",
      "metarObsTime": 1776572100
    }
  }
}