{
  "generatedAt": "2026-04-17T11:20:57.112Z",
  "airports": {
    "KPIT": {
      "status": "OK",
      "delay": "—",
      "metarCat": "VFR",
      "metarRaw": "METAR KPIT 171051Z 29005KT 10SM FEW020 FEW250 12/11 A2997 RMK AO2 SLP153 T01220106",
      "metarObsTime": 1776423060
    },
    "KAGC": {
      "status": "OK",
      "delay": "—",
      "metarCat": "VFR",
      "metarRaw": "METAR KAGC 171053Z 32005KT 10SM CLR 13/11 A2996 RMK AO2 SLP147 T01330106",
      "metarObsTime": 1776423180
    },
    "KLBE": {
      "status": "OK",
      "delay": "—",
      "metarCat": "VFR",
      "metarRaw": "METAR KLBE 171050Z 0000KT 10SM CLR 14/13 A2998",
      "metarObsTime": 1776423000
    },
    "KJST": {
      "status": "OK",
      "delay": "—",
      "metarCat": "IFR",
      "metarRaw": "METAR KJST 171054Z AUTO 27004KT 10SM BKN009 OVC015 12/11 A2995 RMK AO2 CIG 008V012 SLP134 T01220111",
      "metarObsTime": 1776423240
    },
    "KERI": {
      "status": "OK",
      "delay": "—",
      "metarCat": "—",
      "metarRaw": "SPECI KERI 171104Z 25008KT 1/2SM R06/6000VP6000FT FG 10/09 A2997 RMK AO2 T01000094 $",
      "metarObsTime": 1776423840
    },
    "KDUJ": {
      "status": "OK",
      "delay": "—",
      "metarCat": "IFR",
      "metarRaw": "METAR KDUJ 171053Z AUTO 29006KT 10SM BKN007 OVC018 13/12 A2994 RMK AO2 CIG 005V012 SLP134 T01280122",
      "metarObsTime": 1776423180
    },
    "KBFD": {
      "status": "OK",
      "delay": "—",
      "metarCat": "IFR",
      "metarRaw": "METAR KBFD 171053Z AUTO 29006KT 5SM -RA BR OVC008 13/12 A2993 RMK AO2 RAB43 CIG 006V011 SLP129 P0000 T01280117",
      "metarObsTime": 1776423180
    },
    "KBTP": {
      "status": "OK",
      "delay": "—",
      "metarCat": "IFR",
      "metarRaw": "METAR KBTP 171056Z AUTO 32005KT 10SM OVC007 13/ A2998 RMK AO2 SLP155 T0128 PNO $",
      "metarObsTime": 1776423360
    },
    "KFKL": {
      "status": "OK",
      "delay": "—",
      "metarCat": "—",
      "metarRaw": "—",
      "metarObsTime": null
    },
    "KIDI": {
      "status": "OK",
      "delay": "—",
      "metarCat": "MVFR",
      "metarRaw": "METAR KIDI 171115Z AUTO 27004KT 10SM OVC011 13/13 A2997 RMK A01",
      "metarObsTime": 1776424500
    },
    "KMDT": {
      "status": "OK",
      "delay": "—",
      "metarCat": "VFR",
      "metarRaw": "METAR KMDT 171056Z 32009KT 10SM FEW090 SCT250 18/13 A2985 RMK AO2 SLP106 T01830128",
      "metarObsTime": 1776423360
    },
    "KCXY": {
      "status": "OK",
      "delay": "—",
      "metarCat": "VFR",
      "metarRaw": "METAR KCXY 171056Z AUTO 33006KT 10SM SCT100 18/13 A2986 RMK AO2 SLP110 T01830133 $",
      "metarObsTime": 1776423360
    },
    "KMUI": {
      "status": "OK",
      "delay": "—",
      "metarCat": "VFR",
      "metarRaw": "METAR KMUI 171055Z 28007KT 10SM FEW100 SCT200 20/16 A2984 RMK AO2A SLP104 T01950155",
      "metarObsTime": 1776423300
    },
    "KUNV": {
      "status": "OK",
      "delay": "—",
      "metarCat": "VFR",
      "metarRaw": "METAR KUNV 171053Z 27006KT 10SM SCT017 14/14 A2991",
      "metarObsTime": 1776423180
    },
    "KAOO": {
      "status": "OK",
      "delay": "—",
      "metarCat": "VFR",
      "metarRaw": "METAR KAOO 171053Z AUTO 31007G16KT 10SM FEW028 14/11 A2992 RMK AO2 SLP122 T01440111",
      "metarObsTime": 1776423180
    },
    "KLNS": {
      "status": "OK",
      "delay": "—",
      "metarCat": "VFR",
      "metarRaw": "METAR KLNS 171053Z 27003KT 10SM CLR 16/13 A2986 RMK AO2 SLP108 T01610133 $",
      "metarObsTime": 1776423180
    },
    "KIPT": {
      "status": "OK",
      "delay": "—",
      "metarCat": "MVFR",
      "metarRaw": "SPECI KIPT 171115Z 33004KT 10SM BKN025 14/13 A2988 RMK AO2 T01440133 $",
      "metarObsTime": 1776424500
    },
    "KPHL": {
      "status": "OK",
      "delay": "—",
      "metarCat": "VFR",
      "metarRaw": "METAR KPHL 171054Z 32005KT 10SM FEW050 BKN120 BKN200 BKN250 21/13 A2984 RMK AO2 SLP105 VCSH T02110128 $",
      "metarObsTime": 1776423240
    },
    "KABE": {
      "status": "OK",
      "delay": "—",
      "metarCat": "VFR",
      "metarRaw": "METAR KABE 171051Z AUTO 00000KT 10SM CLR 15/13 A2985 RMK AO2 SLP104 T01500128",
      "metarObsTime": 1776423060
    },
    "KAVP": {
      "status": "OK",
      "delay": "—",
      "metarCat": "MVFR",
      "metarRaw": "METAR KAVP 171054Z 00000KT 7SM OVC028 16/15 A2986 RMK AO2 SLP104 T01560150",
      "metarObsTime": 1776423240
    },
    "KHZL": {
      "status": "OK",
      "delay": "—",
      "metarCat": "MVFR",
      "metarRaw": "METAR KHZL 171115Z AUTO 29003KT 10SM BKN024 15/13 A2992 RMK AO2",
      "metarObsTime": 1776424500
    }
  }
}