{
  "generatedAt": "2026-04-23T09:01:00.241Z",
  "airports": {
    "KPIT": {
      "status": "OK",
      "delay": "—",
      "metarCat": "VFR",
      "metarRaw": "METAR KPIT 230851Z 00000KT 10SM FEW250 12/11 A3000 RMK AO2 SLP162 T01220106 53001",
      "metarObsTime": 1776934260
    },
    "KAGC": {
      "status": "OK",
      "delay": "—",
      "metarCat": "VFR",
      "metarRaw": "METAR KAGC 230853Z 26006KT 10SM CLR 14/11 A3000 RMK AO2 SLP157 T01390106 53001",
      "metarObsTime": 1776934380
    },
    "KLBE": {
      "status": "OK",
      "delay": "—",
      "metarCat": "VFR",
      "metarRaw": "METAR KLBE 230855Z AUTO 19003KT 10SM CLR 12/11 A3002 RMK AO2",
      "metarObsTime": 1776934500
    },
    "KJST": {
      "status": "OK",
      "delay": "—",
      "metarCat": "VFR",
      "metarRaw": "METAR KJST 230854Z AUTO 21004KT 10SM CLR 12/10 A3000 RMK AO2 SLP151 T01220100 55000",
      "metarObsTime": 1776934440
    },
    "KERI": {
      "status": "OK",
      "delay": "—",
      "metarCat": "VFR",
      "metarRaw": "METAR KERI 230851Z AUTO 00000KT 10SM CLR 07/06 A3000 RMK AO2 SLP160 T00670056 53001",
      "metarObsTime": 1776934260
    },
    "KDUJ": {
      "status": "OK",
      "delay": "—",
      "metarCat": "VFR",
      "metarRaw": "METAR KDUJ 230853Z AUTO 03003KT 10SM CLR 12/03 A2998 RMK AO2 SLP146 T01170028 55001",
      "metarObsTime": 1776934380
    },
    "KBFD": {
      "status": "OK",
      "delay": "—",
      "metarCat": "VFR",
      "metarRaw": "METAR KBFD 230853Z AUTO 00000KT 10SM CLR 04/02 A2999 RMK AO2 SLP155 T00390022 50001 $",
      "metarObsTime": 1776934380
    },
    "KBTP": {
      "status": "OK",
      "delay": "—",
      "metarCat": "VFR",
      "metarRaw": "METAR KBTP 230856Z AUTO 23003KT 10SM CLR 11/ A3001 RMK AO2 SLP164 T0111 53001 $",
      "metarObsTime": 1776934560
    },
    "KFKL": {
      "status": "OK",
      "delay": "—",
      "metarCat": "—",
      "metarRaw": "—",
      "metarObsTime": null
    },
    "KIDI": {
      "status": "OK",
      "delay": "—",
      "metarCat": "—",
      "metarRaw": "—",
      "metarObsTime": null
    },
    "KMDT": {
      "status": "OK",
      "delay": "—",
      "metarCat": "VFR",
      "metarRaw": "METAR KMDT 230856Z 34003KT 7SM CLR 11/09 A2996 RMK AO2 SLP144 T01060089 55002",
      "metarObsTime": 1776934560
    },
    "KCXY": {
      "status": "OK",
      "delay": "—",
      "metarCat": "MVFR",
      "metarRaw": "METAR KCXY 230856Z AUTO 00000KT 5SM BR CLR 09/08 A2996 RMK AO2 SLP147 T00940083 55003",
      "metarObsTime": 1776934560
    },
    "KMUI": {
      "status": "OK",
      "delay": "—",
      "metarCat": "VFR",
      "metarRaw": "METAR KMUI 230755Z AUTO 05003KT 9SM CLR 09/09 A2995 RMK AO2 SLP145 T00920089",
      "metarObsTime": 1776930900
    },
    "KUNV": {
      "status": "OK",
      "delay": "—",
      "metarCat": "VFR",
      "metarRaw": "METAR KUNV 230855Z AUTO 00000KT 10SM CLR 11/05 A2998 RMK AO2 T01090045",
      "metarObsTime": 1776934500
    },
    "KAOO": {
      "status": "OK",
      "delay": "—",
      "metarCat": "VFR",
      "metarRaw": "METAR KAOO 230853Z AUTO 27005KT 10SM FEW025 14/11 A2999 RMK AO2 SLP148 T01440106 53002",
      "metarObsTime": 1776934380
    },
    "KLNS": {
      "status": "OK",
      "delay": "—",
      "metarCat": "MVFR",
      "metarRaw": "METAR KLNS 230853Z AUTO 10004KT 5SM BR CLR 07/07 A2996 RMK AO2 SLP144 T00720072 50004",
      "metarObsTime": 1776934380
    },
    "KIPT": {
      "status": "OK",
      "delay": "—",
      "metarCat": "VFR",
      "metarRaw": "METAR KIPT 230854Z AUTO 33003KT 10SM FEW065 08/06 A2997 RMK AO2 SLP148 T00780061 50006 $",
      "metarObsTime": 1776934440
    },
    "KPHL": {
      "status": "OK",
      "delay": "—",
      "metarCat": "VFR",
      "metarRaw": "METAR KPHL 230854Z 00000KT 10SM BKN080 BKN095 BKN140 09/07 A2998 RMK AO2 SLP150 T00940067 53005 $",
      "metarObsTime": 1776934440
    },
    "KABE": {
      "status": "OK",
      "delay": "—",
      "metarCat": "VFR",
      "metarRaw": "METAR KABE 230851Z 00000KT 6SM BR CLR 06/05 A2997 RMK AO2 SLP150 T00560050 53001",
      "metarObsTime": 1776934260
    },
    "KAVP": {
      "status": "OK",
      "delay": "—",
      "metarCat": "VFR",
      "metarRaw": "METAR KAVP 230854Z AUTO 12003KT 7SM CLR 07/06 A2997 RMK AO2 SLP148 T00670061 53005",
      "metarObsTime": 1776934440
    },
    "KHZL": {
      "status": "OK",
      "delay": "—",
      "metarCat": "LIFR",
      "metarRaw": "METAR KHZL 230855Z AUTO 00000KT 1/2SM FG BKN003 05/04 A3000 RMK AO2",
      "metarObsTime": 1776934500
    }
  }
}