{
  "generatedAt": "2026-03-25T16:40:22.883Z",
  "airports": {
    "KPIT": {
      "status": "OK",
      "delay": "—",
      "metarCat": "VFR",
      "metarRaw": "SPECI KPIT 251637Z 13004KT 10SM SCT130 OVC220 11/M07 A3017 RMK AO2 T01111072",
      "metarObsTime": 1774456620
    },
    "KAGC": {
      "status": "OK",
      "delay": "—",
      "metarCat": "VFR",
      "metarRaw": "METAR KAGC 251553Z 13005KT 10SM CLR 09/M05 A3020 RMK AO2 SLP237 T00891050",
      "metarObsTime": 1774453980
    },
    "KLBE": {
      "status": "OK",
      "delay": "—",
      "metarCat": "VFR",
      "metarRaw": "METAR KLBE 251547Z 04005KT 10SM BKN110 10/M03 A3023",
      "metarObsTime": 1774453620
    },
    "KJST": {
      "status": "OK",
      "delay": "—",
      "metarCat": "VFR",
      "metarRaw": "METAR KJST 251554Z AUTO 15007KT 10SM FEW095 07/M07 A3021 RMK AO2 SLP245 T00721067",
      "metarObsTime": 1774454040
    },
    "KERI": {
      "status": "OK",
      "delay": "—",
      "metarCat": "VFR",
      "metarRaw": "METAR KERI 251551Z 17010G21KT 10SM CLR 10/M07 A3018 RMK AO2 SLP227 T01001067",
      "metarObsTime": 1774453860
    },
    "KDUJ": {
      "status": "OK",
      "delay": "—",
      "metarCat": "VFR",
      "metarRaw": "METAR KDUJ 251553Z AUTO 16005KT 10SM FEW120 08/M08 A3021 RMK AO2 SLP239 T00781083",
      "metarObsTime": 1774453980
    },
    "KBFD": {
      "status": "OK",
      "delay": "—",
      "metarCat": "VFR",
      "metarRaw": "METAR KBFD 251553Z AUTO 17008KT 10SM CLR 07/M10 A3019 RMK AO2 SLP239 T00671100",
      "metarObsTime": 1774453980
    },
    "KBTP": {
      "status": "OK",
      "delay": "—",
      "metarCat": "VFR",
      "metarRaw": "METAR KBTP 251556Z AUTO 10006KT 10SM CLR 10/M06 A3022 RMK AO2 SLP247 T01001061 $",
      "metarObsTime": 1774454160
    },
    "KFKL": {
      "status": "OK",
      "delay": "—",
      "metarCat": "VFR",
      "metarRaw": "METAR KFKL 251556Z AUTO 13008KT 10SM FEW120 09/M09 A3020 RMK AO2 SLP237 T00941089",
      "metarObsTime": 1774454160
    },
    "KIDI": {
      "status": "OK",
      "delay": "—",
      "metarCat": "VFR",
      "metarRaw": "METAR KIDI 251635Z AUTO 13007KT 10SM FEW100 FEW120 12/M06 A3020 RMK A01",
      "metarObsTime": 1774456500
    },
    "KMDT": {
      "status": "OK",
      "delay": "—",
      "metarCat": "VFR",
      "metarRaw": "METAR KMDT 251556Z 13010KT 10SM FEW070 SCT220 OVC250 08/00 A3032 RMK AO2 SLP270 T00830000",
      "metarObsTime": 1774454160
    },
    "KCXY": {
      "status": "OK",
      "delay": "—",
      "metarCat": "VFR",
      "metarRaw": "METAR KCXY 251556Z 10010KT 10SM FEW110 08/00 A3032 RMK AO2 SLP271 T00780000",
      "metarObsTime": 1774454160
    },
    "KMUI": {
      "status": "OK",
      "delay": "—",
      "metarCat": "VFR",
      "metarRaw": "METAR KMUI 251555Z 14007KT 10SM SCT090 OVC130 09/01 A3032 RMK AO2A SLP274 T00850009",
      "metarObsTime": 1774454100
    },
    "KUNV": {
      "status": "OK",
      "delay": "—",
      "metarCat": "VFR",
      "metarRaw": "METAR KUNV 251553Z 15004KT 10SM BKN100 08/M06 A3027",
      "metarObsTime": 1774453980
    },
    "KAOO": {
      "status": "OK",
      "delay": "—",
      "metarCat": "VFR",
      "metarRaw": "METAR KAOO 251553Z AUTO 10SM FEW110 08/M05 A3026 RMK AO2 SLP257 T00781050",
      "metarObsTime": 1774453980
    },
    "KLNS": {
      "status": "OK",
      "delay": "—",
      "metarCat": "VFR",
      "metarRaw": "METAR KLNS 251553Z 17008KT 10SM FEW050 SCT060 09/01 A3035 RMK AO2 SLP280 T00890006",
      "metarObsTime": 1774453980
    },
    "KIPT": {
      "status": "OK",
      "delay": "—",
      "metarCat": "VFR",
      "metarRaw": "METAR KIPT 251554Z 11008KT 10SM CLR 08/M04 A3029 RMK AO2 SLP262 T00831044 $",
      "metarObsTime": 1774454040
    },
    "KPHL": {
      "status": "OK",
      "delay": "—",
      "metarCat": "VFR",
      "metarRaw": "METAR KPHL 251554Z 21008KT 10SM BKN090 OVC330 10/01 A3041 RMK AO2 SLP296 VIRGA T01000006 $",
      "metarObsTime": 1774454040
    },
    "KABE": {
      "status": "OK",
      "delay": "—",
      "metarCat": "VFR",
      "metarRaw": "METAR KABE 251551Z 00000KT 10SM BKN100 08/M03 A3036 RMK AO2 SLP285 T00831028 $",
      "metarObsTime": 1774453860
    },
    "KAVP": {
      "status": "OK",
      "delay": "—",
      "metarCat": "VFR",
      "metarRaw": "METAR KAVP 251554Z VRB05KT 10SM CLR 08/M06 A3029 RMK AO2 SLP261 T00781061",
      "metarObsTime": 1774454040
    },
    "KHZL": {
      "status": "OK",
      "delay": "—",
      "metarCat": "VFR",
      "metarRaw": "METAR KHZL 251635Z AUTO 16007KT 120V190 10SM CLR 08/M06 A3030 RMK AO2",
      "metarObsTime": 1774456500
    }
  }
}