{
  "generatedAt": "2026-04-05T16:40:34.477Z",
  "airports": {
    "KPIT": {
      "status": "OK",
      "delay": "—",
      "metarCat": "VFR",
      "metarRaw": "SPECI KPIT 051621Z 25011G19KT 10SM SCT027 OVC036 07/00 A2998 RMK AO2 T00720000",
      "metarObsTime": 1775406060
    },
    "KAGC": {
      "status": "OK",
      "delay": "—",
      "metarCat": "VFR",
      "metarRaw": "SPECI KAGC 051520Z 27016G28KT 10SM OVC033 08/02 A2996 RMK AO2 PK WND 28028/1520 T00830017",
      "metarObsTime": 1775402400
    },
    "KLBE": {
      "status": "OK",
      "delay": "—",
      "metarCat": "—",
      "metarRaw": "—",
      "metarObsTime": null
    },
    "KJST": {
      "status": "OK",
      "delay": "—",
      "metarCat": "MVFR",
      "metarRaw": "SPECI KJST 051623Z AUTO 26015G24KT 10SM OVC015 04/02 A2991 RMK AO2 PK WND 26027/1600 T00440022",
      "metarObsTime": 1775406180
    },
    "KERI": {
      "status": "OK",
      "delay": "—",
      "metarCat": "—",
      "metarRaw": "—",
      "metarObsTime": null
    },
    "KDUJ": {
      "status": "OK",
      "delay": "—",
      "metarCat": "—",
      "metarRaw": "—",
      "metarObsTime": null
    },
    "KBFD": {
      "status": "OK",
      "delay": "—",
      "metarCat": "MVFR",
      "metarRaw": "SPECI KBFD 051536Z AUTO 27009G21KT 10SM FEW012 BKN024 OVC029 03/01 A2988 RMK AO2 T00330006",
      "metarObsTime": 1775403360
    },
    "KBTP": {
      "status": "OK",
      "delay": "—",
      "metarCat": "VFR",
      "metarRaw": "SPECI KBTP 051518Z AUTO 28013KT 10SM OVC033 07/01 A2997 RMK AO2 $",
      "metarObsTime": 1775402280
    },
    "KFKL": {
      "status": "OK",
      "delay": "—",
      "metarCat": "—",
      "metarRaw": "—",
      "metarObsTime": null
    },
    "KIDI": {
      "status": "OK",
      "delay": "—",
      "metarCat": "MVFR",
      "metarRaw": "METAR KIDI 051535Z AUTO 28011G16KT 10SM OVC026 06/03 A2995 RMK A01",
      "metarObsTime": 1775403300
    },
    "KMDT": {
      "status": "OK",
      "delay": "—",
      "metarCat": "—",
      "metarRaw": "—",
      "metarObsTime": null
    },
    "KCXY": {
      "status": "OK",
      "delay": "—",
      "metarCat": "LIFR",
      "metarRaw": "SPECI KCXY 051534Z 33004KT 5SM RA BR BKN004 BKN022 OVC038 11/10 A2986 RMK AO2 P0004 T01060100 $",
      "metarObsTime": 1775403240
    },
    "KMUI": {
      "status": "OK",
      "delay": "—",
      "metarCat": "LIFR",
      "metarRaw": "SPECI KMUI 051511Z AUTO 27006KT 10SM -RA OVC004 12/11 A2985 RMK AO2 PRESRR SLP112",
      "metarObsTime": 1775401860
    },
    "KUNV": {
      "status": "OK",
      "delay": "—",
      "metarCat": "—",
      "metarRaw": "—",
      "metarObsTime": null
    },
    "KAOO": {
      "status": "OK",
      "delay": "—",
      "metarCat": "MVFR",
      "metarRaw": "SPECI KAOO 051528Z AUTO 30009G16KT 10SM BKN014 OVC020 08/06 A2991 RMK AO2 T00830061",
      "metarObsTime": 1775402880
    },
    "KLNS": {
      "status": "OK",
      "delay": "—",
      "metarCat": "—",
      "metarRaw": "—",
      "metarObsTime": null
    },
    "KIPT": {
      "status": "OK",
      "delay": "—",
      "metarCat": "—",
      "metarRaw": "—",
      "metarObsTime": null
    },
    "KPHL": {
      "status": "OK",
      "delay": "—",
      "metarCat": "—",
      "metarRaw": "—",
      "metarObsTime": null
    },
    "KABE": {
      "status": "OK",
      "delay": "—",
      "metarCat": "VFR",
      "metarRaw": "SPECI KABE 051523Z 00000KT 7SM -RA SCT005 BKN060 OVC075 09/08 A2984 RMK AO2 P0021 T00890083 $",
      "metarObsTime": 1775402580
    },
    "KAVP": {
      "status": "OK",
      "delay": "—",
      "metarCat": "IFR",
      "metarRaw": "SPECI KAVP 051523Z 25006KT 5SM -RA BR BKN006 OVC085 11/11 A2982 RMK AO2 RAB09 CIG 003V014 P0000 T01110106",
      "metarObsTime": 1775402580
    },
    "KHZL": {
      "status": "OK",
      "delay": "—",
      "metarCat": "LIFR",
      "metarRaw": "METAR KHZL 051535Z AUTO 00000KT 10SM -RA OVC004 12/11 A2986 RMK AO2 P0003",
      "metarObsTime": 1775403300
    }
  }
}