{
  "generatedAt": "2026-03-12T06:10:18.040Z",
  "airports": {
    "KPIT": {
      "status": "OK",
      "delay": "—",
      "metarCat": "IFR",
      "metarRaw": "METAR KPIT 120551Z 31021G29KT 10SM -RAPL BKN009 OVC017 04/02 A2983 RMK AO2 PK WND 31030/0539 PLB49 SLP110 P0000 60025 T00440022 10167 20044 51046 $",
      "metarObsTime": 1773294660
    },
    "KAGC": {
      "status": "OK",
      "delay": "—",
      "metarCat": "IFR",
      "metarRaw": "SPECI KAGC 120601Z 34013G28KT 10SM OVC009 05/04 A2980 RMK AO2 PK WND 31028/0554 P0001 T00500039",
      "metarObsTime": 1773295260
    },
    "KLBE": {
      "status": "OK",
      "delay": "—",
      "metarCat": "MVFR",
      "metarRaw": "METAR KLBE 120555Z AUTO 28010G16KT 5SM -RA BR BKN016 OVC021 07/05 A2982 RMK AO2",
      "metarObsTime": 1773294900
    },
    "KJST": {
      "status": "OK",
      "delay": "—",
      "metarCat": "IFR",
      "metarRaw": "METAR KJST 120554Z AUTO 30010G27KT 8SM -RA BKN009 BKN012 OVC019 06/04 A2974 RMK AO2 PK WND 32035/0530 WSHFT 0457 SLP066 P0003 60037 T00560044 10150 20056 53020",
      "metarObsTime": 1773294840
    },
    "KERI": {
      "status": "OK",
      "delay": "—",
      "metarCat": "MVFR",
      "metarRaw": "METAR KERI 120551Z AUTO 28018G32KT 10SM OVC017 01/M02 A2987 RMK AO2 PK WND 29032/0550 SLP119 60004 T00061017 10117 20006 53018",
      "metarObsTime": 1773294660
    },
    "KDUJ": {
      "status": "OK",
      "delay": "—",
      "metarCat": "IFR",
      "metarRaw": "SPECI KDUJ 120607Z AUTO 29011G19KT 10SM UP BKN008 OVC012 03/02 A2975 RMK AO2 RAE03UPB03 P0000 T00280017",
      "metarObsTime": 1773295620
    },
    "KBFD": {
      "status": "OK",
      "delay": "—",
      "metarCat": "IFR",
      "metarRaw": "METAR KBFD 120553Z AUTO 28010G24KT 3SM -SN BR BKN006 BKN010 OVC017 01/00 A2971 RMK AO2 PK WND 30030/0526 RAE16UPB31E37SNB37 SLP063 P0000 60015 T00060000 10150 20006 51017",
      "metarObsTime": 1773294780
    },
    "KBTP": {
      "status": "OK",
      "delay": "—",
      "metarCat": "MVFR",
      "metarRaw": "METAR KBTP 120556Z AUTO 29013KT 10SM -RA OVC010 03/03 A2984 RMK AO2 CIG 009V014 SLP111 P0000 60032 T00330033 10161 20033 53019 $",
      "metarObsTime": 1773294960
    },
    "KFKL": {
      "status": "OK",
      "delay": "—",
      "metarCat": "IFR",
      "metarRaw": "METAR KFKL 120556Z AUTO 30008KT 7SM -SN OVC006 A2983 RMK AO2 RAE56SNB56 CIG 005V010 SLPNO P0001 60010 51033 FZRANO $",
      "metarObsTime": 1773294960
    },
    "KIDI": {
      "status": "OK",
      "delay": "—",
      "metarCat": "—",
      "metarRaw": "—",
      "metarObsTime": null
    },
    "KMDT": {
      "status": "OK",
      "delay": "—",
      "metarCat": "IFR",
      "metarRaw": "SPECI KMDT 120603Z 13003KT 1SM R13/P6000FT BR FEW001 OVC100 14/14 A2960 RMK AO2 T01440144",
      "metarObsTime": 1773295380
    },
    "KCXY": {
      "status": "OK",
      "delay": "—",
      "metarCat": "LIFR",
      "metarRaw": "SPECI KCXY 120604Z AUTO 35003KT 1 3/4SM R08/4000VP6000FT BR BKN002 OVC100 16/16 A2960 RMK AO2 T01560156",
      "metarObsTime": 1773295440
    },
    "KMUI": {
      "status": "OK",
      "delay": "—",
      "metarCat": "IFR",
      "metarRaw": "METAR KMUI 120555Z AUTO 00000KT 6SM BR OVC005 17/16 A2960 RMK AO2 OVC V BKN SLP025 60020 T01650162 10181 20159 55019",
      "metarObsTime": 1773294900
    },
    "KUNV": {
      "status": "OK",
      "delay": "—",
      "metarCat": "MVFR",
      "metarRaw": "METAR KUNV 120555Z AUTO 30018G26KT 10SM BKN016 OVC024 14/12 A2964 RMK AO2 60014 T01390118 10173 20139",
      "metarObsTime": 1773294900
    },
    "KAOO": {
      "status": "OK",
      "delay": "—",
      "metarCat": "MVFR",
      "metarRaw": "SPECI KAOO 120602Z AUTO 30017G33KT 10SM FEW015 BKN027 OVC031 10/07 A2969 RMK AO2 PK WND 32033/0556 WSHFT 0542 RAE0558 PRESRR P0000 T01000072",
      "metarObsTime": 1773295320
    },
    "KLNS": {
      "status": "OK",
      "delay": "—",
      "metarCat": "MVFR",
      "metarRaw": "METAR KLNS 120553Z AUTO 00000KT 3SM BR BKN080 BKN100 16/16 A2961 RMK AO2 SLP025 60013 T01560156 10183 20150 58016",
      "metarObsTime": 1773294780
    },
    "KIPT": {
      "status": "OK",
      "delay": "—",
      "metarCat": "VFR",
      "metarRaw": "METAR KIPT 120554Z AUTO 21003KT 10SM FEW029 FEW060 OVC100 18/13 A2956 RMK AO2 SLP008 60016 T01780133 10194 20167 55018 $",
      "metarObsTime": 1773294840
    },
    "KPHL": {
      "status": "OK",
      "delay": "—",
      "metarCat": "VFR",
      "metarRaw": "METAR KPHL 120554Z 31013G19KT 10SM BKN190 19/16 A2959 RMK AO2 SLP021 60001 T01940156 10233 20161 55018 $",
      "metarObsTime": 1773294840
    },
    "KABE": {
      "status": "OK",
      "delay": "—",
      "metarCat": "IFR",
      "metarRaw": "SPECI KABE 120606Z 18003KT 1SM -RA BR FEW002 SCT023 OVC047 16/16 A2959 RMK AO2 TWR VIS 2 1/2 RAE0556B06 P0000 T01610161 $",
      "metarObsTime": 1773295560
    },
    "KAVP": {
      "status": "OK",
      "delay": "—",
      "metarCat": "VFR",
      "metarRaw": "METAR KAVP 120554Z AUTO 23007KT 10SM SCT055 OVC070 17/14 A2958 RMK AO2 RAB11E26 SLP011 P0000 60039 T01670139 10183 20161 56026",
      "metarObsTime": 1773294840
    },
    "KHZL": {
      "status": "OK",
      "delay": "—",
      "metarCat": "VFR",
      "metarRaw": "METAR KHZL 120555Z AUTO 21003KT 10SM SCT035 BKN050 OVC085 16/13 A2963 RMK AO2",
      "metarObsTime": 1773294900
    }
  }
}