{
  "generatedAt": "2026-04-17T05:00:52.943Z",
  "airports": {
    "KPIT": {
      "status": "OK",
      "delay": "—",
      "metarCat": "VFR",
      "metarRaw": "METAR KPIT 170451Z 30004KT 10SM FEW023 SCT070 16/15 A2990 RMK AO2 SLP126 OCNL LTG DSNT NE T01610150 402780161",
      "metarObsTime": 1776401460
    },
    "KAGC": {
      "status": "OK",
      "delay": "—",
      "metarCat": "VFR",
      "metarRaw": "METAR KAGC 170453Z 26006KT 10SM FEW060 17/15 A2990 RMK AO2 SLP120 T01720150 402780167",
      "metarObsTime": 1776401580
    },
    "KLBE": {
      "status": "OK",
      "delay": "—",
      "metarCat": "VFR",
      "metarRaw": "METAR KLBE 170455Z AUTO 19011KT 10SM CLR 17/17 A2991 RMK AO2",
      "metarObsTime": 1776401700
    },
    "KJST": {
      "status": "OK",
      "delay": "—",
      "metarCat": "IFR",
      "metarRaw": "METAR KJST 170454Z AUTO 21005KT 10SM BKN008 BKN013 OVC030 16/14 A2991 RMK AO2 SLP116 T01560144 402610150",
      "metarObsTime": 1776401640
    },
    "KERI": {
      "status": "OK",
      "delay": "—",
      "metarCat": "IFR",
      "metarRaw": "METAR KERI 170451Z AUTO 25008KT 10SM BKN006 OVC011 14/13 A2988 RMK AO2 SLP114 T01390128 402560139 $",
      "metarObsTime": 1776401460
    },
    "KDUJ": {
      "status": "OK",
      "delay": "—",
      "metarCat": "MVFR",
      "metarRaw": "METAR KDUJ 170453Z AUTO 22007G19KT 4SM -RA BR FEW030 BKN055 OVC070 14/13 A2990 RMK AO2 RAB28 SLP114 P0011 T01390133 402610128",
      "metarObsTime": 1776401580
    },
    "KBFD": {
      "status": "OK",
      "delay": "—",
      "metarCat": "VFR",
      "metarRaw": "METAR KBFD 170453Z AUTO 23003KT 10SM FEW038 13/12 A2989 RMK AO2 SLP110 T01280122 402500111",
      "metarObsTime": 1776401580
    },
    "KBTP": {
      "status": "OK",
      "delay": "—",
      "metarCat": "VFR",
      "metarRaw": "METAR KBTP 170456Z AUTO 30005KT 10SM BKN060 OVC080 16/16 A2991 RMK AO2 LTG DSNT E TSE11RAE23 SLP125 T01560156 PNO $",
      "metarObsTime": 1776401760
    },
    "KFKL": {
      "status": "OK",
      "delay": "—",
      "metarCat": "—",
      "metarRaw": "—",
      "metarObsTime": null
    },
    "KIDI": {
      "status": "OK",
      "delay": "—",
      "metarCat": "VFR",
      "metarRaw": "METAR KIDI 170455Z AUTO 16004KT 10SM BKN044 BKN050 16/16 A2989 RMK A01",
      "metarObsTime": 1776401700
    },
    "KMDT": {
      "status": "OK",
      "delay": "—",
      "metarCat": "VFR",
      "metarRaw": "METAR KMDT 170456Z 30012KT 10SM -RA FEW090 OVC110 19/15 A2983 RMK AO2 PK WND 32027/0411 RAB21 SLP099 P0000 T01940150 403110161",
      "metarObsTime": 1776401760
    },
    "KCXY": {
      "status": "OK",
      "delay": "—",
      "metarCat": "VFR",
      "metarRaw": "METAR KCXY 170456Z AUTO VRB04KT 10SM BKN110 19/14 A2984 RMK AO2 RAB18E52 SLP101 P0000 T01940144 403170161 $",
      "metarObsTime": 1776401760
    },
    "KMUI": {
      "status": "OK",
      "delay": "—",
      "metarCat": "VFR",
      "metarRaw": "SPECI KMUI 170413Z AUTO 32013G29KT 10SM FEW043 OVC095 22/17 A2980 RMK AO2 WSHFT 00 SLP090",
      "metarObsTime": 1776399180
    },
    "KUNV": {
      "status": "OK",
      "delay": "—",
      "metarCat": "VFR",
      "metarRaw": "METAR KUNV 170455Z AUTO 25005KT 10SM CLR 16/15 A2988 RMK AO2 T01550151",
      "metarObsTime": 1776401700
    },
    "KAOO": {
      "status": "OK",
      "delay": "—",
      "metarCat": "VFR",
      "metarRaw": "METAR KAOO 170453Z AUTO 20006KT 9SM BKN038 BKN047 OVC060 16/15 A2990 RMK AO2 SLP117 T01560150 402940156",
      "metarObsTime": 1776401580
    },
    "KLNS": {
      "status": "OK",
      "delay": "—",
      "metarCat": "VFR",
      "metarRaw": "METAR KLNS 170453Z AUTO 30011KT 10SM BKN110 21/13 A2982 RMK AO2 PK WND 31026/0358 SLP093 T02110133 403170156 $",
      "metarObsTime": 1776401580
    },
    "KIPT": {
      "status": "OK",
      "delay": "—",
      "metarCat": "VFR",
      "metarRaw": "METAR KIPT 170354Z AUTO 28006KT 10SM FEW065 BKN100 OVC110 19/16 A2983 RMK AO2 RAB03E40 SLP099 P0000 T01890156 $",
      "metarObsTime": 1776398040
    },
    "KPHL": {
      "status": "OK",
      "delay": "—",
      "metarCat": "VFR",
      "metarRaw": "METAR KPHL 170454Z 31005KT 10SM CLR 24/14 A2978 RMK AO2 SLP083 T02440144 403280183 $",
      "metarObsTime": 1776401640
    },
    "KABE": {
      "status": "OK",
      "delay": "—",
      "metarCat": "VFR",
      "metarRaw": "METAR KABE 170451Z 25003KT 10SM OVC100 21/16 A2981 RMK AO2 RAE0357 SLP091 P0000 T02060156 403170161",
      "metarObsTime": 1776401460
    },
    "KAVP": {
      "status": "OK",
      "delay": "—",
      "metarCat": "MVFR",
      "metarRaw": "METAR KAVP 170454Z AUTO 25007KT 5SM RA BKN035 BKN060 OVC090 18/16 A2985 RMK AO2 RAB19 SLP101 P0004 T01830156 403060150",
      "metarObsTime": 1776401640
    },
    "KHZL": {
      "status": "OK",
      "delay": "—",
      "metarCat": "MVFR",
      "metarRaw": "METAR KHZL 170455Z AUTO 29005KT 10SM -RA BKN012 BKN037 OVC100 17/15 A2990 RMK AO2 P0002",
      "metarObsTime": 1776401700
    }
  }
}