{
  "generatedAt": "2026-04-22T14:11:02.853Z",
  "airports": {
    "KPIT": {
      "status": "OK",
      "delay": "—",
      "metarCat": "VFR",
      "metarRaw": "METAR KPIT 221351Z 26006G16KT 10SM FEW100 FEW250 17/09 A2998 RMK AO2 SLP157 T01720089",
      "metarObsTime": 1776865860
    },
    "KAGC": {
      "status": "OK",
      "delay": "—",
      "metarCat": "VFR",
      "metarRaw": "METAR KAGC 221353Z 22010KT 10SM CLR 16/10 A2999 RMK AO2 SLP155 T01610100",
      "metarObsTime": 1776865980
    },
    "KLBE": {
      "status": "OK",
      "delay": "—",
      "metarCat": "VFR",
      "metarRaw": "METAR KLBE 221353Z 21017G26KT 10SM SCT050 BKN120 15/10 A3001",
      "metarObsTime": 1776865980
    },
    "KJST": {
      "status": "OK",
      "delay": "—",
      "metarCat": "VFR",
      "metarRaw": "METAR KJST 221354Z AUTO 24009KT 10SM OVC044 13/09 A3000 RMK AO2 SLP159 T01280089",
      "metarObsTime": 1776866040
    },
    "KERI": {
      "status": "OK",
      "delay": "—",
      "metarCat": "VFR",
      "metarRaw": "METAR KERI 221351Z 28007KT 10SM CLR 16/09 A2995 RMK AO2 SLP141 T01610089",
      "metarObsTime": 1776865860
    },
    "KDUJ": {
      "status": "OK",
      "delay": "—",
      "metarCat": "VFR",
      "metarRaw": "METAR KDUJ 221353Z AUTO 24011KT 10SM BKN050 14/09 A2996 RMK AO2 SLP142 T01440094",
      "metarObsTime": 1776865980
    },
    "KBFD": {
      "status": "OK",
      "delay": "—",
      "metarCat": "VFR",
      "metarRaw": "METAR KBFD 221353Z AUTO VRB05KT 10SM SCT034 BKN043 14/08 A2995 RMK AO2 SLP137 T01440078 $",
      "metarObsTime": 1776865980
    },
    "KBTP": {
      "status": "OK",
      "delay": "—",
      "metarCat": "VFR",
      "metarRaw": "METAR KBTP 221356Z AUTO 26009KT 10SM CLR 17/10 A2999 RMK AO2 SLP157 T01670100 $",
      "metarObsTime": 1776866160
    },
    "KFKL": {
      "status": "OK",
      "delay": "—",
      "metarCat": "—",
      "metarRaw": "—",
      "metarObsTime": null
    },
    "KIDI": {
      "status": "OK",
      "delay": "—",
      "metarCat": "—",
      "metarRaw": "—",
      "metarObsTime": null
    },
    "KMDT": {
      "status": "OK",
      "delay": "—",
      "metarCat": "VFR",
      "metarRaw": "METAR KMDT 221356Z 10004KT 10SM FEW055 BKN085 OVC110 08/06 A3004 RMK AO2 RAE54 SLP176 P0000 T00830061",
      "metarObsTime": 1776866160
    },
    "KCXY": {
      "status": "OK",
      "delay": "—",
      "metarCat": "VFR",
      "metarRaw": "METAR KCXY 221356Z VRB03KT 10SM -RA FEW075 OVC090 08/06 A3006",
      "metarObsTime": 1776866160
    },
    "KMUI": {
      "status": "OK",
      "delay": "—",
      "metarCat": "VFR",
      "metarRaw": "METAR KMUI 221355Z 05003KT 6SM -RA BR SCT013 OVC080 09/08 A3002 RMK AO2A SLP170 T00870084",
      "metarObsTime": 1776866100
    },
    "KUNV": {
      "status": "OK",
      "delay": "—",
      "metarCat": "VFR",
      "metarRaw": "METAR KUNV 221353Z 19005KT 10SM SCT055 09/06 A2998",
      "metarObsTime": 1776865980
    },
    "KAOO": {
      "status": "OK",
      "delay": "—",
      "metarCat": "VFR",
      "metarRaw": "METAR KAOO 221353Z AUTO 23012KT 10SM OVC055 14/09 A3000 RMK AO2 SLP158 T01440089",
      "metarObsTime": 1776865980
    },
    "KLNS": {
      "status": "OK",
      "delay": "—",
      "metarCat": "VFR",
      "metarRaw": "METAR KLNS 221353Z 12005KT 10SM -RA OVC080 09/07 A3005 RMK AO2 SLP175 P0002 T00890067",
      "metarObsTime": 1776865980
    },
    "KIPT": {
      "status": "OK",
      "delay": "—",
      "metarCat": "VFR",
      "metarRaw": "METAR KIPT 221354Z 12007KT 10SM CLR 11/04 A3000 RMK AO2 SLP160 T01110044 $",
      "metarObsTime": 1776866040
    },
    "KPHL": {
      "status": "OK",
      "delay": "—",
      "metarCat": "VFR",
      "metarRaw": "METAR KPHL 221354Z 16005KT 10SM FEW022 OVC110 13/07 A3008 RMK AO2 RAE17 SLP184 VIRGA P0000 T01280067 $",
      "metarObsTime": 1776866040
    },
    "KABE": {
      "status": "OK",
      "delay": "—",
      "metarCat": "VFR",
      "metarRaw": "METAR KABE 221351Z 10005KT 10SM -RA BKN065 OVC080 07/06 A3007 RMK AO2 RAE11B20 SLP183 P0002 T00720056",
      "metarObsTime": 1776865860
    },
    "KAVP": {
      "status": "OK",
      "delay": "—",
      "metarCat": "VFR",
      "metarRaw": "METAR KAVP 221354Z 23004KT 10SM SCT050 OVC075 08/04 A3003 RMK AO2 SLP169 T00830044",
      "metarObsTime": 1776866040
    },
    "KHZL": {
      "status": "OK",
      "delay": "—",
      "metarCat": "IFR",
      "metarRaw": "METAR KHZL 221355Z AUTO 13003KT 10SM OVC006 07/04 A3005 RMK AO2",
      "metarObsTime": 1776866100
    }
  }
}