{
  "generatedAt": "2026-03-07T01:20:14.496Z",
  "airports": {
    "KPIT": {
      "status": "OK",
      "delay": "—",
      "metarCat": "VFR",
      "metarRaw": "METAR KPIT 070051Z 15006KT 10SM FEW070 SCT110 BKN250 18/14 A3013 RMK AO2 SLP208 T01780139",
      "metarObsTime": 1772844660
    },
    "KAGC": {
      "status": "OK",
      "delay": "—",
      "metarCat": "VFR",
      "metarRaw": "METAR KAGC 070053Z 16007KT 10SM CLR 18/14 A3013 RMK AO2 SLP206 T01780139",
      "metarObsTime": 1772844780
    },
    "KLBE": {
      "status": "OK",
      "delay": "—",
      "metarCat": "VFR",
      "metarRaw": "METAR KLBE 070053Z 00000KT 10SM CLR 15/14 A3017",
      "metarObsTime": 1772844780
    },
    "KJST": {
      "status": "OK",
      "delay": "—",
      "metarCat": "VFR",
      "metarRaw": "METAR KJST 070054Z AUTO 14006KT 10SM CLR 13/12 A3021 RMK AO2 SLP229 T01330117",
      "metarObsTime": 1772844840
    },
    "KERI": {
      "status": "OK",
      "delay": "—",
      "metarCat": "VFR",
      "metarRaw": "METAR KERI 070051Z 18011G17KT 10SM SCT055 BKN070 BKN090 19/13 A3005 RMK AO2 SLP179 T01890128 $",
      "metarObsTime": 1772844660
    },
    "KDUJ": {
      "status": "OK",
      "delay": "—",
      "metarCat": "VFR",
      "metarRaw": "METAR KDUJ 070053Z AUTO 12009KT 10SM CLR 14/11 A3017 RMK AO2 SLP216 T01390106",
      "metarObsTime": 1772844780
    },
    "KBFD": {
      "status": "OK",
      "delay": "—",
      "metarCat": "VFR",
      "metarRaw": "METAR KBFD 070053Z AUTO 15009KT 10SM SCT033 13/10 A3016 RMK AO2 SLP215 T01330100",
      "metarObsTime": 1772844780
    },
    "KBTP": {
      "status": "OK",
      "delay": "—",
      "metarCat": "VFR",
      "metarRaw": "METAR KBTP 070056Z AUTO 14003KT 10SM CLR 17/14 A3015 RMK AO2 SLP214 T01720144 $",
      "metarObsTime": 1772844960
    },
    "KFKL": {
      "status": "OK",
      "delay": "—",
      "metarCat": "VFR",
      "metarRaw": "METAR KFKL 070056Z AUTO 17009KT 10SM CLR 17/13 A3014 RMK AO2 SLP208 T01670128",
      "metarObsTime": 1772844960
    },
    "KIDI": {
      "status": "OK",
      "delay": "—",
      "metarCat": "VFR",
      "metarRaw": "METAR KIDI 070115Z AUTO 13005KT 10SM FEW050 16/13 A3017 RMK A01",
      "metarObsTime": 1772846100
    },
    "KMDT": {
      "status": "OK",
      "delay": "—",
      "metarCat": "IFR",
      "metarRaw": "METAR KMDT 070056Z 09007KT 2SM BR OVC005 05/04 A3036 RMK AO2 SLP283 T00500044",
      "metarObsTime": 1772844960
    },
    "KCXY": {
      "status": "OK",
      "delay": "—",
      "metarCat": "LIFR",
      "metarRaw": "SPECI KCXY 070110Z 10006KT 2SM BR OVC004 05/04 A3036 RMK AO2 T00500044",
      "metarObsTime": 1772845800
    },
    "KMUI": {
      "status": "OK",
      "delay": "—",
      "metarCat": "IFR",
      "metarRaw": "METAR KMUI 070055Z AUTO 08004KT 6SM BR OVC006 05/05 A3036 RMK AO2 SLP287 T00530050",
      "metarObsTime": 1772844900
    },
    "KUNV": {
      "status": "OK",
      "delay": "—",
      "metarCat": "IFR",
      "metarRaw": "METAR KUNV 070053Z 00000KT 3SM BR OVC005 07/07 A3028",
      "metarObsTime": 1772844780
    },
    "KAOO": {
      "status": "OK",
      "delay": "—",
      "metarCat": "LIFR",
      "metarRaw": "SPECI KAOO 070111Z AUTO 12005KT 2 1/2SM BR OVC003 09/09 A3026 RMK AO2 T00940089",
      "metarObsTime": 1772845860
    },
    "KLNS": {
      "status": "OK",
      "delay": "—",
      "metarCat": "IFR",
      "metarRaw": "SPECI KLNS 070105Z 09006KT 2 1/2SM BR OVC007 05/04 A3037 RMK AO2 T00500044",
      "metarObsTime": 1772845500
    },
    "KIPT": {
      "status": "OK",
      "delay": "—",
      "metarCat": "IFR",
      "metarRaw": "SPECI KIPT 070103Z 08009KT 6SM BR OVC009 06/04 A3032 RMK AO2 T00560044",
      "metarObsTime": 1772845380
    },
    "KPHL": {
      "status": "OK",
      "delay": "—",
      "metarCat": "MVFR",
      "metarRaw": "METAR KPHL 070054Z 09008KT 10SM OVC013 06/03 A3041 RMK AO2 RAE2356 SLP295 P0000 T00560028 $",
      "metarObsTime": 1772844840
    },
    "KABE": {
      "status": "OK",
      "delay": "—",
      "metarCat": "IFR",
      "metarRaw": "METAR KABE 070051Z 11004KT 4SM BR OVC006 04/03 A3039 RMK AO2 SLP294 T00440033",
      "metarObsTime": 1772844660
    },
    "KAVP": {
      "status": "OK",
      "delay": "—",
      "metarCat": "MVFR",
      "metarRaw": "SPECI KAVP 070110Z 12005KT 10SM OVC017 04/02 A3033 RMK AO2 T00390017",
      "metarObsTime": 1772845800
    },
    "KHZL": {
      "status": "OK",
      "delay": "—",
      "metarCat": "LIFR",
      "metarRaw": "METAR KHZL 070055Z AUTO 14004KT 1/2SM FG OVC002 02/02 A3034 RMK AO2",
      "metarObsTime": 1772844900
    }
  }
}