{
  "generatedAt": "2026-04-19T22:30:54.010Z",
  "airports": {
    "KPIT": {
      "status": "OK",
      "delay": "—",
      "metarCat": "VFR",
      "metarRaw": "METAR KPIT 192151Z 30016G24KT 10SM FEW036 BKN070 BKN150 09/M06 A3004 RMK AO2 SLP185 T00941056 $",
      "metarObsTime": 1776635460
    },
    "KAGC": {
      "status": "OK",
      "delay": "—",
      "metarCat": "VFR",
      "metarRaw": "METAR KAGC 192153Z 32006KT 10SM BKN065 OVC080 08/M04 A3004 RMK AO2 SLP183 T00831044",
      "metarObsTime": 1776635580
    },
    "KLBE": {
      "status": "OK",
      "delay": "—",
      "metarCat": "VFR",
      "metarRaw": "METAR KLBE 192153Z 27018G23KT 10SM SCT065 BKN075 09/M04 A3007",
      "metarObsTime": 1776635580
    },
    "KJST": {
      "status": "OK",
      "delay": "—",
      "metarCat": "VFR",
      "metarRaw": "METAR KJST 192154Z AUTO 28016G28KT 10SM FEW065 06/M07 A3000 RMK AO2 PK WND 30032/2057 SLP172 T00611072",
      "metarObsTime": 1776635640
    },
    "KERI": {
      "status": "OK",
      "delay": "—",
      "metarCat": "VFR",
      "metarRaw": "METAR KERI 192151Z 25010G21KT 10SM CLR 07/M03 A3003 RMK AO2 SLP174 T00721028 $",
      "metarObsTime": 1776635460
    },
    "KDUJ": {
      "status": "OK",
      "delay": "—",
      "metarCat": "VFR",
      "metarRaw": "METAR KDUJ 192153Z AUTO 27012G21KT 10SM BKN055 BKN070 OVC085 05/M07 A3001 RMK AO2 PK WND 30026/2056 SLP174 T00501067 $",
      "metarObsTime": 1776635580
    },
    "KBFD": {
      "status": "OK",
      "delay": "—",
      "metarCat": "VFR",
      "metarRaw": "METAR KBFD 192153Z AUTO 29012KT 10SM SCT055 BKN070 04/M06 A2999 RMK AO2 PK WND 27029/2057 SLP168 T00391061",
      "metarObsTime": 1776635580
    },
    "KBTP": {
      "status": "OK",
      "delay": "—",
      "metarCat": "VFR",
      "metarRaw": "METAR KBTP 192156Z AUTO 28008KT 10SM SCT049 BKN060 08/M03 A3006 RMK AO2 SLP190 T00781033 $",
      "metarObsTime": 1776635760
    },
    "KFKL": {
      "status": "OK",
      "delay": "—",
      "metarCat": "—",
      "metarRaw": "—",
      "metarObsTime": null
    },
    "KIDI": {
      "status": "OK",
      "delay": "—",
      "metarCat": "VFR",
      "metarRaw": "METAR KIDI 192215Z AUTO 30012G21KT 10SM FEW037 FEW046 BKN060 07/M02 A3006 RMK A01",
      "metarObsTime": 1776636900
    },
    "KMDT": {
      "status": "OK",
      "delay": "—",
      "metarCat": "VFR",
      "metarRaw": "METAR KMDT 192156Z 31020G30KT 10SM FEW095 12/M02 A2999 RMK AO2 PK WND 30033/2136 SLP156 T01221022",
      "metarObsTime": 1776635760
    },
    "KCXY": {
      "status": "OK",
      "delay": "—",
      "metarCat": "VFR",
      "metarRaw": "METAR KCXY 192156Z COR 29015G29KT 10SM FEW090 12/M06 A3000 RMK AO2 PK WND 30034/2145 RAB02 SLP158 P0000 T01221056 $",
      "metarObsTime": 1776635760
    },
    "KMUI": {
      "status": "OK",
      "delay": "—",
      "metarCat": "VFR",
      "metarRaw": "SPECI KMUI 192156Z AUTO 27016G25KT 10SM BKN060 BKN075 OVC090 12/M01 A2997 RMK AO2 RAE56 SLP152",
      "metarObsTime": 1776635760
    },
    "KUNV": {
      "status": "OK",
      "delay": "—",
      "metarCat": "VFR",
      "metarRaw": "METAR KUNV 192153Z 31014G25KT 10SM SCT075 SCT085 09/M08 A3000",
      "metarObsTime": 1776635580
    },
    "KAOO": {
      "status": "OK",
      "delay": "—",
      "metarCat": "VFR",
      "metarRaw": "METAR KAOO 192153Z AUTO 29017G28KT 10SM SCT070 BKN085 09/M06 A3001 RMK AO2 PK WND 29029/2128 SLP169 T00891061",
      "metarObsTime": 1776635580
    },
    "KLNS": {
      "status": "OK",
      "delay": "—",
      "metarCat": "VFR",
      "metarRaw": "METAR KLNS 192153Z 30014G21KT 10SM CLR 11/01 A2998 RMK AO2 PK WND 30037/2103 RAB06E16 SLP151 P0000 T01110011",
      "metarObsTime": 1776635580
    },
    "KIPT": {
      "status": "OK",
      "delay": "—",
      "metarCat": "VFR",
      "metarRaw": "METAR KIPT 192154Z 29019G26KT 10SM SCT100 10/M07 A2997 RMK AO2 PK WND 31037/2056 SLP150 T01001067 $",
      "metarObsTime": 1776635640
    },
    "KPHL": {
      "status": "OK",
      "delay": "—",
      "metarCat": "VFR",
      "metarRaw": "METAR KPHL 192154Z 31010KT 10SM SCT039 SCT070 BKN085 13/03 A2997 RMK AO2 SLP149 T01280028 $",
      "metarObsTime": 1776635640
    },
    "KABE": {
      "status": "OK",
      "delay": "—",
      "metarCat": "VFR",
      "metarRaw": "METAR KABE 192151Z 33010G15KT 10SM FEW050 FEW065 SCT085 09/01 A2996 RMK AO2 RAE00 SLP146 P0000 T00940011 $",
      "metarObsTime": 1776635460
    },
    "KAVP": {
      "status": "OK",
      "delay": "—",
      "metarCat": "VFR",
      "metarRaw": "METAR KAVP 192154Z 34007KT 10SM SCT036 SCT046 BKN060 07/01 A2995 RMK AO2 SLP141 T00670006",
      "metarObsTime": 1776635640
    },
    "KHZL": {
      "status": "OK",
      "delay": "—",
      "metarCat": "VFR",
      "metarRaw": "METAR KHZL 192215Z AUTO 00000KT 10SM -RA SCT016 SCT025 BKN048 05/00 A2998 RMK AO2",
      "metarObsTime": 1776636900
    }
  }
}