{
  "generatedAt": "2026-03-17T16:10:27.842Z",
  "airports": {
    "KPIT": {
      "status": "OK",
      "delay": "—",
      "metarCat": "VFR",
      "metarRaw": "SPECI KPIT 171603Z 26011G23KT 10SM FEW019 SCT028 BKN042 M04/M11 A2997 RMK AO2 SNE02 P0000 T10391106 $",
      "metarObsTime": 1773763380
    },
    "KAGC": {
      "status": "OK",
      "delay": "—",
      "metarCat": "IFR",
      "metarRaw": "SPECI KAGC 171602Z 26014G23KT 1SM R28/2400VP6000FT -SN BR OVC009 M05/M08 A2997 RMK AO2 SNB1555 P0000 T10501078",
      "metarObsTime": 1773763320
    },
    "KLBE": {
      "status": "OK",
      "delay": "—",
      "metarCat": "MVFR",
      "metarRaw": "METAR KLBE 171547Z 25010G22KT 9SM BKN023 BKN041 M03/M10 A2999",
      "metarObsTime": 1773762420
    },
    "KJST": {
      "status": "OK",
      "delay": "—",
      "metarCat": "VFR",
      "metarRaw": "SPECI KJST 171559Z AUTO 26018G27KT 6SM UP FEW009 BKN035 OVC041 M06/M13 A2985 RMK AO2 PK WND 26027/1559 UPB56 P0000 T10611128",
      "metarObsTime": 1773763140
    },
    "KERI": {
      "status": "OK",
      "delay": "—",
      "metarCat": "LIFR",
      "metarRaw": "SPECI KERI 171604Z 27015G28KT 1/2SM R06/2400VP6000FT SN FEW008 BKN012 OVC019 M06/M09 A2998 RMK AO2 PK WND 28028/1604 P0000 T10611094",
      "metarObsTime": 1773763440
    },
    "KDUJ": {
      "status": "OK",
      "delay": "—",
      "metarCat": "VFR",
      "metarRaw": "METAR KDUJ 171553Z AUTO 24015G28KT 10SM BKN036 OVC045 M06/M13 A2986 RMK AO2 PK WND 27037/1454 SLP137 T10611133",
      "metarObsTime": 1773762780
    },
    "KBFD": {
      "status": "OK",
      "delay": "—",
      "metarCat": "IFR",
      "metarRaw": "SPECI KBFD 171601Z AUTO 26019G34KT 1 3/4SM -SN BKN037 BKN046 M07/M14 A2982 RMK AO2 PK WND 28034/1558 VIS 3/4V5 SNB1554 P0000 T10721144",
      "metarObsTime": 1773763260
    },
    "KBTP": {
      "status": "OK",
      "delay": "—",
      "metarCat": "VFR",
      "metarRaw": "METAR KBTP 171556Z AUTO 26014G21KT 6SM -SN FEW026 BKN034 M02/M09 A2996 RMK AO2 SLPNO P0000 T10221094 FZRANO $",
      "metarObsTime": 1773762960
    },
    "KFKL": {
      "status": "OK",
      "delay": "—",
      "metarCat": "LIFR",
      "metarRaw": "SPECI KFKL 171605Z AUTO 29012G23KT 1/4SM +SN SCT006 BKN018 OVC024 M06/M09 A2993 RMK AO2 P0000 FZRANO",
      "metarObsTime": 1773763500
    },
    "KIDI": {
      "status": "OK",
      "delay": "—",
      "metarCat": "VFR",
      "metarRaw": "METAR KIDI 171555Z AUTO 27014G23KT 9SM FEW030 BKN035 BKN041 M03/M10 A2993 RMK A01",
      "metarObsTime": 1773762900
    },
    "KMDT": {
      "status": "OK",
      "delay": "—",
      "metarCat": "VFR",
      "metarRaw": "METAR KMDT 171556Z 29018G26KT 10SM BKN055 01/M08 A2996 RMK AO2 PK WND 26028/1501 SLP149 T00111083",
      "metarObsTime": 1773762960
    },
    "KCXY": {
      "status": "OK",
      "delay": "—",
      "metarCat": "VFR",
      "metarRaw": "METAR KCXY 171556Z 27013G25KT 10SM SCT047 BKN060 02/M08 A2996 RMK AO2 PK WND 24027/1521 SLP151 T00171083",
      "metarObsTime": 1773762960
    },
    "KMUI": {
      "status": "OK",
      "delay": "—",
      "metarCat": "VFR",
      "metarRaw": "METAR KMUI 171555Z 28008G20KT 10SM BKN055 01/M11 A2993 RMK AO2A PK WND 28032/1459 SLP143 T00061109",
      "metarObsTime": 1773762900
    },
    "KUNV": {
      "status": "OK",
      "delay": "—",
      "metarCat": "VFR",
      "metarRaw": "METAR KUNV 171553Z 27010G23KT 10SM SCT027 BKN034 BKN042 M02/M09 A2991",
      "metarObsTime": 1773762780
    },
    "KAOO": {
      "status": "OK",
      "delay": "—",
      "metarCat": "VFR",
      "metarRaw": "METAR KAOO 171553Z AUTO 27015G24KT 10SM -SN BKN043 BKN050 M04/M12 A2992 RMK AO2 PK WND 27030/1536 SNB52 SLP150 P0000 T10391117",
      "metarObsTime": 1773762780
    },
    "KLNS": {
      "status": "OK",
      "delay": "—",
      "metarCat": "VFR",
      "metarRaw": "METAR KLNS 171553Z 29017KT 10SM SCT050 01/M09 A2995 RMK AO2 PK WND 29031/1511 SLP146 T00111089",
      "metarObsTime": 1773762780
    },
    "KIPT": {
      "status": "OK",
      "delay": "—",
      "metarCat": "VFR",
      "metarRaw": "METAR KIPT 171554Z 28009G18KT 10SM FEW040 OVC049 M02/M08 A2992 RMK AO2 SLP136 T10171083",
      "metarObsTime": 1773762840
    },
    "KPHL": {
      "status": "OK",
      "delay": "—",
      "metarCat": "VFR",
      "metarRaw": "METAR KPHL 171554Z 29017G30KT 10SM SCT050 SCT250 03/M10 A2996 RMK AO2 PK WND 28030/1541 SLP145 T00331100 $",
      "metarObsTime": 1773762840
    },
    "KABE": {
      "status": "OK",
      "delay": "—",
      "metarCat": "VFR",
      "metarRaw": "METAR KABE 171551Z 27016G27KT 10SM SCT047 02/M09 A2991 RMK AO2 PK WND 26028/1526 SLP133 T00171094 $",
      "metarObsTime": 1773762660
    },
    "KAVP": {
      "status": "OK",
      "delay": "—",
      "metarCat": "VFR",
      "metarRaw": "METAR KAVP 171554Z 26016G23KT 10SM BKN046 OVC055 M02/M09 A2986 RMK AO2 SLP119 T10171089",
      "metarObsTime": 1773762840
    },
    "KHZL": {
      "status": "OK",
      "delay": "—",
      "metarCat": "VFR",
      "metarRaw": "METAR KHZL 171555Z AUTO 27007G16KT 200V330 10SM BKN031 OVC038 M02/M11 RMK AO2",
      "metarObsTime": 1773762900
    }
  }
}