{
  "generatedAt": "2026-03-07T17:30:13.687Z",
  "airports": {
    "KPIT": {
      "status": "OK",
      "delay": "—",
      "metarCat": "VFR",
      "metarRaw": "METAR KPIT 071651Z 21018G27KT 10SM SCT040 SCT070 BKN250 24/14 A2992 RMK AO2 PK WND 23033/1621 SLP131 T02440139",
      "metarObsTime": 1772902260
    },
    "KAGC": {
      "status": "OK",
      "delay": "—",
      "metarCat": "VFR",
      "metarRaw": "METAR KAGC 071653Z 23018G29KT 10SM SCT045 BKN060 24/14 A2993 RMK AO2 PK WND 22030/1640 SLP132 T02390139",
      "metarObsTime": 1772902380
    },
    "KLBE": {
      "status": "OK",
      "delay": "—",
      "metarCat": "VFR",
      "metarRaw": "METAR KLBE 071647Z 21025G30KT 10SM SCT045 BKN100 BKN120 25/16 A2996",
      "metarObsTime": 1772902020
    },
    "KJST": {
      "status": "OK",
      "delay": "—",
      "metarCat": "VFR",
      "metarRaw": "METAR KJST 071654Z AUTO 24015G28KT 10SM BKN040 BKN047 OVC055 21/13 A2999 RMK AO2 PK WND 21028/1653 SLP151 T02110133",
      "metarObsTime": 1772902440
    },
    "KERI": {
      "status": "OK",
      "delay": "—",
      "metarCat": "VFR",
      "metarRaw": "METAR KERI 071651Z 20022G28KT 10SM CLR 23/14 A2977 RMK AO2 PK WND 18034/1559 SLP075 T02330144",
      "metarObsTime": 1772902260
    },
    "KDUJ": {
      "status": "OK",
      "delay": "—",
      "metarCat": "VFR",
      "metarRaw": "METAR KDUJ 071653Z AUTO 22013G28KT 10SM SCT039 22/13 A2992 RMK AO2 PK WND 23028/1648 SLP125 T02220133",
      "metarObsTime": 1772902380
    },
    "KBFD": {
      "status": "OK",
      "delay": "—",
      "metarCat": "VFR",
      "metarRaw": "METAR KBFD 071653Z AUTO 19010G19KT 10SM CLR 18/13 A2990 RMK AO2 SLP121 T01780128",
      "metarObsTime": 1772902380
    },
    "KBTP": {
      "status": "OK",
      "delay": "—",
      "metarCat": "VFR",
      "metarRaw": "METAR KBTP 071656Z AUTO 22020G33KT 10SM SCT046 24/14 A2992 RMK AO2 PK WND 23033/1653 SLP129 T02390144 $",
      "metarObsTime": 1772902560
    },
    "KFKL": {
      "status": "OK",
      "delay": "—",
      "metarCat": "VFR",
      "metarRaw": "METAR KFKL 071656Z AUTO 21014G21KT 10SM FEW038 BKN046 BKN055 23/14 A2988 RMK AO2 PK WND 23029/1627 SLP113 T02280144",
      "metarObsTime": 1772902560
    },
    "KIDI": {
      "status": "OK",
      "delay": "—",
      "metarCat": "VFR",
      "metarRaw": "METAR KIDI 071615Z AUTO 24016G26KT 10SM SCT042 SCT048 SCT095 23/15 A2997 RMK A01",
      "metarObsTime": 1772900100
    },
    "KMDT": {
      "status": "OK",
      "delay": "—",
      "metarCat": "IFR",
      "metarRaw": "METAR KMDT 071656Z 13005KT 8SM OVC006 07/06 A3013 RMK AO2 SLP206 T00670056",
      "metarObsTime": 1772902560
    },
    "KCXY": {
      "status": "OK",
      "delay": "—",
      "metarCat": "IFR",
      "metarRaw": "METAR KCXY 071656Z 15006KT 3SM BR OVC006 07/06 A3013 RMK AO2 SLP207 T00720056",
      "metarObsTime": 1772902560
    },
    "KMUI": {
      "status": "OK",
      "delay": "—",
      "metarCat": "IFR",
      "metarRaw": "METAR KMUI 071655Z AUTO 16005KT 10SM OVC005 07/06 A3012 RMK AO2 SLP206 T00650062",
      "metarObsTime": 1772902500
    },
    "KUNV": {
      "status": "OK",
      "delay": "—",
      "metarCat": "MVFR",
      "metarRaw": "METAR KUNV 071653Z 21007KT 10SM OVC013 10/09 A3004",
      "metarObsTime": 1772902380
    },
    "KAOO": {
      "status": "OK",
      "delay": "—",
      "metarCat": "—",
      "metarRaw": "—",
      "metarObsTime": null
    },
    "KLNS": {
      "status": "OK",
      "delay": "—",
      "metarCat": "IFR",
      "metarRaw": "METAR KLNS 071653Z 18006KT 10SM OVC008 07/05 A3015 RMK AO2 SLP210 T00670050",
      "metarObsTime": 1772902380
    },
    "KIPT": {
      "status": "OK",
      "delay": "—",
      "metarCat": "IFR",
      "metarRaw": "METAR KIPT 071654Z 11007KT 080V140 8SM OVC006 06/05 A3008 RMK AO2 SLP190 T00610050",
      "metarObsTime": 1772902440
    },
    "KPHL": {
      "status": "OK",
      "delay": "—",
      "metarCat": "LIFR",
      "metarRaw": "SPECI KPHL 071725Z 00000KT 3SM BR OVC004 08/06 A3017 RMK AO2 CIG 003V005 T00780061 $",
      "metarObsTime": 1772904300
    },
    "KABE": {
      "status": "OK",
      "delay": "—",
      "metarCat": "IFR",
      "metarRaw": "METAR KABE 071651Z 20005KT 10SM OVC006 06/04 A3015 RMK AO2 SLP214 T00560039",
      "metarObsTime": 1772902260
    },
    "KAVP": {
      "status": "OK",
      "delay": "—",
      "metarCat": "MVFR",
      "metarRaw": "SPECI KAVP 071720Z VRB06KT 10SM OVC014 09/06 A3005 RMK AO2 T00940056",
      "metarObsTime": 1772904000
    },
    "KHZL": {
      "status": "OK",
      "delay": "—",
      "metarCat": "LIFR",
      "metarRaw": "METAR KHZL 071715Z AUTO 17004KT 3SM BR OVC002 05/05 A3010 RMK AO2",
      "metarObsTime": 1772903700
    }
  }
}