{
  "generatedAt": "2026-03-18T16:00:21.068Z",
  "airports": {
    "KPIT": {
      "status": "OK",
      "delay": "—",
      "metarCat": "VFR",
      "metarRaw": "METAR KPIT 181551Z 21009KT 10SM BKN180 BKN250 M03/M12 A3028 RMK AO2 SLP279 T10281122",
      "metarObsTime": 1773849060
    },
    "KAGC": {
      "status": "OK",
      "delay": "—",
      "metarCat": "VFR",
      "metarRaw": "METAR KAGC 181553Z 16009KT 10SM FEW032 M03/M11 A3027 RMK AO2 SLP276 T10331111",
      "metarObsTime": 1773849180
    },
    "KLBE": {
      "status": "OK",
      "delay": "—",
      "metarCat": "VFR",
      "metarRaw": "METAR KLBE 181547Z 20005KT 10SM SCT120 M02/M12 A3032",
      "metarObsTime": 1773848820
    },
    "KJST": {
      "status": "OK",
      "delay": "—",
      "metarCat": "VFR",
      "metarRaw": "METAR KJST 181554Z AUTO 17005KT 10SM CLR M06/M14 A3021 RMK AO2 SLP273 T10611139",
      "metarObsTime": 1773849240
    },
    "KERI": {
      "status": "OK",
      "delay": "—",
      "metarCat": "VFR",
      "metarRaw": "METAR KERI 181551Z 16011KT 10SM CLR M03/M13 A3028 RMK AO2 SLP263 T10281128",
      "metarObsTime": 1773849060
    },
    "KDUJ": {
      "status": "OK",
      "delay": "—",
      "metarCat": "VFR",
      "metarRaw": "METAR KDUJ 181553Z AUTO VRB06KT 10SM CLR M06/M15 A3024 RMK AO2 SLP271 T10561150",
      "metarObsTime": 1773849180
    },
    "KBFD": {
      "status": "OK",
      "delay": "—",
      "metarCat": "VFR",
      "metarRaw": "METAR KBFD 181553Z AUTO 18010KT 10SM FEW033 M06/M14 A3020 RMK AO2 SLP262 T10611144",
      "metarObsTime": 1773849180
    },
    "KBTP": {
      "status": "OK",
      "delay": "—",
      "metarCat": "VFR",
      "metarRaw": "METAR KBTP 181456Z AUTO 18006KT 10SM CLR M02/M09 A3029 RMK AO2 SLP283 T10171089 58002 FZRANO $",
      "metarObsTime": 1773845760
    },
    "KFKL": {
      "status": "OK",
      "delay": "—",
      "metarCat": "VFR",
      "metarRaw": "METAR KFKL 181456Z AUTO 20012KT 10SM CLR M04/M12 A3026 RMK AO2 SLP274 T10441117 58001 FZRANO",
      "metarObsTime": 1773845760
    },
    "KIDI": {
      "status": "OK",
      "delay": "—",
      "metarCat": "VFR",
      "metarRaw": "METAR KIDI 181555Z AUTO 15007KT 10SM CLR M04/M12 A3029 RMK A01",
      "metarObsTime": 1773849300
    },
    "KMDT": {
      "status": "OK",
      "delay": "—",
      "metarCat": "VFR",
      "metarRaw": "METAR KMDT 181456Z 28005KT 10SM FEW045 BKN150 BKN180 M02/M11 A3040 RMK AO2 SLP299 T10171106 56001",
      "metarObsTime": 1773845760
    },
    "KCXY": {
      "status": "OK",
      "delay": "—",
      "metarCat": "VFR",
      "metarRaw": "METAR KCXY 181456Z 28003KT 10SM CLR M02/M12 A3041 RMK AO2 SLP302 T10221122 55000",
      "metarObsTime": 1773845760
    },
    "KMUI": {
      "status": "OK",
      "delay": "—",
      "metarCat": "VFR",
      "metarRaw": "METAR KMUI 181455Z 35003KT 10SM FEW038 BKN130 BKN170 M02/M12 A3037 RMK AO2A SLP294 T10181116 55005",
      "metarObsTime": 1773845700
    },
    "KUNV": {
      "status": "OK",
      "delay": "—",
      "metarCat": "VFR",
      "metarRaw": "METAR KUNV 181553Z 17004KT 10SM SCT031 M03/M11 A3032",
      "metarObsTime": 1773849180
    },
    "KAOO": {
      "status": "OK",
      "delay": "—",
      "metarCat": "VFR",
      "metarRaw": "METAR KAOO 181553Z AUTO VRB06KT 10SM CLR M04/M12 A3030 RMK AO2 SLP284 T10391122",
      "metarObsTime": 1773849180
    },
    "KLNS": {
      "status": "OK",
      "delay": "—",
      "metarCat": "VFR",
      "metarRaw": "METAR KLNS 181553Z VRB03KT 10SM CLR M01/M11 A3040 RMK AO2 SLP300 T10111111",
      "metarObsTime": 1773849180
    },
    "KIPT": {
      "status": "OK",
      "delay": "—",
      "metarCat": "VFR",
      "metarRaw": "METAR KIPT 181554Z 00000KT 10SM CLR M03/M11 A3037 RMK AO2 SLP293 T10281111 $",
      "metarObsTime": 1773849240
    },
    "KPHL": {
      "status": "OK",
      "delay": "—",
      "metarCat": "VFR",
      "metarRaw": "METAR KPHL 181554Z 00000KT 10SM BKN150 BKN210 BKN300 00/M13 A3044 RMK AO2 SLP307 T00001133 $",
      "metarObsTime": 1773849240
    },
    "KABE": {
      "status": "OK",
      "delay": "—",
      "metarCat": "VFR",
      "metarRaw": "METAR KABE 181551Z VRB04KT 10SM CLR M02/M13 A3039 RMK AO2 SLP298 T10171128",
      "metarObsTime": 1773849060
    },
    "KAVP": {
      "status": "OK",
      "delay": "—",
      "metarCat": "VFR",
      "metarRaw": "METAR KAVP 181554Z 10003KT 10SM CLR M04/M13 A3034 RMK AO2 SLP287 T10391133",
      "metarObsTime": 1773849240
    },
    "KHZL": {
      "status": "OK",
      "delay": "—",
      "metarCat": "MVFR",
      "metarRaw": "METAR KHZL 181535Z AUTO 34004KT 10SM BKN023 M05/M12 RMK AO2",
      "metarObsTime": 1773848100
    }
  }
}