{
  "generatedAt": "2026-04-01T20:30:34.874Z",
  "airports": {
    "KPIT": {
      "status": "OK",
      "delay": "—",
      "metarCat": "IFR",
      "metarRaw": "METAR KPIT 011951Z 35009KT 10SM OVC007 12/10 A3007 RMK AO2 SLP188 T01220100",
      "metarObsTime": 1775073060
    },
    "KAGC": {
      "status": "OK",
      "delay": "—",
      "metarCat": "VFR",
      "metarRaw": "METAR KAGC 011953Z 35007KT 10SM BKN110 19/15 A3004 RMK AO2 SLP174 T01890150",
      "metarObsTime": 1775073180
    },
    "KLBE": {
      "status": "OK",
      "delay": "—",
      "metarCat": "VFR",
      "metarRaw": "METAR KLBE 011953Z 00000KT 10SM SCT090 23/15 A3006",
      "metarObsTime": 1775073180
    },
    "KJST": {
      "status": "OK",
      "delay": "—",
      "metarCat": "VFR",
      "metarRaw": "METAR KJST 011954Z AUTO 33003KT 10SM SCT037 BKN055 OVC095 21/13 A3008 RMK AO2 SLP178 T02060128",
      "metarObsTime": 1775073240
    },
    "KERI": {
      "status": "OK",
      "delay": "—",
      "metarCat": "IFR",
      "metarRaw": "SPECI KERI 012005Z 06013G23KT 4SM -RA BR OVC007 02/01 A3020 RMK AO2 PK WND 05027/1953 PRESRR P0002 T00170011 $",
      "metarObsTime": 1775073900
    },
    "KDUJ": {
      "status": "OK",
      "delay": "—",
      "metarCat": "LIFR",
      "metarRaw": "SPECI KDUJ 012019Z AUTO 02009KT 10SM OVC004 11/11 A3011 RMK AO2 T01110106",
      "metarObsTime": 1775074740
    },
    "KBFD": {
      "status": "OK",
      "delay": "—",
      "metarCat": "IFR",
      "metarRaw": "SPECI KBFD 012024Z AUTO 05003KT 2 1/2SM RA BR BKN007 BKN013 OVC026 06/05 A3017 RMK AO2 P0006 T00560050",
      "metarObsTime": 1775075040
    },
    "KBTP": {
      "status": "OK",
      "delay": "—",
      "metarCat": "IFR",
      "metarRaw": "METAR KBTP 011956Z AUTO 02010KT 10SM OVC006 12/12 A3010 RMK AO2 SLP197 T01170117 $",
      "metarObsTime": 1775073360
    },
    "KFKL": {
      "status": "OK",
      "delay": "—",
      "metarCat": "LIFR",
      "metarRaw": "METAR KFKL 011956Z AUTO 05009KT 10SM OVC003 07/07 A3013 RMK AO2 RAE04 SLP207 P0000 T00720067",
      "metarObsTime": 1775073360
    },
    "KIDI": {
      "status": "OK",
      "delay": "—",
      "metarCat": "VFR",
      "metarRaw": "METAR KIDI 012015Z AUTO VRB04KT 10SM BKN040 BKN047 OVC110 21/15 A3007 RMK A01",
      "metarObsTime": 1775074500
    },
    "KMDT": {
      "status": "OK",
      "delay": "—",
      "metarCat": "VFR",
      "metarRaw": "METAR KMDT 011956Z 30009KT 10SM FEW045 BKN070 26/13 A3005 RMK AO2 SLP173 T02560133 $",
      "metarObsTime": 1775073360
    },
    "KCXY": {
      "status": "OK",
      "delay": "—",
      "metarCat": "VFR",
      "metarRaw": "METAR KCXY 011956Z VRB05KT 10SM SCT065 24/13 A3005 RMK AO2 SLP176 T02440128",
      "metarObsTime": 1775073360
    },
    "KMUI": {
      "status": "OK",
      "delay": "—",
      "metarCat": "VFR",
      "metarRaw": "METAR KMUI 011955Z 26009G14KT 10SM SCT047 BKN095 25/14 A3005 RMK AO2A SLP176 T02470136",
      "metarObsTime": 1775073300
    },
    "KUNV": {
      "status": "OK",
      "delay": "—",
      "metarCat": "VFR",
      "metarRaw": "METAR KUNV 011953Z 00000KT 10SM BKN036 BKN042 OVC048 19/13 A3010",
      "metarObsTime": 1775073180
    },
    "KAOO": {
      "status": "OK",
      "delay": "—",
      "metarCat": "VFR",
      "metarRaw": "METAR KAOO 011953Z AUTO 05003KT 10SM FEW046 BKN065 BKN075 22/13 A3007 RMK AO2 SLP175 T02170128",
      "metarObsTime": 1775073180
    },
    "KLNS": {
      "status": "OK",
      "delay": "—",
      "metarCat": "VFR",
      "metarRaw": "METAR KLNS 011953Z 31007KT 10SM SCT100 25/14 A3006 RMK AO2 SLP176 T02500139",
      "metarObsTime": 1775073180
    },
    "KIPT": {
      "status": "OK",
      "delay": "—",
      "metarCat": "MVFR",
      "metarRaw": "METAR KIPT 011954Z 34005KT 10SM OVC024 13/08 A3015 RMK AO2 SLP209 T01330078 $",
      "metarObsTime": 1775073240
    },
    "KPHL": {
      "status": "OK",
      "delay": "—",
      "metarCat": "VFR",
      "metarRaw": "METAR KPHL 011954Z VRB05G17KT 10SM SCT065 SCT120 BKN210 BKN280 28/12 A3004 RMK AO2 SLP171 T02830122 $",
      "metarObsTime": 1775073240
    },
    "KABE": {
      "status": "OK",
      "delay": "—",
      "metarCat": "VFR",
      "metarRaw": "METAR KABE 011951Z 36009KT 10SM OVC050 23/13 A3006 RMK AO2 SLP177 T02280133 $",
      "metarObsTime": 1775073060
    },
    "KAVP": {
      "status": "OK",
      "delay": "—",
      "metarCat": "MVFR",
      "metarRaw": "METAR KAVP 011954Z 34008KT 3SM -RA BR OVC017 10/08 A3018 RMK AO2 RAB1857 SLP219 P0001 T01000083",
      "metarObsTime": 1775073240
    },
    "KHZL": {
      "status": "OK",
      "delay": "—",
      "metarCat": "VFR",
      "metarRaw": "METAR KHZL 012015Z AUTO 36007KT 10SM BKN041 OVC046 12/07 A3018 RMK AO2",
      "metarObsTime": 1775074500
    }
  }
}