{
  "generatedAt": "2026-03-17T19:00:22.761Z",
  "airports": {
    "KPIT": {
      "status": "OK",
      "delay": "—",
      "metarCat": "MVFR",
      "metarRaw": "METAR KPIT 171851Z 30022G28KT 4SM R28R/4000VP6000FT -SN BKN025 OVC042 M04/M10 A3001 RMK AO2 PK WND 30028/1850 SNB41 SLP186 P0000 T10391100 $",
      "metarObsTime": 1773773460
    },
    "KAGC": {
      "status": "OK",
      "delay": "—",
      "metarCat": "IFR",
      "metarRaw": "METAR KAGC 171853Z 26015G26KT 2 1/2SM R28/1800VP6000FT -SN BKN024 BKN038 BKN055 M05/M08 A3000 RMK AO2 PK WND 26026/1849 SNB17E36B40 SLP181 P0000 T10501083",
      "metarObsTime": 1773773580
    },
    "KLBE": {
      "status": "OK",
      "delay": "—",
      "metarCat": "MVFR",
      "metarRaw": "METAR KLBE 171847Z 27015G30KT 3SM -SN BKN030 M03/M10 A3001",
      "metarObsTime": 1773773220
    },
    "KJST": {
      "status": "OK",
      "delay": "—",
      "metarCat": "IFR",
      "metarRaw": "METAR KJST 171854Z AUTO 27019G32KT 1 1/2SM -SN FEW023 BKN031 OVC039 M07/M11 A2989 RMK AO2 PK WND 29032/1852 SNE14B51 SLP156 P0000 T10671111",
      "metarObsTime": 1773773640
    },
    "KERI": {
      "status": "OK",
      "delay": "—",
      "metarCat": "MVFR",
      "metarRaw": "METAR KERI 171851Z 27011G21KT 3SM R06/2600VP6000FT -SN SCT013 BKN026 OVC050 M04/M09 A3002 RMK AO2 PK WND 25026/1807 SNE1759B19 SLP177 P0000 T10441089",
      "metarObsTime": 1773773460
    },
    "KDUJ": {
      "status": "OK",
      "delay": "—",
      "metarCat": "LIFR",
      "metarRaw": "METAR KDUJ 171853Z AUTO 27014G23KT 1/4SM SN FZFG SCT012 BKN018 OVC027 M07/M09 A2990 RMK AO2 SNE11B17 SLP153 P0000 T10721094",
      "metarObsTime": 1773773580
    },
    "KBFD": {
      "status": "OK",
      "delay": "—",
      "metarCat": "VFR",
      "metarRaw": "METAR KBFD 171853Z AUTO 30020G29KT 10SM SCT036 BKN045 OVC055 M07/M14 A2987 RMK AO2 PK WND 30029/1852 SNB21E32 SLP143 P0000 T10671139",
      "metarObsTime": 1773773580
    },
    "KBTP": {
      "status": "OK",
      "delay": "—",
      "metarCat": "MVFR",
      "metarRaw": "SPECI KBTP 171848Z AUTO 26015G19KT 8SM -SN SCT010 BKN017 OVC036 M03/M07 A3000 RMK AO2 P0002 FZRANO $",
      "metarObsTime": 1773773280
    },
    "KFKL": {
      "status": "OK",
      "delay": "—",
      "metarCat": "MVFR",
      "metarRaw": "SPECI KFKL 171812Z AUTO 29015G23KT 3SM -SN BKN037 OVC048 M04/M12 A2996 RMK AO2 SNB04 P0000 FZRANO",
      "metarObsTime": 1773771120
    },
    "KIDI": {
      "status": "OK",
      "delay": "—",
      "metarCat": "LIFR",
      "metarRaw": "METAR KIDI 171835Z AUTO 27015G25KT 1/2SM HZ SCT007 BKN023 BKN037 M04/M08 A2996 RMK A01",
      "metarObsTime": 1773772500
    },
    "KMDT": {
      "status": "OK",
      "delay": "—",
      "metarCat": "VFR",
      "metarRaw": "METAR KMDT 171756Z 26017G23KT 10SM BKN045 OVC075 02/M09 A2995 RMK AO2 PK WND 27029/1709 SLP146 BINOVC T00221089 10028 21017 58001",
      "metarObsTime": 1773770160
    },
    "KCXY": {
      "status": "OK",
      "delay": "—",
      "metarCat": "VFR",
      "metarRaw": "METAR KCXY 171756Z 26017G28KT 10SM BKN060 BKN070 02/M10 A2996 RMK AO2 PK WND 26029/1740 SLP149 T00221100 10028 21022 55002",
      "metarObsTime": 1773770160
    },
    "KMUI": {
      "status": "OK",
      "delay": "—",
      "metarCat": "VFR",
      "metarRaw": "SPECI KMUI 171837Z 27012KT 10SM VCSH FEW013 SCT033 BKN043 BKN075 00/M05 A2993 RMK AO2A SNE37 SLP143 VIRGA VCTY",
      "metarObsTime": 1773772620
    },
    "KUNV": {
      "status": "OK",
      "delay": "—",
      "metarCat": "MVFR",
      "metarRaw": "METAR KUNV 171853Z 28013G25KT 5SM VCSH SCT013 BKN032 BKN042 M03/M08 A2993",
      "metarObsTime": 1773773580
    },
    "KAOO": {
      "status": "OK",
      "delay": "—",
      "metarCat": "IFR",
      "metarRaw": "METAR KAOO 171853Z AUTO 29010G25KT 1 3/4SM -SN SCT025 BKN032 BKN039 M04/M09 A2994 RMK AO2 PK WND 26026/1759 VIS 3/4V5 SNB31 SLP159 P0000 T10391089",
      "metarObsTime": 1773773580
    },
    "KLNS": {
      "status": "OK",
      "delay": "—",
      "metarCat": "VFR",
      "metarRaw": "METAR KLNS 171853Z 26020G28KT 10SM OVC065 03/M11 A2994 RMK AO2 PK WND 28029/1839 SLP141 T00331106",
      "metarObsTime": 1773773580
    },
    "KIPT": {
      "status": "OK",
      "delay": "—",
      "metarCat": "VFR",
      "metarRaw": "METAR KIPT 171854Z 26016G27KT 10SM BKN060 BKN080 01/M10 A2991 RMK AO2 PK WND 25027/1755 SLP133 T00061100",
      "metarObsTime": 1773773640
    },
    "KPHL": {
      "status": "OK",
      "delay": "—",
      "metarCat": "VFR",
      "metarRaw": "METAR KPHL 171854Z 29015KT 10SM BKN065 BKN250 04/M11 A2994 RMK AO2 PK WND 31030/1838 SLP138 T00441106 $",
      "metarObsTime": 1773773640
    },
    "KABE": {
      "status": "OK",
      "delay": "—",
      "metarCat": "VFR",
      "metarRaw": "METAR KABE 171851Z 30013G22KT 10SM BKN060 BKN070 02/M11 A2991 RMK AO2 PK WND 30026/1814 SLP131 T00221111 $",
      "metarObsTime": 1773773460
    },
    "KAVP": {
      "status": "OK",
      "delay": "—",
      "metarCat": "IFR",
      "metarRaw": "METAR KAVP 171854Z 31011KT 2 1/2SM -SN SCT030 BKN037 OVC046 M01/M07 A2987 RMK AO2 SFC VIS 3 SNB08 SLP122 P0000 T10111072",
      "metarObsTime": 1773773640
    },
    "KHZL": {
      "status": "OK",
      "delay": "—",
      "metarCat": "—",
      "metarRaw": "—",
      "metarObsTime": null
    }
  }
}