{
  "generatedAt": "2026-03-19T08:00:17.567Z",
  "airports": {
    "KPIT": {
      "status": "OK",
      "delay": "—",
      "metarCat": "VFR",
      "metarRaw": "METAR KPIT 190751Z 20003KT 10SM BKN036 OVC055 02/M07 A3011 RMK AO2 SLP215 T00221067 $",
      "metarObsTime": 1773906660
    },
    "KAGC": {
      "status": "OK",
      "delay": "—",
      "metarCat": "VFR",
      "metarRaw": "METAR KAGC 190753Z AUTO 20009KT 10SM OVC038 03/M07 A3010 RMK AO2 SLP209 T00281067",
      "metarObsTime": 1773906780
    },
    "KLBE": {
      "status": "OK",
      "delay": "—",
      "metarCat": "VFR",
      "metarRaw": "METAR KLBE 190735Z AUTO 20008KT 10SM OVC041 05/M04 A3014 RMK AO2",
      "metarObsTime": 1773905700
    },
    "KJST": {
      "status": "OK",
      "delay": "—",
      "metarCat": "VFR",
      "metarRaw": "METAR KJST 190754Z AUTO 20004KT 10SM OVC037 00/M07 A3008 RMK AO2 SLP210 T00001072",
      "metarObsTime": 1773906840
    },
    "KERI": {
      "status": "OK",
      "delay": "—",
      "metarCat": "VFR",
      "metarRaw": "METAR KERI 190751Z AUTO 19011KT 10SM FEW034 OVC050 02/M07 A3009 RMK AO2 SLP196 T00171067",
      "metarObsTime": 1773906660
    },
    "KDUJ": {
      "status": "OK",
      "delay": "—",
      "metarCat": "VFR",
      "metarRaw": "METAR KDUJ 190753Z AUTO 00000KT 10SM OVC041 M01/M07 A3008 RMK AO2 SLP206 T10111067",
      "metarObsTime": 1773906780
    },
    "KBFD": {
      "status": "OK",
      "delay": "—",
      "metarCat": "VFR",
      "metarRaw": "METAR KBFD 190753Z AUTO 16004KT 10SM OVC038 M03/M05 A3007 RMK AO2 SLP206 T10281050",
      "metarObsTime": 1773906780
    },
    "KBTP": {
      "status": "OK",
      "delay": "—",
      "metarCat": "VFR",
      "metarRaw": "METAR KBTP 190656Z AUTO 19005KT 10SM OVC040 01/M06 A3013 RMK AO2 SLP220 T00111056 FZRANO $",
      "metarObsTime": 1773903360
    },
    "KFKL": {
      "status": "OK",
      "delay": "—",
      "metarCat": "VFR",
      "metarRaw": "METAR KFKL 190656Z AUTO 19006KT 10SM OVC034 M01/M06 A3011 RMK AO2 SLP214 T10061056 FZRANO",
      "metarObsTime": 1773903360
    },
    "KIDI": {
      "status": "OK",
      "delay": "—",
      "metarCat": "VFR",
      "metarRaw": "METAR KIDI 190735Z AUTO 17003KT 10SM OVC043 02/M04 A3011 RMK A01",
      "metarObsTime": 1773905700
    },
    "KMDT": {
      "status": "OK",
      "delay": "—",
      "metarCat": "VFR",
      "metarRaw": "METAR KMDT 190656Z VRB04KT 10SM OVC060 01/M07 A3027 RMK AO2 SLP254 T00111067",
      "metarObsTime": 1773903360
    },
    "KCXY": {
      "status": "OK",
      "delay": "—",
      "metarCat": "VFR",
      "metarRaw": "METAR KCXY 190656Z AUTO 00000KT 10SM BKN060 OVC110 01/M08 A3027 RMK AO2 SLP255 T00111078",
      "metarObsTime": 1773903360
    },
    "KMUI": {
      "status": "OK",
      "delay": "—",
      "metarCat": "VFR",
      "metarRaw": "METAR KMUI 190755Z AUTO 00000KT 10SM OVC050 00/M05 A3024 RMK AO2 SLP248 T00011053",
      "metarObsTime": 1773906900
    },
    "KUNV": {
      "status": "OK",
      "delay": "—",
      "metarCat": "VFR",
      "metarRaw": "METAR KUNV 190735Z AUTO 00000KT 10SM OVC047 00/M10 A3016 RMK AO2 T00021100",
      "metarObsTime": 1773905700
    },
    "KAOO": {
      "status": "OK",
      "delay": "—",
      "metarCat": "VFR",
      "metarRaw": "METAR KAOO 190753Z AUTO 18006KT 10SM OVC042 00/M09 A3014 RMK AO2 SLP223 T00001089",
      "metarObsTime": 1773906780
    },
    "KLNS": {
      "status": "OK",
      "delay": "—",
      "metarCat": "VFR",
      "metarRaw": "METAR KLNS 190753Z AUTO 14007KT 10SM OVC060 00/M06 A3026 RMK AO2 SLP252 T00001061",
      "metarObsTime": 1773906780
    },
    "KIPT": {
      "status": "OK",
      "delay": "—",
      "metarCat": "VFR",
      "metarRaw": "METAR KIPT 190754Z AUTO VRB05KT 10SM OVC043 00/M08 A3021 RMK AO2 SLP236 T00001078 $",
      "metarObsTime": 1773906840
    },
    "KPHL": {
      "status": "OK",
      "delay": "—",
      "metarCat": "VFR",
      "metarRaw": "METAR KPHL 190754Z 16005KT 10SM BKN075 OVC100 01/M06 A3032 RMK AO2 SLP266 T00111056",
      "metarObsTime": 1773906840
    },
    "KABE": {
      "status": "OK",
      "delay": "—",
      "metarCat": "VFR",
      "metarRaw": "METAR KABE 190751Z 20004KT 10SM FEW065 BKN080 OVC100 00/M08 A3028 RMK AO2 SLP256 T00001078",
      "metarObsTime": 1773906660
    },
    "KAVP": {
      "status": "OK",
      "delay": "—",
      "metarCat": "VFR",
      "metarRaw": "METAR KAVP 190754Z 00000KT 10SM OVC050 M01/M11 A3021 RMK AO2 SLP238 T10061106",
      "metarObsTime": 1773906840
    },
    "KHZL": {
      "status": "OK",
      "delay": "—",
      "metarCat": "VFR",
      "metarRaw": "METAR KHZL 190735Z AUTO 16004KT 10SM OVC046 M01/M10 RMK AO2",
      "metarObsTime": 1773905700
    }
  }
}