{
  "generatedAt": "2026-03-12T20:10:14.226Z",
  "airports": {
    "KPIT": {
      "status": "OK",
      "delay": "—",
      "metarCat": "VFR",
      "metarRaw": "METAR KPIT 121951Z 33016G28KT 10SM BKN045 04/M10 A3001 RMK AO2 PK WND 32030/1926 SLP180 T00391100 $",
      "metarObsTime": 1773345060
    },
    "KAGC": {
      "status": "OK",
      "delay": "—",
      "metarCat": "VFR",
      "metarRaw": "METAR KAGC 121953Z 31010G26KT 10SM BKN070 BKN085 04/M10 A2999 RMK AO2 PK WND 34032/1906 SLP171 T00391100",
      "metarObsTime": 1773345180
    },
    "KLBE": {
      "status": "OK",
      "delay": "—",
      "metarCat": "VFR",
      "metarRaw": "METAR KLBE 121853Z 27010G23KT 10SM FEW090 FEW110 04/M07 A3000",
      "metarObsTime": 1773341580
    },
    "KJST": {
      "status": "OK",
      "delay": "—",
      "metarCat": "VFR",
      "metarRaw": "METAR KJST 121954Z AUTO 29016G27KT 10SM FEW048 SCT060 01/M07 A2990 RMK AO2 PK WND 29031/1921 SLP143 T00111072",
      "metarObsTime": 1773345240
    },
    "KERI": {
      "status": "OK",
      "delay": "—",
      "metarCat": "VFR",
      "metarRaw": "METAR KERI 121951Z 26013G21KT 10SM SCT048 01/M07 A3006 RMK AO2 SLP188 T00111067",
      "metarObsTime": 1773345060
    },
    "KDUJ": {
      "status": "OK",
      "delay": "—",
      "metarCat": "VFR",
      "metarRaw": "METAR KDUJ 121953Z AUTO 32016G27KT 10SM FEW048 FEW060 01/M11 A2992 RMK AO2 PK WND 29032/1938 SLP146 T00061111",
      "metarObsTime": 1773345180
    },
    "KBFD": {
      "status": "OK",
      "delay": "—",
      "metarCat": "VFR",
      "metarRaw": "METAR KBFD 121953Z AUTO 28015G27KT 10SM BKN035 OVC042 M01/M09 A2991 RMK AO2 PK WND 27027/1949 SLP147 T10111089",
      "metarObsTime": 1773345180
    },
    "KBTP": {
      "status": "OK",
      "delay": "—",
      "metarCat": "VFR",
      "metarRaw": "METAR KBTP 121956Z AUTO 30015G19KT 10SM BKN070 BKN090 03/M09 A3002 RMK AO2 PK WND 31026/1931 SLP181 T00331094 $",
      "metarObsTime": 1773345360
    },
    "KFKL": {
      "status": "OK",
      "delay": "—",
      "metarCat": "VFR",
      "metarRaw": "METAR KFKL 121956Z AUTO 32012G20KT 10SM SCT047 BKN055 A3001 RMK AO2 PK WND 29026/1930 SLPNO FZRANO $",
      "metarObsTime": 1773345360
    },
    "KIDI": {
      "status": "OK",
      "delay": "—",
      "metarCat": "VFR",
      "metarRaw": "METAR KIDI 121955Z AUTO 31020G28KT 10SM SCT055 SCT070 03/M08 A2997 RMK A01",
      "metarObsTime": 1773345300
    },
    "KMDT": {
      "status": "OK",
      "delay": "—",
      "metarCat": "VFR",
      "metarRaw": "METAR KMDT 121956Z 30016G21KT 10SM SCT070 OVC100 04/M04 A2990 RMK AO2 SLP128 T00441039 $",
      "metarObsTime": 1773345360
    },
    "KCXY": {
      "status": "OK",
      "delay": "—",
      "metarCat": "VFR",
      "metarRaw": "METAR KCXY 121956Z 29012G20KT 10SM FEW048 SCT120 04/M06 A2991 RMK AO2 SLP132 T00441056",
      "metarObsTime": 1773345360
    },
    "KMUI": {
      "status": "OK",
      "delay": "—",
      "metarCat": "VFR",
      "metarRaw": "METAR KMUI 121955Z 30010KT 10SM FEW035 BKN100 05/M05 A2986 RMK AO2A SLP115 T00451048",
      "metarObsTime": 1773345300
    },
    "KUNV": {
      "status": "OK",
      "delay": "—",
      "metarCat": "VFR",
      "metarRaw": "METAR KUNV 121953Z 33015G23KT 10SM BKN040 03/M08 A2990",
      "metarObsTime": 1773345180
    },
    "KAOO": {
      "status": "OK",
      "delay": "—",
      "metarCat": "VFR",
      "metarRaw": "METAR KAOO 121953Z AUTO 32015G25KT 10SM FEW050 03/M08 A2992 RMK AO2 PK WND 30032/1939 SLP142 T00281078",
      "metarObsTime": 1773345180
    },
    "KLNS": {
      "status": "OK",
      "delay": "—",
      "metarCat": "VFR",
      "metarRaw": "METAR KLNS 121953Z 29013KT 10SM OVC085 04/M03 A2988 RMK AO2 SLP120 T00391028",
      "metarObsTime": 1773345180
    },
    "KIPT": {
      "status": "OK",
      "delay": "—",
      "metarCat": "VFR",
      "metarRaw": "METAR KIPT 121954Z 29011G16KT 10SM BKN050 04/M06 A2987 RMK AO2 SLP118 T00391056 $",
      "metarObsTime": 1773345240
    },
    "KPHL": {
      "status": "OK",
      "delay": "—",
      "metarCat": "IFR",
      "metarRaw": "METAR KPHL 121954Z 28006KT 1 1/2SM -SN BR BKN007 OVC013 02/01 A2991 RMK AO2 RAE20 SLP126 P0005 T00220006",
      "metarObsTime": 1773345240
    },
    "KABE": {
      "status": "OK",
      "delay": "—",
      "metarCat": "VFR",
      "metarRaw": "METAR KABE 121951Z 33009KT 10SM SCT047 OVC080 04/M04 A2984 RMK AO2 SLP105 T00441044 $",
      "metarObsTime": 1773345060
    },
    "KAVP": {
      "status": "OK",
      "delay": "—",
      "metarCat": "VFR",
      "metarRaw": "METAR KAVP 121954Z 32013G21KT 10SM BKN046 OVC100 02/M07 A2983 RMK AO2 SLP102 T00221067",
      "metarObsTime": 1773345240
    },
    "KHZL": {
      "status": "OK",
      "delay": "—",
      "metarCat": "VFR",
      "metarRaw": "METAR KHZL 121955Z AUTO 32006G15KT 10SM BKN035 BKN043 OVC085 01/M06 A2983 RMK AO2",
      "metarObsTime": 1773345300
    }
  }
}