{
  "generatedAt": "2026-04-20T21:01:05.096Z",
  "airports": {
    "KPIT": {
      "status": "OK",
      "delay": "—",
      "metarCat": "VFR",
      "metarRaw": "METAR KPIT 202051Z 30009G17KT 10SM SCT065 06/M09 A3028 RMK AO2 PK WND 31026/2001 SLP271 T00611089 57009",
      "metarObsTime": 1776718260
    },
    "KAGC": {
      "status": "OK",
      "delay": "—",
      "metarCat": "VFR",
      "metarRaw": "METAR KAGC 202053Z 32008G16KT 260V350 10SM FEW070 06/M08 A3028 RMK AO2 SLP266 T00611083 58007",
      "metarObsTime": 1776718380
    },
    "KLBE": {
      "status": "OK",
      "delay": "—",
      "metarCat": "VFR",
      "metarRaw": "METAR KLBE 201945Z 31015KT 10SM SCT060 BKN070 06/M07 A3031",
      "metarObsTime": 1776714300
    },
    "KJST": {
      "status": "OK",
      "delay": "—",
      "metarCat": "VFR",
      "metarRaw": "METAR KJST 202054Z AUTO 32013G21KT 10SM OVC060 03/M10 A3022 RMK AO2 SLP253 T00281100 55001",
      "metarObsTime": 1776718440
    },
    "KERI": {
      "status": "OK",
      "delay": "—",
      "metarCat": "VFR",
      "metarRaw": "METAR KERI 202051Z VRB04G16KT 10SM CLR 03/M07 A3035 RMK AO2 SLP286 T00331072 58004",
      "metarObsTime": 1776718260
    },
    "KDUJ": {
      "status": "OK",
      "delay": "—",
      "metarCat": "VFR",
      "metarRaw": "METAR KDUJ 202053Z AUTO 33008G17KT 10SM SCT060 03/M12 A3024 RMK AO2 SLP255 T00281117 56006",
      "metarObsTime": 1776718380
    },
    "KBFD": {
      "status": "OK",
      "delay": "—",
      "metarCat": "VFR",
      "metarRaw": "METAR KBFD 202053Z AUTO 27008G22KT 220V310 10SM SCT050 01/M11 A3024 RMK AO2 WSHFT 1940 SLP260 T00111106 53000",
      "metarObsTime": 1776718380
    },
    "KBTP": {
      "status": "OK",
      "delay": "—",
      "metarCat": "VFR",
      "metarRaw": "METAR KBTP 202056Z AUTO 32009KT 10SM FEW065 07/M08 A3029 RMK AO2 SLP274 T00671078 56008 $",
      "metarObsTime": 1776718560
    },
    "KFKL": {
      "status": "OK",
      "delay": "—",
      "metarCat": "—",
      "metarRaw": "—",
      "metarObsTime": null
    },
    "KIDI": {
      "status": "OK",
      "delay": "—",
      "metarCat": "VFR",
      "metarRaw": "METAR KIDI 202055Z AUTO 32013KT 10SM BKN060 05/M09 A3028 RMK A01",
      "metarObsTime": 1776718500
    },
    "KMDT": {
      "status": "OK",
      "delay": "—",
      "metarCat": "VFR",
      "metarRaw": "METAR KMDT 202056Z 30019KT 10SM BKN070 09/M07 A3022 RMK AO2 SLP236 T00891072 53006",
      "metarObsTime": 1776718560
    },
    "KCXY": {
      "status": "OK",
      "delay": "—",
      "metarCat": "VFR",
      "metarRaw": "METAR KCXY 202056Z 31010G18KT 10SM BKN080 09/M09 A3023 RMK AO2 SLP241 60000 T00941094 53006",
      "metarObsTime": 1776718560
    },
    "KMUI": {
      "status": "OK",
      "delay": "—",
      "metarCat": "VFR",
      "metarRaw": "SPECI KMUI 202026Z 34011G31KT 10SM SCT075 10/M11 A3019 RMK AO2A WSHFT 23 SLP229",
      "metarObsTime": 1776716760
    },
    "KUNV": {
      "status": "OK",
      "delay": "—",
      "metarCat": "VFR",
      "metarRaw": "METAR KUNV 202053Z 30012G16KT 280V340 10SM BKN065 05/M10 A3025",
      "metarObsTime": 1776718380
    },
    "KAOO": {
      "status": "OK",
      "delay": "—",
      "metarCat": "VFR",
      "metarRaw": "METAR KAOO 202053Z AUTO 31013KT 10SM BKN070 06/M11 A3024 RMK AO2 SLP253 T00611106 51002",
      "metarObsTime": 1776718380
    },
    "KLNS": {
      "status": "OK",
      "delay": "—",
      "metarCat": "VFR",
      "metarRaw": "METAR KLNS 202053Z 32013KT 10SM BKN080 OVC090 10/M07 A3020 RMK AO2 SLP230 T01001072 53004",
      "metarObsTime": 1776718380
    },
    "KIPT": {
      "status": "OK",
      "delay": "—",
      "metarCat": "VFR",
      "metarRaw": "METAR KIPT 202054Z 01010G16KT 10SM BKN080 07/M09 A3024 RMK AO2 SLP244 T00721094 53003 $",
      "metarObsTime": 1776718440
    },
    "KPHL": {
      "status": "OK",
      "delay": "—",
      "metarCat": "VFR",
      "metarRaw": "METAR KPHL 202054Z 33016G26KT 10SM FEW065 SCT090 12/M04 A3018 RMK AO2 PK WND 35026/2045 SLP220 VIRGA 60000 T01221044 53001 $",
      "metarObsTime": 1776718440
    },
    "KABE": {
      "status": "OK",
      "delay": "—",
      "metarCat": "VFR",
      "metarRaw": "METAR KABE 202051Z 32018G23KT 10SM BKN075 09/M07 A3020 RMK AO2 PK WND 02030/1952 SLP228 T00891067 53007",
      "metarObsTime": 1776718260
    },
    "KAVP": {
      "status": "OK",
      "delay": "—",
      "metarCat": "VFR",
      "metarRaw": "METAR KAVP 202054Z 32010KT 10SM OVC065 04/M10 A3022 RMK AO2 SLP241 T00441100 51006",
      "metarObsTime": 1776718440
    },
    "KHZL": {
      "status": "OK",
      "delay": "—",
      "metarCat": "VFR",
      "metarRaw": "METAR KHZL 202055Z AUTO 31008KT 270V340 10SM BKN060 BKN070 03/M10 A3022 RMK AO2",
      "metarObsTime": 1776718500
    }
  }
}