{
  "generatedAt": "2026-04-04T21:30:33.676Z",
  "airports": {
    "KPIT": {
      "status": "OK",
      "delay": "—",
      "metarCat": "VFR",
      "metarRaw": "METAR KPIT 042051Z 20011KT 10SM SCT080 SCT110 BKN250 28/11 A2991 RMK AO2 SLP129 T02830111 58033 $",
      "metarObsTime": 1775335860
    },
    "KAGC": {
      "status": "OK",
      "delay": "—",
      "metarCat": "VFR",
      "metarRaw": "METAR KAGC 042053Z 19010G19KT 10SM FEW080 BKN110 28/12 A2993 RMK AO2 SLP130 T02780117 58031",
      "metarObsTime": 1775335980
    },
    "KLBE": {
      "status": "OK",
      "delay": "—",
      "metarCat": "VFR",
      "metarRaw": "METAR KLBE 042047Z 20010G24KT 10SM FEW030 SCT050 29/13 A2996",
      "metarObsTime": 1775335620
    },
    "KJST": {
      "status": "OK",
      "delay": "—",
      "metarCat": "VFR",
      "metarRaw": "METAR KJST 042054Z AUTO 16009KT 10SM FEW070 SCT080 BKN110 23/12 A3000 RMK AO2 SLP149 T02330117 57026",
      "metarObsTime": 1775336040
    },
    "KERI": {
      "status": "OK",
      "delay": "—",
      "metarCat": "VFR",
      "metarRaw": "METAR KERI 042051Z 20016G29KT 10SM CLR 27/13 A2983 RMK AO2 PK WND 21029/2049 SLP099 T02720128 58042",
      "metarObsTime": 1775335860
    },
    "KDUJ": {
      "status": "OK",
      "delay": "—",
      "metarCat": "VFR",
      "metarRaw": "METAR KDUJ 042053Z AUTO 20010G17KT 10SM BKN070 26/12 A2996 RMK AO2 PK WND 21026/2027 SLP132 T02610117 58029",
      "metarObsTime": 1775335980
    },
    "KBFD": {
      "status": "OK",
      "delay": "—",
      "metarCat": "VFR",
      "metarRaw": "METAR KBFD 042053Z AUTO 19011G21KT 10SM SCT055 24/12 A2996 RMK AO2 PK WND 20026/2014 SLP135 T02440117 58027",
      "metarObsTime": 1775335980
    },
    "KBTP": {
      "status": "OK",
      "delay": "—",
      "metarCat": "VFR",
      "metarRaw": "METAR KBTP 042056Z AUTO 20011G21KT 10SM BKN075 28/13 A2993 RMK AO2 SLP132 T02780128 58032 $",
      "metarObsTime": 1775336160
    },
    "KFKL": {
      "status": "OK",
      "delay": "—",
      "metarCat": "VFR",
      "metarRaw": "METAR KFKL 042056Z AUTO 18015G22KT 10SM FEW060 SCT120 26/13 A2991 RMK AO2 SLP124 T02610128 58035",
      "metarObsTime": 1775336160
    },
    "KIDI": {
      "status": "OK",
      "delay": "—",
      "metarCat": "VFR",
      "metarRaw": "METAR KIDI 042115Z AUTO 23010G19KT 10SM CLR 28/12 A2994 RMK A01",
      "metarObsTime": 1775337300
    },
    "KMDT": {
      "status": "OK",
      "delay": "—",
      "metarCat": "VFR",
      "metarRaw": "METAR KMDT 042056Z 13012KT 10SM FEW065 BKN250 26/15 A2998 RMK AO2 SLP154 T02610150 58030 $",
      "metarObsTime": 1775336160
    },
    "KCXY": {
      "status": "OK",
      "delay": "—",
      "metarCat": "VFR",
      "metarRaw": "METAR KCXY 042056Z 11009KT 10SM SCT060 27/16 A2999 RMK AO2 SLP153 T02720161 58030 $",
      "metarObsTime": 1775336160
    },
    "KMUI": {
      "status": "OK",
      "delay": "—",
      "metarCat": "—",
      "metarRaw": "—",
      "metarObsTime": null
    },
    "KUNV": {
      "status": "OK",
      "delay": "—",
      "metarCat": "VFR",
      "metarRaw": "METAR KUNV 042053Z 16007KT 10SM SCT035 25/14 A2999",
      "metarObsTime": 1775335980
    },
    "KAOO": {
      "status": "OK",
      "delay": "—",
      "metarCat": "VFR",
      "metarRaw": "METAR KAOO 042053Z AUTO 16010KT 10SM FEW060 FEW110 25/14 A2999 RMK AO2 PK WND 18026/1955 SLP147 60000 T02500139 58026",
      "metarObsTime": 1775335980
    },
    "KLNS": {
      "status": "OK",
      "delay": "—",
      "metarCat": "VFR",
      "metarRaw": "METAR KLNS 042053Z 17014KT 10SM CLR 27/16 A3003 RMK AO2 SLP166 T02670161 56026",
      "metarObsTime": 1775335980
    },
    "KIPT": {
      "status": "OK",
      "delay": "—",
      "metarCat": "VFR",
      "metarRaw": "METAR KIPT 042054Z 12005KT 10SM FEW100 24/14 A2998 RMK AO2 SLP150 T02390144 58039",
      "metarObsTime": 1775336040
    },
    "KPHL": {
      "status": "OK",
      "delay": "—",
      "metarCat": "VFR",
      "metarRaw": "METAR KPHL 042054Z 09018G27KT 10SM BKN049 BKN060 BKN075 OVC250 22/14 A3010 RMK AO2 PK WND 09029/2026 SLP193 T02170144 55004 $",
      "metarObsTime": 1775336040
    },
    "KABE": {
      "status": "OK",
      "delay": "—",
      "metarCat": "MVFR",
      "metarRaw": "METAR KABE 042051Z 10016G33KT 10SM BKN028 OVC070 21/14 A3010 RMK AO2 PK WND 12033/2051 SLP191 T02110144 56005 $",
      "metarObsTime": 1775335860
    },
    "KAVP": {
      "status": "OK",
      "delay": "—",
      "metarCat": "VFR",
      "metarRaw": "SPECI KAVP 042116Z 10SM CLR 24/14 A3003 RMK AO2 T02390139",
      "metarObsTime": 1775337360
    },
    "KHZL": {
      "status": "OK",
      "delay": "—",
      "metarCat": "VFR",
      "metarRaw": "METAR KHZL 042115Z AUTO 14008G15KT 110V190 10SM SCT034 23/14 A3008 RMK AO2",
      "metarObsTime": 1775337300
    }
  }
}