{
  "generatedAt": "2026-03-16T16:50:20.968Z",
  "airports": {
    "KPIT": {
      "status": "OK",
      "delay": "—",
      "metarCat": "MVFR",
      "metarRaw": "SPECI KPIT 161610Z 27019G28KT 4SM -RA BR BKN011 BKN024 OVC040 08/06 A2943 RMK AO2 T00830061 PNO VISNO SE $",
      "metarObsTime": 1773677400
    },
    "KAGC": {
      "status": "OK",
      "delay": "—",
      "metarCat": "MVFR",
      "metarRaw": "SPECI KAGC 161620Z 26020G30KT 10SM -RA FEW009 BKN017 OVC029 09/07 A2941 RMK AO2 PK WND 25033/1607 WSHFT 1601 RAB15 PRESRR P0000 T00890067",
      "metarObsTime": 1773678000
    },
    "KLBE": {
      "status": "OK",
      "delay": "—",
      "metarCat": "VFR",
      "metarRaw": "METAR KLBE 161647Z 20015G35KT 10SM SCT033 BKN044 17/12 A2939",
      "metarObsTime": 1773679620
    },
    "KJST": {
      "status": "OK",
      "delay": "—",
      "metarCat": "VFR",
      "metarRaw": "METAR KJST 161554Z AUTO 15009KT 10SM BKN080 OVC090 12/10 A2941 RMK AO2 RAB14E47 PRESFR SLP961 P0000 T01220100",
      "metarObsTime": 1773676440
    },
    "KERI": {
      "status": "OK",
      "delay": "—",
      "metarCat": "IFR",
      "metarRaw": "SPECI KERI 161620Z 26019G29KT 1 3/4SM -RA BR OVC005 03/02 A2941 RMK AO2 PK WND 27029/1619 RAE05B12 P0000 T00280017 $",
      "metarObsTime": 1773678000
    },
    "KDUJ": {
      "status": "OK",
      "delay": "—",
      "metarCat": "VFR",
      "metarRaw": "METAR KDUJ 161553Z AUTO 21008G19KT 10SM FEW065 BKN080 OVC095 12/10 A2940 RMK AO2 RAB17E48 SLP954 P0001 T01220100",
      "metarObsTime": 1773676380
    },
    "KBFD": {
      "status": "OK",
      "delay": "—",
      "metarCat": "MVFR",
      "metarRaw": "METAR KBFD 161553Z AUTO 17008G25KT 5SM -RA OVC075 12/09 A2937 RMK AO2 RAB23 SLP945 P0002 T01220089",
      "metarObsTime": 1773676380
    },
    "KBTP": {
      "status": "OK",
      "delay": "—",
      "metarCat": "—",
      "metarRaw": "—",
      "metarObsTime": null
    },
    "KFKL": {
      "status": "OK",
      "delay": "—",
      "metarCat": "IFR",
      "metarRaw": "SPECI KFKL 161641Z AUTO 27012G20KT 3SM -RA BR OVC006 07/06 A2939 RMK AO2 PK WND 28027/1609 WSHFT 1555 RAB02 CIG 005V010 P0005",
      "metarObsTime": 1773679260
    },
    "KIDI": {
      "status": "OK",
      "delay": "—",
      "metarCat": "VFR",
      "metarRaw": "METAR KIDI 161635Z AUTO 22012G18KT 10SM SCT110 16/11 A2938 RMK A01",
      "metarObsTime": 1773678900
    },
    "KMDT": {
      "status": "OK",
      "delay": "—",
      "metarCat": "IFR",
      "metarRaw": "SPECI KMDT 161646Z 17016G28KT 1 1/2SM R13/4500VP6000FT +TSRA BR OVC016 17/15 A2951 RMK AO2 PK WND 16028/1638 RAB29 TSB23 OCNL LTGICCC W TS W MOV NE P0002 T01670150",
      "metarObsTime": 1773679560
    },
    "KCXY": {
      "status": "OK",
      "delay": "—",
      "metarCat": "IFR",
      "metarRaw": "SPECI KCXY 161637Z 16018G28KT 1SM R08/5000VP6000FT -TSRA BR BKN021 OVC028 18/16 A2950 RMK AO2 PK WND 16028/1629 RAB19 TSB34 LTG DSNT S AND SW P0007 T01830161",
      "metarObsTime": 1773679020
    },
    "KMUI": {
      "status": "OK",
      "delay": "—",
      "metarCat": "MVFR",
      "metarRaw": "SPECI KMUI 161619Z 17010G15KT 10SM VCSH OVC015 19/18 A2951 RMK AO2A LTG DSNT SW SLP996",
      "metarObsTime": 1773677940
    },
    "KUNV": {
      "status": "OK",
      "delay": "—",
      "metarCat": "VFR",
      "metarRaw": "SPECI KUNV 161626Z 23008KT 10SM SCT030 BKN045 15/14 A2945",
      "metarObsTime": 1773678360
    },
    "KAOO": {
      "status": "OK",
      "delay": "—",
      "metarCat": "VFR",
      "metarRaw": "METAR KAOO 161553Z AUTO 19007KT 10SM -RA BKN060 OVC080 14/12 A2945 RMK AO2 RAB1457E18B43 PRESFR SLP974 P0000 T01440122",
      "metarObsTime": 1773676380
    },
    "KLNS": {
      "status": "OK",
      "delay": "—",
      "metarCat": "MVFR",
      "metarRaw": "SPECI KLNS 161646Z 18011G21KT 10SM BKN015 BKN020 OVC036 18/16 A2952 RMK AO2 PK WND 19030/1605 LTG DSNT W PRESFR T01830156",
      "metarObsTime": 1773679560
    },
    "KIPT": {
      "status": "OK",
      "delay": "—",
      "metarCat": "MVFR",
      "metarRaw": "METAR KIPT 161554Z 08010G16KT 10SM OVC016 17/14 A2945 RMK AO2 SLP974 T01720144",
      "metarObsTime": 1773676440
    },
    "KPHL": {
      "status": "OK",
      "delay": "—",
      "metarCat": "MVFR",
      "metarRaw": "SPECI KPHL 161633Z 18017G24KT 10SM BKN018 BKN070 BKN100 19/16 A2962 RMK AO2 RAE01B21E31 TSB10E31 CB DSNT NW-DSNT N MOV NE VCSH P0000 T01940156 $",
      "metarObsTime": 1773678780
    },
    "KABE": {
      "status": "OK",
      "delay": "—",
      "metarCat": "—",
      "metarRaw": "METAR KABE 161551Z 18013G20KT 10SM 19/16 A2958 RMK AO2 SLP018 T01890161 $",
      "metarObsTime": 1773676260
    },
    "KAVP": {
      "status": "OK",
      "delay": "—",
      "metarCat": "VFR",
      "metarRaw": "SPECI KAVP 161646Z 19011G27KT 10SM SCT022 SCT030 BKN044 19/14 A2950 RMK AO2 PK WND 19031/1559 RAB20E37 P0000 T01940144",
      "metarObsTime": 1773679560
    },
    "KHZL": {
      "status": "OK",
      "delay": "—",
      "metarCat": "IFR",
      "metarRaw": "METAR KHZL 161635Z AUTO 16009G20KT 110V200 10SM OVC009 16/15 A2957 RMK AO2 P0001",
      "metarObsTime": 1773678900
    }
  }
}