{
  "generatedAt": "2026-03-16T20:00:20.304Z",
  "airports": {
    "KPIT": {
      "status": "OK",
      "delay": "—",
      "metarCat": "MVFR",
      "metarRaw": "METAR KPIT 161951Z 26010G20KT 4SM -RA BR FEW009 OVC017 03/01 A2945 RMK AO2 PLB11E30 SLP983 P0001 T00280006 $",
      "metarObsTime": 1773690660
    },
    "KAGC": {
      "status": "OK",
      "delay": "—",
      "metarCat": "VFR",
      "metarRaw": "METAR KAGC 161953Z 27012G26KT 9SM BKN037 OVC049 03/00 A2945 RMK AO2 PK WND 26033/1854 RAE50 SLP978 P0001 T00330000",
      "metarObsTime": 1773690780
    },
    "KLBE": {
      "status": "OK",
      "delay": "—",
      "metarCat": "—",
      "metarRaw": "—",
      "metarObsTime": null
    },
    "KJST": {
      "status": "OK",
      "delay": "—",
      "metarCat": "LIFR",
      "metarRaw": "METAR KJST 161954Z AUTO 28015G23KT 7SM -RA BKN004 OVC011 05/04 A2937 RMK AO2 CIG 003V008 SLP951 P0005 T00500044",
      "metarObsTime": 1773690840
    },
    "KERI": {
      "status": "OK",
      "delay": "—",
      "metarCat": "IFR",
      "metarRaw": "METAR KERI 161951Z 26016G27KT 2SM -SN OVC026 01/M03 A2942 RMK AO2 PK WND 27029/1929 RAB10E25UPB25E28SNB28 SLP967 P0000 T00111028 $",
      "metarObsTime": 1773690660
    },
    "KDUJ": {
      "status": "OK",
      "delay": "—",
      "metarCat": "MVFR",
      "metarRaw": "METAR KDUJ 161953Z AUTO 27019G31KT 3SM -RA BR SCT009 OVC016 04/03 A2938 RMK AO2 PK WND 27031/1950 RAB46 SLP952 P0001 T00440033",
      "metarObsTime": 1773690780
    },
    "KBFD": {
      "status": "OK",
      "delay": "—",
      "metarCat": "IFR",
      "metarRaw": "METAR KBFD 161953Z AUTO 26010G21KT 5SM BR BKN009 OVC017 06/04 A2933 RMK AO2 RAE1858 SLP936 P0000 T00560044",
      "metarObsTime": 1773690780
    },
    "KBTP": {
      "status": "OK",
      "delay": "—",
      "metarCat": "—",
      "metarRaw": "—",
      "metarObsTime": null
    },
    "KFKL": {
      "status": "OK",
      "delay": "—",
      "metarCat": "MVFR",
      "metarRaw": "METAR KFKL 161956Z AUTO 25011G16KT 5SM -SN BR SCT008 BKN015 OVC035 02/01 A2942 RMK AO2 RAE50SNB50 SLP970 P0003 T00170006 FZRANO",
      "metarObsTime": 1773690960
    },
    "KIDI": {
      "status": "OK",
      "delay": "—",
      "metarCat": "IFR",
      "metarRaw": "METAR KIDI 161955Z AUTO 26013G22KT 2SM BR BKN013 BKN017 OVC026 05/04 A2943 RMK A01",
      "metarObsTime": 1773690900
    },
    "KMDT": {
      "status": "OK",
      "delay": "—",
      "metarCat": "VFR",
      "metarRaw": "METAR KMDT 161956Z 15009KT 10SM SCT019 OVC085 15/14 A2938 RMK AO2 RAE49 SLP950 CB DSNT E-NE P0003 T01500139",
      "metarObsTime": 1773690960
    },
    "KCXY": {
      "status": "OK",
      "delay": "—",
      "metarCat": "MVFR",
      "metarRaw": "METAR KCXY 161956Z 14010KT 10SM -RA SCT014 BKN019 OVC090 17/16 A2937 RMK AO2 RAE26B47 SLP947 P0003 T01720156",
      "metarObsTime": 1773690960
    },
    "KMUI": {
      "status": "OK",
      "delay": "—",
      "metarCat": "IFR",
      "metarRaw": "METAR KMUI 161955Z 15003KT 8SM -RA BKN008 BKN013 OVC025 17/17 A2937 RMK AO2A LTG DSNT E SLP948 T01740171",
      "metarObsTime": 1773690900
    },
    "KUNV": {
      "status": "OK",
      "delay": "—",
      "metarCat": "VFR",
      "metarRaw": "METAR KUNV 161953Z 16005G12KT 10SM SCT025 BKN070 OVC095 17/13 A2930",
      "metarObsTime": 1773690780
    },
    "KAOO": {
      "status": "OK",
      "delay": "—",
      "metarCat": "VFR",
      "metarRaw": "METAR KAOO 161953Z AUTO 16012G20KT 10SM SCT034 BKN045 OVC080 16/13 A2929 RMK AO2 RAB04E51 SLP916 P0001 T01560133",
      "metarObsTime": 1773690780
    },
    "KLNS": {
      "status": "OK",
      "delay": "—",
      "metarCat": "VFR",
      "metarRaw": "METAR KLNS 161953Z 18014G23KT 7SM -RA FEW048 OVC080 17/16 A2941 RMK AO2 PK WND 20028/1859 RAE03B23 SLP960 P0010 T01720156",
      "metarObsTime": 1773690780
    },
    "KIPT": {
      "status": "OK",
      "delay": "—",
      "metarCat": "MVFR",
      "metarRaw": "METAR KIPT 161954Z VRB05G16KT 10SM SCT024 BKN030 OVC039 18/14 A2932 RMK AO2 PK WND 17027/1923 RAE00 SLP928 P0000 T01830139",
      "metarObsTime": 1773690840
    },
    "KPHL": {
      "status": "OK",
      "delay": "—",
      "metarCat": "VFR",
      "metarRaw": "METAR KPHL 161954Z 18015G29KT 10SM -RA SCT027 SCT080 OVC110 19/16 A2950 RMK AO2 PK WND 17029/1947 RAE09B26 SLP988 P0000 T01890156 $",
      "metarObsTime": 1773690840
    },
    "KABE": {
      "status": "OK",
      "delay": "—",
      "metarCat": "MVFR",
      "metarRaw": "METAR KABE 161951Z 18014G24KT 10SM OVC022 19/15 A2946 RMK AO2 PK WND 19028/1921 RAB11E35 SLP975 P0000 T01890150",
      "metarObsTime": 1773690660
    },
    "KAVP": {
      "status": "OK",
      "delay": "—",
      "metarCat": "VFR",
      "metarRaw": "METAR KAVP 161954Z 19009G23KT 150V210 10SM OVC100 18/14 A2939 RMK AO2 PK WND 21034/1859 RAE50 SLP948 P0001 T01780139",
      "metarObsTime": 1773690840
    },
    "KHZL": {
      "status": "OK",
      "delay": "—",
      "metarCat": "MVFR",
      "metarRaw": "METAR KHZL 161935Z AUTO 16010G23KT 130V210 10SM -RA BKN010 OVC014 16/14 A2946 RMK AO2 LTG DSNT S",
      "metarObsTime": 1773689700
    }
  }
}