{
  "generatedAt": "2026-03-23T13:50:19.328Z",
  "airports": {
    "KPIT": {
      "status": "OK",
      "delay": "—",
      "metarCat": "MVFR",
      "metarRaw": "SPECI KPIT 231318Z 32016KT 10SM SCT014 BKN023 OVC033 03/M01 A2999 RMK AO2 RAE17 P0000 T00281006",
      "metarObsTime": 1774271880
    },
    "KAGC": {
      "status": "OK",
      "delay": "—",
      "metarCat": "MVFR",
      "metarRaw": "SPECI KAGC 231342Z 33014G25KT 10SM SCT015 BKN024 OVC030 02/M01 A3000 RMK AO2 T00221011",
      "metarObsTime": 1774273320
    },
    "KLBE": {
      "status": "OK",
      "delay": "—",
      "metarCat": "—",
      "metarRaw": "—",
      "metarObsTime": null
    },
    "KJST": {
      "status": "OK",
      "delay": "—",
      "metarCat": "LIFR",
      "metarRaw": "SPECI KJST 231325Z AUTO 30019G27KT 1SM -RA BR BKN004 OVC012 03/02 A2984 RMK AO2 PK WND 29028/1307 RAE00B21UPB00E11SNB11E21 P0002 T00280022",
      "metarObsTime": 1774272300
    },
    "KERI": {
      "status": "OK",
      "delay": "—",
      "metarCat": "VFR",
      "metarRaw": "METAR KERI 231251Z 05011G18KT 10SM FEW012 SCT036 OVC046 01/M02 A3003 RMK AO2 SLP175 T00061022",
      "metarObsTime": 1774270260
    },
    "KDUJ": {
      "status": "OK",
      "delay": "—",
      "metarCat": "IFR",
      "metarRaw": "SPECI KDUJ 231344Z AUTO 32011G19KT 3SM -SN BR BKN006 OVC019 00/M02 A2991 RMK AO2 SNB02 P0000 T00001017",
      "metarObsTime": 1774273440
    },
    "KBFD": {
      "status": "OK",
      "delay": "—",
      "metarCat": "IFR",
      "metarRaw": "SPECI KBFD 231300Z AUTO 34007KT 3SM BR BKN006 BKN010 OVC024 M03/M03 A2989 RMK AO2 CIG 005V009 T10281033",
      "metarObsTime": 1774270800
    },
    "KBTP": {
      "status": "OK",
      "delay": "—",
      "metarCat": "MVFR",
      "metarRaw": "METAR KBTP 231256Z AUTO 34011G18KT 10SM OVC015 01/M01 A2998 RMK AO2 UPB40E56 SLP165 P0000 T00111006 FZRANO $",
      "metarObsTime": 1774270560
    },
    "KFKL": {
      "status": "OK",
      "delay": "—",
      "metarCat": "MVFR",
      "metarRaw": "SPECI KFKL 231326Z AUTO 36009KT 9SM -SN BKN012 OVC018 M01/M02 A2999 RMK AO2 P0000 FZRANO",
      "metarObsTime": 1774272360
    },
    "KIDI": {
      "status": "OK",
      "delay": "—",
      "metarCat": "IFR",
      "metarRaw": "METAR KIDI 231335Z AUTO 31011G20KT 3SM BR BKN007 BKN013 03/03 A2994 RMK A01",
      "metarObsTime": 1774272900
    },
    "KMDT": {
      "status": "OK",
      "delay": "—",
      "metarCat": "MVFR",
      "metarRaw": "METAR KMDT 231256Z 32010KT 10SM FEW008 OVC014 08/07 A2976 RMK AO2 SLP078 T00830072",
      "metarObsTime": 1774270560
    },
    "KCXY": {
      "status": "OK",
      "delay": "—",
      "metarCat": "MVFR",
      "metarRaw": "SPECI KCXY 231345Z 31011G18KT 10SM BKN012 OVC021 07/04 A2983 RMK AO2 PRESRR T00670044",
      "metarObsTime": 1774273500
    },
    "KMUI": {
      "status": "OK",
      "delay": "—",
      "metarCat": "MVFR",
      "metarRaw": "SPECI KMUI 231314Z VRB05KT 10SM BKN012 OVC021 07/06 A2976 RMK AO2A SLP081",
      "metarObsTime": 1774271640
    },
    "KUNV": {
      "status": "OK",
      "delay": "—",
      "metarCat": "IFR",
      "metarRaw": "METAR KUNV 231253Z 05008KT 3SM -DZ BR OVC008 03/03 A2985",
      "metarObsTime": 1774270380
    },
    "KAOO": {
      "status": "OK",
      "delay": "—",
      "metarCat": "MVFR",
      "metarRaw": "SPECI KAOO 231344Z AUTO 30010G20KT 10SM OVC013 06/04 A2986 RMK AO2 T00610039",
      "metarObsTime": 1774273440
    },
    "KLNS": {
      "status": "OK",
      "delay": "—",
      "metarCat": "MVFR",
      "metarRaw": "SPECI KLNS 231307Z 01008KT 10SM OVC010 09/08 A2975 RMK AO2 T00940083",
      "metarObsTime": 1774271220
    },
    "KIPT": {
      "status": "OK",
      "delay": "—",
      "metarCat": "MVFR",
      "metarRaw": "METAR KIPT 231254Z VRB05KT 7SM OVC020 02/M01 A2987 RMK AO2 SLP118 T00221006 $",
      "metarObsTime": 1774270440
    },
    "KPHL": {
      "status": "OK",
      "delay": "—",
      "metarCat": "MVFR",
      "metarRaw": "SPECI KPHL 231314Z 05009KT 6SM -RA BR OVC010 11/09 A2975 RMK AO2 RAB09 P0000 T01110094 $",
      "metarObsTime": 1774271640
    },
    "KABE": {
      "status": "OK",
      "delay": "—",
      "metarCat": "MVFR",
      "metarRaw": "SPECI KABE 231321Z 03008KT 10SM SCT012 OVC026 07/05 A2978 RMK AO2 T00670050 $",
      "metarObsTime": 1774272060
    },
    "KAVP": {
      "status": "OK",
      "delay": "—",
      "metarCat": "IFR",
      "metarRaw": "SPECI KAVP 231311Z 35009KT 2 1/2SM -RA BR OVC010 02/01 A2982 RMK AO2 SFC VIS 5 CIG 006V013 P0000 T00170006",
      "metarObsTime": 1774271460
    },
    "KHZL": {
      "status": "OK",
      "delay": "—",
      "metarCat": "LIFR",
      "metarRaw": "METAR KHZL 231335Z AUTO 34007KT 5SM -DZ OVC003 01/00 A2983 RMK AO2",
      "metarObsTime": 1774272900
    }
  }
}