{
  "generatedAt": "2026-03-17T11:10:12.149Z",
  "airports": {
    "KPIT": {
      "status": "OK",
      "delay": "—",
      "metarCat": "IFR",
      "metarRaw": "SPECI KPIT 171107Z 24006KT 2SM R28R/6000VP6000FT -SN BR BKN012 BKN029 OVC040 M06/M07 A2984 RMK AO2 P0000 T10561072 $",
      "metarObsTime": 1773745620
    },
    "KAGC": {
      "status": "OK",
      "delay": "—",
      "metarCat": "IFR",
      "metarRaw": "METAR KAGC 171053Z 24007KT 1 3/4SM -SN BR BKN023 BKN029 OVC038 M06/M08 A2983 RMK AO2 SNB15 SLP121 P0000 T10611078 $",
      "metarObsTime": 1773744780
    },
    "KLBE": {
      "status": "OK",
      "delay": "—",
      "metarCat": "MVFR",
      "metarRaw": "METAR KLBE 171047Z 23012KT 7SM -SN BKN030 OVC035 M05/M08 A2986",
      "metarObsTime": 1773744420
    },
    "KJST": {
      "status": "OK",
      "delay": "—",
      "metarCat": "IFR",
      "metarRaw": "METAR KJST 171054Z AUTO 27018G32KT 2 1/2SM -SN SCT019 SCT023 OVC044 M08/M12 A2971 RMK AO2 PK WND 28036/1044 VIS 1 1/2V3 SLP091 P0000 T10831117",
      "metarObsTime": 1773744840
    },
    "KERI": {
      "status": "OK",
      "delay": "—",
      "metarCat": "VFR",
      "metarRaw": "METAR KERI 171051Z 27023G39KT 6SM HZ BKN036 OVC045 M06/M12 A2978 RMK PK WIND250/40",
      "metarObsTime": 1773744660
    },
    "KDUJ": {
      "status": "OK",
      "delay": "—",
      "metarCat": "IFR",
      "metarRaw": "METAR KDUJ 171053Z AUTO 25011KT 1 1/2SM -SN BR FEW013 OVC018 M08/M10 A2972 RMK AO2 SLP086 P0000 T10831100 TSNO",
      "metarObsTime": 1773744780
    },
    "KBFD": {
      "status": "OK",
      "delay": "—",
      "metarCat": "MVFR",
      "metarRaw": "METAR KBFD 171053Z AUTO 25008G22KT 4SM -SN FEW025 OVC033 M09/M13 A2966 RMK AO2 PK WND 26029/1024 SLP068 P0000 T10891128",
      "metarObsTime": 1773744780
    },
    "KBTP": {
      "status": "OK",
      "delay": "—",
      "metarCat": "—",
      "metarRaw": "—",
      "metarObsTime": null
    },
    "KFKL": {
      "status": "OK",
      "delay": "—",
      "metarCat": "MVFR",
      "metarRaw": "SPECI KFKL 171059Z AUTO 26011KT 3SM -SN BR BKN014 BKN021 OVC041 M07/M09 A2977 RMK AO2 P0000 FZRANO",
      "metarObsTime": 1773745140
    },
    "KIDI": {
      "status": "OK",
      "delay": "—",
      "metarCat": "VFR",
      "metarRaw": "METAR KIDI 171055Z AUTO 26010G16KT 10SM FEW031 OVC043 M06/M10 A2982 RMK A01",
      "metarObsTime": 1773744900
    },
    "KMDT": {
      "status": "OK",
      "delay": "—",
      "metarCat": "VFR",
      "metarRaw": "METAR KMDT 171056Z 29015KT 10SM FEW060 M01/M08 A2982 RMK AO2 PK WND 28034/1014 SLP099 T10111083",
      "metarObsTime": 1773744960
    },
    "KCXY": {
      "status": "OK",
      "delay": "—",
      "metarCat": "VFR",
      "metarRaw": "METAR KCXY 171056Z 29010G20KT 10SM CLR M03/M11 A2983 RMK AO2 PK WND 25030/1006 SLP104 T10281111",
      "metarObsTime": 1773744960
    },
    "KMUI": {
      "status": "OK",
      "delay": "—",
      "metarCat": "VFR",
      "metarRaw": "METAR KMUI 171055Z 27013G21KT 10SM BKN034 BKN043 M01/M08 A2977 RMK AO2A SNE59 SLP086 T10151078",
      "metarObsTime": 1773744900
    },
    "KUNV": {
      "status": "OK",
      "delay": "—",
      "metarCat": "VFR",
      "metarRaw": "METAR KUNV 171053Z 26016G25KT 10SM SCT034 BKN042 M06/M11 A2976",
      "metarObsTime": 1773744780
    },
    "KAOO": {
      "status": "OK",
      "delay": "—",
      "metarCat": "VFR",
      "metarRaw": "METAR KAOO 171053Z AUTO 29010G25KT 8SM -SN SCT029 OVC037 M06/M11 A2977 RMK AO2 PK WND 27033/1011 SLP099 P0000 T10611111",
      "metarObsTime": 1773744780
    },
    "KLNS": {
      "status": "OK",
      "delay": "—",
      "metarCat": "VFR",
      "metarRaw": "METAR KLNS 171053Z 27015G25KT 10SM CLR M02/M09 A2980 RMK AO2 PK WND 27033/0956 SLP091 T10221089",
      "metarObsTime": 1773744780
    },
    "KIPT": {
      "status": "OK",
      "delay": "—",
      "metarCat": "MVFR",
      "metarRaw": "SPECI KIPT 171106Z 26012G21KT 3SM -SN FEW013 BKN024 OVC043 M04/M07 A2976 RMK AO2 P0000 T10391067",
      "metarObsTime": 1773745560
    },
    "KPHL": {
      "status": "OK",
      "delay": "—",
      "metarCat": "VFR",
      "metarRaw": "METAR KPHL 171054Z 26016KT 10SM BKN050 02/M07 A2980 RMK AO2 PK WND 27029/1014 SLP091 T00171072 $",
      "metarObsTime": 1773744840
    },
    "KABE": {
      "status": "OK",
      "delay": "—",
      "metarCat": "—",
      "metarRaw": "METAR KABE 171051Z 10SM M01/M08 A2974 RMK AO2 PK WND 25031/0954 SLP071 T10111083 $",
      "metarObsTime": 1773744660
    },
    "KAVP": {
      "status": "OK",
      "delay": "—",
      "metarCat": "VFR",
      "metarRaw": "METAR KAVP 171054Z AUTO 25017G24KT 10SM FEW044 M04/M08 A2968 RMK AO2 PK WND 25027/1031 SLP051 T10391083",
      "metarObsTime": 1773744840
    },
    "KHZL": {
      "status": "OK",
      "delay": "—",
      "metarCat": "VFR",
      "metarRaw": "METAR KHZL 171055Z AUTO 23005KT 10SM SCT032 M05/M10 RMK AO2",
      "metarObsTime": 1773744900
    }
  }
}