{
  "generatedAt": "2026-03-10T06:00:15.074Z",
  "airports": {
    "KPIT": {
      "status": "OK",
      "delay": "—",
      "metarCat": "VFR",
      "metarRaw": "METAR KPIT 100551Z 18003KT 10SM FEW250 13/00 A2997 RMK AO2 SLP153 T01330000 10189 20128 56002",
      "metarObsTime": 1773121860
    },
    "KAGC": {
      "status": "OK",
      "delay": "—",
      "metarCat": "VFR",
      "metarRaw": "METAR KAGC 100553Z 19007KT 10SM CLR 13/M01 A2997 RMK AO2 SLP151 T01331006 10178 20133 55004",
      "metarObsTime": 1773121980
    },
    "KLBE": {
      "status": "OK",
      "delay": "—",
      "metarCat": "VFR",
      "metarRaw": "METAR KLBE 100555Z AUTO 00000KT 10SM CLR 07/02 A3000 RMK AO2",
      "metarObsTime": 1773122100
    },
    "KJST": {
      "status": "OK",
      "delay": "—",
      "metarCat": "VFR",
      "metarRaw": "METAR KJST 100554Z AUTO 21006KT 10SM CLR 14/M02 A3001 RMK AO2 SLP156 T01391017 10150 20133 58003",
      "metarObsTime": 1773122040
    },
    "KERI": {
      "status": "OK",
      "delay": "—",
      "metarCat": "VFR",
      "metarRaw": "METAR KERI 100551Z AUTO 19011KT 10SM CLR 16/03 A2990 RMK AO2 SLP123 T01610028 10183 20161 58000",
      "metarObsTime": 1773121860
    },
    "KDUJ": {
      "status": "OK",
      "delay": "—",
      "metarCat": "VFR",
      "metarRaw": "METAR KDUJ 100553Z AUTO 22003KT 10SM CLR 13/M03 A2997 RMK AO2 SLP146 T01281028 10144 20100 58002",
      "metarObsTime": 1773121980
    },
    "KBFD": {
      "status": "OK",
      "delay": "—",
      "metarCat": "VFR",
      "metarRaw": "METAR KBFD 100553Z AUTO VRB03KT 10SM CLR 12/M02 A2997 RMK AO2 SLP144 T01221017 10150 20111 58003 $",
      "metarObsTime": 1773121980
    },
    "KBTP": {
      "status": "OK",
      "delay": "—",
      "metarCat": "VFR",
      "metarRaw": "METAR KBTP 100556Z AUTO 21004KT 10SM CLR 14/00 A2999 RMK AO2 SLP158 T01390000 10167 20133 53001 $",
      "metarObsTime": 1773122160
    },
    "KFKL": {
      "status": "OK",
      "delay": "—",
      "metarCat": "VFR",
      "metarRaw": "METAR KFKL 100556Z AUTO 23008KT 10SM CLR 14/02 A2997 RMK AO2 SLP146 T01390022 10150 20122 54000",
      "metarObsTime": 1773122160
    },
    "KIDI": {
      "status": "OK",
      "delay": "—",
      "metarCat": "VFR",
      "metarRaw": "METAR KIDI 100555Z AUTO 22003KT 10SM CLR 09/00 A3000 RMK A01",
      "metarObsTime": 1773122100
    },
    "KMDT": {
      "status": "OK",
      "delay": "—",
      "metarCat": "VFR",
      "metarRaw": "METAR KMDT 100556Z 00000KT 10SM CLR 07/04 A3000 RMK AO2 SLP159 T00720044 10150 20067 51005",
      "metarObsTime": 1773122160
    },
    "KCXY": {
      "status": "OK",
      "delay": "—",
      "metarCat": "VFR",
      "metarRaw": "METAR KCXY 100556Z AUTO 00000KT 10SM CLR 08/04 A3001 RMK AO2 SLP162 T00780044 10178 20072 51005",
      "metarObsTime": 1773122160
    },
    "KMUI": {
      "status": "OK",
      "delay": "—",
      "metarCat": "VFR",
      "metarRaw": "METAR KMUI 100555Z AUTO 00000KT 10SM CLR 06/05 A2999 RMK AO2 SLP158 T00620052 10163 20062 52004",
      "metarObsTime": 1773122100
    },
    "KUNV": {
      "status": "OK",
      "delay": "—",
      "metarCat": "VFR",
      "metarRaw": "METAR KUNV 100555Z AUTO 00000KT 10SM CLR 12/M03 A3000 RMK AO2 T01201028 10171 20111",
      "metarObsTime": 1773122100
    },
    "KAOO": {
      "status": "OK",
      "delay": "—",
      "metarCat": "VFR",
      "metarRaw": "METAR KAOO 100553Z AUTO 00000KT 10SM CLR 11/M02 A3000 RMK AO2 SLP158 T01061017 10156 20083 58003",
      "metarObsTime": 1773121980
    },
    "KLNS": {
      "status": "OK",
      "delay": "—",
      "metarCat": "VFR",
      "metarRaw": "METAR KLNS 100553Z AUTO 00000KT 10SM CLR 09/04 A3001 RMK AO2 SLP162 T00890044 10178 20089 53006",
      "metarObsTime": 1773121980
    },
    "KIPT": {
      "status": "OK",
      "delay": "—",
      "metarCat": "VFR",
      "metarRaw": "METAR KIPT 100554Z AUTO 30003KT 10SM CLR 04/02 A2999 RMK AO2 SLP156 T00440017 10183 20039 50007 $",
      "metarObsTime": 1773122040
    },
    "KPHL": {
      "status": "OK",
      "delay": "—",
      "metarCat": "VFR",
      "metarRaw": "METAR KPHL 100554Z 00000KT 10SM CLR 11/07 A3003 RMK AO2 SLP167 T01060072 10189 20100 50001 $",
      "metarObsTime": 1773122040
    },
    "KABE": {
      "status": "OK",
      "delay": "—",
      "metarCat": "VFR",
      "metarRaw": "METAR KABE 100551Z 33003KT 10SM CLR 04/02 A3001 RMK AO2 SLP163 T00440022 10161 20039 50005",
      "metarObsTime": 1773121860
    },
    "KAVP": {
      "status": "OK",
      "delay": "—",
      "metarCat": "VFR",
      "metarRaw": "METAR KAVP 100554Z 00000KT 10SM CLR 11/02 A3000 RMK AO2 SLP154 T01110022 10167 20094 50004",
      "metarObsTime": 1773122040
    },
    "KHZL": {
      "status": "OK",
      "delay": "—",
      "metarCat": "VFR",
      "metarRaw": "METAR KHZL 100555Z AUTO 00000KT 10SM CLR 09/01 A3004 RMK AO2",
      "metarObsTime": 1773122100
    }
  }
}