{
  "generatedAt": "2026-04-11T09:00:42.356Z",
  "airports": {
    "KPIT": {
      "status": "OK",
      "delay": "—",
      "metarCat": "MVFR",
      "metarRaw": "METAR KPIT 110851Z 34009KT 10SM BKN014 OVC022 06/02 A3031 RMK AO2 SLP273 T00560022 53011 $",
      "metarObsTime": 1775897460
    },
    "KAGC": {
      "status": "OK",
      "delay": "—",
      "metarCat": "MVFR",
      "metarRaw": "METAR KAGC 110853Z 32006KT 10SM OVC011 06/04 A3029 RMK AO2 SLP262 T00610039 53012",
      "metarObsTime": 1775897580
    },
    "KLBE": {
      "status": "OK",
      "delay": "—",
      "metarCat": "MVFR",
      "metarRaw": "METAR KLBE 110855Z AUTO 30006KT 10SM BKN021 OVC025 09/07 A3030 RMK AO2",
      "metarObsTime": 1775897700
    },
    "KJST": {
      "status": "OK",
      "delay": "—",
      "metarCat": "MVFR",
      "metarRaw": "METAR KJST 110854Z AUTO 35008KT 10SM OVC010 06/04 A3024 RMK AO2 CIG 007V013 SLP239 60000 T00610039 51013",
      "metarObsTime": 1775897640
    },
    "KERI": {
      "status": "OK",
      "delay": "—",
      "metarCat": "VFR",
      "metarRaw": "METAR KERI 110851Z AUTO 00000KT 9SM FEW010 04/02 A3033 RMK AO2 SLP277 T00390022 53002 $",
      "metarObsTime": 1775897460
    },
    "KDUJ": {
      "status": "OK",
      "delay": "—",
      "metarCat": "MVFR",
      "metarRaw": "METAR KDUJ 110853Z AUTO 34005KT 10SM BKN014 OVC020 06/04 A3025 RMK AO2 SLP246 T00560039 53008",
      "metarObsTime": 1775897580
    },
    "KBFD": {
      "status": "OK",
      "delay": "—",
      "metarCat": "MVFR",
      "metarRaw": "METAR KBFD 110853Z AUTO 34007KT 10SM BKN019 OVC024 03/02 A3025 RMK AO2 SLP251 T00330017 53006",
      "metarObsTime": 1775897580
    },
    "KBTP": {
      "status": "OK",
      "delay": "—",
      "metarCat": "MVFR",
      "metarRaw": "METAR KBTP 110856Z AUTO VRB05KT 10SM OVC014 06/06 A3032 RMK AO2 SLP276 T00560056 53013 $",
      "metarObsTime": 1775897760
    },
    "KFKL": {
      "status": "OK",
      "delay": "—",
      "metarCat": "MVFR",
      "metarRaw": "METAR KFKL 110856Z AUTO 32005KT 10SM FEW009 SCT012 OVC030 04/03 A3031 RMK AO2 SLP271 T00390028 51008",
      "metarObsTime": 1775897760
    },
    "KIDI": {
      "status": "OK",
      "delay": "—",
      "metarCat": "MVFR",
      "metarRaw": "METAR KIDI 110855Z AUTO 00000KT 10SM BKN023 OVC029 08/06 A3028 RMK A01",
      "metarObsTime": 1775897700
    },
    "KMDT": {
      "status": "OK",
      "delay": "—",
      "metarCat": "VFR",
      "metarRaw": "METAR KMDT 110856Z 33006KT 10SM BKN046 16/11 A3015 RMK AO2 SLP209 T01560111 53007",
      "metarObsTime": 1775897760
    },
    "KCXY": {
      "status": "OK",
      "delay": "—",
      "metarCat": "VFR",
      "metarRaw": "METAR KCXY 110856Z AUTO 32012KT 10SM FEW043 SCT050 BKN065 16/09 A3016 RMK AO2 SLP213 T01610094 53010 $",
      "metarObsTime": 1775897760
    },
    "KMUI": {
      "status": "OK",
      "delay": "—",
      "metarCat": "VFR",
      "metarRaw": "METAR KMUI 110755Z AUTO 27008KT 10SM FEW025 BKN046 BKN055 17/13 A3011 RMK AO2 SLP197 T01690134",
      "metarObsTime": 1775894100
    },
    "KUNV": {
      "status": "OK",
      "delay": "—",
      "metarCat": "VFR",
      "metarRaw": "METAR KUNV 110855Z AUTO 31006KT 10SM OVC034 09/04 A3025 RMK AO2 T00880035",
      "metarObsTime": 1775897700
    },
    "KAOO": {
      "status": "OK",
      "delay": "—",
      "metarCat": "MVFR",
      "metarRaw": "METAR KAOO 110853Z AUTO 33012G20KT 10SM BKN019 OVC025 09/06 A3024 RMK AO2 SLP237 60000 T00940056 53017",
      "metarObsTime": 1775897580
    },
    "KLNS": {
      "status": "OK",
      "delay": "—",
      "metarCat": "VFR",
      "metarRaw": "METAR KLNS 110853Z AUTO 29005KT 10SM FEW029 FEW050 12/10 A3014 RMK AO2 SLP205 T01170100 53004",
      "metarObsTime": 1775897580
    },
    "KIPT": {
      "status": "OK",
      "delay": "—",
      "metarCat": "VFR",
      "metarRaw": "METAR KIPT 110854Z AUTO 33012G18KT 10SM OVC035 09/04 A3023 RMK AO2 SLP238 T00890044 53021 $",
      "metarObsTime": 1775897640
    },
    "KPHL": {
      "status": "OK",
      "delay": "—",
      "metarCat": "VFR",
      "metarRaw": "METAR KPHL 110854Z 22006KT 10SM SCT040 SCT110 12/08 A3013 RMK AO2 SLP202 T01220083 55002 $",
      "metarObsTime": 1775897640
    },
    "KABE": {
      "status": "OK",
      "delay": "—",
      "metarCat": "VFR",
      "metarRaw": "METAR KABE 110851Z 34008G17KT 10SM CLR 11/06 A3015 RMK AO2 SLP209 T01110056 53015 $",
      "metarObsTime": 1775897460
    },
    "KAVP": {
      "status": "OK",
      "delay": "—",
      "metarCat": "MVFR",
      "metarRaw": "METAR KAVP 110854Z AUTO 35016G23KT 10SM OVC017 06/03 A3022 RMK AO2 SLP230 T00610033 51022",
      "metarObsTime": 1775897640
    },
    "KHZL": {
      "status": "OK",
      "delay": "—",
      "metarCat": "IFR",
      "metarRaw": "METAR KHZL 110855Z AUTO 33010G20KT 10SM OVC009 07/04 A3022 RMK AO2",
      "metarObsTime": 1775897700
    }
  }
}