{
  "generatedAt": "2026-04-07T11:50:38.973Z",
  "airports": {
    "KPIT": {
      "status": "OK",
      "delay": "—",
      "metarCat": "VFR",
      "metarRaw": "METAR KPIT 071051Z 32013KT 10SM FEW038 M01/M08 A3026 RMK AO2 SLP263 T10061083",
      "metarObsTime": 1775559060
    },
    "KAGC": {
      "status": "OK",
      "delay": "—",
      "metarCat": "VFR",
      "metarRaw": "METAR KAGC 071053Z 32014G24KT 10SM CLR 00/M09 A3025 RMK AO2 PK WND 29026/1038 SLP255 T00001089",
      "metarObsTime": 1775559180
    },
    "KLBE": {
      "status": "OK",
      "delay": "—",
      "metarCat": "VFR",
      "metarRaw": "METAR KLBE 071147Z 29010KT 10SM SCT032 01/M05 A3030",
      "metarObsTime": 1775562420
    },
    "KJST": {
      "status": "OK",
      "delay": "—",
      "metarCat": "MVFR",
      "metarRaw": "METAR KJST 071054Z AUTO 29014G26KT 10SM BKN016 OVC023 M02/M05 A3016 RMK AO2 PK WND 30026/1054 SLP234 T10171050",
      "metarObsTime": 1775559240
    },
    "KERI": {
      "status": "OK",
      "delay": "—",
      "metarCat": "VFR",
      "metarRaw": "SPECI KERI 071143Z 30013G22KT 9SM SCT026 SCT035 OVC044 M03/M09 A3037 RMK AO2 PK WND 31027/1056 SNB22E41 P0000 T10281089 $",
      "metarObsTime": 1775562180
    },
    "KDUJ": {
      "status": "OK",
      "delay": "—",
      "metarCat": "VFR",
      "metarRaw": "SPECI KDUJ 071132Z AUTO 31018G26KT 10SM SCT028 OVC035 M03/M09 A3019 RMK AO2 PK WND 32026/1132 T10281089",
      "metarObsTime": 1775561520
    },
    "KBFD": {
      "status": "OK",
      "delay": "—",
      "metarCat": "MVFR",
      "metarRaw": "METAR KBFD 071053Z AUTO 29019G29KT 8SM -SN BKN019 OVC024 M05/M08 A3016 RMK AO2 PK WND 30029/1047 SNB39 SLP232 P0000 T10501078",
      "metarObsTime": 1775559180
    },
    "KBTP": {
      "status": "OK",
      "delay": "—",
      "metarCat": "VFR",
      "metarRaw": "METAR KBTP 071056Z AUTO 30012G20KT 10SM CLR M02/M07 A3027 RMK AO2 SLP267 T10221067 FZRANO $",
      "metarObsTime": 1775559360
    },
    "KFKL": {
      "status": "OK",
      "delay": "—",
      "metarCat": "MVFR",
      "metarRaw": "SPECI KFKL 071142Z AUTO 30011G19KT 280V350 9SM -SN BKN029 OVC035 M04/M09 A3030 RMK AO2 P0000 FZRANO",
      "metarObsTime": 1775562120
    },
    "KIDI": {
      "status": "OK",
      "delay": "—",
      "metarCat": "MVFR",
      "metarRaw": "METAR KIDI 071135Z AUTO 29012G18KT 10SM BKN021 BKN028 BKN036 M01/M04 A3025 RMK A01",
      "metarObsTime": 1775561700
    },
    "KMDT": {
      "status": "OK",
      "delay": "—",
      "metarCat": "VFR",
      "metarRaw": "METAR KMDT 071056Z 29018KT 10SM SCT048 BKN060 BKN250 07/00 A3015 RMK AO2 PK WND 29027/1025 SLP213 T00670000",
      "metarObsTime": 1775559360
    },
    "KCXY": {
      "status": "OK",
      "delay": "—",
      "metarCat": "VFR",
      "metarRaw": "METAR KCXY 071056Z 28010KT 10SM BKN050 OVC065 06/M01 A3016 RMK AO2 SLP215 T00611011",
      "metarObsTime": 1775559360
    },
    "KMUI": {
      "status": "OK",
      "delay": "—",
      "metarCat": "VFR",
      "metarRaw": "METAR KMUI 071055Z 29007KT 10SM BKN060 07/M00 A3012 RMK AO2A SLP204 T00681004",
      "metarObsTime": 1775559300
    },
    "KUNV": {
      "status": "OK",
      "delay": "—",
      "metarCat": "VFR",
      "metarRaw": "METAR KUNV 071053Z 29017G20KT 10SM BKN034 BKN041 02/M04 A3015",
      "metarObsTime": 1775559180
    },
    "KAOO": {
      "status": "OK",
      "delay": "—",
      "metarCat": "VFR",
      "metarRaw": "METAR KAOO 071053Z AUTO 30017G28KT 10SM SCT027 SCT033 BKN040 02/M05 A3018 RMK AO2 PK WND 28028/1047 SLP231 T00171050",
      "metarObsTime": 1775559180
    },
    "KLNS": {
      "status": "OK",
      "delay": "—",
      "metarCat": "VFR",
      "metarRaw": "METAR KLNS 071053Z 28006KT 10SM OVC065 04/01 A3015 RMK AO2 SLP211 T00440011",
      "metarObsTime": 1775559180
    },
    "KIPT": {
      "status": "OK",
      "delay": "—",
      "metarCat": "VFR",
      "metarRaw": "METAR KIPT 071054Z 26011KT 10SM -RA FEW041 SCT049 BKN060 03/00 A3013 RMK AO2 RAE01B54 SLP207 P0000 T00330000",
      "metarObsTime": 1775559240
    },
    "KPHL": {
      "status": "OK",
      "delay": "—",
      "metarCat": "VFR",
      "metarRaw": "METAR KPHL 071054Z VRB06KT 10SM BKN065 BKN085 BKN280 10/01 A3014 RMK AO2 RAB0959E14 SLP207 P0000 T01000011 $",
      "metarObsTime": 1775559240
    },
    "KABE": {
      "status": "OK",
      "delay": "—",
      "metarCat": "VFR",
      "metarRaw": "METAR KABE 071051Z 26008KT 10SM CLR 04/00 A3011 RMK AO2 SLP199 T00390000 $",
      "metarObsTime": 1775559060
    },
    "KAVP": {
      "status": "OK",
      "delay": "—",
      "metarCat": "MVFR",
      "metarRaw": "SPECI KAVP 071145Z 27008KT 10SM UP FEW017 BKN025 OVC042 02/M01 A3012 RMK AO2 RAB36E37UPB37 P0000 T00221006",
      "metarObsTime": 1775562300
    },
    "KHZL": {
      "status": "OK",
      "delay": "—",
      "metarCat": "VFR",
      "metarRaw": "METAR KHZL 071135Z AUTO 28008G16KT 10SM SCT024 BKN031 BKN040 03/M02 A3014 RMK AO2",
      "metarObsTime": 1775561700
    }
  }
}