{
  "generatedAt": "2026-04-16T22:50:47.235Z",
  "airports": {
    "KPIT": {
      "status": "OK",
      "delay": "—",
      "metarCat": "VFR",
      "metarRaw": "METAR KPIT 162151Z 23008KT 10SM -RA BKN055 OVC090 21/16 A2984 RMK AO2 PK WND 26034/2054 WSHFT 2046 SLP105 P0000 T02060161",
      "metarObsTime": 1776376260
    },
    "KAGC": {
      "status": "OK",
      "delay": "—",
      "metarCat": "VFR",
      "metarRaw": "METAR KAGC 162153Z 29010G19KT 10SM -RA BKN075 OVC095 21/14 A2984 RMK AO2 PK WND 27039/2117 WSHFT 2112 RAB13 SLP101 P0000 T02060144",
      "metarObsTime": 1776376380
    },
    "KLBE": {
      "status": "OK",
      "delay": "—",
      "metarCat": "VFR",
      "metarRaw": "METAR KLBE 162147Z 21013G21KT 10SM BKN090 BKN120 26/11 A2982",
      "metarObsTime": 1776376020
    },
    "KJST": {
      "status": "OK",
      "delay": "—",
      "metarCat": "VFR",
      "metarRaw": "METAR KJST 162154Z AUTO 22016G24KT 10SM FEW080 BKN100 24/07 A2984 RMK AO2 PK WND 25029/2059 SLP089 T02390067",
      "metarObsTime": 1776376440
    },
    "KERI": {
      "status": "OK",
      "delay": "—",
      "metarCat": "MVFR",
      "metarRaw": "SPECI KERI 162208Z 17003KT 5SM BR SCT003 BKN070 OVC090 16/16 A2982 RMK AO2 T01610156 $",
      "metarObsTime": 1776377280
    },
    "KDUJ": {
      "status": "OK",
      "delay": "—",
      "metarCat": "MVFR",
      "metarRaw": "SPECI KDUJ 162207Z AUTO 30013G31KT 4SM -RA BR OVC080 17/15 A2986 RMK AO2 PK WND 26038/2156 WSHFT 2147 PRESRR P0002 T01720150",
      "metarObsTime": 1776377220
    },
    "KBFD": {
      "status": "OK",
      "delay": "—",
      "metarCat": "IFR",
      "metarRaw": "SPECI KBFD 162244Z AUTO 31004KT 1 1/4SM +RA BR FEW010 BKN047 OVC070 16/14 A2987 RMK AO2 P0023 T01560144",
      "metarObsTime": 1776379440
    },
    "KBTP": {
      "status": "OK",
      "delay": "—",
      "metarCat": "VFR",
      "metarRaw": "METAR KBTP 162156Z AUTO 21003KT 10SM RA OVC055 18/18 A2986 RMK AO2 WSHFT 2052 RAB2058 SLP113 T01830183 PNO $",
      "metarObsTime": 1776376560
    },
    "KFKL": {
      "status": "OK",
      "delay": "—",
      "metarCat": "—",
      "metarRaw": "—",
      "metarObsTime": null
    },
    "KIDI": {
      "status": "OK",
      "delay": "—",
      "metarCat": "VFR",
      "metarRaw": "METAR KIDI 162235Z AUTO 30018G26KT 10SM FEW050 BKN075 OVC090 22/12 A2986 RMK A01",
      "metarObsTime": 1776378900
    },
    "KMDT": {
      "status": "OK",
      "delay": "—",
      "metarCat": "VFR",
      "metarRaw": "METAR KMDT 162156Z 23008KT 170V260 10SM FEW070 BKN250 31/12 A2972 RMK AO2 SLP061 T03110122",
      "metarObsTime": 1776376560
    },
    "KCXY": {
      "status": "OK",
      "delay": "—",
      "metarCat": "VFR",
      "metarRaw": "METAR KCXY 162156Z 20015G20KT 10SM CLR 31/13 A2972 RMK AO2 SLP062 T03060128 $",
      "metarObsTime": 1776376560
    },
    "KMUI": {
      "status": "OK",
      "delay": "—",
      "metarCat": "VFR",
      "metarRaw": "METAR KMUI 162155Z 19011KT 10SM SCT070 BKN250 32/13 A2971 RMK AO2A SLP060 T03160129",
      "metarObsTime": 1776376500
    },
    "KUNV": {
      "status": "OK",
      "delay": "—",
      "metarCat": "VFR",
      "metarRaw": "METAR KUNV 162153Z COR 26016G23KT 10SM SCT100 29/08 A2977",
      "metarObsTime": 1776376380
    },
    "KAOO": {
      "status": "OK",
      "delay": "—",
      "metarCat": "VFR",
      "metarRaw": "METAR KAOO 162153Z AUTO 24013G24KT 10SM CLR 28/06 A2980 RMK AO2 PK WND 24029/2115 SLP080 T02780056",
      "metarObsTime": 1776376380
    },
    "KLNS": {
      "status": "OK",
      "delay": "—",
      "metarCat": "VFR",
      "metarRaw": "METAR KLNS 162153Z 20011G21KT 10SM SCT095 30/13 A2974 RMK AO2 SLP066 T03000133 $",
      "metarObsTime": 1776376380
    },
    "KIPT": {
      "status": "OK",
      "delay": "—",
      "metarCat": "VFR",
      "metarRaw": "METAR KIPT 162154Z 26011KT 10SM CLR 31/09 A2969 RMK AO2 PK WND 24028/2138 SLP050 T03110089 $",
      "metarObsTime": 1776376440
    },
    "KPHL": {
      "status": "OK",
      "delay": "—",
      "metarCat": "VFR",
      "metarRaw": "METAR KPHL 162154Z 20008G19KT 10SM FEW070 SCT270 32/13 A2975 RMK AO2 SLP072 T03170133 $",
      "metarObsTime": 1776376440
    },
    "KABE": {
      "status": "OK",
      "delay": "—",
      "metarCat": "VFR",
      "metarRaw": "METAR KABE 162151Z 25015G22KT 10SM CLR 31/14 A2973 RMK AO2 SLP065 T03060139",
      "metarObsTime": 1776376260
    },
    "KAVP": {
      "status": "OK",
      "delay": "—",
      "metarCat": "VFR",
      "metarRaw": "METAR KAVP 162154Z 24016G23KT 10SM CLR 29/11 A2972 RMK AO2 PK WND 20030/2112 SLP056 T02940106",
      "metarObsTime": 1776376440
    },
    "KHZL": {
      "status": "OK",
      "delay": "—",
      "metarCat": "VFR",
      "metarRaw": "METAR KHZL 162235Z AUTO 19003KT 10SM SCT075 28/10 A2981 RMK AO2",
      "metarObsTime": 1776378900
    }
  }
}