{
  "generatedAt": "2026-04-19T02:50:54.330Z",
  "airports": {
    "KPIT": {
      "status": "OK",
      "delay": "—",
      "metarCat": "MVFR",
      "metarRaw": "METAR KPIT 190151Z 30018G26KT 3SM -RA BR FEW008 OVC018 13/11 A2990 RMK AO2 PK WND 31026/0142 WSHFT 0115 RAB09 SLP128 P0004 T01330111 $",
      "metarObsTime": 1776563460
    },
    "KAGC": {
      "status": "OK",
      "delay": "—",
      "metarCat": "IFR",
      "metarRaw": "SPECI KAGC 190213Z 33013G26KT 4SM -RA BR BKN008 BKN011 OVC015 14/13 A2988 RMK AO2 PK WND 33026/0210 RAB0158 P0001 T01390133",
      "metarObsTime": 1776564780
    },
    "KLBE": {
      "status": "OK",
      "delay": "—",
      "metarCat": "MVFR",
      "metarRaw": "METAR KLBE 190235Z AUTO 20008KT 10SM BKN022 OVC026 17/16 A2989 RMK AO2",
      "metarObsTime": 1776566100
    },
    "KJST": {
      "status": "OK",
      "delay": "—",
      "metarCat": "MVFR",
      "metarRaw": "SPECI KJST 190221Z AUTO 25006KT 10SM SCT011 BKN016 OVC048 14/13 A2987 RMK AO2 T01440133",
      "metarObsTime": 1776565260
    },
    "KERI": {
      "status": "OK",
      "delay": "—",
      "metarCat": "VFR",
      "metarRaw": "METAR KERI 190151Z 25011G20KT 10SM FEW026 OVC060 09/06 A2989 RMK AO2 PK WND 27026/0058 SLP122 T00940061 $",
      "metarObsTime": 1776563460
    },
    "KDUJ": {
      "status": "OK",
      "delay": "—",
      "metarCat": "IFR",
      "metarRaw": "SPECI KDUJ 190226Z AUTO 29011G20KT 10SM BKN007 BKN011 OVC017 12/11 A2986 RMK AO2 PK WND 30026/0213 WSHFT 0206 RAB03E22 CIG 004V008 P0002 T01220111",
      "metarObsTime": 1776565560
    },
    "KBFD": {
      "status": "OK",
      "delay": "—",
      "metarCat": "MVFR",
      "metarRaw": "SPECI KBFD 190215Z AUTO 29012G23KT 10SM -RA FEW006 BKN012 OVC018 11/09 A2985 RMK AO2 P0000 T01110094",
      "metarObsTime": 1776564900
    },
    "KBTP": {
      "status": "OK",
      "delay": "—",
      "metarCat": "MVFR",
      "metarRaw": "SPECI KBTP 190240Z AUTO 28009G14KT 10SM FEW024 OVC030 11/11 A2990 RMK AO2 $",
      "metarObsTime": 1776566400
    },
    "KFKL": {
      "status": "OK",
      "delay": "—",
      "metarCat": "—",
      "metarRaw": "—",
      "metarObsTime": null
    },
    "KIDI": {
      "status": "OK",
      "delay": "—",
      "metarCat": "MVFR",
      "metarRaw": "METAR KIDI 190235Z AUTO 29019G25KT 5SM BR FEW007 SCT011 BKN020 14/13 A2989 RMK A01",
      "metarObsTime": 1776566100
    },
    "KMDT": {
      "status": "OK",
      "delay": "—",
      "metarCat": "VFR",
      "metarRaw": "METAR KMDT 190156Z 13012KT 10SM BKN120 OVC250 16/13 A2984 RMK AO2 SLP103 T01610128",
      "metarObsTime": 1776563760
    },
    "KCXY": {
      "status": "OK",
      "delay": "—",
      "metarCat": "VFR",
      "metarRaw": "SPECI KCXY 190240Z AUTO 08005KT 10SM SCT021 BKN085 OVC100 16/13 A2988 RMK AO2 T01610128 $",
      "metarObsTime": 1776566400
    },
    "KMUI": {
      "status": "OK",
      "delay": "—",
      "metarCat": "MVFR",
      "metarRaw": "SPECI KMUI 190227Z AUTO 16008KT 10SM OVC018 17/14 A2985 RMK AO2 SLP110",
      "metarObsTime": 1776565620
    },
    "KUNV": {
      "status": "OK",
      "delay": "—",
      "metarCat": "VFR",
      "metarRaw": "METAR KUNV 190235Z AUTO 25009KT 10SM BKN032 BKN050 OVC075 17/16 A2983 RMK AO2 T01700161",
      "metarObsTime": 1776566100
    },
    "KAOO": {
      "status": "OK",
      "delay": "—",
      "metarCat": "VFR",
      "metarRaw": "SPECI KAOO 190212Z AUTO 23008KT 10SM -RA SCT026 BKN049 BKN065 17/15 A2985 RMK AO2 P0002 T01670150",
      "metarObsTime": 1776564720
    },
    "KLNS": {
      "status": "OK",
      "delay": "—",
      "metarCat": "MVFR",
      "metarRaw": "METAR KLNS 190153Z 13012KT 10SM BKN012 BKN110 14/12 A2986 RMK AO2 SLP110 T01390117",
      "metarObsTime": 1776563580
    },
    "KIPT": {
      "status": "OK",
      "delay": "—",
      "metarCat": "MVFR",
      "metarRaw": "SPECI KIPT 190243Z AUTO 16011G20KT 4SM RA BR SCT033 OVC055 18/16 A2980 RMK AO2 P0015 T01780156 $",
      "metarObsTime": 1776566580
    },
    "KPHL": {
      "status": "OK",
      "delay": "—",
      "metarCat": "IFR",
      "metarRaw": "SPECI KPHL 190231Z 11007KT 10SM OVC006 12/10 A2992 RMK AO2 T01170100 $",
      "metarObsTime": 1776565860
    },
    "KABE": {
      "status": "OK",
      "delay": "—",
      "metarCat": "MVFR",
      "metarRaw": "SPECI KABE 190223Z 11010KT 10SM OVC014 12/09 A2990 RMK AO2 T01220089 $",
      "metarObsTime": 1776565380
    },
    "KAVP": {
      "status": "OK",
      "delay": "—",
      "metarCat": "MVFR",
      "metarRaw": "SPECI KAVP 190236Z VRB03KT 10SM BKN025 BKN100 15/09 A2984 RMK AO2 T01500094",
      "metarObsTime": 1776566160
    },
    "KHZL": {
      "status": "OK",
      "delay": "—",
      "metarCat": "VFR",
      "metarRaw": "METAR KHZL 190235Z AUTO 14006G14KT 10SM OVC100 13/09 A2987 RMK AO2",
      "metarObsTime": 1776566100
    }
  }
}