{
  "generatedAt": "2026-04-05T10:40:38.967Z",
  "airports": {
    "KPIT": {
      "status": "OK",
      "delay": "—",
      "metarCat": "MVFR",
      "metarRaw": "SPECI KPIT 051010Z 31017G25KT 8SM -RA SCT008 BKN012 OVC025 09/07 A2990 RMK AO2 P0000 T00890072 $",
      "metarObsTime": 1775383800
    },
    "KAGC": {
      "status": "OK",
      "delay": "—",
      "metarCat": "IFR",
      "metarRaw": "SPECI KAGC 051024Z 29010G15KT 6SM -RA BR BKN008 BKN060 OVC080 10/09 A2988 RMK AO2 P0003 T01000089",
      "metarObsTime": 1775384640
    },
    "KLBE": {
      "status": "OK",
      "delay": "—",
      "metarCat": "MVFR",
      "metarRaw": "METAR KLBE 051035Z AUTO 25006KT 3SM RA BR SCT006 SCT012 OVC022 11/10 A2991 RMK AO2",
      "metarObsTime": 1775385300
    },
    "KJST": {
      "status": "OK",
      "delay": "—",
      "metarCat": "IFR",
      "metarRaw": "METAR KJST 050954Z AUTO 27012G19KT 10SM -RA OVC006 11/10 A2985 RMK AO2 PK WND 28035/0902 WSHFT 0855 SLP101 P0015 T01060100",
      "metarObsTime": 1775382840
    },
    "KERI": {
      "status": "OK",
      "delay": "—",
      "metarCat": "MVFR",
      "metarRaw": "METAR KERI 050951Z 25015G24KT 10SM OVC026 06/03 A2988 RMK AO2 RAE08070852 SLP115 P0000 T00610028 $",
      "metarObsTime": 1775382660
    },
    "KDUJ": {
      "status": "OK",
      "delay": "—",
      "metarCat": "IFR",
      "metarRaw": "SPECI KDUJ 051001Z AUTO 27009KT 10SM -RA BKN009 OVC016 08/07 A2983 RMK AO2 P0000 T00830072",
      "metarObsTime": 1775383260
    },
    "KBFD": {
      "status": "OK",
      "delay": "—",
      "metarCat": "IFR",
      "metarRaw": "METAR KBFD 050953Z AUTO VRB05KT 9SM -RA BKN007 OVC075 09/08 A2980 RMK AO2 SLP082 P0002 T00940083",
      "metarObsTime": 1775382780
    },
    "KBTP": {
      "status": "OK",
      "delay": "—",
      "metarCat": "MVFR",
      "metarRaw": "SPECI KBTP 051010Z AUTO 29014G19KT 10SM -RA OVC011 08/08 A2990 RMK AO2 CIG 007V014 P0000 $",
      "metarObsTime": 1775383800
    },
    "KFKL": {
      "status": "OK",
      "delay": "—",
      "metarCat": "MVFR",
      "metarRaw": "SPECI KFKL 051027Z AUTO 26010KT 10SM OVC010 08/07 A2987 RMK AO2 CIG 007V014",
      "metarObsTime": 1775384820
    },
    "KIDI": {
      "status": "OK",
      "delay": "—",
      "metarCat": "IFR",
      "metarRaw": "METAR KIDI 051035Z AUTO 24007G16KT 4SM BR BKN009 OVC013 10/09 A2989 RMK A01",
      "metarObsTime": 1775385300
    },
    "KMDT": {
      "status": "OK",
      "delay": "—",
      "metarCat": "LIFR",
      "metarRaw": "METAR KMDT 050956Z 11005KT 1 1/4SM BR OVC003 09/09 A2986 RMK AO2 SLP112 T00890089 $",
      "metarObsTime": 1775382960
    },
    "KCXY": {
      "status": "OK",
      "delay": "—",
      "metarCat": "LIFR",
      "metarRaw": "SPECI KCXY 051036Z AUTO 07006KT 1 3/4SM BR OVC002 09/08 A2986 RMK AO2 T00890083 $",
      "metarObsTime": 1775385360
    },
    "KMUI": {
      "status": "OK",
      "delay": "—",
      "metarCat": "LIFR",
      "metarRaw": "METAR KMUI 050955Z AUTO 06007KT 2 3/4SM BR OVC003 08/07 A2986 RMK AO2 SLP113 T00760073",
      "metarObsTime": 1775382900
    },
    "KUNV": {
      "status": "OK",
      "delay": "—",
      "metarCat": "MVFR",
      "metarRaw": "METAR KUNV 050953Z 30012KT 3SM +RA SCT012 BKN035 OVC047 15/15 A2982",
      "metarObsTime": 1775382780
    },
    "KAOO": {
      "status": "OK",
      "delay": "—",
      "metarCat": "MVFR",
      "metarRaw": "SPECI KAOO 051037Z AUTO 32009KT 8SM RA BKN014 BKN021 OVC035 14/13 A2983 RMK AO2 WSHFT 0943 P0007 T01440128",
      "metarObsTime": 1775385420
    },
    "KLNS": {
      "status": "OK",
      "delay": "—",
      "metarCat": "LIFR",
      "metarRaw": "SPECI KLNS 051018Z 08006KT 1 3/4SM BR OVC002 09/08 A2986 RMK AO2 T00890083",
      "metarObsTime": 1775384280
    },
    "KIPT": {
      "status": "OK",
      "delay": "—",
      "metarCat": "IFR",
      "metarRaw": "METAR KIPT 050954Z AUTO 07009G18KT 030V110 10SM OVC009 11/09 A2982 RMK AO2 RAB25E50 SLP096 P0001 T01060089",
      "metarObsTime": 1775382840
    },
    "KPHL": {
      "status": "OK",
      "delay": "—",
      "metarCat": "LIFR",
      "metarRaw": "SPECI KPHL 051030Z 06003KT 1SM BR OVC003 10/09 A2990 RMK AO2 DZE0957 P0000 T01000089 RVRNO $",
      "metarObsTime": 1775385000
    },
    "KABE": {
      "status": "OK",
      "delay": "—",
      "metarCat": "LIFR",
      "metarRaw": "SPECI KABE 051033Z 08005KT 2 1/2SM BR OVC003 06/06 A2990 RMK AO2 T00610056 $",
      "metarObsTime": 1775385180
    },
    "KAVP": {
      "status": "OK",
      "delay": "—",
      "metarCat": "MVFR",
      "metarRaw": "METAR KAVP 050954Z AUTO 00000KT 10SM OVC011 10/08 A2985 RMK AO2 SLP102 T01000078",
      "metarObsTime": 1775382840
    },
    "KHZL": {
      "status": "OK",
      "delay": "—",
      "metarCat": "LIFR",
      "metarRaw": "METAR KHZL 051030Z AUTO 13003KT 3/4SM -DZ OVC002 07/06 A2988 RMK AO2",
      "metarObsTime": 1775385000
    }
  }
}