{
  "generatedAt": "2026-04-10T00:10:41.110Z",
  "airports": {
    "KPIT": {
      "status": "OK",
      "delay": "—",
      "metarCat": "VFR",
      "metarRaw": "METAR KPIT 092351Z 21007KT 10SM SCT065 SCT250 22/04 A3023 RMK AO2 SLP244 T02170039 10239 20211 55000",
      "metarObsTime": 1775778660
    },
    "KAGC": {
      "status": "OK",
      "delay": "—",
      "metarCat": "VFR",
      "metarRaw": "METAR KAGC 092353Z 24005KT 10SM CLR 21/03 A3024 RMK AO2 SLP243 T02110033 10233 20206 55000",
      "metarObsTime": 1775778780
    },
    "KLBE": {
      "status": "OK",
      "delay": "—",
      "metarCat": "VFR",
      "metarRaw": "METAR KLBE 092350Z 19010KT 10SM CLR 20/06 A3026",
      "metarObsTime": 1775778600
    },
    "KJST": {
      "status": "OK",
      "delay": "—",
      "metarCat": "VFR",
      "metarRaw": "METAR KJST 092354Z AUTO 15010G19KT 10SM CLR 13/M01 A3029 RMK AO2 SLP268 T01331011 10183 20133 53002",
      "metarObsTime": 1775778840
    },
    "KERI": {
      "status": "OK",
      "delay": "—",
      "metarCat": "VFR",
      "metarRaw": "METAR KERI 092351Z 23003KT 10SM FEW110 17/06 A3019 RMK AO2 SLP224 60000 T01670061 10233 20150 58001 $",
      "metarObsTime": 1775778660
    },
    "KDUJ": {
      "status": "OK",
      "delay": "—",
      "metarCat": "VFR",
      "metarRaw": "METAR KDUJ 092353Z AUTO 16007G15KT 10SM CLR 16/01 A3025 RMK AO2 SLP247 T01610006 10217 20161 53005",
      "metarObsTime": 1775778780
    },
    "KBFD": {
      "status": "OK",
      "delay": "—",
      "metarCat": "VFR",
      "metarRaw": "METAR KBFD 092353Z AUTO VRB03KT 10SM -RA OVC070 12/09 A3029 RMK AO2 PK WND 31028/2259 WSHFT 2240 SLP264 P0001 60001 T01220094 10211 20122 53026",
      "metarObsTime": 1775778780
    },
    "KBTP": {
      "status": "OK",
      "delay": "—",
      "metarCat": "VFR",
      "metarRaw": "METAR KBTP 092356Z AUTO 19004KT 10SM CLR 20/05 A3024 RMK AO2 SLP246 T02000050 10239 20200 53002 $",
      "metarObsTime": 1775778960
    },
    "KFKL": {
      "status": "OK",
      "delay": "—",
      "metarCat": "VFR",
      "metarRaw": "METAR KFKL 092356Z AUTO 18004KT 10SM FEW040 BKN080 14/11 A3026 RMK AO2 RAE52 SLP252 P0005 60005 T01390106 10228 20139 53017",
      "metarObsTime": 1775778960
    },
    "KIDI": {
      "status": "OK",
      "delay": "—",
      "metarCat": "VFR",
      "metarRaw": "METAR KIDI 092355Z AUTO 15011KT 10SM CLR 19/02 A3025 RMK A01",
      "metarObsTime": 1775778900
    },
    "KMDT": {
      "status": "OK",
      "delay": "—",
      "metarCat": "VFR",
      "metarRaw": "METAR KMDT 092356Z 17005KT 10SM SCT250 13/M01 A3038 RMK AO2 SLP291 T01331006 10161 20133 55003",
      "metarObsTime": 1775778960
    },
    "KCXY": {
      "status": "OK",
      "delay": "—",
      "metarCat": "VFR",
      "metarRaw": "METAR KCXY 092356Z 15008KT 10SM CLR 13/M02 A3038 RMK AO2 SLP291 T01331017 10167 20133 55004 $",
      "metarObsTime": 1775778960
    },
    "KMUI": {
      "status": "OK",
      "delay": "—",
      "metarCat": "VFR",
      "metarRaw": "METAR KMUI 092355Z 15004KT 10SM FEW250 13/M02 A3037 RMK AO2A SLP290 T01261017 10171 20126 55005",
      "metarObsTime": 1775778900
    },
    "KUNV": {
      "status": "OK",
      "delay": "—",
      "metarCat": "VFR",
      "metarRaw": "METAR KUNV 092353Z 20008KT 10SM CLR 14/M01 A3033",
      "metarObsTime": 1775778780
    },
    "KAOO": {
      "status": "OK",
      "delay": "—",
      "metarCat": "VFR",
      "metarRaw": "METAR KAOO 092353Z AUTO 16011KT 10SM CLR 13/M01 A3033 RMK AO2 SLP276 T01281011 10167 20128 55001 $",
      "metarObsTime": 1775778780
    },
    "KLNS": {
      "status": "OK",
      "delay": "—",
      "metarCat": "VFR",
      "metarRaw": "METAR KLNS 092353Z 15007KT 10SM CLR 11/01 A3039 RMK AO2 SLP295 T01060006 10144 20106 56008",
      "metarObsTime": 1775778780
    },
    "KIPT": {
      "status": "OK",
      "delay": "—",
      "metarCat": "VFR",
      "metarRaw": "METAR KIPT 092354Z 14011G17KT 10SM CLR 14/M02 A3033 RMK AO2 WSHFT 2340 SLP273 T01391022 10161 20128 55003",
      "metarObsTime": 1775778840
    },
    "KPHL": {
      "status": "OK",
      "delay": "—",
      "metarCat": "VFR",
      "metarRaw": "METAR KPHL 092354Z 16008KT 10SM FEW260 FEW320 12/02 A3045 RMK AO2 SLP309 T01220022 10161 20122 56003 $",
      "metarObsTime": 1775778840
    },
    "KABE": {
      "status": "OK",
      "delay": "—",
      "metarCat": "VFR",
      "metarRaw": "METAR KABE 092351Z 18008KT 10SM CLR 13/M02 A3040 RMK AO2 SLP297 T01331022 10156 20117 56007 $",
      "metarObsTime": 1775778660
    },
    "KAVP": {
      "status": "OK",
      "delay": "—",
      "metarCat": "VFR",
      "metarRaw": "METAR KAVP 092354Z 18004KT 10SM CLR 12/M04 A3035 RMK AO2 SLP282 T01221044 10156 20122 56004",
      "metarObsTime": 1775778840
    },
    "KHZL": {
      "status": "OK",
      "delay": "—",
      "metarCat": "VFR",
      "metarRaw": "METAR KHZL 092355Z AUTO 17003KT 10SM CLR 11/M04 A3039 RMK AO2",
      "metarObsTime": 1775778900
    }
  }
}