{
  "generatedAt": "2026-03-11T19:50:16.090Z",
  "airports": {
    "KPIT": {
      "status": "OK",
      "delay": "—",
      "metarCat": "VFR",
      "metarRaw": "METAR KPIT 111851Z 24008KT 10SM FEW022 BKN033 OVC250 19/17 A2969 RMK AO2 WSHFT 1741 RAE12B19E49 TSE12 SLP057 P0027 T01940167 $",
      "metarObsTime": 1773255060
    },
    "KAGC": {
      "status": "OK",
      "delay": "—",
      "metarCat": "VFR",
      "metarRaw": "SPECI KAGC 111908Z 25021G36KT 10SM FEW048 SCT065 BKN095 21/15 A2969 RMK AO2 PK WND 23036/1907 LTG DSNT E-S RAE1857 P0000 T02110150",
      "metarObsTime": 1773256080
    },
    "KLBE": {
      "status": "OK",
      "delay": "—",
      "metarCat": "VFR",
      "metarRaw": "METAR KLBE 111947Z 18010KT 8SM SCT040 OVC070 18/17 A2973",
      "metarObsTime": 1773258420
    },
    "KJST": {
      "status": "OK",
      "delay": "—",
      "metarCat": "VFR",
      "metarRaw": "METAR KJST 111854Z AUTO 20014G22KT 10SM SCT037 BKN046 OVC080 21/14 A2974 RMK AO2 PK WND 22035/1804 LTG DSNT NW SLP060 T02060139",
      "metarObsTime": 1773255240
    },
    "KERI": {
      "status": "OK",
      "delay": "—",
      "metarCat": "VFR",
      "metarRaw": "METAR KERI 111851Z 23019G36KT 10SM FEW095 22/15 A2950 RMK AO2 PK WND 21036/1845 RAE14 SLP985 P0000 T02170150",
      "metarObsTime": 1773255060
    },
    "KDUJ": {
      "status": "OK",
      "delay": "—",
      "metarCat": "VFR",
      "metarRaw": "METAR KDUJ 111853Z AUTO 23017G26KT 10SM -RA FEW022 FEW070 OVC095 17/15 A2968 RMK AO2 PK WND 24032/1822 RAB07 SLP043 P0002 T01720150",
      "metarObsTime": 1773255180
    },
    "KBFD": {
      "status": "OK",
      "delay": "—",
      "metarCat": "VFR",
      "metarRaw": "SPECI KBFD 111920Z AUTO 24016G30KT 10SM SCT021 SCT027 BKN035 18/14 A2960 RMK AO2 PK WND 24030/1919 T01830139",
      "metarObsTime": 1773256800
    },
    "KBTP": {
      "status": "OK",
      "delay": "—",
      "metarCat": "VFR",
      "metarRaw": "SPECI KBTP 111936Z AUTO 23018G29KT 10SM SCT028 BKN033 OVC090 20/16 A2968 RMK AO2 PK WND 24029/1933 $",
      "metarObsTime": 1773257760
    },
    "KFKL": {
      "status": "OK",
      "delay": "—",
      "metarCat": "VFR",
      "metarRaw": "METAR KFKL 111856Z AUTO 24016G30KT 10SM FEW029 BKN038 BKN050 A2961 RMK AO2 PK WND 25030/1854 SLPNO FZRANO $",
      "metarObsTime": 1773255360
    },
    "KIDI": {
      "status": "OK",
      "delay": "—",
      "metarCat": "—",
      "metarRaw": "—",
      "metarObsTime": null
    },
    "KMDT": {
      "status": "OK",
      "delay": "—",
      "metarCat": "VFR",
      "metarRaw": "METAR KMDT 111856Z 11003KT 9SM SCT120 BKN250 19/14 A2973 RMK AO2 SLP068 T01890144",
      "metarObsTime": 1773255360
    },
    "KCXY": {
      "status": "OK",
      "delay": "—",
      "metarCat": "VFR",
      "metarRaw": "METAR KCXY 111856Z 04003KT 10SM CLR 22/16 A2974 RMK AO2 SLP069 T02220161",
      "metarObsTime": 1773255360
    },
    "KMUI": {
      "status": "OK",
      "delay": "—",
      "metarCat": "VFR",
      "metarRaw": "METAR KMUI 111855Z 04003KT 10SM FEW075 SCT120 OVC200 19/16 A2974 RMK AO2A SLP073 T01940158",
      "metarObsTime": 1773255300
    },
    "KUNV": {
      "status": "OK",
      "delay": "—",
      "metarCat": "MVFR",
      "metarRaw": "METAR KUNV 111853Z 22007KT 5SM RA SCT021 BKN043 OVC055 18/18 A2971 RMK LTG DSNT NE",
      "metarObsTime": 1773255180
    },
    "KAOO": {
      "status": "OK",
      "delay": "—",
      "metarCat": "MVFR",
      "metarRaw": "SPECI KAOO 111920Z AUTO 25011G25KT 3SM -RA FEW023 BKN049 BKN065 19/16 A2972 RMK AO2 LTG DSNT NW RAB1858 P0008 T01940156",
      "metarObsTime": 1773256800
    },
    "KLNS": {
      "status": "OK",
      "delay": "—",
      "metarCat": "VFR",
      "metarRaw": "METAR KLNS 111853Z 17006KT 10SM BKN120 22/14 A2976 RMK AO2 RAB18E27 SLP075 P0000 T02220144",
      "metarObsTime": 1773255180
    },
    "KIPT": {
      "status": "OK",
      "delay": "—",
      "metarCat": "VFR",
      "metarRaw": "METAR KIPT 111854Z 00000KT 10SM FEW029 SCT038 BKN060 18/16 A2969 RMK AO2 RAB1756E07 SLP054 P0001 T01830156 $",
      "metarObsTime": 1773255240
    },
    "KPHL": {
      "status": "OK",
      "delay": "—",
      "metarCat": "VFR",
      "metarRaw": "METAR KPHL 111854Z 18005KT 10SM FEW050 SCT110 BKN150 BKN240 24/16 A2979 RMK AO2 PRESFR SLP088 T02440161 $",
      "metarObsTime": 1773255240
    },
    "KABE": {
      "status": "OK",
      "delay": "—",
      "metarCat": "VFR",
      "metarRaw": "METAR KABE 111851Z 21010KT 10SM FEW060 SCT075 BKN085 23/13 A2977 RMK AO2 RAE06 SLP078 P0000 T02330133 $",
      "metarObsTime": 1773255060
    },
    "KAVP": {
      "status": "OK",
      "delay": "—",
      "metarCat": "VFR",
      "metarRaw": "SPECI KAVP 111907Z 20006G16KT 10SM BKN043 19/15 A2972 RMK AO2 LTG DSNT N AND NE RAE1855 P0000 T01890150",
      "metarObsTime": 1773256020
    },
    "KHZL": {
      "status": "OK",
      "delay": "—",
      "metarCat": "VFR",
      "metarRaw": "METAR KHZL 111935Z AUTO 16007KT 130V190 10SM SCT050 19/14 A2978 RMK AO2",
      "metarObsTime": 1773257700
    }
  }
}