{
  "generatedAt": "2026-04-04T03:40:38.707Z",
  "airports": {
    "KPIT": {
      "status": "OK",
      "delay": "—",
      "metarCat": "VFR",
      "metarRaw": "SPECI KPIT 040300Z 22007KT 6SM -RA BR FEW009 SCT035 OVC080 18/17 A3016 RMK AO2 TSE0259 OCNL LTG DSNT E AND W P0002 T01780167 $",
      "metarObsTime": 1775271600
    },
    "KAGC": {
      "status": "OK",
      "delay": "—",
      "metarCat": "VFR",
      "metarRaw": "METAR KAGC 040253Z 28007KT 7SM -RA SCT046 BKN060 OVC110 21/15 A3015 RMK AO2 LTG DSNT N AND NE RAB52 SLP207 P0000 60000 T02060150 53009",
      "metarObsTime": 1775271180
    },
    "KLBE": {
      "status": "OK",
      "delay": "—",
      "metarCat": "VFR",
      "metarRaw": "METAR KLBE 040335Z AUTO 00000KT 10SM FEW060 FEW100 19/15 A3016 RMK AO2",
      "metarObsTime": 1775273700
    },
    "KJST": {
      "status": "OK",
      "delay": "—",
      "metarCat": "VFR",
      "metarRaw": "METAR KJST 040254Z AUTO 24006KT 10SM FEW045 18/13 A3018 RMK AO2 SLP212 T01780128 51009",
      "metarObsTime": 1775271240
    },
    "KERI": {
      "status": "OK",
      "delay": "—",
      "metarCat": "VFR",
      "metarRaw": "METAR KERI 040251Z 36006KT 10SM CLR 10/07 A3020 RMK AO2 SLP226 T01000072 51035",
      "metarObsTime": 1775271060
    },
    "KDUJ": {
      "status": "OK",
      "delay": "—",
      "metarCat": "VFR",
      "metarRaw": "METAR KDUJ 040253Z AUTO 24008KT 10SM -RA FEW075 OVC095 16/15 A3016 RMK AO2 RAB18 SLP209 P0002 60002 T01610150 52016",
      "metarObsTime": 1775271180
    },
    "KBFD": {
      "status": "OK",
      "delay": "—",
      "metarCat": "VFR",
      "metarRaw": "SPECI KBFD 040315Z AUTO 28006KT 10SM SCT025 SCT035 BKN044 16/14 A3017 RMK AO2 T01560139",
      "metarObsTime": 1775272500
    },
    "KBTP": {
      "status": "OK",
      "delay": "—",
      "metarCat": "VFR",
      "metarRaw": "METAR KBTP 040256Z AUTO 21003KT 10SM FEW047 BKN100 17/ A3018 RMK AO2 LTG DSNT SE AND S RAB36E50 SLP220 P0000 60000 T0167 53016 $",
      "metarObsTime": 1775271360
    },
    "KFKL": {
      "status": "OK",
      "delay": "—",
      "metarCat": "MVFR",
      "metarRaw": "SPECI KFKL 040311Z AUTO 00000KT 10SM BKN030 BKN110 17/16 A3017 RMK AO2",
      "metarObsTime": 1775272260
    },
    "KIDI": {
      "status": "OK",
      "delay": "—",
      "metarCat": "VFR",
      "metarRaw": "METAR KIDI 040335Z AUTO 33008KT 9SM FEW032 OVC042 18/16 A3018 RMK A01",
      "metarObsTime": 1775273700
    },
    "KMDT": {
      "status": "OK",
      "delay": "—",
      "metarCat": "MVFR",
      "metarRaw": "METAR KMDT 040256Z 00000KT 5SM BR SCT120 BKN250 12/11 A3013 RMK AO2 SLP204 T01170111 50003 $",
      "metarObsTime": 1775271360
    },
    "KCXY": {
      "status": "OK",
      "delay": "—",
      "metarCat": "VFR",
      "metarRaw": "METAR KCXY 040256Z AUTO 00000KT 7SM CLR 12/12 A3013 RMK AO2 SLP206 T01220117 50004",
      "metarObsTime": 1775271360
    },
    "KMUI": {
      "status": "OK",
      "delay": "—",
      "metarCat": "—",
      "metarRaw": "—",
      "metarObsTime": null
    },
    "KUNV": {
      "status": "OK",
      "delay": "—",
      "metarCat": "VFR",
      "metarRaw": "METAR KUNV 040335Z AUTO 23004KT 10SM SCT043 SCT080 BKN090 17/16 A3015 RMK AO2 T01720157",
      "metarObsTime": 1775273700
    },
    "KAOO": {
      "status": "OK",
      "delay": "—",
      "metarCat": "VFR",
      "metarRaw": "METAR KAOO 040253Z AUTO 22009KT 10SM CLR 19/13 A3016 RMK AO2 SLP211 T01940133 50009",
      "metarObsTime": 1775271180
    },
    "KLNS": {
      "status": "OK",
      "delay": "—",
      "metarCat": "MVFR",
      "metarRaw": "SPECI KLNS 040331Z AUTO 00000KT 3SM BR CLR 14/14 A3012 RMK AO2 T01390139",
      "metarObsTime": 1775273460
    },
    "KIPT": {
      "status": "OK",
      "delay": "—",
      "metarCat": "VFR",
      "metarRaw": "METAR KIPT 040254Z AUTO 36003KT 10SM SCT060 13/12 A3013 RMK AO2 SLP203 T01330122 50015",
      "metarObsTime": 1775271240
    },
    "KPHL": {
      "status": "OK",
      "delay": "—",
      "metarCat": "VFR",
      "metarRaw": "METAR KPHL 040254Z 20005KT 10SM SCT130 BKN250 19/14 A3013 RMK AO2 SLP203 T01890144 50002 $",
      "metarObsTime": 1775271240
    },
    "KABE": {
      "status": "OK",
      "delay": "—",
      "metarCat": "VFR",
      "metarRaw": "METAR KABE 040251Z 22004KT 10SM CLR 12/11 A3013 RMK AO2 SLP204 T01220106 58001 $",
      "metarObsTime": 1775271060
    },
    "KAVP": {
      "status": "OK",
      "delay": "—",
      "metarCat": "VFR",
      "metarRaw": "METAR KAVP 040254Z 21004KT 10SM -RA BKN065 OVC090 16/12 A3014 RMK AO2 RAB01 SLP206 P0000 60000 T01560122 51014",
      "metarObsTime": 1775271240
    },
    "KHZL": {
      "status": "OK",
      "delay": "—",
      "metarCat": "VFR",
      "metarRaw": "METAR KHZL 040335Z AUTO 00000KT 10SM -RA BKN090 13/12 A3017 RMK AO2",
      "metarObsTime": 1775273700
    }
  }
}