{
  "generatedAt": "2026-03-15T14:20:12.034Z",
  "airports": {
    "KPIT": {
      "status": "OK",
      "delay": "—",
      "metarCat": "VFR",
      "metarRaw": "METAR KPIT 151351Z 13012KT 10SM BKN160 BKN250 12/M04 A2999 RMK AO2 SLP167 T01171039",
      "metarObsTime": 1773582660
    },
    "KAGC": {
      "status": "OK",
      "delay": "—",
      "metarCat": "VFR",
      "metarRaw": "METAR KAGC 151353Z 16016G22KT 10SM CLR 12/M03 A3001 RMK AO2 SLP170 T01221028",
      "metarObsTime": 1773582780
    },
    "KLBE": {
      "status": "OK",
      "delay": "—",
      "metarCat": "VFR",
      "metarRaw": "METAR KLBE 151353Z 17010KT 10SM CLR 13/M04 A3008",
      "metarObsTime": 1773582780
    },
    "KJST": {
      "status": "OK",
      "delay": "—",
      "metarCat": "VFR",
      "metarRaw": "METAR KJST 151354Z AUTO 16020G32KT 10SM CLR 06/M08 A3014 RMK AO2 PK WND 17033/1328 SLP219 T00611083",
      "metarObsTime": 1773582840
    },
    "KERI": {
      "status": "OK",
      "delay": "—",
      "metarCat": "VFR",
      "metarRaw": "METAR KERI 151351Z 14015G29KT 10SM FEW080 SCT100 SCT120 08/M08 A2997 RMK AO2 PK WND 14029/1345 RAB28E39 SLP156 P0000 T00781078 $",
      "metarObsTime": 1773582660
    },
    "KDUJ": {
      "status": "OK",
      "delay": "—",
      "metarCat": "VFR",
      "metarRaw": "METAR KDUJ 151353Z AUTO 13013G25KT 10SM CLR 06/M10 A3009 RMK AO2 PK WND 14028/1326 SLP203 T00561100",
      "metarObsTime": 1773582780
    },
    "KBFD": {
      "status": "OK",
      "delay": "—",
      "metarCat": "VFR",
      "metarRaw": "METAR KBFD 151353Z AUTO 15016G28KT 10SM OVC110 01/M09 A3009 RMK AO2 PK WND 14028/1349 SLP209 T00111094",
      "metarObsTime": 1773582780
    },
    "KBTP": {
      "status": "OK",
      "delay": "—",
      "metarCat": "—",
      "metarRaw": "—",
      "metarObsTime": null
    },
    "KFKL": {
      "status": "OK",
      "delay": "—",
      "metarCat": "VFR",
      "metarRaw": "METAR KFKL 151356Z AUTO 14014G21KT 10SM OVC110 A3003 RMK AO2 SLPNO FZRANO $",
      "metarObsTime": 1773582960
    },
    "KIDI": {
      "status": "OK",
      "delay": "—",
      "metarCat": "VFR",
      "metarRaw": "METAR KIDI 151415Z AUTO 14018G28KT 10SM CLR 10/M07 A3008 RMK A01",
      "metarObsTime": 1773584100
    },
    "KMDT": {
      "status": "OK",
      "delay": "—",
      "metarCat": "VFR",
      "metarRaw": "METAR KMDT 151356Z 12013KT 10SM BKN055 06/M05 A3036 RMK AO2 SLP286 T00561050 $",
      "metarObsTime": 1773582960
    },
    "KCXY": {
      "status": "OK",
      "delay": "—",
      "metarCat": "VFR",
      "metarRaw": "METAR KCXY 151356Z 12014KT 10SM SCT055 06/M06 A3037 RMK AO2 SLP286 T00561056",
      "metarObsTime": 1773582960
    },
    "KMUI": {
      "status": "OK",
      "delay": "—",
      "metarCat": "VFR",
      "metarRaw": "METAR KMUI 151355Z AUTO 08008KT 10SM BKN055 05/M05 A3036 RMK AO2 LTG DSNT SE SLP287 T00531046 $",
      "metarObsTime": 1773582900
    },
    "KUNV": {
      "status": "OK",
      "delay": "—",
      "metarCat": "VFR",
      "metarRaw": "METAR KUNV 151353Z 11010G14KT 10SM CLR 05/M10 A3026",
      "metarObsTime": 1773582780
    },
    "KAOO": {
      "status": "OK",
      "delay": "—",
      "metarCat": "VFR",
      "metarRaw": "METAR KAOO 151353Z AUTO VRB05KT 10SM CLR 07/M08 A3023 RMK AO2 SLP248 T00671083",
      "metarObsTime": 1773582780
    },
    "KLNS": {
      "status": "OK",
      "delay": "—",
      "metarCat": "VFR",
      "metarRaw": "METAR KLNS 151353Z COR 13013KT 10SM BKN055 06/M04 A3038 RMK AO2 SLP290 T00611044",
      "metarObsTime": 1773582780
    },
    "KIPT": {
      "status": "OK",
      "delay": "—",
      "metarCat": "VFR",
      "metarRaw": "METAR KIPT 151354Z VRB06KT 10SM CLR 04/M07 A3033 RMK AO2 SLP275 T00441067",
      "metarObsTime": 1773582840
    },
    "KPHL": {
      "status": "OK",
      "delay": "—",
      "metarCat": "VFR",
      "metarRaw": "METAR KPHL 151354Z 09010KT 10SM BKN065 BKN150 BKN350 07/M04 A3044 RMK AO2 SLP306 T00671044 $",
      "metarObsTime": 1773582840
    },
    "KABE": {
      "status": "OK",
      "delay": "—",
      "metarCat": "VFR",
      "metarRaw": "METAR KABE 151351Z 09010KT 10SM OVC060 03/M07 A3042 RMK AO2 SLP306 T00331072 $",
      "metarObsTime": 1773582660
    },
    "KAVP": {
      "status": "OK",
      "delay": "—",
      "metarCat": "VFR",
      "metarRaw": "METAR KAVP 151354Z VRB04KT 10SM BKN100 02/M11 A3035 RMK AO2 SLP284 T00221106",
      "metarObsTime": 1773582840
    },
    "KHZL": {
      "status": "OK",
      "delay": "—",
      "metarCat": "VFR",
      "metarRaw": "METAR KHZL 151355Z AUTO 12011G18KT 090V150 10SM SCT048 01/M10 A3035 RMK AO2 LTG DSNT SE",
      "metarObsTime": 1773582900
    }
  }
}