{
  "generatedAt": "2026-03-23T03:10:19.330Z",
  "airports": {
    "KPIT": {
      "status": "OK",
      "delay": "—",
      "metarCat": "IFR",
      "metarRaw": "METAR KPIT 230251Z 05011KT 4SM -TSRA BKN008 BKN040CB OVC070 09/08 A2972 RMK AO2 PK WND 34045/0158 TSB0154 SLP068 OCNL LTGICCG OHD TS OHD MOV E P0018 60018 T00890078 50007",
      "metarObsTime": 1774234260
    },
    "KAGC": {
      "status": "OK",
      "delay": "—",
      "metarCat": "IFR",
      "metarRaw": "SPECI KAGC 230300Z 36007KT 2 1/2SM -TSRA BR BKN008 BKN060 OVC080 11/10 A2974 RMK AO2 LTG DSNT ALQDS PRESFR P0001 T01110100",
      "metarObsTime": 1774234800
    },
    "KLBE": {
      "status": "OK",
      "delay": "—",
      "metarCat": "VFR",
      "metarRaw": "METAR KLBE 230255Z AUTO 29007G14KT 270V330 8SM VCTS RA FEW038 SCT048 BKN060 15/12 A2981 RMK AO2 LTG DSNT W-N",
      "metarObsTime": 1774234500
    },
    "KJST": {
      "status": "OK",
      "delay": "—",
      "metarCat": "VFR",
      "metarRaw": "METAR KJST 230254Z AUTO 04007KT 10SM SCT045 BKN080 BKN095 13/11 A2973 RMK AO2 LTG DSNT W AND NW SLP058 60000 T01280106 51010",
      "metarObsTime": 1774234440
    },
    "KERI": {
      "status": "OK",
      "delay": "—",
      "metarCat": "IFR",
      "metarRaw": "METAR KERI 230251Z 04011G18KT 5SM BR OVC007 03/02 A2982 RMK AO2 RAE29 CIG 005V011 SLP102 P0001 60002 T00280017 58009",
      "metarObsTime": 1774234260
    },
    "KDUJ": {
      "status": "OK",
      "delay": "—",
      "metarCat": "MVFR",
      "metarRaw": "METAR KDUJ 230253Z AUTO 01006KT 5SM -RA BR FEW006 BKN060 OVC080 08/08 A2976 RMK AO2 LTG DSNT SW AND W SLP075 P0006 60012 T00830078 53011",
      "metarObsTime": 1774234380
    },
    "KBFD": {
      "status": "OK",
      "delay": "—",
      "metarCat": "IFR",
      "metarRaw": "METAR KBFD 230253Z AUTO 04005KT 4SM -RA BR OVC006 04/03 A2979 RMK AO2 RAB26 SLP088 P0008 60008 T00390033 50016 $",
      "metarObsTime": 1774234380
    },
    "KBTP": {
      "status": "OK",
      "delay": "—",
      "metarCat": "MVFR",
      "metarRaw": "METAR KBTP 230256Z AUTO VRB04KT 3SM RA FEW008 BKN050 OVC080 08/ A2979 RMK AO2 LTG DSNT ALQDS TSB02E53RAB02 SLP092 P0019 60026 T0083 50020 $",
      "metarObsTime": 1774234560
    },
    "KFKL": {
      "status": "OK",
      "delay": "—",
      "metarCat": "IFR",
      "metarRaw": "METAR KFKL 230256Z AUTO 04006KT 10SM -RA OVC006 06/04 A2979 RMK AO2 TSB06E21 SLP091 P0008 60013 T00560044 50005",
      "metarObsTime": 1774234560
    },
    "KIDI": {
      "status": "OK",
      "delay": "—",
      "metarCat": "MVFR",
      "metarRaw": "METAR KIDI 230255Z AUTO 03005G13KT 3SM BR FEW046 BKN060 OVC075 13/12 A2976 RMK A01 P0006",
      "metarObsTime": 1774234500
    },
    "KMDT": {
      "status": "OK",
      "delay": "—",
      "metarCat": "IFR",
      "metarRaw": "METAR KMDT 230256Z 12007KT 2SM BR BKN055 OVC100 13/13 A2963 RMK AO2 RAE33 PRESFR SLP035 P0004 60014 T01330133 58026 $",
      "metarObsTime": 1774234560
    },
    "KCXY": {
      "status": "OK",
      "delay": "—",
      "metarCat": "VFR",
      "metarRaw": "METAR KCXY 230256Z AUTO 09007KT 10SM CLR 16/14 A2964 RMK AO2 RAE27 SLP037 P0006 60017 T01560144 58024",
      "metarObsTime": 1774234560
    },
    "KMUI": {
      "status": "OK",
      "delay": "—",
      "metarCat": "VFR",
      "metarRaw": "METAR KMUI 230255Z AUTO 00000KT 10SM FEW140 FEW170 16/15 A2965 RMK AO2 RAB0155E07DZB07E09RAB09E30 SLP043 P0001 60004 T01550152 55011",
      "metarObsTime": 1774234500
    },
    "KUNV": {
      "status": "OK",
      "delay": "—",
      "metarCat": "VFR",
      "metarRaw": "METAR KUNV 230255Z AUTO 01008KT 7SM -RA BKN060 BKN080 OVC110 13/13 A2971 RMK AO2 LTG DSNT SW AND W 60025 T01250125",
      "metarObsTime": 1774234500
    },
    "KAOO": {
      "status": "OK",
      "delay": "—",
      "metarCat": "VFR",
      "metarRaw": "METAR KAOO 230253Z AUTO 35012KT 10SM BKN090 OVC110 14/12 A2973 RMK AO2 LTG DSNT N PRESRR SLP060 60004 T01440117 51017",
      "metarObsTime": 1774234380
    },
    "KLNS": {
      "status": "OK",
      "delay": "—",
      "metarCat": "VFR",
      "metarRaw": "METAR KLNS 230253Z 12008KT 9SM SCT090 OVC110 15/14 A2966 RMK AO2 RAE12B36E53 PRESFR SLP042 P0003 60009 T01500139 56011",
      "metarObsTime": 1774234380
    },
    "KIPT": {
      "status": "OK",
      "delay": "—",
      "metarCat": "MVFR",
      "metarRaw": "METAR KIPT 230254Z AUTO VRB03KT 10SM BKN019 OVC027 09/07 A2975 RMK AO2 SLP075 60014 T00890067 50016 $",
      "metarObsTime": 1774234440
    },
    "KPHL": {
      "status": "OK",
      "delay": "—",
      "metarCat": "VFR",
      "metarRaw": "METAR KPHL 230254Z 04012G18KT 10SM OVC120 19/12 A2969 RMK AO2 SLP054 60000 T01940117 51024 $",
      "metarObsTime": 1774234440
    },
    "KABE": {
      "status": "OK",
      "delay": "—",
      "metarCat": "VFR",
      "metarRaw": "METAR KABE 230251Z 12007KT 8SM -RA FEW075 OVC095 13/13 A2970 RMK AO2 RAB0157 SLP056 P0007 60016 T01330128 58001 $",
      "metarObsTime": 1774234260
    },
    "KAVP": {
      "status": "OK",
      "delay": "—",
      "metarCat": "IFR",
      "metarRaw": "METAR KAVP 230254Z 01009KT 9SM -RA OVC009 08/07 A2975 RMK AO2 RAB27 SLP073 P0008 60022 T00830072 58001",
      "metarObsTime": 1774234440
    },
    "KHZL": {
      "status": "OK",
      "delay": "—",
      "metarCat": "LIFR",
      "metarRaw": "METAR KHZL 230255Z AUTO 34008G14KT 7SM BKN003 BKN007 OVC013 11/09 A2975 RMK AO2 P0006",
      "metarObsTime": 1774234500
    }
  }
}