{
  "generatedAt": "2026-03-12T03:20:15.095Z",
  "airports": {
    "KPIT": {
      "status": "OK",
      "delay": "—",
      "metarCat": "MVFR",
      "metarRaw": "METAR KPIT 120251Z 30018G27KT 5SM -RA BR FEW006 BKN017 OVC038 13/11 A2969 RMK AO2 PK WND 29028/0237 WSHFT 0234 SLP056 P0007 60017 T01330111 53009 $",
      "metarObsTime": 1773283860
    },
    "KAGC": {
      "status": "OK",
      "delay": "—",
      "metarCat": "MVFR",
      "metarRaw": "SPECI KAGC 120302Z 22013KT 7SM -RA SCT011 BKN022 OVC050 15/14 A2967 RMK AO2 P0000 T01500139",
      "metarObsTime": 1773284520
    },
    "KLBE": {
      "status": "OK",
      "delay": "—",
      "metarCat": "MVFR",
      "metarRaw": "METAR KLBE 120315Z AUTO 21013KT 3SM -RA BR BKN012 BKN021 OVC060 16/15 A2969 RMK AO2",
      "metarObsTime": 1773285300
    },
    "KJST": {
      "status": "OK",
      "delay": "—",
      "metarCat": "IFR",
      "metarRaw": "METAR KJST 120254Z AUTO 24011G20KT 6SM -RA BR BKN008 OVC014 14/13 A2969 RMK AO2 PK WND 27028/0217 CIG 006V010 SLP045 P0006 60026 T01440133 58009",
      "metarObsTime": 1773284040
    },
    "KERI": {
      "status": "OK",
      "delay": "—",
      "metarCat": "IFR",
      "metarRaw": "METAR KERI 120251Z 26007KT 10SM -RA OVC005 02/01 A2978 RMK AO2 UPB22E26 SLP086 P0000 60004 T00220011 51062",
      "metarObsTime": 1773283860
    },
    "KDUJ": {
      "status": "OK",
      "delay": "—",
      "metarCat": "MVFR",
      "metarRaw": "SPECI KDUJ 120307Z AUTO 23013KT 10SM -RA BKN010 OVC016 14/13 A2960 RMK AO2 CIG 007V012 P0000 T01440133",
      "metarObsTime": 1773284820
    },
    "KBFD": {
      "status": "OK",
      "delay": "—",
      "metarCat": "IFR",
      "metarRaw": "METAR KBFD 120253Z AUTO 29014G20KT 9SM -RA BKN007 BKN011 OVC019 12/11 A2960 RMK AO2 RAB04 SLP017 P0008 60009 T01220111 53003",
      "metarObsTime": 1773283980
    },
    "KBTP": {
      "status": "OK",
      "delay": "—",
      "metarCat": "MVFR",
      "metarRaw": "METAR KBTP 120256Z AUTO 30012G24KT 10SM -RA BKN011 OVC016 11/11 A2971 RMK AO2 WSHFT 0222 CIG 008V012 PRESRR SLP063 P0013 60024 T01060106 53013 $",
      "metarObsTime": 1773284160
    },
    "KFKL": {
      "status": "OK",
      "delay": "—",
      "metarCat": "IFR",
      "metarRaw": "METAR KFKL 120256Z AUTO 30016G25KT 10SM -RA BKN007 OVC014 A2973 RMK AO2 CIG 007V011 SLPNO P0005 60008 53036 FZRANO $",
      "metarObsTime": 1773284160
    },
    "KIDI": {
      "status": "OK",
      "delay": "—",
      "metarCat": "—",
      "metarRaw": "—",
      "metarObsTime": null
    },
    "KMDT": {
      "status": "OK",
      "delay": "—",
      "metarCat": "IFR",
      "metarRaw": "SPECI KMDT 120306Z 20003KT 2SM R13/3500VP6000FT BR FEW023 SCT055 BKN090 14/14 A2960 RMK AO2 TWR VIS 3 RAE0258 P0000 T01390139",
      "metarObsTime": 1773284760
    },
    "KCXY": {
      "status": "OK",
      "delay": "—",
      "metarCat": "VFR",
      "metarRaw": "METAR KCXY 120256Z AUTO 00000KT 10SM FEW034 SCT070 BKN085 16/16 A2962 RMK AO2 LTG DSNT E RAE54 TSB15E30 SLP028 P0018 60019 T01610156 58019",
      "metarObsTime": 1773284160
    },
    "KMUI": {
      "status": "OK",
      "delay": "—",
      "metarCat": "VFR",
      "metarRaw": "SPECI KMUI 120311Z AUTO 04004KT 7SM -VCTSRA FEW003 SCT055 BKN070 BKN085 16/16 A2963 RMK AO2 LTG DSNT E RAE0255RAB0256E11 TSE0255TSB0258E11 PRESFR SLP035",
      "metarObsTime": 1773285060
    },
    "KUNV": {
      "status": "OK",
      "delay": "—",
      "metarCat": "VFR",
      "metarRaw": "METAR KUNV 120315Z AUTO 22010KT 10SM DZ SCT029 BKN060 OVC095 16/16 A2964 RMK AO2 T01560156",
      "metarObsTime": 1773285300
    },
    "KAOO": {
      "status": "OK",
      "delay": "—",
      "metarCat": "MVFR",
      "metarRaw": "SPECI KAOO 120311Z AUTO 22009KT 4SM RA BR SCT026 BKN055 OVC090 16/14 A2967 RMK AO2 P0002 T01610144",
      "metarObsTime": 1773285060
    },
    "KLNS": {
      "status": "OK",
      "delay": "—",
      "metarCat": "VFR",
      "metarRaw": "METAR KLNS 120253Z 00000KT 10SM -RA FEW048 BKN070 OVC100 18/17 A2966 RMK AO2 LTG DSNT N AND NE SLP041 LTG DSNT NW MOV E P0010 60010 T01780167 56019",
      "metarObsTime": 1773283980
    },
    "KIPT": {
      "status": "OK",
      "delay": "—",
      "metarCat": "VFR",
      "metarRaw": "METAR KIPT 120254Z AUTO 23005KT 7SM RA OVC085 18/15 A2961 RMK AO2 RAB38 SLP025 P0001 60012 T01830150 58003 $",
      "metarObsTime": 1773284040
    },
    "KPHL": {
      "status": "OK",
      "delay": "—",
      "metarCat": "VFR",
      "metarRaw": "METAR KPHL 120254Z 17004KT 10SM FEW075 SCT100 19/15 A2965 RMK AO2 SLP039 60001 T01890150 58018 $",
      "metarObsTime": 1773284040
    },
    "KABE": {
      "status": "OK",
      "delay": "—",
      "metarCat": "VFR",
      "metarRaw": "METAR KABE 120251Z 35007KT 10SM FEW065 BKN090 OVC110 17/16 A2966 RMK AO2 LTG DSNT SE AND S RAB38E49 SLP043 P0000 60039 T01670156 55014 $",
      "metarObsTime": 1773283860
    },
    "KAVP": {
      "status": "OK",
      "delay": "—",
      "metarCat": "VFR",
      "metarRaw": "METAR KAVP 120254Z 21009G15KT 10SM BKN065 BKN075 BKN100 17/14 A2966 RMK AO2 RAE34 SLP036 P0002 60039 T01670144 58013",
      "metarObsTime": 1773284040
    },
    "KHZL": {
      "status": "OK",
      "delay": "—",
      "metarCat": "VFR",
      "metarRaw": "METAR KHZL 120315Z AUTO 24005KT 7SM BKN041 BKN050 OVC100 16/15 A2968 RMK AO2",
      "metarObsTime": 1773285300
    }
  }
}