{
  "generatedAt": "2026-03-05T23:30:33.336Z",
  "airports": {
    "KPIT": {
      "status": "OK",
      "delay": "—",
      "metarCat": "VFR",
      "metarRaw": "SPECI KPIT 052311Z 24008KT 10SM SCT015 BKN047 OVC095 16/13 A3002 RMK AO2 T01560133",
      "metarObsTime": 1772752260
    },
    "KAGC": {
      "status": "OK",
      "delay": "—",
      "metarCat": "VFR",
      "metarRaw": "METAR KAGC 052253Z 25011KT 9SM SCT014 SCT065 OVC080 16/13 A3002 RMK AO2 PK WND 22027/2216 RAE19 SLP169 P0001 T01560133",
      "metarObsTime": 1772751180
    },
    "KLBE": {
      "status": "OK",
      "delay": "—",
      "metarCat": "MVFR",
      "metarRaw": "METAR KLBE 052253Z 27007KT 10SM -RA BR SCT012 OVC019 16/15 A3006",
      "metarObsTime": 1772751180
    },
    "KJST": {
      "status": "OK",
      "delay": "—",
      "metarCat": "MVFR",
      "metarRaw": "SPECI KJST 052322Z AUTO 21009G18KT 5SM -RA BR OVC013 14/13 A3004 RMK AO2 P0004 T01390128",
      "metarObsTime": 1772752920
    },
    "KERI": {
      "status": "OK",
      "delay": "—",
      "metarCat": "LIFR",
      "metarRaw": "SPECI KERI 052324Z 02008KT 2SM -RA BR OVC003 02/01 A3002 RMK AO2 UPB2253E08 P0001 T00170011",
      "metarObsTime": 1772753040
    },
    "KDUJ": {
      "status": "OK",
      "delay": "—",
      "metarCat": "IFR",
      "metarRaw": "SPECI KDUJ 052256Z AUTO 30007KT 3SM RA BR SCT002 BKN009 OVC016 11/11 A3000 RMK AO2 P0000 T01110106",
      "metarObsTime": 1772751360
    },
    "KBFD": {
      "status": "OK",
      "delay": "—",
      "metarCat": "IFR",
      "metarRaw": "SPECI KBFD 052304Z AUTO 08003KT 6SM -RA BR OVC007 07/06 A3003 RMK AO2 CIG 003V009 P0000 T00670061",
      "metarObsTime": 1772751840
    },
    "KBTP": {
      "status": "OK",
      "delay": "—",
      "metarCat": "IFR",
      "metarRaw": "SPECI KBTP 052312Z AUTO 26004KT 10SM BKN008 BKN014 OVC018 14/ A3003 RMK AO2 CIG 005V009 $",
      "metarObsTime": 1772752320
    },
    "KFKL": {
      "status": "OK",
      "delay": "—",
      "metarCat": "IFR",
      "metarRaw": "SPECI KFKL 052315Z AUTO 24009KT 10SM OVC009 13/13 A3002 RMK AO2 CIG 007V013",
      "metarObsTime": 1772752500
    },
    "KIDI": {
      "status": "OK",
      "delay": "—",
      "metarCat": "MVFR",
      "metarRaw": "METAR KIDI 052315Z AUTO 23009G16KT 8SM SCT011 BKN015 OVC075 15/14 A3003 RMK A01",
      "metarObsTime": 1772752500
    },
    "KMDT": {
      "status": "OK",
      "delay": "—",
      "metarCat": "IFR",
      "metarRaw": "SPECI KMDT 052324Z 09008KT 1SM R13/P6000FT BR OVC005 08/08 A3013 RMK AO2 SFC VIS 4 T00830083",
      "metarObsTime": 1772753040
    },
    "KCXY": {
      "status": "OK",
      "delay": "—",
      "metarCat": "IFR",
      "metarRaw": "METAR KCXY 052256Z 09004KT 2SM BR OVC006 09/08 A3013 RMK AO2 SLP206 T00890078",
      "metarObsTime": 1772751360
    },
    "KMUI": {
      "status": "OK",
      "delay": "—",
      "metarCat": "LIFR",
      "metarRaw": "METAR KMUI 052256Z 08006KT 2SM -RA BR OVC003 09/08 A3013 RMK AO2A RAB17 SLP208 T00850082",
      "metarObsTime": 1772751360
    },
    "KUNV": {
      "status": "OK",
      "delay": "—",
      "metarCat": "IFR",
      "metarRaw": "METAR KUNV 052253Z 31004KT 3SM RA OVC008 07/07 A3006",
      "metarObsTime": 1772751180
    },
    "KAOO": {
      "status": "OK",
      "delay": "—",
      "metarCat": "LIFR",
      "metarRaw": "SPECI KAOO 052307Z AUTO 00000KT 1/2SM -RA FG FEW005 BKN034 OVC070 08/08 A3006 RMK AO2 P0001 T00830078",
      "metarObsTime": 1772752020
    },
    "KLNS": {
      "status": "OK",
      "delay": "—",
      "metarCat": "IFR",
      "metarRaw": "METAR KLNS 052253Z 09006KT 2 1/2SM BR OVC007 08/07 A3015 RMK AO2 CIG 004V009 SLP210 T00830072",
      "metarObsTime": 1772751180
    },
    "KIPT": {
      "status": "OK",
      "delay": "—",
      "metarCat": "MVFR",
      "metarRaw": "SPECI KIPT 052320Z 06011KT 6SM RA BR OVC010 08/07 A3008 RMK AO2 CIG 008V012 P0006 T00830072 $",
      "metarObsTime": 1772752800
    },
    "KPHL": {
      "status": "OK",
      "delay": "—",
      "metarCat": "LIFR",
      "metarRaw": "METAR KPHL 052254Z 07007KT 6SM BR OVC004 08/06 A3020 RMK AO2 SLP224 T00780061 $",
      "metarObsTime": 1772751240
    },
    "KABE": {
      "status": "OK",
      "delay": "—",
      "metarCat": "IFR",
      "metarRaw": "METAR KABE 052251Z 11008KT 4SM RA BR OVC006 06/06 A3020 RMK AO2 RAB22 SLP228 P0007 T00610056",
      "metarObsTime": 1772751060
    },
    "KAVP": {
      "status": "OK",
      "delay": "—",
      "metarCat": "MVFR",
      "metarRaw": "SPECI KAVP 052310Z 06007KT 10SM -RA BKN014 OVC024 06/04 A3012 RMK AO2 P0000 T00560044",
      "metarObsTime": 1772752200
    },
    "KHZL": {
      "status": "OK",
      "delay": "—",
      "metarCat": "LIFR",
      "metarRaw": "METAR KHZL 052315Z AUTO 11003KT 5SM RA OVC004 05/04 A3015 RMK AO2 P0003",
      "metarObsTime": 1772752500
    }
  }
}