{
  "generatedAt": "2026-03-12T17:10:21.510Z",
  "airports": {
    "KPIT": {
      "status": "OK",
      "delay": "—",
      "metarCat": "VFR",
      "metarRaw": "METAR KPIT 121651Z 31018G24KT 10SM FEW030 BKN200 02/M08 A3003 RMK AO2 SLP183 T00221083 $",
      "metarObsTime": 1773334260
    },
    "KAGC": {
      "status": "OK",
      "delay": "—",
      "metarCat": "VFR",
      "metarRaw": "METAR KAGC 121653Z 32010G22KT 270V350 10SM CLR 02/M07 A3001 RMK AO2 SLP173 T00171072",
      "metarObsTime": 1773334380
    },
    "KLBE": {
      "status": "OK",
      "delay": "—",
      "metarCat": "VFR",
      "metarRaw": "METAR KLBE 121647Z 27014KT 10SM FEW038 SCT049 BKN075 02/M05 A3002",
      "metarObsTime": 1773334020
    },
    "KJST": {
      "status": "OK",
      "delay": "—",
      "metarCat": "MVFR",
      "metarRaw": "METAR KJST 121654Z AUTO 31014G20KT 10SM SCT024 BKN030 M02/M06 A2990 RMK AO2 SLP134 T10171061",
      "metarObsTime": 1773334440
    },
    "KERI": {
      "status": "OK",
      "delay": "—",
      "metarCat": "VFR",
      "metarRaw": "METAR KERI 121651Z 27013G22KT 10SM SCT029 01/M07 A3006 RMK AO2 PK WND 27027/1606 SLP188 T00061067",
      "metarObsTime": 1773334260
    },
    "KDUJ": {
      "status": "OK",
      "delay": "—",
      "metarCat": "MVFR",
      "metarRaw": "METAR KDUJ 121653Z AUTO 30010G20KT 10SM OVC024 M01/M06 A2993 RMK AO2 SLP149 T10111061",
      "metarObsTime": 1773334380
    },
    "KBFD": {
      "status": "OK",
      "delay": "—",
      "metarCat": "VFR",
      "metarRaw": "SPECI KBFD 121704Z AUTO 30013KT 10SM SCT030 M02/M07 A2990 RMK AO2 T10221072",
      "metarObsTime": 1773335040
    },
    "KBTP": {
      "status": "OK",
      "delay": "—",
      "metarCat": "VFR",
      "metarRaw": "METAR KBTP 121656Z AUTO 32012G20KT 10SM CLR 02/M06 A3003 RMK AO2 SLP184 T00221061 FZRANO $",
      "metarObsTime": 1773334560
    },
    "KFKL": {
      "status": "OK",
      "delay": "—",
      "metarCat": "VFR",
      "metarRaw": "METAR KFKL 121656Z AUTO 31011G20KT 10SM SCT029 A3000 RMK AO2 SLPNO FZRANO $",
      "metarObsTime": 1773334560
    },
    "KIDI": {
      "status": "OK",
      "delay": "—",
      "metarCat": "VFR",
      "metarRaw": "METAR KIDI 121655Z AUTO 30015G20KT 10SM SCT031 01/M04 A2997 RMK A01",
      "metarObsTime": 1773334500
    },
    "KMDT": {
      "status": "OK",
      "delay": "—",
      "metarCat": "VFR",
      "metarRaw": "METAR KMDT 121656Z 32014G22KT 10SM BKN080 OVC090 03/M03 A2989 RMK AO2 SLP122 T00331033 $",
      "metarObsTime": 1773334560
    },
    "KCXY": {
      "status": "OK",
      "delay": "—",
      "metarCat": "VFR",
      "metarRaw": "METAR KCXY 121656Z 31013G20KT 10SM SCT039 OVC090 04/M04 A2990 RMK AO2 SLP126 T00391044",
      "metarObsTime": 1773334560
    },
    "KMUI": {
      "status": "OK",
      "delay": "—",
      "metarCat": "VFR",
      "metarRaw": "METAR KMUI 121655Z 28011G18KT 10SM SCT037 OVC080 04/M03 A2986 RMK AO2A SLP116 T00401035",
      "metarObsTime": 1773334500
    },
    "KUNV": {
      "status": "OK",
      "delay": "—",
      "metarCat": "VFR",
      "metarRaw": "METAR KUNV 121653Z 32010G16KT 10SM BKN033 BKN110 01/M06 A2992",
      "metarObsTime": 1773334380
    },
    "KAOO": {
      "status": "OK",
      "delay": "—",
      "metarCat": "VFR",
      "metarRaw": "METAR KAOO 121653Z AUTO 32011G20KT 10SM BKN032 01/M06 A2993 RMK AO2 SLP140 T00061056",
      "metarObsTime": 1773334380
    },
    "KLNS": {
      "status": "OK",
      "delay": "—",
      "metarCat": "VFR",
      "metarRaw": "METAR KLNS 121653Z 32012G19KT 10SM FEW035 BKN042 OVC049 03/M02 A2988 RMK AO2 SLP117 T00331022",
      "metarObsTime": 1773334380
    },
    "KIPT": {
      "status": "OK",
      "delay": "—",
      "metarCat": "VFR",
      "metarRaw": "METAR KIPT 121654Z 29011KT 10SM BKN043 04/M05 A2989 RMK AO2 SLP122 T00391050 $",
      "metarObsTime": 1773334440
    },
    "KPHL": {
      "status": "OK",
      "delay": "—",
      "metarCat": "MVFR",
      "metarRaw": "METAR KPHL 121654Z 31014KT 9SM -RAPL BKN022 BKN040 OVC075 05/02 A2985 RMK AO2 PLB38 SLP107 P0001 T00500017",
      "metarObsTime": 1773334440
    },
    "KABE": {
      "status": "OK",
      "delay": "—",
      "metarCat": "VFR",
      "metarRaw": "METAR KABE 121651Z AUTO 32011G21KT 10SM OVC050 04/M03 A2983 RMK AO2 SLP102 T00391033 $",
      "metarObsTime": 1773334260
    },
    "KAVP": {
      "status": "OK",
      "delay": "—",
      "metarCat": "VFR",
      "metarRaw": "METAR KAVP 121654Z AUTO 33010G20KT 10SM FEW039 OVC095 02/M05 A2985 RMK AO2 SLP106 T00221050",
      "metarObsTime": 1773334440
    },
    "KHZL": {
      "status": "OK",
      "delay": "—",
      "metarCat": "VFR",
      "metarRaw": "METAR KHZL 121655Z AUTO 31009G16KT 280V350 10SM SCT031 OVC075 01/M05 A2984 RMK AO2",
      "metarObsTime": 1773334500
    }
  }
}