{
  "generatedAt": "2026-04-13T22:40:47.025Z",
  "airports": {
    "KPIT": {
      "status": "OK",
      "delay": "—",
      "metarCat": "VFR",
      "metarRaw": "METAR KPIT 132151Z 23011G23KT 10SM SCT060 SCT250 26/13 A3001 RMK AO2 SLP159 T02610133",
      "metarObsTime": 1776117060
    },
    "KAGC": {
      "status": "OK",
      "delay": "—",
      "metarCat": "VFR",
      "metarRaw": "METAR KAGC 132153Z AUTO 25018G24KT 10SM FEW050 26/13 A3002 RMK AO2 PK WND 23028/2056 SLP160 T02560133",
      "metarObsTime": 1776117180
    },
    "KLBE": {
      "status": "OK",
      "delay": "—",
      "metarCat": "—",
      "metarRaw": "—",
      "metarObsTime": null
    },
    "KJST": {
      "status": "OK",
      "delay": "—",
      "metarCat": "VFR",
      "metarRaw": "METAR KJST 132154Z AUTO 25019G27KT 10SM FEW049 SCT060 22/12 A3005 RMK AO2 PK WND 25031/2124 SLP163 T02170117",
      "metarObsTime": 1776117240
    },
    "KERI": {
      "status": "OK",
      "delay": "—",
      "metarCat": "VFR",
      "metarRaw": "METAR KERI 132151Z 25013G22KT 10SM CLR 23/15 A2996 RMK AO2 PK WND 26028/2123 SLP141 T02330150 $",
      "metarObsTime": 1776117060
    },
    "KDUJ": {
      "status": "OK",
      "delay": "—",
      "metarCat": "VFR",
      "metarRaw": "METAR KDUJ 132153Z AUTO 25022G30KT 10SM FEW055 23/12 A2998 RMK AO2 PK WND 26032/2119 SLP141 T02330117",
      "metarObsTime": 1776117180
    },
    "KBFD": {
      "status": "OK",
      "delay": "—",
      "metarCat": "VFR",
      "metarRaw": "METAR KBFD 132153Z AUTO 28010G19KT 10SM BKN047 BKN060 OVC090 22/12 A2999 RMK AO2 SLP140 T02220117",
      "metarObsTime": 1776117180
    },
    "KBTP": {
      "status": "OK",
      "delay": "—",
      "metarCat": "VFR",
      "metarRaw": "METAR KBTP 132156Z AUTO 24010G18KT 10SM SCT065 BKN085 25/13 A3001 RMK AO2 SLP159 T02500133 $",
      "metarObsTime": 1776117360
    },
    "KFKL": {
      "status": "OK",
      "delay": "—",
      "metarCat": "VFR",
      "metarRaw": "METAR KFKL 132156Z AUTO 25012G16KT 10SM FEW050 25/14 A2999 RMK AO2 SLP147 T02500139",
      "metarObsTime": 1776117360
    },
    "KIDI": {
      "status": "OK",
      "delay": "—",
      "metarCat": "VFR",
      "metarRaw": "METAR KIDI 132235Z AUTO 25009G16KT 10SM SCT065 SCT075 BKN095 25/14 A3001 RMK A01",
      "metarObsTime": 1776119700
    },
    "KMDT": {
      "status": "OK",
      "delay": "—",
      "metarCat": "VFR",
      "metarRaw": "METAR KMDT 132156Z 22010G19KT 10SM BKN085 26/12 A2995 RMK AO2 PK WND 19027/2106 SLP142 T02560122",
      "metarObsTime": 1776117360
    },
    "KCXY": {
      "status": "OK",
      "delay": "—",
      "metarCat": "VFR",
      "metarRaw": "METAR KCXY 132156Z 21010G22KT 10SM BKN080 27/13 A2995 RMK AO2 SLP143 T02670133 $",
      "metarObsTime": 1776117360
    },
    "KMUI": {
      "status": "OK",
      "delay": "—",
      "metarCat": "VFR",
      "metarRaw": "METAR KMUI 132155Z 24013G18KT 10SM VCSH SCT070 BKN100 28/12 A2993 RMK AO2A SLP136 T02790122",
      "metarObsTime": 1776117300
    },
    "KUNV": {
      "status": "OK",
      "delay": "—",
      "metarCat": "VFR",
      "metarRaw": "METAR KUNV 132153Z 27012G21KT 10SM BKN075 26/12 A2997",
      "metarObsTime": 1776117180
    },
    "KAOO": {
      "status": "OK",
      "delay": "—",
      "metarCat": "VFR",
      "metarRaw": "METAR KAOO 132153Z AUTO 26016G26KT 10SM FEW060 FEW100 26/12 A3001 RMK AO2 PK WND 26027/2124 SLP153 T02560122",
      "metarObsTime": 1776117180
    },
    "KLNS": {
      "status": "OK",
      "delay": "—",
      "metarCat": "VFR",
      "metarRaw": "METAR KLNS 132153Z 22015G25KT 10SM CLR 26/12 A2997 RMK AO2 SLP146 T02560122",
      "metarObsTime": 1776117180
    },
    "KIPT": {
      "status": "OK",
      "delay": "—",
      "metarCat": "VFR",
      "metarRaw": "METAR KIPT 132154Z 25010KT 10SM CLR 27/13 A2990 RMK AO2 SLP123 T02720128 $",
      "metarObsTime": 1776117240
    },
    "KPHL": {
      "status": "OK",
      "delay": "—",
      "metarCat": "VFR",
      "metarRaw": "METAR KPHL 132154Z 22017KT 10SM FEW160 SCT250 27/12 A2998 RMK AO2 PK WND 22026/2112 SLP152 T02670117 $",
      "metarObsTime": 1776117240
    },
    "KABE": {
      "status": "OK",
      "delay": "—",
      "metarCat": "VFR",
      "metarRaw": "METAR KABE 132151Z AUTO 25015G24KT 10SM FEW048 BKN085 OVC110 25/12 A2994 RMK AO2 PK WND 23026/2120 SLP138 T02500122 $",
      "metarObsTime": 1776117060
    },
    "KAVP": {
      "status": "OK",
      "delay": "—",
      "metarCat": "VFR",
      "metarRaw": "METAR KAVP 132154Z 23013G23KT 10SM CLR 26/11 A2991 RMK AO2 PK WND 24031/2114 SLP122 T02560111",
      "metarObsTime": 1776117240
    },
    "KHZL": {
      "status": "OK",
      "delay": "—",
      "metarCat": "VFR",
      "metarRaw": "METAR KHZL 132235Z AUTO 20005KT 10SM CLR 23/11 A3001 RMK AO2",
      "metarObsTime": 1776119700
    }
  }
}