{
  "generatedAt": "2026-04-19T15:40:59.266Z",
  "airports": {
    "KPIT": {
      "status": "OK",
      "delay": "—",
      "metarCat": "VFR",
      "metarRaw": "METAR KPIT 191451Z 27015G23KT 10SM SCT036 08/M02 A3004 RMK AO2 SLP182 60000 T00831022 53006 $",
      "metarObsTime": 1776610260
    },
    "KAGC": {
      "status": "OK",
      "delay": "—",
      "metarCat": "VFR",
      "metarRaw": "METAR KAGC 191453Z 29009G24KT 240V310 10SM FEW039 SCT046 07/M01 A3003 RMK AO2 PK WND 30027/1443 SLP176 60004 T00721011 51006",
      "metarObsTime": 1776610380
    },
    "KLBE": {
      "status": "OK",
      "delay": "—",
      "metarCat": "MVFR",
      "metarRaw": "METAR KLBE 191447Z 24010KT 10SM SCT021 BKN030 OVC048 07/08 A3004",
      "metarObsTime": 1776610020
    },
    "KJST": {
      "status": "OK",
      "delay": "—",
      "metarCat": "MVFR",
      "metarRaw": "METAR KJST 191454Z AUTO 28009G23KT 9SM FEW011 BKN018 OVC034 03/00 A2996 RMK AO2 RAB23E40 SLP155 P0001 60001 T00280000 53007",
      "metarObsTime": 1776610440
    },
    "KERI": {
      "status": "OK",
      "delay": "—",
      "metarCat": "VFR",
      "metarRaw": "METAR KERI 191451Z 27016G23KT 10SM FEW055 06/M03 A3004 RMK AO2 SLP177 T00611033 53012 $",
      "metarObsTime": 1776610260
    },
    "KDUJ": {
      "status": "OK",
      "delay": "—",
      "metarCat": "MVFR",
      "metarRaw": "METAR KDUJ 191453Z AUTO 28006KT 10SM SCT015 BKN021 OVC043 04/01 A2996 RMK AO2 RAB18E37 SLP153 P0000 60000 T00390011 51002",
      "metarObsTime": 1776610380
    },
    "KBFD": {
      "status": "OK",
      "delay": "—",
      "metarCat": "VFR",
      "metarRaw": "SPECI KBFD 191504Z AUTO 29010KT 10SM SCT024 BKN033 OVC055 04/M01 A2994 RMK AO2 T00391006",
      "metarObsTime": 1776611040
    },
    "KBTP": {
      "status": "OK",
      "delay": "—",
      "metarCat": "VFR",
      "metarRaw": "METAR KBTP 191456Z AUTO 26017G26KT 10SM FEW040 BKN050 08/M01 A3003 RMK AO2 PK WND 27026/1456 SLP177 60001 T00831011 55000 $",
      "metarObsTime": 1776610560
    },
    "KFKL": {
      "status": "OK",
      "delay": "—",
      "metarCat": "—",
      "metarRaw": "—",
      "metarObsTime": null
    },
    "KIDI": {
      "status": "OK",
      "delay": "—",
      "metarCat": "VFR",
      "metarRaw": "METAR KIDI 191535Z AUTO 27015G21KT 10SM FEW027 SCT032 BKN037 09/03 A2999 RMK A01",
      "metarObsTime": 1776612900
    },
    "KMDT": {
      "status": "OK",
      "delay": "—",
      "metarCat": "VFR",
      "metarRaw": "METAR KMDT 191456Z 32007KT 10SM -RA BKN033 BKN050 OVC065 08/06 A2995 RMK AO2 SLP142 P0001 60010 T00830056 50016",
      "metarObsTime": 1776610560
    },
    "KCXY": {
      "status": "OK",
      "delay": "—",
      "metarCat": "VFR",
      "metarRaw": "METAR KCXY 191456Z 30009KT 10SM BKN070 OVC080 08/05 A2996 RMK AO2 RAE33 SLP146 P0001 60008 T00830050 50014 $",
      "metarObsTime": 1776610560
    },
    "KMUI": {
      "status": "OK",
      "delay": "—",
      "metarCat": "MVFR",
      "metarRaw": "SPECI KMUI 191524Z AUTO 28006KT 10SM BKN021 OVC028 09/06 A2992 RMK AO2 RAE1455RAB00E14DZB14E15RAB15E24 BKN V OVC SLP135",
      "metarObsTime": 1776612240
    },
    "KUNV": {
      "status": "OK",
      "delay": "—",
      "metarCat": "VFR",
      "metarRaw": "METAR KUNV 191453Z 31008G14KT 10SM SCT030 BKN049 OVC100 06/00 A2998",
      "metarObsTime": 1776610380
    },
    "KAOO": {
      "status": "OK",
      "delay": "—",
      "metarCat": "VFR",
      "metarRaw": "SPECI KAOO 191538Z AUTO 28011G19KT 10SM SCT023 SCT032 OVC046 06/01 A2999 RMK AO2 T00610011",
      "metarObsTime": 1776613080
    },
    "KLNS": {
      "status": "OK",
      "delay": "—",
      "metarCat": "VFR",
      "metarRaw": "METAR KLNS 191453Z 33009KT 10SM -RA FEW021 BKN040 OVC050 07/04 A2994 RMK AO2 PK WND 31027/1405 SLP140 P0004 60027 T00720044 51019",
      "metarObsTime": 1776610380
    },
    "KIPT": {
      "status": "OK",
      "delay": "—",
      "metarCat": "MVFR",
      "metarRaw": "SPECI KIPT 191526Z 01009KT 10SM FEW016 BKN029 OVC037 07/03 A2995 RMK AO2 RAE02 P0000 T00670033 $",
      "metarObsTime": 1776612360
    },
    "KPHL": {
      "status": "OK",
      "delay": "—",
      "metarCat": "VFR",
      "metarRaw": "METAR KPHL 191454Z 32016G23KT 10SM -RA SCT020 OVC050 11/06 A2992 RMK AO2 PK WND 30029/1402 RAB18E28B49 SLP129 P0000 60000 T01110061 51034 $",
      "metarObsTime": 1776610440
    },
    "KABE": {
      "status": "OK",
      "delay": "—",
      "metarCat": "VFR",
      "metarRaw": "SPECI KABE 191526Z 34011KT 9SM -RA SCT017 SCT029 OVC039 07/04 A2993 RMK AO2 P0003 T00720044 $",
      "metarObsTime": 1776612360
    },
    "KAVP": {
      "status": "OK",
      "delay": "—",
      "metarCat": "MVFR",
      "metarRaw": "METAR KAVP 191454Z 35014G21KT 7SM -RA FEW011 OVC022 03/01 A2995 RMK AO2 SLP142 P0003 60015 T00280006 51020",
      "metarObsTime": 1776610440
    },
    "KHZL": {
      "status": "OK",
      "delay": "—",
      "metarCat": "LIFR",
      "metarRaw": "METAR KHZL 191535Z AUTO 33010G16KT 5SM -SN OVC003 02/00 A2994 RMK AO2 P0001",
      "metarObsTime": 1776612900
    }
  }
}