{
  "generatedAt": "2026-03-08T16:10:24.587Z",
  "airports": {
    "KPIT": {
      "status": "OK",
      "delay": "—",
      "metarCat": "VFR",
      "metarRaw": "METAR KPIT 081551Z 28013G20KT 10SM FEW030 FEW120 SCT250 12/04 A2992 RMK AO2 SLP139 T01220044",
      "metarObsTime": 1772985060
    },
    "KAGC": {
      "status": "OK",
      "delay": "—",
      "metarCat": "VFR",
      "metarRaw": "METAR KAGC 081553Z 23014G18KT 10SM FEW021 12/06 A2991 RMK AO2 SLP133 T01220056",
      "metarObsTime": 1772985180
    },
    "KLBE": {
      "status": "OK",
      "delay": "—",
      "metarCat": "MVFR",
      "metarRaw": "METAR KLBE 081547Z 26017G23KT 10SM BKN024 OVC030 12/08 A2993",
      "metarObsTime": 1772984820
    },
    "KJST": {
      "status": "OK",
      "delay": "—",
      "metarCat": "IFR",
      "metarRaw": "METAR KJST 081554Z AUTO 29011KT 10SM OVC009 09/07 A2988 RMK AO2 SLP118 T00890067",
      "metarObsTime": 1772985240
    },
    "KERI": {
      "status": "OK",
      "delay": "—",
      "metarCat": "VFR",
      "metarRaw": "METAR KERI 081551Z 26013G25KT 10SM SCT031 08/01 A2989 RMK AO2 SLP122 T00830011",
      "metarObsTime": 1772985060
    },
    "KDUJ": {
      "status": "OK",
      "delay": "—",
      "metarCat": "MVFR",
      "metarRaw": "METAR KDUJ 081553Z AUTO 29009G19KT 10SM BKN025 09/03 A2987 RMK AO2 SLP116 T00940033",
      "metarObsTime": 1772985180
    },
    "KBFD": {
      "status": "OK",
      "delay": "—",
      "metarCat": "VFR",
      "metarRaw": "METAR KBFD 081553Z AUTO 27010G22KT 10SM SCT025 06/01 A2986 RMK AO2 SLP113 T00560006",
      "metarObsTime": 1772985180
    },
    "KBTP": {
      "status": "OK",
      "delay": "—",
      "metarCat": "VFR",
      "metarRaw": "METAR KBTP 081556Z AUTO 27014G19KT 10SM FEW025 SCT031 11/05 A2993 RMK AO2 SLP140 T01110050 $",
      "metarObsTime": 1772985360
    },
    "KFKL": {
      "status": "OK",
      "delay": "—",
      "metarCat": "MVFR",
      "metarRaw": "METAR KFKL 081556Z AUTO 28009KT 10SM OVC026 08/03 A2992 RMK AO2 SLP134 T00830028",
      "metarObsTime": 1772985360
    },
    "KIDI": {
      "status": "OK",
      "delay": "—",
      "metarCat": "VFR",
      "metarRaw": "METAR KIDI 081555Z AUTO 25014G19KT 10SM FEW025 OVC042 12/07 A2990 RMK A01",
      "metarObsTime": 1772985300
    },
    "KMDT": {
      "status": "OK",
      "delay": "—",
      "metarCat": "VFR",
      "metarRaw": "METAR KMDT 081556Z COR 27012G24KT 10SM FEW045 SCT055 OVC250 14/10 A2981 RMK AO2 SLP097 T01440100",
      "metarObsTime": 1772985360
    },
    "KCXY": {
      "status": "OK",
      "delay": "—",
      "metarCat": "VFR",
      "metarRaw": "METAR KCXY 081556Z 26013G24KT 10SM FEW049 19/10 A2982 RMK AO2 SLP099 T01940100",
      "metarObsTime": 1772985360
    },
    "KMUI": {
      "status": "OK",
      "delay": "—",
      "metarCat": "VFR",
      "metarRaw": "METAR KMUI 081555Z AUTO 24010KT 10SM SCT060 18/15 A2980 RMK AO2 SLP094 T01830150",
      "metarObsTime": 1772985300
    },
    "KUNV": {
      "status": "OK",
      "delay": "—",
      "metarCat": "MVFR",
      "metarRaw": "METAR KUNV 081553Z 27013G19KT 10SM BKN026 OVC032 12/06 A2987",
      "metarObsTime": 1772985180
    },
    "KAOO": {
      "status": "OK",
      "delay": "—",
      "metarCat": "—",
      "metarRaw": "—",
      "metarObsTime": null
    },
    "KLNS": {
      "status": "OK",
      "delay": "—",
      "metarCat": "VFR",
      "metarRaw": "METAR KLNS 081553Z 27016G23KT 10SM CLR 20/12 A2982 RMK AO2 SLP097 T02000117",
      "metarObsTime": 1772985180
    },
    "KIPT": {
      "status": "OK",
      "delay": "—",
      "metarCat": "VFR",
      "metarRaw": "METAR KIPT 081554Z 26007KT 6SM HZ BKN040 OVC046 12/08 A2984 RMK AO2 SLP104 T01220083",
      "metarObsTime": 1772985240
    },
    "KPHL": {
      "status": "OK",
      "delay": "—",
      "metarCat": "VFR",
      "metarRaw": "SPECI KPHL 081606Z 25007KT 10SM FEW070 SCT120 OVC240 17/13 A2983 RMK AO2 T01670128 $",
      "metarObsTime": 1772985960
    },
    "KABE": {
      "status": "OK",
      "delay": "—",
      "metarCat": "VFR",
      "metarRaw": "METAR KABE 081551Z 23011KT 10SM CLR 17/12 A2980 RMK AO2 SLP092 T01720122",
      "metarObsTime": 1772985060
    },
    "KAVP": {
      "status": "OK",
      "delay": "—",
      "metarCat": "VFR",
      "metarRaw": "METAR KAVP 081554Z 25011G18KT 10SM OVC060 15/10 A2981 RMK AO2 SLP092 T01500100",
      "metarObsTime": 1772985240
    },
    "KHZL": {
      "status": "OK",
      "delay": "—",
      "metarCat": "MVFR",
      "metarRaw": "METAR KHZL 081555Z AUTO 29003KT 10SM SCT021 BKN029 OVC040 14/08 A2986 RMK AO2",
      "metarObsTime": 1772985300
    }
  }
}