{
  "generatedAt": "2026-03-06T20:00:19.304Z",
  "airports": {
    "KPIT": {
      "status": "OK",
      "delay": "—",
      "metarCat": "MVFR",
      "metarRaw": "METAR KPIT 061951Z 21009KT 10SM BKN026 BKN250 21/13 A3013 RMK AO2 SLP208 T02060133",
      "metarObsTime": 1772826660
    },
    "KAGC": {
      "status": "OK",
      "delay": "—",
      "metarCat": "VFR",
      "metarRaw": "METAR KAGC 061953Z 20009KT 10SM SCT024 21/14 A3015 RMK AO2 SLP210 T02060139",
      "metarObsTime": 1772826780
    },
    "KLBE": {
      "status": "OK",
      "delay": "—",
      "metarCat": "VFR",
      "metarRaw": "METAR KLBE 061947Z 23012KT 10SM SCT022 BKN044 BKN110 21/16 A3017",
      "metarObsTime": 1772826420
    },
    "KJST": {
      "status": "OK",
      "delay": "—",
      "metarCat": "VFR",
      "metarRaw": "METAR KJST 061954Z AUTO 27007KT 10SM BKN110 18/09 A3018 RMK AO2 SLP215 T01830094",
      "metarObsTime": 1772826840
    },
    "KERI": {
      "status": "OK",
      "delay": "—",
      "metarCat": "VFR",
      "metarRaw": "METAR KERI 061951Z 06006KT 8SM CLR 11/06 A3010 RMK AO2 SLP199 T01060061",
      "metarObsTime": 1772826660
    },
    "KDUJ": {
      "status": "OK",
      "delay": "—",
      "metarCat": "VFR",
      "metarRaw": "METAR KDUJ 061953Z AUTO 22007KT 10SM BKN037 19/11 A3015 RMK AO2 SLP204 T01890106",
      "metarObsTime": 1772826780
    },
    "KBFD": {
      "status": "OK",
      "delay": "—",
      "metarCat": "VFR",
      "metarRaw": "METAR KBFD 061953Z AUTO 22005KT 10SM FEW032 SCT043 17/10 A3015 RMK AO2 SLP205 T01670100",
      "metarObsTime": 1772826780
    },
    "KBTP": {
      "status": "OK",
      "delay": "—",
      "metarCat": "VFR",
      "metarRaw": "METAR KBTP 061956Z AUTO 19009KT 10SM SCT035 BKN043 22/13 A3015 RMK AO2 SLP210 T02170133 $",
      "metarObsTime": 1772826960
    },
    "KFKL": {
      "status": "OK",
      "delay": "—",
      "metarCat": "VFR",
      "metarRaw": "METAR KFKL 061956Z AUTO 21010KT 10SM SCT033 BKN090 BKN110 19/11 A3014 RMK AO2 SLP206 T01890111",
      "metarObsTime": 1772826960
    },
    "KIDI": {
      "status": "OK",
      "delay": "—",
      "metarCat": "VFR",
      "metarRaw": "METAR KIDI 061955Z AUTO 25009G14KT 10SM FEW032 FEW110 21/13 A3017 RMK A01",
      "metarObsTime": 1772826900
    },
    "KMDT": {
      "status": "OK",
      "delay": "—",
      "metarCat": "IFR",
      "metarRaw": "METAR KMDT 061956Z 11008KT 6SM BR OVC007 06/05 A3031 RMK AO2 SLP267 T00610050",
      "metarObsTime": 1772826960
    },
    "KCXY": {
      "status": "OK",
      "delay": "—",
      "metarCat": "IFR",
      "metarRaw": "METAR KCXY 061956Z 10007KT 2SM BR OVC006 06/04 A3031 RMK AO2 SLP269 T00610044",
      "metarObsTime": 1772826960
    },
    "KMUI": {
      "status": "OK",
      "delay": "—",
      "metarCat": "LIFR",
      "metarRaw": "METAR KMUI 061955Z 09005KT 4SM BR OVC004 05/05 A3031 RMK AO2A SLP270 T00530050",
      "metarObsTime": 1772826900
    },
    "KUNV": {
      "status": "OK",
      "delay": "—",
      "metarCat": "MVFR",
      "metarRaw": "METAR KUNV 061953Z 10005KT 10SM OVC013 12/09 A3020",
      "metarObsTime": 1772826780
    },
    "KAOO": {
      "status": "OK",
      "delay": "—",
      "metarCat": "VFR",
      "metarRaw": "METAR KAOO 061953Z AUTO 14009KT 10SM FEW029 BKN036 OVC050 17/12 A3018 RMK AO2 SLP222 T01670122",
      "metarObsTime": 1772826780
    },
    "KLNS": {
      "status": "OK",
      "delay": "—",
      "metarCat": "IFR",
      "metarRaw": "METAR KLNS 061953Z 10009KT 5SM BR OVC006 06/04 A3032 RMK AO2 SLP270 T00560044",
      "metarObsTime": 1772826780
    },
    "KIPT": {
      "status": "OK",
      "delay": "—",
      "metarCat": "IFR",
      "metarRaw": "METAR KIPT 061954Z 09007KT 8SM OVC008 07/04 A3027 RMK AO2 SLP253 T00670044",
      "metarObsTime": 1772826840
    },
    "KPHL": {
      "status": "OK",
      "delay": "—",
      "metarCat": "IFR",
      "metarRaw": "METAR KPHL 061954Z 07008KT 9SM OVC009 07/04 A3036 RMK AO2 SLP279 T00670044 $",
      "metarObsTime": 1772826840
    },
    "KABE": {
      "status": "OK",
      "delay": "—",
      "metarCat": "IFR",
      "metarRaw": "METAR KABE 061951Z 11006KT 10SM OVC009 05/03 A3035 RMK AO2 SLP278 T00500028",
      "metarObsTime": 1772826660
    },
    "KAVP": {
      "status": "OK",
      "delay": "—",
      "metarCat": "MVFR",
      "metarRaw": "METAR KAVP 061954Z VRB03KT 10SM OVC014 06/03 A3029 RMK AO2 SLP261 T00560028",
      "metarObsTime": 1772826840
    },
    "KHZL": {
      "status": "OK",
      "delay": "—",
      "metarCat": "LIFR",
      "metarRaw": "METAR KHZL 061935Z AUTO 14006KT 7SM OVC002 03/02 A3030 RMK AO2",
      "metarObsTime": 1772825700
    }
  }
}