{
  "generatedAt": "2026-03-22T07:40:18.464Z",
  "airports": {
    "KPIT": {
      "status": "OK",
      "delay": "—",
      "metarCat": "VFR",
      "metarRaw": "METAR KPIT 220651Z 20008KT 10SM SCT100 BKN140 15/03 A2975 RMK AO2 SLP081 T01500033 $",
      "metarObsTime": 1774162260
    },
    "KAGC": {
      "status": "OK",
      "delay": "—",
      "metarCat": "VFR",
      "metarRaw": "METAR KAGC 220653Z 19010KT 10SM FEW120 13/03 A2976 RMK AO2 SLP082 T01280028",
      "metarObsTime": 1774162380
    },
    "KLBE": {
      "status": "OK",
      "delay": "—",
      "metarCat": "VFR",
      "metarRaw": "METAR KLBE 220735Z AUTO 21009KT 10SM FEW120 13/06 A2978 RMK AO2",
      "metarObsTime": 1774164900
    },
    "KJST": {
      "status": "OK",
      "delay": "—",
      "metarCat": "VFR",
      "metarRaw": "METAR KJST 220654Z AUTO 20009KT 10SM CLR 13/03 A2980 RMK AO2 SLP088 T01280033",
      "metarObsTime": 1774162440
    },
    "KERI": {
      "status": "OK",
      "delay": "—",
      "metarCat": "VFR",
      "metarRaw": "METAR KERI 220651Z AUTO 20014G22KT 10SM CLR 15/03 A2967 RMK AO2 SLP048 T01500033",
      "metarObsTime": 1774162260
    },
    "KDUJ": {
      "status": "OK",
      "delay": "—",
      "metarCat": "VFR",
      "metarRaw": "METAR KDUJ 220653Z AUTO 00000KT 10SM FEW110 11/02 A2977 RMK AO2 SLP081 T01110017",
      "metarObsTime": 1774162380
    },
    "KBFD": {
      "status": "OK",
      "delay": "—",
      "metarCat": "VFR",
      "metarRaw": "METAR KBFD 220653Z AUTO 15004KT 10SM SCT110 07/01 A2975 RMK AO2 SLP079 T00720011",
      "metarObsTime": 1774162380
    },
    "KBTP": {
      "status": "OK",
      "delay": "—",
      "metarCat": "VFR",
      "metarRaw": "METAR KBTP 220656Z AUTO 19008KT 10SM CLR 13/03 A2976 RMK AO2 SLP084 T01330033 $",
      "metarObsTime": 1774162560
    },
    "KFKL": {
      "status": "OK",
      "delay": "—",
      "metarCat": "VFR",
      "metarRaw": "METAR KFKL 220656Z AUTO 21010G17KT 10SM BKN120 13/03 A2974 RMK AO2 SLP071 T01280033",
      "metarObsTime": 1774162560
    },
    "KIDI": {
      "status": "OK",
      "delay": "—",
      "metarCat": "VFR",
      "metarRaw": "METAR KIDI 220735Z AUTO 23005KT 10SM FEW090 BKN110 13/05 A2977 RMK A01",
      "metarObsTime": 1774164900
    },
    "KMDT": {
      "status": "OK",
      "delay": "—",
      "metarCat": "MVFR",
      "metarRaw": "METAR KMDT 220656Z 07006KT 10SM FEW018 OVC024 10/04 A2990 RMK AO2 SLP125 T01000044",
      "metarObsTime": 1774162560
    },
    "KCXY": {
      "status": "OK",
      "delay": "—",
      "metarCat": "MVFR",
      "metarRaw": "METAR KCXY 220656Z AUTO 06007KT 10SM OVC023 10/03 A2990 RMK AO2 SLP126 T01000033",
      "metarObsTime": 1774162560
    },
    "KMUI": {
      "status": "OK",
      "delay": "—",
      "metarCat": "MVFR",
      "metarRaw": "SPECI KMUI 220730Z AUTO 10005KT 10SM OVC014 08/05 A2988 RMK AO2 DZB0655E0658 SLP122",
      "metarObsTime": 1774164600
    },
    "KUNV": {
      "status": "OK",
      "delay": "—",
      "metarCat": "VFR",
      "metarRaw": "METAR KUNV 220735Z AUTO 00000KT 10SM SCT120 05/01 A2983 RMK AO2 T00500010",
      "metarObsTime": 1774164900
    },
    "KAOO": {
      "status": "OK",
      "delay": "—",
      "metarCat": "VFR",
      "metarRaw": "METAR KAOO 220653Z AUTO 20004KT 10SM CLR 11/04 A2982 RMK AO2 SLP097 T01060044",
      "metarObsTime": 1774162380
    },
    "KLNS": {
      "status": "OK",
      "delay": "—",
      "metarCat": "MVFR",
      "metarRaw": "METAR KLNS 220653Z AUTO 10005KT 9SM OVC014 08/06 A2992 RMK AO2 SLP133 T00780056",
      "metarObsTime": 1774162380
    },
    "KIPT": {
      "status": "OK",
      "delay": "—",
      "metarCat": "VFR",
      "metarRaw": "METAR KIPT 220654Z AUTO 09006KT 10SM FEW055 BKN110 05/01 A2988 RMK AO2 SLP120 T00500006 $",
      "metarObsTime": 1774162440
    },
    "KPHL": {
      "status": "OK",
      "delay": "—",
      "metarCat": "VFR",
      "metarRaw": "METAR KPHL 220654Z 16003KT 10SM OVC036 08/04 A2997 RMK AO2 SLP146 T00830044 $",
      "metarObsTime": 1774162440
    },
    "KABE": {
      "status": "OK",
      "delay": "—",
      "metarCat": "VFR",
      "metarRaw": "METAR KABE 220651Z 15003KT 10SM -RA SCT037 SCT070 OVC095 08/03 A2994 RMK AO2 RAB32 SLP139 P0001 T00780028 $",
      "metarObsTime": 1774162260
    },
    "KAVP": {
      "status": "OK",
      "delay": "—",
      "metarCat": "VFR",
      "metarRaw": "METAR KAVP 220654Z AUTO 00000KT 10SM FEW080 OVC100 06/01 A2987 RMK AO2 RAE05B36E48 SLP118 P0000 T00560006",
      "metarObsTime": 1774162440
    },
    "KHZL": {
      "status": "OK",
      "delay": "—",
      "metarCat": "MVFR",
      "metarRaw": "METAR KHZL 220735Z AUTO 14004KT 10SM BKN013 BKN026 OVC070 05/01 A2989 RMK AO2",
      "metarObsTime": 1774164900
    }
  }
}