{
  "generatedAt": "2026-03-11T11:10:24.413Z",
  "airports": {
    "KPIT": {
      "status": "OK",
      "delay": "—",
      "metarCat": "VFR",
      "metarRaw": "METAR KPIT 111051Z 19009G18KT 10SM FEW025 FEW050 OVC120 18/15 A2981 RMK AO2 RAE48 SLP098 OCNL LTG DSNT SE P0000 T01780150",
      "metarObsTime": 1773226260
    },
    "KAGC": {
      "status": "OK",
      "delay": "—",
      "metarCat": "MVFR",
      "metarRaw": "METAR KAGC 111053Z 18008KT 10SM SCT024 BKN029 BKN100 16/14 A2983 RMK AO2 LTG DSNT E AND SE RAE47 SLP099 P0005 T01560144",
      "metarObsTime": 1773226380
    },
    "KLBE": {
      "status": "OK",
      "delay": "—",
      "metarCat": "MVFR",
      "metarRaw": "METAR KLBE 111035Z AUTO 17013KT 5SM -TSRA BR SCT031 BKN048 OVC065 17/16 A2986 RMK AO2 LTG DSNT SE-W",
      "metarObsTime": 1773225300
    },
    "KJST": {
      "status": "OK",
      "delay": "—",
      "metarCat": "MVFR",
      "metarRaw": "METAR KJST 111054Z AUTO 22006KT 10SM -RA BKN023 BKN039 OVC050 16/12 A2989 RMK AO2 LTG DSNT SW AND W RAB54 SLP111 P0000 T01610122",
      "metarObsTime": 1773226440
    },
    "KERI": {
      "status": "OK",
      "delay": "—",
      "metarCat": "MVFR",
      "metarRaw": "METAR KERI 111051Z 24014G30KT 3SM RA BR FEW009 BKN049 OVC065 15/14 A2973 RMK AO2 PK WND 20044/1025 WSHFT 1025 LTG DSNT NE RAB34 TSE0953 SLP067 P0015 T01500139",
      "metarObsTime": 1773226260
    },
    "KDUJ": {
      "status": "OK",
      "delay": "—",
      "metarCat": "MVFR",
      "metarRaw": "METAR KDUJ 111053Z AUTO 18009G16KT 10SM VCTS SCT020 BKN028 BKN039 16/13 A2979 RMK AO2 LTG DSNT N AND NW SLP082 T01560128",
      "metarObsTime": 1773226380
    },
    "KBFD": {
      "status": "OK",
      "delay": "—",
      "metarCat": "MVFR",
      "metarRaw": "SPECI KBFD 111106Z AUTO 18007KT 10SM VCTS -RA BKN022 BKN036 BKN050 15/13 A2978 RMK AO2 LTG DSNT S-NW RAB03 CIG 013V032 P0000 T01500128",
      "metarObsTime": 1773227160
    },
    "KBTP": {
      "status": "OK",
      "delay": "—",
      "metarCat": "MVFR",
      "metarRaw": "METAR KBTP 111056Z AUTO 21007KT 10SM OVC021 17/16 A2982 RMK AO2 RAB12E25 SLP101 P0000 T01720161 $",
      "metarObsTime": 1773226560
    },
    "KFKL": {
      "status": "OK",
      "delay": "—",
      "metarCat": "MVFR",
      "metarRaw": "SPECI KFKL 111108Z AUTO 20014G20KT 10SM -RA OVC014 16/14 A2978 RMK AO2 LTG DSNT NE TSE02 P0000",
      "metarObsTime": 1773227280
    },
    "KIDI": {
      "status": "OK",
      "delay": "—",
      "metarCat": "—",
      "metarRaw": "—",
      "metarObsTime": null
    },
    "KMDT": {
      "status": "OK",
      "delay": "—",
      "metarCat": "VFR",
      "metarRaw": "METAR KMDT 111056Z 13003KT 10SM SCT100 BKN200 BKN250 09/07 A2989 RMK AO2 SLP122 T00890072",
      "metarObsTime": 1773226560
    },
    "KCXY": {
      "status": "OK",
      "delay": "—",
      "metarCat": "VFR",
      "metarRaw": "METAR KCXY 111056Z 00000KT 10SM CLR 12/08 A2990 RMK AO2 SLP124 T01170078",
      "metarObsTime": 1773226560
    },
    "KMUI": {
      "status": "OK",
      "delay": "—",
      "metarCat": "VFR",
      "metarRaw": "METAR KMUI 111055Z 00000KT 10SM SCT100 BKN180 BKN210 13/10 A2989 RMK AO2A SLP123 T01250102",
      "metarObsTime": 1773226500
    },
    "KUNV": {
      "status": "OK",
      "delay": "—",
      "metarCat": "VFR",
      "metarRaw": "METAR KUNV 111053Z 30004KT 10SM VCTS SCT050 13/13 A2988 RMK LTG DSNT SW THRU NW",
      "metarObsTime": 1773226380
    },
    "KAOO": {
      "status": "OK",
      "delay": "—",
      "metarCat": "—",
      "metarRaw": "—",
      "metarObsTime": null
    },
    "KLNS": {
      "status": "OK",
      "delay": "—",
      "metarCat": "VFR",
      "metarRaw": "METAR KLNS 111053Z 06004KT 10SM BKN110 12/09 A2990 RMK AO2 SLP123 T01220089",
      "metarObsTime": 1773226380
    },
    "KIPT": {
      "status": "OK",
      "delay": "—",
      "metarCat": "VFR",
      "metarRaw": "METAR KIPT 111054Z 00000KT 6SM BR FEW060 07/07 A2987 RMK AO2 SLP113 T00720072 $",
      "metarObsTime": 1773226440
    },
    "KPHL": {
      "status": "OK",
      "delay": "—",
      "metarCat": "VFR",
      "metarRaw": "METAR KPHL 111054Z 00000KT 10SM BKN130 BKN220 BKN300 12/07 A2993 RMK AO2 SLP134 T01220072 $",
      "metarObsTime": 1773226440
    },
    "KABE": {
      "status": "OK",
      "delay": "—",
      "metarCat": "VFR",
      "metarRaw": "METAR KABE 111051Z 00000KT 10SM SCT120 09/07 A2991 RMK AO2 SLP126 T00940072",
      "metarObsTime": 1773226260
    },
    "KAVP": {
      "status": "OK",
      "delay": "—",
      "metarCat": "VFR",
      "metarRaw": "METAR KAVP 111054Z AUTO 00000KT 10SM BKN090 12/07 A2988 RMK AO2 SLP115 T01170067",
      "metarObsTime": 1773226440
    },
    "KHZL": {
      "status": "OK",
      "delay": "—",
      "metarCat": "VFR",
      "metarRaw": "METAR KHZL 111055Z AUTO 00000KT 10SM BKN090 OVC110 15/06 A2994 RMK AO2 LTG DSNT SW AND W",
      "metarObsTime": 1773226500
    }
  }
}