{
  "generatedAt": "2026-03-17T07:00:14.308Z",
  "airports": {
    "KPIT": {
      "status": "OK",
      "delay": "—",
      "metarCat": "MVFR",
      "metarRaw": "METAR KPIT 170651Z 26013G22KT 9SM -SN SCT008 BKN025 OVC036 M06/M09 A2973 RMK AO2 PK WND 27034/0603 SLP085 P0000 T10561094 $",
      "metarObsTime": 1773730260
    },
    "KAGC": {
      "status": "OK",
      "delay": "—",
      "metarCat": "VFR",
      "metarRaw": "METAR KAGC 170653Z 29013G27KT 8SM BKN040 M06/M09 A2972 RMK AO2 PK WND 28030/0619 SNE27 SLP079 P0000 T10561089 $",
      "metarObsTime": 1773730380
    },
    "KLBE": {
      "status": "OK",
      "delay": "—",
      "metarCat": "LIFR",
      "metarRaw": "METAR KLBE 170655Z AUTO 24016G31KT 3/4SM -SN HZ BKN001 BKN012 OVC026 M05/M08 A2975 RMK AO2",
      "metarObsTime": 1773730500
    },
    "KJST": {
      "status": "OK",
      "delay": "—",
      "metarCat": "MVFR",
      "metarRaw": "METAR KJST 170654Z AUTO 26019G35KT 4SM -SN BKN016 OVC024 M07/M10 A2960 RMK AO2 PK WND 27044/0556 UPE45SNB45 SLP041 P0000 T10721100",
      "metarObsTime": 1773730440
    },
    "KERI": {
      "status": "OK",
      "delay": "—",
      "metarCat": "LIFR",
      "metarRaw": "METAR KERI 170651Z AUTO 27021G39KT 3/4SM R06/5000VP6000FT -SN FEW015 BKN032 OVC050 M06/M08 A2964 RMK AO2 PK WND 29040/0621 UPB16E17SNE16B17 SLP044 P0000 T10561083 $",
      "metarObsTime": 1773730260
    },
    "KDUJ": {
      "status": "OK",
      "delay": "—",
      "metarCat": "IFR",
      "metarRaw": "METAR KDUJ 170653Z AUTO 25021G28KT 2 1/2SM -SN FEW019 BKN025 OVC032 M07/M10 A2957 RMK AO2 PK WND 27035/0625 SNB48 SLP025 P0000 T10671100 TSNO",
      "metarObsTime": 1773730380
    },
    "KBFD": {
      "status": "OK",
      "delay": "—",
      "metarCat": "LIFR",
      "metarRaw": "METAR KBFD 170653Z AUTO 27015G25KT 1/2SM SN FZFG FEW004 BKN009 OVC015 M07/M08 A2949 RMK AO2 PK WND 30029/0559 SNB0558 PRESRR SLP001 P0001 T10721083",
      "metarObsTime": 1773730380
    },
    "KBTP": {
      "status": "OK",
      "delay": "—",
      "metarCat": "—",
      "metarRaw": "—",
      "metarObsTime": null
    },
    "KFKL": {
      "status": "OK",
      "delay": "—",
      "metarCat": "IFR",
      "metarRaw": "METAR KFKL 170656Z AUTO 28014G23KT 1SM -SN BR BKN009 OVC015 M07/M08 A2963 RMK AO2 CIG 004V010 SLP052 P0000 T10721083 FZRANO",
      "metarObsTime": 1773730560
    },
    "KIDI": {
      "status": "OK",
      "delay": "—",
      "metarCat": "MVFR",
      "metarRaw": "METAR KIDI 170655Z AUTO 26016G27KT 7SM BKN026 OVC031 M05/M09 A2968 RMK A01",
      "metarObsTime": 1773730500
    },
    "KMDT": {
      "status": "OK",
      "delay": "—",
      "metarCat": "VFR",
      "metarRaw": "METAR KMDT 170556Z 28022G33KT 10SM FEW055 02/M06 A2961 RMK AO2 PK WND 27033/0549 SLP028 60030 T00171056 10161 20006 52042",
      "metarObsTime": 1773726960
    },
    "KCXY": {
      "status": "OK",
      "delay": "—",
      "metarCat": "VFR",
      "metarRaw": "METAR KCXY 170556Z AUTO 28011G19KT 10SM FEW050 SCT060 01/M06 A2962 RMK AO2 SLP032 60048 T00061061 10172 20006 53044",
      "metarObsTime": 1773726960
    },
    "KMUI": {
      "status": "OK",
      "delay": "—",
      "metarCat": "VFR",
      "metarRaw": "METAR KMUI 170655Z AUTO 24010KT 10SM BKN047 01/M03 A2961 RMK AO2 SLP031 T00071029",
      "metarObsTime": 1773730500
    },
    "KUNV": {
      "status": "OK",
      "delay": "—",
      "metarCat": "IFR",
      "metarRaw": "METAR KUNV 170655Z AUTO 27019G29KT 2SM -SN SCT008 BKN022 OVC033 M04/M06 A2961 RMK AO2 VIS 3/4V5 T10371064",
      "metarObsTime": 1773730500
    },
    "KAOO": {
      "status": "OK",
      "delay": "—",
      "metarCat": "VFR",
      "metarRaw": "METAR KAOO 170653Z AUTO 26018G26KT 10SM BKN038 OVC046 M04/M11 A2965 RMK AO2 PK WND 28037/0559 SLP046 T10391106",
      "metarObsTime": 1773730380
    },
    "KLNS": {
      "status": "OK",
      "delay": "—",
      "metarCat": "VFR",
      "metarRaw": "METAR KLNS 170653Z AUTO 28013G26KT 10SM CLR 01/M06 A2964 RMK AO2 PK WND 28031/0631 PRESRR SLP038 T00061061",
      "metarObsTime": 1773730380
    },
    "KIPT": {
      "status": "OK",
      "delay": "—",
      "metarCat": "IFR",
      "metarRaw": "METAR KIPT 170654Z AUTO 28016G24KT 1SM -SN BR SCT011 BKN027 OVC041 M02/M03 A2957 RMK AO2 SNB47 SLP016 P0000 T10221033",
      "metarObsTime": 1773730440
    },
    "KPHL": {
      "status": "OK",
      "delay": "—",
      "metarCat": "VFR",
      "metarRaw": "METAR KPHL 170654Z 26012KT 10SM BKN031 03/M01 A2965 RMK AO2 PK WND 26030/0555 SLP039 T00331006 $",
      "metarObsTime": 1773730440
    },
    "KABE": {
      "status": "OK",
      "delay": "—",
      "metarCat": "VFR",
      "metarRaw": "METAR KABE 170651Z 28012G29KT 10SM FEW040 01/M04 A2959 RMK AO2 PK WND 25029/0601 SLP019 T00111044 $",
      "metarObsTime": 1773730260
    },
    "KAVP": {
      "status": "OK",
      "delay": "—",
      "metarCat": "VFR",
      "metarRaw": "METAR KAVP 170654Z 23015G26KT 10SM SCT036 SCT042 M01/M04 A2951 RMK AO2 PK WND 24030/0605 SLP995 T10111039",
      "metarObsTime": 1773730440
    },
    "KHZL": {
      "status": "OK",
      "delay": "—",
      "metarCat": "MVFR",
      "metarRaw": "METAR KHZL 170655Z AUTO 28007G20KT 230V320 10SM BKN019 BKN041 M02/M05 RMK AO2",
      "metarObsTime": 1773730500
    }
  }
}