{
  "generatedAt": "2026-04-01T08:40:28.504Z",
  "airports": {
    "KPIT": {
      "status": "OK",
      "delay": "—",
      "metarCat": "VFR",
      "metarRaw": "METAR KPIT 010751Z 26005KT 6SM -RA BR FEW025 BKN045 OVC070 15/13 A3000 RMK AO2 SLP161 P0007 T01500133 $",
      "metarObsTime": 1775029860
    },
    "KAGC": {
      "status": "OK",
      "delay": "—",
      "metarCat": "MVFR",
      "metarRaw": "METAR KAGC 010753Z 27010G17KT 4SM RA BR OVC065 14/13 A3003 RMK AO2 SLP165 P0005 T01440133",
      "metarObsTime": 1775029980
    },
    "KLBE": {
      "status": "OK",
      "delay": "—",
      "metarCat": "VFR",
      "metarRaw": "METAR KLBE 010835Z AUTO 17005KT 6SM -RA BR FEW028 SCT049 OVC060 15/15 A3005 RMK AO2",
      "metarObsTime": 1775032500
    },
    "KJST": {
      "status": "OK",
      "delay": "—",
      "metarCat": "IFR",
      "metarRaw": "METAR KJST 010754Z AUTO 22005KT 10SM -RA BKN006 BKN010 OVC065 13/13 A3002 RMK AO2 CIG 004V009 SLP156 P0010 T01280128",
      "metarObsTime": 1775030040
    },
    "KERI": {
      "status": "OK",
      "delay": "—",
      "metarCat": "LIFR",
      "metarRaw": "METAR KERI 010751Z AUTO 25007KT 3SM -RA BR OVC003 08/07 A2998 RMK AO2 SLP154 P0006 T00780072 $",
      "metarObsTime": 1775029860
    },
    "KDUJ": {
      "status": "OK",
      "delay": "—",
      "metarCat": "IFR",
      "metarRaw": "METAR KDUJ 010753Z AUTO 24015KT 10SM -RA OVC007 13/13 A2996 RMK AO2 RAB43 CIG 004V010 SLP138 P0000 T01330128 $",
      "metarObsTime": 1775029980
    },
    "KBFD": {
      "status": "OK",
      "delay": "—",
      "metarCat": "IFR",
      "metarRaw": "METAR KBFD 010753Z AUTO 24005KT 10SM OVC006 13/13 A2994 RMK AO2 RAB0657E10 SLP130 P0001 T01330128",
      "metarObsTime": 1775029980
    },
    "KBTP": {
      "status": "OK",
      "delay": "—",
      "metarCat": "VFR",
      "metarRaw": "METAR KBTP 010756Z AUTO 23008KT 10SM -RA FEW050 OVC090 14/ A3000 RMK AO2 SLP158 P0002 T0144 $",
      "metarObsTime": 1775030160
    },
    "KFKL": {
      "status": "OK",
      "delay": "—",
      "metarCat": "IFR",
      "metarRaw": "METAR KFKL 010756Z AUTO 24008KT 10SM -RA BKN009 OVC012 14/13 A2997 RMK AO2 RAB53 CIG 006V011 SLP145 P0000 T01440133",
      "metarObsTime": 1775030160
    },
    "KIDI": {
      "status": "OK",
      "delay": "—",
      "metarCat": "MVFR",
      "metarRaw": "METAR KIDI 010835Z AUTO 22009G16KT 9SM SCT005 BKN017 OVC055 14/14 A3002 RMK A01",
      "metarObsTime": 1775032500
    },
    "KMDT": {
      "status": "OK",
      "delay": "—",
      "metarCat": "VFR",
      "metarRaw": "METAR KMDT 010756Z 30005KT 10SM BKN100 18/12 A2993 RMK AO2 SLP134 T01830122",
      "metarObsTime": 1775030160
    },
    "KCXY": {
      "status": "OK",
      "delay": "—",
      "metarCat": "VFR",
      "metarRaw": "METAR KCXY 010756Z AUTO 26006KT 10SM SCT095 BKN110 19/12 A2993 RMK AO2 SLP136 T01940122",
      "metarObsTime": 1775030160
    },
    "KMUI": {
      "status": "OK",
      "delay": "—",
      "metarCat": "—",
      "metarRaw": "—",
      "metarObsTime": null
    },
    "KUNV": {
      "status": "OK",
      "delay": "—",
      "metarCat": "VFR",
      "metarRaw": "METAR KUNV 010835Z AUTO 20004KT 10SM SCT120 15/15 A2997 RMK AO2 T01450145",
      "metarObsTime": 1775032500
    },
    "KAOO": {
      "status": "OK",
      "delay": "—",
      "metarCat": "VFR",
      "metarRaw": "METAR KAOO 010753Z AUTO 27008KT 10SM -RA FEW065 OVC085 15/13 A3000 RMK AO2 SLP152 P0000 T01500128",
      "metarObsTime": 1775029980
    },
    "KLNS": {
      "status": "OK",
      "delay": "—",
      "metarCat": "VFR",
      "metarRaw": "METAR KLNS 010753Z AUTO 25006KT 10SM CLR 19/12 A2994 RMK AO2 SLP136 T01890117",
      "metarObsTime": 1775029980
    },
    "KIPT": {
      "status": "OK",
      "delay": "—",
      "metarCat": "VFR",
      "metarRaw": "METAR KIPT 010754Z AUTO 00000KT 8SM FEW020 BKN100 BKN120 14/14 A2993 RMK AO2 RAB30E40 SLP131 P0000 T01440144",
      "metarObsTime": 1775030040
    },
    "KPHL": {
      "status": "OK",
      "delay": "—",
      "metarCat": "VFR",
      "metarRaw": "METAR KPHL 010754Z 25009KT 10SM FEW090 SCT170 BKN250 21/12 A2994 RMK AO2 SLP138 T02110122 $",
      "metarObsTime": 1775030040
    },
    "KABE": {
      "status": "OK",
      "delay": "—",
      "metarCat": "VFR",
      "metarRaw": "METAR KABE 010751Z 26012G18KT 10SM BKN070 OVC090 20/12 A2992 RMK AO2 SLP130 T02000117 $",
      "metarObsTime": 1775029860
    },
    "KAVP": {
      "status": "OK",
      "delay": "—",
      "metarCat": "VFR",
      "metarRaw": "SPECI KAVP 010824Z AUTO 20007KT 10SM -RA SCT021 SCT055 OVC110 15/14 A2992 RMK AO2 P0003 T01500144",
      "metarObsTime": 1775031840
    },
    "KHZL": {
      "status": "OK",
      "delay": "—",
      "metarCat": "VFR",
      "metarRaw": "METAR KHZL 010835Z AUTO 26003KT 10SM OVC095 15/12 A2999 RMK AO2",
      "metarObsTime": 1775032500
    }
  }
}