{
  "generatedAt": "2026-06-09T00:12:37.262Z",
  "faaFlow": {
    "updatedAt": "2026-06-09T00:12:37.008Z",
    "source": "https://www.fly.faa.gov/adv/adv_spt",
    "terminal": [],
    "enroute": [
      {
        "time": "—",
        "text": "UNTIL",
        "code": "FLOW",
        "label": "FAA flow impact",
        "level": "yellow",
        "section": "En Route Planned",
        "airports": []
      },
      {
        "time": "0200",
        "text": "ATL/CLT CDRS",
        "code": "ROUTE",
        "label": "Route impact possible",
        "level": "blue",
        "section": "En Route Planned",
        "airports": []
      },
      {
        "time": "—",
        "text": "UNTIL",
        "code": "FLOW",
        "label": "FAA flow impact",
        "level": "yellow",
        "section": "En Route Planned",
        "airports": []
      },
      {
        "time": "0200",
        "text": "DEN DIVERSION RECOVERY",
        "code": "FLOW",
        "label": "FAA flow impact",
        "level": "yellow",
        "section": "En Route Planned",
        "airports": []
      },
      {
        "time": "—",
        "text": "UNTIL",
        "code": "FLOW",
        "label": "FAA flow impact",
        "level": "yellow",
        "section": "En Route Planned",
        "airports": []
      },
      {
        "time": "0200",
        "text": "ORD DIVERSION RECOVERY",
        "code": "FLOW",
        "label": "FAA flow impact",
        "level": "yellow",
        "section": "En Route Planned",
        "airports": []
      },
      {
        "time": "—",
        "text": "UNTIL",
        "code": "FLOW",
        "label": "FAA flow impact",
        "level": "yellow",
        "section": "En Route Planned",
        "airports": []
      },
      {
        "time": "0200",
        "text": "MDW DIVERSION RECOVERY",
        "code": "FLOW",
        "label": "FAA flow impact",
        "level": "yellow",
        "section": "En Route Planned",
        "airports": []
      },
      {
        "time": "—",
        "text": "UNTIL",
        "code": "FLOW",
        "label": "FAA flow impact",
        "level": "yellow",
        "section": "En Route Planned",
        "airports": []
      },
      {
        "time": "0200",
        "text": "ZMP SWAP STATMENT",
        "code": "ROUTE",
        "label": "Route impact possible",
        "level": "blue",
        "section": "En Route Planned",
        "airports": []
      },
      {
        "time": "—",
        "text": "UNTIL",
        "code": "FLOW",
        "label": "FAA flow impact",
        "level": "yellow",
        "section": "En Route Planned",
        "airports": []
      },
      {
        "time": "0300",
        "text": "ORD/MDW CDRS",
        "code": "ROUTE",
        "label": "Route impact possible",
        "level": "blue",
        "section": "En Route Planned",
        "airports": []
      },
      {
        "time": "—",
        "text": "UNTIL",
        "code": "FLOW",
        "label": "FAA flow impact",
        "level": "yellow",
        "section": "En Route Planned",
        "airports": []
      },
      {
        "time": "0300",
        "text": "ZDV CAPPING/TUNNELING RUNWAY/EQUIPMENT/POSSIBLE SYSTEM IMPACT REPORTS(SIRs): HOU - RWY 13R/31L CLOSED UNTIL 06/08/26",
        "code": "CLOSURE",
        "label": "Closure possible",
        "level": "yellow",
        "section": "En Route Planned",
        "airports": []
      },
      {
        "time": "—",
        "text": "AFTER",
        "code": "FLOW",
        "label": "FAA flow impact",
        "level": "yellow",
        "section": "En Route Planned",
        "airports": []
      },
      {
        "time": "0400",
        "text": "IAD RWY 01C ILS/LOC",
        "code": "FLOW",
        "label": "FAA flow impact",
        "level": "yellow",
        "section": "En Route Planned",
        "airports": []
      },
      {
        "time": "—",
        "text": "AFTER",
        "code": "FLOW",
        "label": "FAA flow impact",
        "level": "yellow",
        "section": "En Route Planned",
        "airports": []
      },
      {
        "time": "0400",
        "text": "ORD RWY 10L ILS/LOC VIP MOVEMENT(S):",
        "code": "FLOW",
        "label": "FAA flow impact",
        "level": "yellow",
        "section": "En Route Planned",
        "airports": []
      },
      {
        "time": "—",
        "text": "AFTER",
        "code": "FLOW",
        "label": "FAA flow impact",
        "level": "yellow",
        "section": "En Route Planned",
        "airports": []
      },
      {
        "time": "0300",
        "text": "DEP JFK",
        "code": "FLOW",
        "label": "FAA flow impact",
        "level": "yellow",
        "section": "En Route Planned",
        "airports": []
      },
      {
        "time": "—",
        "text": "AFTER",
        "code": "FLOW",
        "label": "FAA flow impact",
        "level": "yellow",
        "section": "En Route Planned",
        "airports": []
      },
      {
        "time": "0400",
        "text": "ARR ADW NEXT PLANNING WEBINAR:",
        "code": "FLOW",
        "label": "FAA flow impact",
        "level": "yellow",
        "section": "En Route Planned",
        "airports": []
      }
    ],
    "airports": {
      "KPIT": null,
      "KAGC": null,
      "KLBE": null,
      "KJST": null,
      "KERI": null,
      "KDUJ": null,
      "KBFD": null,
      "KBTP": null,
      "KFKL": null,
      "KIDI": null,
      "KMDT": null,
      "KCXY": null,
      "KMUI": null,
      "KUNV": null,
      "KAOO": null,
      "KLNS": null,
      "KIPT": null,
      "KPHL": null,
      "KABE": null,
      "KAVP": null,
      "KHZL": null
    }
  },
  "airports": {
    "KPIT": {
      "status": "OK",
      "delay": "—",
      "metarCat": "VFR",
      "metarRaw": "METAR KPIT 082351Z 17003KT 10SM FEW120 OVC250 28/13 A3013 RMK AO2 SLP199 T02830133 10300 20283 55001",
      "metarObsTime": 1780962660,
      "faaFlow": null
    },
    "KAGC": {
      "status": "OK",
      "delay": "—",
      "metarCat": "VFR",
      "metarRaw": "METAR KAGC 082353Z 18004KT 10SM CLR 28/16 A3013 RMK AO2 SLP198 T02780156 10294 20278 55000",
      "metarObsTime": 1780962780,
      "faaFlow": null
    },
    "KLBE": {
      "status": "OK",
      "delay": "—",
      "metarCat": "VFR",
      "metarRaw": "METAR KLBE 082347Z 12010G18KT 15SM CLR 26/18 A3015",
      "metarObsTime": 1780962420,
      "faaFlow": null
    },
    "KJST": {
      "status": "OK",
      "delay": "—",
      "metarCat": "VFR",
      "metarRaw": "METAR KJST 082354Z AUTO 14006KT 10SM CLR 20/16 A3022 RMK AO2 SLP226 T02000156 10244 20200 53000",
      "metarObsTime": 1780962840,
      "faaFlow": null
    },
    "KERI": {
      "status": "OK",
      "delay": "—",
      "metarCat": "VFR",
      "metarRaw": "METAR KERI 082351Z 02005KT 10SM CLR 25/15 A3011 RMK AO2 SLP191 T02500150 10261 20233 55005 $",
      "metarObsTime": 1780962660,
      "faaFlow": null
    },
    "KDUJ": {
      "status": "OK",
      "delay": "—",
      "metarCat": "VFR",
      "metarRaw": "METAR KDUJ 082353Z AUTO 13007KT 10SM CLR 23/16 A3019 RMK AO2 SLP212 T02280156 10267 20228 53002",
      "metarObsTime": 1780962780,
      "faaFlow": null
    },
    "KBFD": {
      "status": "OK",
      "delay": "—",
      "metarCat": "VFR",
      "metarRaw": "METAR KBFD 082353Z AUTO 15006KT 10SM SCT060 23/15 A3021 RMK AO2 SLP218 T02280150 10267 20228 53004",
      "metarObsTime": 1780962780,
      "faaFlow": null
    },
    "KBTP": {
      "status": "OK",
      "delay": "—",
      "metarCat": "VFR",
      "metarRaw": "METAR KBTP 082356Z AUTO 12003KT 10SM CLR 27/15 A3015 RMK AO2 SLP206 6//// T02720150 10306 20272 53001 $",
      "metarObsTime": 1780962960,
      "faaFlow": null
    },
    "KFKL": {
      "status": "OK",
      "delay": "—",
      "metarCat": "VFR",
      "metarRaw": "METAR KFKL 082356Z AUTO 15004KT 9SM CLR 26/15 A3016 RMK AO2 SLP207 T02560150 10289 20256 55000",
      "metarObsTime": 1780962960,
      "faaFlow": null
    },
    "KIDI": {
      "status": "OK",
      "delay": "—",
      "metarCat": "VFR",
      "metarRaw": "METAR KIDI 082355Z AUTO 12004G13KT 10SM CLR 24/17 A3017 RMK A01",
      "metarObsTime": 1780962900,
      "faaFlow": null
    },
    "KMDT": {
      "status": "OK",
      "delay": "—",
      "metarCat": "VFR",
      "metarRaw": "METAR KMDT 082356Z 16009KT 10SM OVC044 23/15 A3023 RMK AO2 SLP236 T02280150 10250 20228 53001",
      "metarObsTime": 1780962960,
      "faaFlow": null
    },
    "KCXY": {
      "status": "OK",
      "delay": "—",
      "metarCat": "VFR",
      "metarRaw": "METAR KCXY 082356Z 16010KT 10SM OVC045 22/14 A3023 RMK AO2 SLP236 T02220144 10239 20222 50001",
      "metarObsTime": 1780962960,
      "faaFlow": null
    },
    "KMUI": {
      "status": "OK",
      "delay": "—",
      "metarCat": "VFR",
      "metarRaw": "METAR KMUI 082355Z 15003KT 10SM BKN042 25/17 A3022 RMK AO2A SLPNO T02450170 10260 20234 54000",
      "metarObsTime": 1780962900,
      "faaFlow": null
    },
    "KUNV": {
      "status": "OK",
      "delay": "—",
      "metarCat": "VFR",
      "metarRaw": "METAR KUNV 082353Z 13006KT 10SM SCT046 21/15 A3023",
      "metarObsTime": 1780962780,
      "faaFlow": null
    },
    "KAOO": {
      "status": "OK",
      "delay": "—",
      "metarCat": "VFR",
      "metarRaw": "METAR KAOO 082353Z AUTO 13007KT 10SM CLR 22/16 A3023 RMK AO2 SLP228 T02170156 10261 20217 53002",
      "metarObsTime": 1780962780,
      "faaFlow": null
    },
    "KLNS": {
      "status": "OK",
      "delay": "—",
      "metarCat": "VFR",
      "metarRaw": "METAR KLNS 082353Z 24007KT 10SM SCT044 21/14 A3025 RMK AO2 SLP240 T02110139 10239 20211 53001",
      "metarObsTime": 1780962780,
      "faaFlow": null
    },
    "KIPT": {
      "status": "OK",
      "delay": "—",
      "metarCat": "VFR",
      "metarRaw": "METAR KIPT 082354Z 00000KT 10SM OVC042 22/14 A3022 RMK AO2 SLP230 T02220144 10239 20217 55000 $",
      "metarObsTime": 1780962840,
      "faaFlow": null
    },
    "KPHL": {
      "status": "OK",
      "delay": "—",
      "metarCat": "VFR",
      "metarRaw": "METAR KPHL 082354Z 14009KT 10SM FEW055 FEW350 22/06 A3026 RMK AO2 SLP248 T02170056 10272 20217 51008 $",
      "metarObsTime": 1780962840,
      "faaFlow": null
    },
    "KABE": {
      "status": "OK",
      "delay": "—",
      "metarCat": "VFR",
      "metarRaw": "METAR KABE 082351Z 22007KT 10SM SCT050 22/12 A3024 RMK AO2 SLP237 T02220122 10250 20222 50000 $",
      "metarObsTime": 1780962660,
      "faaFlow": null
    },
    "KAVP": {
      "status": "OK",
      "delay": "—",
      "metarCat": "VFR",
      "metarRaw": "METAR KAVP 082354Z 21004KT 10SM FEW045 20/12 A3025 RMK AO2 SLP237 T02000122 10239 20200 53004",
      "metarObsTime": 1780962840,
      "faaFlow": null
    },
    "KHZL": {
      "status": "OK",
      "delay": "—",
      "metarCat": "VFR",
      "metarRaw": "METAR KHZL 082355Z AUTO 00000KT 10SM CLR 18/12 A3031 RMK AO2",
      "metarObsTime": 1780962900,
      "faaFlow": null
    }
  }
}