{
  "generatedAt": "2026-03-17T06:00:18.470Z",
  "airports": {
    "KPIT": {
      "status": "OK",
      "delay": "—",
      "metarCat": "MVFR",
      "metarRaw": "METAR KPIT 170551Z 27017G28KT 7SM -SN SCT008 BKN025 BKN060 M05/M07 A2968 RMK AO2 PK WND 25029/0511 SLP069 P0000 60014 T10501072 11017 21050 53028 $",
      "metarObsTime": 1773726660
    },
    "KAGC": {
      "status": "OK",
      "delay": "—",
      "metarCat": "LIFR",
      "metarRaw": "METAR KAGC 170553Z 27013G35KT 3/4SM R28/P6000FT -SN BR SCT021 BKN026 OVC031 M06/M08 A2968 RMK AO2 PK WND 25035/0545 SNB38 SLP065 P0000 60000 T10561078 11017 21056 53029 $",
      "metarObsTime": 1773726780
    },
    "KLBE": {
      "status": "OK",
      "delay": "—",
      "metarCat": "IFR",
      "metarRaw": "METAR KLBE 170555Z AUTO 23019G26KT 2SM -SN HZ SCT022 BKN032 OVC080 M04/M07 A2970 RMK AO2 VIS 1 1/4V4",
      "metarObsTime": 1773726900
    },
    "KJST": {
      "status": "OK",
      "delay": "—",
      "metarCat": "MVFR",
      "metarRaw": "METAR KJST 170554Z AUTO 25018G39KT 3SM UP BKN020 OVC027 M07/M10 A2956 RMK AO2 PK WND 27042/0513 UPE22B44 SLP021 P0000 60007 T10671100 11022 21067 53025",
      "metarObsTime": 1773726840
    },
    "KERI": {
      "status": "OK",
      "delay": "—",
      "metarCat": "LIFR",
      "metarRaw": "METAR KERI 170551Z AUTO 26021G39KT 1/2SM R06/3500VP6000FT SN OVC024 M06/M09 A2959 RMK AO2 PK WND 27041/0533 SNB0453 SLP028 P0000 60011 T10561089 11017 21056 53036 $",
      "metarObsTime": 1773726660
    },
    "KDUJ": {
      "status": "OK",
      "delay": "—",
      "metarCat": "IFR",
      "metarRaw": "METAR KDUJ 170553Z AUTO 25018G26KT 2SM HZ SCT025 OVC070 M06/M09 A2952 RMK AO2 PK WND 26031/0541 SNB10E24 SLP004 P0000 60005 T10611094 11028 21061 53019 TSNO",
      "metarObsTime": 1773726780
    },
    "KBFD": {
      "status": "OK",
      "delay": "—",
      "metarCat": "MVFR",
      "metarRaw": "METAR KBFD 170553Z AUTO 26010G24KT 220V280 9SM BKN022 OVC029 M06/M10 A2944 RMK AO2 PK WND 22026/0541 SLP979 60014 T10611100 11011 21061 51017",
      "metarObsTime": 1773726780
    },
    "KBTP": {
      "status": "OK",
      "delay": "—",
      "metarCat": "—",
      "metarRaw": "—",
      "metarObsTime": null
    },
    "KFKL": {
      "status": "OK",
      "delay": "—",
      "metarCat": "IFR",
      "metarRaw": "METAR KFKL 170556Z AUTO 27014G21KT 1 3/4SM -SN BR FEW011 BKN017 OVC022 M06/M08 A2958 RMK AO2 VIS 1V4 SLP034 P0000 60001 T10611083 11033 21061 51027 FZRANO",
      "metarObsTime": 1773726960
    },
    "KIDI": {
      "status": "OK",
      "delay": "—",
      "metarCat": "MVFR",
      "metarRaw": "METAR KIDI 170555Z AUTO 27017G26KT 9SM BKN023 BKN028 OVC036 M04/M07 A2963 RMK A01",
      "metarObsTime": 1773726900
    },
    "KMDT": {
      "status": "OK",
      "delay": "—",
      "metarCat": "VFR",
      "metarRaw": "METAR KMDT 170456Z 29009KT 10SM FEW024 SCT040 OVC050 02/M01 A2957 RMK AO2 SNE0359 PRESRR SLP014 P0000 T00171006 401830006",
      "metarObsTime": 1773723360
    },
    "KCXY": {
      "status": "OK",
      "delay": "—",
      "metarCat": "VFR",
      "metarRaw": "METAR KCXY 170456Z AUTO 28005KT 10SM SCT030 BKN039 OVC048 01/M01 A2957 RMK AO2 SNE0357 PRESRR SLP017 P0000 T00111006 401940006",
      "metarObsTime": 1773723360
    },
    "KMUI": {
      "status": "OK",
      "delay": "—",
      "metarCat": "MVFR",
      "metarRaw": "METAR KMUI 170555Z AUTO 25013G20KT 10SM BKN027 BKN031 OVC042 02/M02 A2957 RMK AO2 UPB35E44 CIG 025V030 SLP017 P0000 60030 T00161017 10174 20010 52050",
      "metarObsTime": 1773726900
    },
    "KUNV": {
      "status": "OK",
      "delay": "—",
      "metarCat": "VFR",
      "metarRaw": "METAR KUNV 170535Z AUTO 25016G25KT 10SM SCT029 BKN035 M03/M07 A2956 RMK AO2 T10261075",
      "metarObsTime": 1773725700
    },
    "KAOO": {
      "status": "OK",
      "delay": "—",
      "metarCat": "VFR",
      "metarRaw": "METAR KAOO 170553Z AUTO 28020G31KT 10SM BKN036 BKN046 OVC060 M03/M10 A2961 RMK AO2 PK WND 25037/0539 SNB25E36 SLP032 P0000 60001 T10331100 10006 21033 53038",
      "metarObsTime": 1773726780
    },
    "KLNS": {
      "status": "OK",
      "delay": "—",
      "metarCat": "VFR",
      "metarRaw": "METAR KLNS 170553Z AUTO 28010KT 10SM FEW024 SCT030 OVC041 01/M01 A2960 RMK AO2 SLP023 60030 T00111006 10167 20006 51050",
      "metarObsTime": 1773726780
    },
    "KIPT": {
      "status": "OK",
      "delay": "—",
      "metarCat": "VFR",
      "metarRaw": "METAR KIPT 170554Z AUTO 26011G20KT 10SM FEW049 M01/M04 A2955 RMK AO2 PK WND 25028/0507 SLP006 60061 T10111039 10078 21011 53033",
      "metarObsTime": 1773726840
    },
    "KPHL": {
      "status": "OK",
      "delay": "—",
      "metarCat": "VFR",
      "metarRaw": "METAR KPHL 170554Z 28017G31KT 7SM SCT030 SCT110 04/M01 A2960 RMK AO2 PK WND 28036/0506 RAE32 SLP023 P0000 60011 T00391006 10172 20039 51115 $",
      "metarObsTime": 1773726840
    },
    "KABE": {
      "status": "OK",
      "delay": "—",
      "metarCat": "VFR",
      "metarRaw": "METAR KABE 170551Z 26015G23KT 10SM FEW025 SCT031 BKN110 02/M01 A2952 RMK AO2 RAE28 SLP997 P0001 60019 T00171006 10172 20017 51071 $",
      "metarObsTime": 1773726660
    },
    "KAVP": {
      "status": "OK",
      "delay": "—",
      "metarCat": "MVFR",
      "metarRaw": "METAR KAVP 170554Z 24013KT 9SM FEW004 SCT018 BKN024 00/M01 A2947 RMK AO2 SNE30B40E51 SLP978 P0002 60088 T00001006 10167 20000 51050",
      "metarObsTime": 1773726840
    },
    "KHZL": {
      "status": "OK",
      "delay": "—",
      "metarCat": "IFR",
      "metarRaw": "METAR KHZL 170535Z AUTO 28006G18KT 10SM OVC007 M01/M02 RMK AO2",
      "metarObsTime": 1773725700
    }
  }
}