{
  "generatedAt": "2026-03-21T02:20:16.021Z",
  "airports": {
    "KPIT": {
      "status": "OK",
      "delay": "—",
      "metarCat": "VFR",
      "metarRaw": "METAR KPIT 210151Z 04004KT 10SM -TSRA BKN055CB BKN090 13/09 A2976 RMK AO2 RAB08 SLP083 OCNL LTGICCG N TS N MOV E P0000 T01330094 $",
      "metarObsTime": 1774057860
    },
    "KAGC": {
      "status": "OK",
      "delay": "—",
      "metarCat": "VFR",
      "metarRaw": "METAR KAGC 210153Z 02004KT 10SM VCTS BKN060 BKN080 BKN120 12/09 A2975 RMK AO2 LTG DSNT NW-E SLP080 T01220094",
      "metarObsTime": 1774057980
    },
    "KLBE": {
      "status": "OK",
      "delay": "—",
      "metarCat": "MVFR",
      "metarRaw": "METAR KLBE 210215Z AUTO 34004KT 4SM +TSRA BR FEW007 SCT033 BKN047 11/11 A2980 RMK AO2 LTG DSNT ALQDS",
      "metarObsTime": 1774059300
    },
    "KJST": {
      "status": "OK",
      "delay": "—",
      "metarCat": "VFR",
      "metarRaw": "METAR KJST 210154Z AUTO 24006KT 10SM -RA FEW034 BKN040 OVC049 12/08 A2978 RMK AO2 LTG DSNT W RAE07B47 SLP085 P0001 T01170078",
      "metarObsTime": 1774058040
    },
    "KERI": {
      "status": "OK",
      "delay": "—",
      "metarCat": "MVFR",
      "metarRaw": "METAR KERI 210151Z 28003KT 6SM BR OVC016 06/04 A2981 RMK AO2 SLP097 T00610039",
      "metarObsTime": 1774057860
    },
    "KDUJ": {
      "status": "OK",
      "delay": "—",
      "metarCat": "VFR",
      "metarRaw": "METAR KDUJ 210153Z AUTO 25005KT 10SM FEW042 BKN065 09/08 A2975 RMK AO2 SLP078 T00890078",
      "metarObsTime": 1774057980
    },
    "KBFD": {
      "status": "OK",
      "delay": "—",
      "metarCat": "IFR",
      "metarRaw": "SPECI KBFD 210200Z AUTO 30006KT 6SM BR OVC008 08/08 A2976 RMK AO2 CIG 006V013 T00830078",
      "metarObsTime": 1774058400
    },
    "KBTP": {
      "status": "OK",
      "delay": "—",
      "metarCat": "VFR",
      "metarRaw": "METAR KBTP 210156Z AUTO 00000KT 10SM CLR 10/10 A2977 RMK AO2 LTG DSNT SE-SW SLP089 T01000100 $",
      "metarObsTime": 1774058160
    },
    "KFKL": {
      "status": "OK",
      "delay": "—",
      "metarCat": "VFR",
      "metarRaw": "METAR KFKL 210156Z AUTO VRB05KT 10SM CLR 09/08 A2980 RMK AO2 SLP093 T00890078",
      "metarObsTime": 1774058160
    },
    "KIDI": {
      "status": "OK",
      "delay": "—",
      "metarCat": "VFR",
      "metarRaw": "METAR KIDI 210215Z AUTO 00000KT 10SM OVC047 10/09 A2977 RMK A01",
      "metarObsTime": 1774059300
    },
    "KMDT": {
      "status": "OK",
      "delay": "—",
      "metarCat": "VFR",
      "metarRaw": "METAR KMDT 210156Z 22008KT 10SM -RA BKN070 OVC080 12/10 A2977 RMK AO2 SLP082 P0001 T01220100",
      "metarObsTime": 1774058160
    },
    "KCXY": {
      "status": "OK",
      "delay": "—",
      "metarCat": "VFR",
      "metarRaw": "METAR KCXY 210156Z AUTO 31004KT 10SM BKN070 OVC090 13/11 A2977 RMK AO2 RAE09B27E45 SLP083 P0000 T01280106",
      "metarObsTime": 1774058160
    },
    "KMUI": {
      "status": "OK",
      "delay": "—",
      "metarCat": "LIFR",
      "metarRaw": "SPECI KMUI 210211Z AUTO 00000KT 3/4SM BR OVC060 11/11 A2976 RMK AO2 VIS 3/4V1 7/8 SLP082 RVRNO",
      "metarObsTime": 1774059060
    },
    "KUNV": {
      "status": "OK",
      "delay": "—",
      "metarCat": "VFR",
      "metarRaw": "METAR KUNV 210215Z AUTO 23005KT 10SM OVC060 11/10 A2976 RMK AO2 LTG DSNT SW T01050104",
      "metarObsTime": 1774059300
    },
    "KAOO": {
      "status": "OK",
      "delay": "—",
      "metarCat": "VFR",
      "metarRaw": "METAR KAOO 210153Z AUTO 23005KT 10SM FEW075 11/08 A2977 RMK AO2 RAB0054E10 SLP081 P0000 T01060078",
      "metarObsTime": 1774057980
    },
    "KLNS": {
      "status": "OK",
      "delay": "—",
      "metarCat": "MVFR",
      "metarRaw": "METAR KLNS 210153Z 00000KT 5SM BR BKN090 OVC100 10/09 A2978 RMK AO2 RAE22 SLP086 P0001 T01000094",
      "metarObsTime": 1774057980
    },
    "KIPT": {
      "status": "OK",
      "delay": "—",
      "metarCat": "IFR",
      "metarRaw": "METAR KIPT 210154Z 00000KT 1 1/2SM BR OVC047 07/07 A2977 RMK AO2 RAE0056 SLP083 P0001 T00720072 $",
      "metarObsTime": 1774058040
    },
    "KPHL": {
      "status": "OK",
      "delay": "—",
      "metarCat": "VFR",
      "metarRaw": "METAR KPHL 210154Z 19006KT 10SM -RA BKN050 OVC060 12/09 A2981 RMK AO2 SLP093 P0005 T01170089 $",
      "metarObsTime": 1774058040
    },
    "KABE": {
      "status": "OK",
      "delay": "—",
      "metarCat": "MVFR",
      "metarRaw": "SPECI KABE 210210Z 30004KT 5SM -RA BR SCT009 BKN012 OVC037 10/09 A2978 RMK AO2 P0001 T01000089 $",
      "metarObsTime": 1774059000
    },
    "KAVP": {
      "status": "OK",
      "delay": "—",
      "metarCat": "IFR",
      "metarRaw": "METAR KAVP 210154Z 22004KT 5SM BR OVC008 10/09 A2976 RMK AO2 RAE20 SLP080 P0004 T01000094",
      "metarObsTime": 1774058040
    },
    "KHZL": {
      "status": "OK",
      "delay": "—",
      "metarCat": "IFR",
      "metarRaw": "METAR KHZL 210215Z AUTO 00000KT 10SM -RA OVC005 10/08 A2980 RMK AO2",
      "metarObsTime": 1774059300
    }
  }
}