{
  "generatedAt": "2026-03-10T15:40:18.916Z",
  "airports": {
    "KPIT": {
      "status": "OK",
      "delay": "—",
      "metarCat": "MVFR",
      "metarRaw": "METAR KPIT 101451Z 22010KT 10SM BKN025 OVC035 18/09 A3001 RMK AO2 SLP168 T01780089 51007",
      "metarObsTime": 1773154260
    },
    "KAGC": {
      "status": "OK",
      "delay": "—",
      "metarCat": "MVFR",
      "metarRaw": "METAR KAGC 101453Z 19008KT 10SM OVC027 17/06 A3002 RMK AO2 SLP167 T01670061 51005",
      "metarObsTime": 1773154380
    },
    "KLBE": {
      "status": "OK",
      "delay": "—",
      "metarCat": "MVFR",
      "metarRaw": "METAR KLBE 101455Z 21015G22KT 10SM BKN027 OVC031 19/11 A3004",
      "metarObsTime": 1773154500
    },
    "KJST": {
      "status": "OK",
      "delay": "—",
      "metarCat": "MVFR",
      "metarRaw": "METAR KJST 101454Z AUTO 21006KT 10SM OVC029 16/09 A3004 RMK AO2 SLP169 T01610094 50003",
      "metarObsTime": 1773154440
    },
    "KERI": {
      "status": "OK",
      "delay": "—",
      "metarCat": "VFR",
      "metarRaw": "SPECI KERI 101528Z 20011KT 10SM FEW026 BKN032 OVC047 20/12 A2993 RMK AO2 T02000122",
      "metarObsTime": 1773156480
    },
    "KDUJ": {
      "status": "OK",
      "delay": "—",
      "metarCat": "MVFR",
      "metarRaw": "METAR KDUJ 101453Z AUTO 22008KT 10SM OVC024 16/07 A3000 RMK AO2 SLP158 T01560067 51006",
      "metarObsTime": 1773154380
    },
    "KBFD": {
      "status": "OK",
      "delay": "—",
      "metarCat": "VFR",
      "metarRaw": "SPECI KBFD 101532Z AUTO 22008G17KT 10SM SCT017 BKN046 15/08 A3000 RMK AO2 T01500083",
      "metarObsTime": 1773156720
    },
    "KBTP": {
      "status": "OK",
      "delay": "—",
      "metarCat": "MVFR",
      "metarRaw": "METAR KBTP 101456Z AUTO 19007KT 10SM SCT020 OVC025 17/08 A3002 RMK AO2 SLP169 T01670078 51007 $",
      "metarObsTime": 1773154560
    },
    "KFKL": {
      "status": "OK",
      "delay": "—",
      "metarCat": "VFR",
      "metarRaw": "METAR KFKL 101456Z AUTO 23010G15KT 10SM OVC048 17/11 A2999 RMK AO2 SLP154 T01720106 50001",
      "metarObsTime": 1773154560
    },
    "KIDI": {
      "status": "OK",
      "delay": "—",
      "metarCat": "MVFR",
      "metarRaw": "METAR KIDI 101535Z AUTO 23013G21KT 10SM BKN024 OVC032 17/10 A3004 RMK A01",
      "metarObsTime": 1773156900
    },
    "KMDT": {
      "status": "OK",
      "delay": "—",
      "metarCat": "VFR",
      "metarRaw": "METAR KMDT 101456Z 00000KT 10SM FEW250 12/05 A3004 RMK AO2 SLP172 T01220050 58001",
      "metarObsTime": 1773154560
    },
    "KCXY": {
      "status": "OK",
      "delay": "—",
      "metarCat": "VFR",
      "metarRaw": "METAR KCXY 101456Z 00000KT 10SM CLR 15/06 A3004 RMK AO2 SLP175 T01500056 50000",
      "metarObsTime": 1773154560
    },
    "KMUI": {
      "status": "OK",
      "delay": "—",
      "metarCat": "VFR",
      "metarRaw": "METAR KMUI 101455Z 00000KT 10SM FEW048 SCT250 17/07 A3003 RMK AO2A SLP172 T01670065 50000",
      "metarObsTime": 1773154500
    },
    "KUNV": {
      "status": "OK",
      "delay": "—",
      "metarCat": "VFR",
      "metarRaw": "METAR KUNV 101453Z 20005KT 10SM SCT050 18/04 A3002",
      "metarObsTime": 1773154380
    },
    "KAOO": {
      "status": "OK",
      "delay": "—",
      "metarCat": "—",
      "metarRaw": "—",
      "metarObsTime": null
    },
    "KLNS": {
      "status": "OK",
      "delay": "—",
      "metarCat": "VFR",
      "metarRaw": "METAR KLNS 101453Z 00000KT 10SM CLR 16/08 A3005 RMK AO2 SLP174 T01560083 50000",
      "metarObsTime": 1773154380
    },
    "KIPT": {
      "status": "OK",
      "delay": "—",
      "metarCat": "VFR",
      "metarRaw": "METAR KIPT 101454Z 15003KT 10SM BKN037 10/03 A3002 RMK AO2 SLP168 6//// T01000028 58001 PNO $",
      "metarObsTime": 1773154440
    },
    "KPHL": {
      "status": "OK",
      "delay": "—",
      "metarCat": "VFR",
      "metarRaw": "METAR KPHL 101454Z 00000KT 10SM FEW060 BKN270 17/11 A3006 RMK AO2 SLP178 T01670106 50004 $",
      "metarObsTime": 1773154440
    },
    "KABE": {
      "status": "OK",
      "delay": "—",
      "metarCat": "—",
      "metarRaw": "METAR KABE 101451Z AUTO 15/07 A3005 RMK AO2 SLP175 T01500067 50001 PWINO $",
      "metarObsTime": 1773154260
    },
    "KAVP": {
      "status": "OK",
      "delay": "—",
      "metarCat": "VFR",
      "metarRaw": "METAR KAVP 101454Z 24008KT 10SM BKN040 16/03 A3003 RMK AO2 SLP165 T01610028 50003",
      "metarObsTime": 1773154440
    },
    "KHZL": {
      "status": "OK",
      "delay": "—",
      "metarCat": "VFR",
      "metarRaw": "METAR KHZL 101535Z AUTO 19004KT 10SM BKN047 22/02 A3006 RMK AO2",
      "metarObsTime": 1773156900
    }
  }
}