{
  "generatedAt": "2026-04-26T19:01:03.874Z",
  "faaFlow": {
    "updatedAt": "2026-04-26T19:01:03.245Z",
    "source": "https://www.fly.faa.gov/adv/adv_spt",
    "terminal": [
      {
        "time": "—",
        "text": "AFTER",
        "code": "FLOW",
        "label": "FAA flow impact",
        "level": "yellow",
        "section": "Terminal Planned",
        "airports": []
      },
      {
        "time": "1900",
        "text": "MIA/PBI/FLL GROUND STOP/DELAY PROGRAM POSSIBLE",
        "code": "GS",
        "label": "Ground stop possible",
        "level": "yellow",
        "section": "Terminal Planned",
        "airports": []
      },
      {
        "time": "—",
        "text": "AFTER",
        "code": "FLOW",
        "label": "FAA flow impact",
        "level": "yellow",
        "section": "Terminal Planned",
        "airports": []
      },
      {
        "time": "1900",
        "text": "DEN GROUND STOP/DELAY PROGRAM POSSIBLE",
        "code": "GS",
        "label": "Ground stop possible",
        "level": "yellow",
        "section": "Terminal Planned",
        "airports": []
      },
      {
        "time": "—",
        "text": "AFTER",
        "code": "FLOW",
        "label": "FAA flow impact",
        "level": "yellow",
        "section": "Terminal Planned",
        "airports": []
      },
      {
        "time": "2200",
        "text": "SFO GROUND STOP/DELAY PROGRAM POSSIBLE",
        "code": "GS",
        "label": "Ground stop possible",
        "level": "yellow",
        "section": "Terminal Planned",
        "airports": []
      }
    ],
    "enroute": [
      {
        "time": "—",
        "text": "UNTIL",
        "code": "FLOW",
        "label": "FAA flow impact",
        "level": "yellow",
        "section": "En Route Planned",
        "airports": []
      },
      {
        "time": "2300",
        "text": "DEN CDRS/SWAP/ARRIVAL ROUTES PROBABLE",
        "code": "ROUTE",
        "label": "Route impact possible",
        "level": "orange",
        "section": "En Route Planned",
        "airports": []
      },
      {
        "time": "—",
        "text": "UNTIL",
        "code": "FLOW",
        "label": "FAA flow impact",
        "level": "yellow",
        "section": "En Route Planned",
        "airports": []
      },
      {
        "time": "2300",
        "text": "AR/Y/OCEANIC ROUTE CLOSURES PROBABLE CDRS/SWAP/CAPPING/TUNNELING/HOTLINE/DIVERSION RECOVERY:",
        "code": "CLOSURE",
        "label": "Closure possible",
        "level": "orange",
        "section": "En Route Planned",
        "airports": []
      },
      {
        "time": "—",
        "text": "UNTIL",
        "code": "FLOW",
        "label": "FAA flow impact",
        "level": "yellow",
        "section": "En Route Planned",
        "airports": []
      },
      {
        "time": "1900",
        "text": "AR/ATLANTIC/Y ROUTE TUNNELING RUNWAY/EQUIPMENT/POSSIBLE SYSTEM IMPACT REPORTS(SIRs): DFW - TXY G CLOSURE UNTIL 4/30/26",
        "code": "CLOSURE",
        "label": "Closure possible",
        "level": "yellow",
        "section": "En Route Planned",
        "airports": []
      },
      {
        "time": "—",
        "text": "2026",
        "code": "FLOW",
        "label": "FAA flow impact",
        "level": "yellow",
        "section": "En Route Planned",
        "airports": []
      },
      {
        "time": "2026",
        "text": "HOU - PROCEDURAL ADJUSTMENT UNTIL 05/31/26",
        "code": "FLOW",
        "label": "FAA flow impact",
        "level": "yellow",
        "section": "En Route Planned",
        "airports": []
      }
    ],
    "airports": {
      "KPIT": null,
      "KAGC": null,
      "KLBE": null,
      "KJST": null,
      "KERI": null,
      "KDUJ": null,
      "KBFD": null,
      "KBTP": null,
      "KFKL": null,
      "KIDI": null,
      "KMDT": null,
      "KCXY": null,
      "KMUI": null,
      "KUNV": null,
      "KAOO": null,
      "KLNS": null,
      "KIPT": null,
      "KPHL": null,
      "KABE": null,
      "KAVP": null,
      "KHZL": null
    }
  },
  "airports": {
    "KPIT": {
      "status": "OK",
      "delay": "—",
      "metarCat": "MVFR",
      "metarRaw": "METAR KPIT 261851Z 10004G15KT 10SM BKN027 14/07 A3010 RMK AO2 SLP202 T01390067",
      "metarObsTime": 1777229460,
      "faaFlow": null
    },
    "KAGC": {
      "status": "OK",
      "delay": "—",
      "metarCat": "VFR",
      "metarRaw": "METAR KAGC 261853Z VRB04KT 10SM SCT024 13/07 A3010 RMK AO2 SLP200 T01280067",
      "metarObsTime": 1777229580,
      "faaFlow": null
    },
    "KLBE": {
      "status": "OK",
      "delay": "—",
      "metarCat": "VFR",
      "metarRaw": "METAR KLBE 261847Z 01010KT 20SM SCT025 14/08 A3012",
      "metarObsTime": 1777229220,
      "faaFlow": null
    },
    "KJST": {
      "status": "OK",
      "delay": "—",
      "metarCat": "MVFR",
      "metarRaw": "METAR KJST 261854Z AUTO VRB06KT 10SM OVC012 07/04 A3011 RMK AO2 SLP205 T00720044",
      "metarObsTime": 1777229640,
      "faaFlow": null
    },
    "KERI": {
      "status": "OK",
      "delay": "—",
      "metarCat": "VFR",
      "metarRaw": "METAR KERI 261851Z 04013KT 10SM CLR 11/06 A3014 RMK AO2 SLP210 T01110056",
      "metarObsTime": 1777229460,
      "faaFlow": null
    },
    "KDUJ": {
      "status": "OK",
      "delay": "—",
      "metarCat": "MVFR",
      "metarRaw": "METAR KDUJ 261853Z AUTO 06007KT 030V100 10SM OVC019 10/05 A3012 RMK AO2 SLP205 T01000050",
      "metarObsTime": 1777229580,
      "faaFlow": null
    },
    "KBFD": {
      "status": "OK",
      "delay": "—",
      "metarCat": "VFR",
      "metarRaw": "METAR KBFD 261853Z AUTO 00000KT 10SM FEW023 10/04 A3013 RMK AO2 SLP207 T01000039 $",
      "metarObsTime": 1777229580,
      "faaFlow": null
    },
    "KBTP": {
      "status": "OK",
      "delay": "—",
      "metarCat": "MVFR",
      "metarRaw": "METAR KBTP 261856Z AUTO 09008KT 10SM OVC024 12/07 A3013 RMK AO2 SLP211 T01220072 $",
      "metarObsTime": 1777229760,
      "faaFlow": null
    },
    "KFKL": {
      "status": "OK",
      "delay": "—",
      "metarCat": "—",
      "metarRaw": "—",
      "metarObsTime": null,
      "faaFlow": null
    },
    "KIDI": {
      "status": "OK",
      "delay": "—",
      "metarCat": "MVFR",
      "metarRaw": "METAR KIDI 261855Z AUTO 04008G14KT 010V080 10SM OVC021 11/06 A3013 RMK A01",
      "metarObsTime": 1777229700,
      "faaFlow": null
    },
    "KMDT": {
      "status": "OK",
      "delay": "—",
      "metarCat": "VFR",
      "metarRaw": "METAR KMDT 261856Z 00000KT 10SM OVC034 13/05 A3011 RMK AO2 SLP199 T01280050",
      "metarObsTime": 1777229760,
      "faaFlow": null
    },
    "KCXY": {
      "status": "OK",
      "delay": "—",
      "metarCat": "VFR",
      "metarRaw": "METAR KCXY 261856Z VRB03KT 10SM OVC037 13/06 A3012 RMK AO2 SLP202 T01330056",
      "metarObsTime": 1777229760,
      "faaFlow": null
    },
    "KMUI": {
      "status": "OK",
      "delay": "—",
      "metarCat": "VFR",
      "metarRaw": "SPECI KMUI 261803Z AUTO 06005KT 10SM OVC031 16/10 A3010 RMK AO2 SLP196",
      "metarObsTime": 1777226580,
      "faaFlow": null
    },
    "KUNV": {
      "status": "OK",
      "delay": "—",
      "metarCat": "VFR",
      "metarRaw": "METAR KUNV 261853Z 04007KT 10SM OVC031 12/05 A3013",
      "metarObsTime": 1777229580,
      "faaFlow": null
    },
    "KAOO": {
      "status": "OK",
      "delay": "—",
      "metarCat": "MVFR",
      "metarRaw": "METAR KAOO 261853Z AUTO 03007KT 10SM OVC017 08/04 A3014 RMK AO2 SLP212 T00830039",
      "metarObsTime": 1777229580,
      "faaFlow": null
    },
    "KLNS": {
      "status": "OK",
      "delay": "—",
      "metarCat": "VFR",
      "metarRaw": "METAR KLNS 261853Z 07006KT 10SM OVC036 13/07 A3010 RMK AO2 SLP195 T01330067",
      "metarObsTime": 1777229580,
      "faaFlow": null
    },
    "KIPT": {
      "status": "OK",
      "delay": "—",
      "metarCat": "VFR",
      "metarRaw": "METAR KIPT 261854Z 35008KT 10SM OVC042 14/04 A3012 RMK AO2 SLP202 T01390044 $",
      "metarObsTime": 1777229640,
      "faaFlow": null
    },
    "KPHL": {
      "status": "OK",
      "delay": "—",
      "metarCat": "MVFR",
      "metarRaw": "METAR KPHL 261854Z 07008G16KT 10SM OVC024 13/06 A3012 RMK AO2 SLP198 T01280056 $",
      "metarObsTime": 1777229640,
      "faaFlow": null
    },
    "KABE": {
      "status": "OK",
      "delay": "—",
      "metarCat": "VFR",
      "metarRaw": "METAR KABE 261851Z 07007KT 10SM OVC045 14/05 A3010 RMK AO2 SLP194 T01440050 $",
      "metarObsTime": 1777229460,
      "faaFlow": null
    },
    "KAVP": {
      "status": "OK",
      "delay": "—",
      "metarCat": "VFR",
      "metarRaw": "METAR KAVP 261854Z 36008KT 10SM OVC050 15/04 A3010 RMK AO2 SLP192 T01500044",
      "metarObsTime": 1777229640,
      "faaFlow": null
    },
    "KHZL": {
      "status": "OK",
      "delay": "—",
      "metarCat": "VFR",
      "metarRaw": "METAR KHZL 261855Z AUTO 33005KT 10SM SCT035 OVC040 13/03 A3013 RMK AO2",
      "metarObsTime": 1777229700,
      "faaFlow": null
    }
  }
}