{
  "generatedAt": "2026-04-03T12:20:30.585Z",
  "airports": {
    "KPIT": {
      "status": "OK",
      "delay": "—",
      "metarCat": "VFR",
      "metarRaw": "METAR KPIT 031151Z 22008G17KT 10SM -RA FEW018 BKN055 OVC100 19/14 A3011 RMK AO2 SLP196 P0002 60003 70004 T01890144 10211 20183 53019 $",
      "metarObsTime": 1775217060
    },
    "KAGC": {
      "status": "OK",
      "delay": "—",
      "metarCat": "VFR",
      "metarRaw": "METAR KAGC 031153Z 19006KT 10SM OVC090 19/13 A3011 RMK AO2 RAB10E31 SLP195 P0000 60000 70004 T01890133 10200 20167 53016",
      "metarObsTime": 1775217180
    },
    "KLBE": {
      "status": "OK",
      "delay": "—",
      "metarCat": "VFR",
      "metarRaw": "METAR KLBE 031153Z 20010G18KT 10SM FEW050 OVC065 20/14 A3014",
      "metarObsTime": 1775217180
    },
    "KJST": {
      "status": "OK",
      "delay": "—",
      "metarCat": "VFR",
      "metarRaw": "METAR KJST 031154Z AUTO 18008KT 10SM CLR 12/09 A3017 RMK AO2 SLP219 T01220094 10122 20100 53003",
      "metarObsTime": 1775217240
    },
    "KERI": {
      "status": "OK",
      "delay": "—",
      "metarCat": "VFR",
      "metarRaw": "METAR KERI 031151Z 20017G25KT 10SM FEW065 19/14 A2997 RMK AO2 PK WND 19026/1132 RAE1056 SLP150 P0000 60017 70019 T01940144 10200 20167 51012",
      "metarObsTime": 1775217060
    },
    "KDUJ": {
      "status": "OK",
      "delay": "—",
      "metarCat": "VFR",
      "metarRaw": "METAR KDUJ 031153Z AUTO 06003KT 10SM SCT044 BKN060 BKN080 10/09 A3013 RMK AO2 SLP202 70004 T01000089 10106 20100 53006",
      "metarObsTime": 1775217180
    },
    "KBFD": {
      "status": "OK",
      "delay": "—",
      "metarCat": "VFR",
      "metarRaw": "METAR KBFD 031153Z AUTO VRB06G16KT 10SM BKN046 BKN065 OVC110 11/09 A3009 RMK AO2 SLP192 60000 T01060089 10106 20089 53001",
      "metarObsTime": 1775217180
    },
    "KBTP": {
      "status": "OK",
      "delay": "—",
      "metarCat": "VFR",
      "metarRaw": "METAR KBTP 031156Z AUTO 21008KT 10SM -RA FEW043 BKN060 OVC090 17/17 A3013 RMK AO2 SLP201 P0002 60002 70002 T01720172 10189 20167 53020 $",
      "metarObsTime": 1775217360
    },
    "KFKL": {
      "status": "OK",
      "delay": "—",
      "metarCat": "VFR",
      "metarRaw": "METAR KFKL 031156Z AUTO 21011G18KT 10SM BKN037 OVC045 17/14 A3009 RMK AO2 RAB15E42 SLP183 P0001 60001 70005 T01720139 10172 20144 53013",
      "metarObsTime": 1775217360
    },
    "KIDI": {
      "status": "OK",
      "delay": "—",
      "metarCat": "VFR",
      "metarRaw": "METAR KIDI 031215Z AUTO 00000KT 10SM BKN046 OVC100 18/13 A3014 RMK A01",
      "metarObsTime": 1775218500
    },
    "KMDT": {
      "status": "OK",
      "delay": "—",
      "metarCat": "LIFR",
      "metarRaw": "METAR KMDT 031156Z 11005KT 1SM R13/5500VP6000FT BR OVC004 06/06 A3030 RMK AO2 SLP262 T00610061 10067 20061 56002 $",
      "metarObsTime": 1775217360
    },
    "KCXY": {
      "status": "OK",
      "delay": "—",
      "metarCat": "IFR",
      "metarRaw": "METAR KCXY 031156Z 11006KT 1 1/2SM R08/6000VP6000FT BR OVC005 06/06 A3030 RMK AO2 SLP263 T00610056 10061 20061 58001",
      "metarObsTime": 1775217360
    },
    "KMUI": {
      "status": "OK",
      "delay": "—",
      "metarCat": "LIFR",
      "metarRaw": "METAR KMUI 031156Z 00000KT 1SM BR OVC003 06/06 A3029 RMK AO2A SLP263 70003 T00590056 10060 20054 55001",
      "metarObsTime": 1775217360
    },
    "KUNV": {
      "status": "OK",
      "delay": "—",
      "metarCat": "LIFR",
      "metarRaw": "METAR KUNV 031153Z 21005KT 2 1/2SM -DZ BR OVC004 07/07 A3021",
      "metarObsTime": 1775217180
    },
    "KAOO": {
      "status": "OK",
      "delay": "—",
      "metarCat": "LIFR",
      "metarRaw": "SPECI KAOO 031202Z AUTO 19005KT 8SM OVC003 09/08 A3022 RMK AO2 T00890083",
      "metarObsTime": 1775217720
    },
    "KLNS": {
      "status": "OK",
      "delay": "—",
      "metarCat": "LIFR",
      "metarRaw": "METAR KLNS 031153Z 13005KT 1 3/4SM BR OVC003 06/06 A3031 RMK AO2 SLP265 T00610056 10061 20056 58002",
      "metarObsTime": 1775217180
    },
    "KIPT": {
      "status": "OK",
      "delay": "—",
      "metarCat": "IFR",
      "metarRaw": "METAR KIPT 031154Z 07011KT 4SM BR OVC008 06/05 A3025 RMK AO2 SLP245 T00610050 10061 20056 58004",
      "metarObsTime": 1775217240
    },
    "KPHL": {
      "status": "OK",
      "delay": "—",
      "metarCat": "LIFR",
      "metarRaw": "METAR KPHL 031154Z 03004KT 1 3/4SM -DZ BR OVC004 07/06 A3034 RMK AO2 SLP274 CIG 003V005 P0000 60000 T00720061 10072 20067 55001 $",
      "metarObsTime": 1775217240
    },
    "KABE": {
      "status": "OK",
      "delay": "—",
      "metarCat": "LIFR",
      "metarRaw": "SPECI KABE 031214Z 00000KT 2SM BR OVC004 05/04 A3032 RMK AO2 T00500044 $",
      "metarObsTime": 1775218440
    },
    "KAVP": {
      "status": "OK",
      "delay": "—",
      "metarCat": "MVFR",
      "metarRaw": "METAR KAVP 031154Z 24006KT 10SM OVC013 06/04 A3025 RMK AO2 SLP248 T00610044 10067 20056 55005",
      "metarObsTime": 1775217240
    },
    "KHZL": {
      "status": "OK",
      "delay": "—",
      "metarCat": "LIFR",
      "metarRaw": "METAR KHZL 031155Z AUTO 00000KT 3/4SM -DZ OVC002 04/03 A3028 RMK AO2",
      "metarObsTime": 1775217300
    }
  }
}