{
  "generatedAt": "2026-04-03T03:50:43.275Z",
  "airports": {
    "KPIT": {
      "status": "OK",
      "delay": "—",
      "metarCat": "VFR",
      "metarRaw": "METAR KPIT 030251Z 14009KT 10SM SCT075 BKN100 20/14 A3005 RMK AO2 SLP178 60000 T02000144 50007",
      "metarObsTime": 1775184660
    },
    "KAGC": {
      "status": "OK",
      "delay": "—",
      "metarCat": "VFR",
      "metarRaw": "METAR KAGC 030253Z 14009KT 10SM -RA FEW040 BKN110 18/14 A3006 RMK AO2 SLP182 P0003 60004 T01780144 50008",
      "metarObsTime": 1775184780
    },
    "KLBE": {
      "status": "OK",
      "delay": "—",
      "metarCat": "VFR",
      "metarRaw": "METAR KLBE 030335Z AUTO VRB05G11KT 10SM FEW090 SCT120 17/13 A3013 RMK AO2",
      "metarObsTime": 1775187300
    },
    "KJST": {
      "status": "OK",
      "delay": "—",
      "metarCat": "LIFR",
      "metarRaw": "SPECI KJST 030332Z AUTO 16006G15KT 2 1/2SM BR OVC002 10/10 A3020 RMK AO2 T01000100",
      "metarObsTime": 1775187120
    },
    "KERI": {
      "status": "OK",
      "delay": "—",
      "metarCat": "VFR",
      "metarRaw": "METAR KERI 030251Z 15013G25KT 10SM CLR 19/13 A2995 RMK AO2 PK WND 17030/0220 SLP142 T01940133 56012 $",
      "metarObsTime": 1775184660
    },
    "KDUJ": {
      "status": "OK",
      "delay": "—",
      "metarCat": "IFR",
      "metarRaw": "METAR KDUJ 030253Z AUTO 12012G17KT 8SM OVC006 12/10 A3015 RMK AO2 SLP210 T01170100 53006",
      "metarObsTime": 1775184780
    },
    "KBFD": {
      "status": "OK",
      "delay": "—",
      "metarCat": "LIFR",
      "metarRaw": "SPECI KBFD 030343Z AUTO 16009G21KT 7SM OVC003 09/09 A3015 RMK AO2 RAB07E27 P0000 T00940089",
      "metarObsTime": 1775187780
    },
    "KBTP": {
      "status": "OK",
      "delay": "—",
      "metarCat": "VFR",
      "metarRaw": "METAR KBTP 030256Z AUTO 13010KT 10SM BKN085 BKN100 18/15 A3008 RMK AO2 SLP189 60000 T01830150 53012 $",
      "metarObsTime": 1775184960
    },
    "KFKL": {
      "status": "OK",
      "delay": "—",
      "metarCat": "VFR",
      "metarRaw": "METAR KFKL 030256Z AUTO 14013G19KT 10SM CLR 14/13 A3006 RMK AO2 RAE11 SLP183 P0000 60003 T01440128 50004",
      "metarObsTime": 1775184960
    },
    "KIDI": {
      "status": "OK",
      "delay": "—",
      "metarCat": "VFR",
      "metarRaw": "METAR KIDI 030335Z AUTO 15007G17KT 10SM FEW018 SCT055 BKN075 15/12 A3016 RMK A01",
      "metarObsTime": 1775187300
    },
    "KMDT": {
      "status": "OK",
      "delay": "—",
      "metarCat": "IFR",
      "metarRaw": "SPECI KMDT 030303Z 12012KT 4SM BR OVC006 06/06 A3036 RMK AO2 CIG 004V010 T00610056",
      "metarObsTime": 1775185380
    },
    "KCXY": {
      "status": "OK",
      "delay": "—",
      "metarCat": "IFR",
      "metarRaw": "METAR KCXY 030256Z AUTO 11005KT 3SM BR OVC007 07/06 A3036 RMK AO2 CIG 004V008 SLP285 T00670056 51008",
      "metarObsTime": 1775184960
    },
    "KMUI": {
      "status": "OK",
      "delay": "—",
      "metarCat": "LIFR",
      "metarRaw": "SPECI KMUI 030327Z AUTO 08009KT 5SM BR OVC004 06/06 A3035 RMK AO2 SLP283",
      "metarObsTime": 1775186820
    },
    "KUNV": {
      "status": "OK",
      "delay": "—",
      "metarCat": "IFR",
      "metarRaw": "METAR KUNV 030335Z AUTO 16005KT 7SM OVC006 07/07 A3027 RMK AO2 T00730072",
      "metarObsTime": 1775187300
    },
    "KAOO": {
      "status": "OK",
      "delay": "—",
      "metarCat": "LIFR",
      "metarRaw": "SPECI KAOO 030348Z AUTO 13008KT 2 1/2SM BR OVC004 08/08 A3026 RMK AO2",
      "metarObsTime": 1775188080
    },
    "KLNS": {
      "status": "OK",
      "delay": "—",
      "metarCat": "LIFR",
      "metarRaw": "SPECI KLNS 030343Z AUTO 10006KT 3SM BR OVC004 06/05 A3037 RMK AO2 CIG 003V007 T00560050",
      "metarObsTime": 1775187780
    },
    "KIPT": {
      "status": "OK",
      "delay": "—",
      "metarCat": "MVFR",
      "metarRaw": "METAR KIPT 030254Z AUTO 06015G22KT 5SM BR OVC010 07/06 A3030 RMK AO2 SLP262 T00720056 50000 $",
      "metarObsTime": 1775184840
    },
    "KPHL": {
      "status": "OK",
      "delay": "—",
      "metarCat": "IFR",
      "metarRaw": "SPECI KPHL 030318Z 08009KT 2 1/2SM -DZ BR OVC009 07/05 A3042 RMK AO2 P0000 T00670050 $",
      "metarObsTime": 1775186280
    },
    "KABE": {
      "status": "OK",
      "delay": "—",
      "metarCat": "IFR",
      "metarRaw": "METAR KABE 030251Z 11007KT 5SM BR OVC006 05/04 A3040 RMK AO2 SLP298 T00500039 58000 $",
      "metarObsTime": 1775184660
    },
    "KAVP": {
      "status": "OK",
      "delay": "—",
      "metarCat": "MVFR",
      "metarRaw": "METAR KAVP 030254Z 08005KT 10SM OVC013 06/03 A3033 RMK AO2 SLP275 T00560028 58002",
      "metarObsTime": 1775184840
    },
    "KHZL": {
      "status": "OK",
      "delay": "—",
      "metarCat": "LIFR",
      "metarRaw": "METAR KHZL 030335Z AUTO 13004KT 4SM -DZ OVC002 03/02 A3034 RMK AO2",
      "metarObsTime": 1775187300
    }
  }
}