{
  "generatedAt": "2026-04-07T09:00:42.164Z",
  "airports": {
    "KPIT": {
      "status": "OK",
      "delay": "—",
      "metarCat": "MVFR",
      "metarRaw": "METAR KPIT 070851Z 32017G23KT 10SM BKN023 OVC038 02/M03 A3021 RMK AO2 SLP246 T00221033 53023",
      "metarObsTime": 1775551860
    },
    "KAGC": {
      "status": "OK",
      "delay": "—",
      "metarCat": "VFR",
      "metarRaw": "METAR KAGC 070853Z 33010G18KT 10SM FEW022 SCT037 02/M02 A3019 RMK AO2 SLP235 T00221022 53023",
      "metarObsTime": 1775551980
    },
    "KLBE": {
      "status": "OK",
      "delay": "—",
      "metarCat": "VFR",
      "metarRaw": "METAR KLBE 070855Z AUTO 27005G11KT 10SM FEW030 03/M02 A3020 RMK AO2",
      "metarObsTime": 1775552100
    },
    "KJST": {
      "status": "OK",
      "delay": "—",
      "metarCat": "MVFR",
      "metarRaw": "METAR KJST 070854Z AUTO 29008G14KT 10SM BKN021 OVC029 01/M03 A3010 RMK AO2 SLP207 T00111028 53009",
      "metarObsTime": 1775552040
    },
    "KERI": {
      "status": "OK",
      "delay": "—",
      "metarCat": "VFR",
      "metarRaw": "METAR KERI 070851Z AUTO 32017G30KT 10SM FEW028 OVC039 M02/M08 A3026 RMK AO2 PK WND 33031/0841 SLP253 T10171083 51021 $",
      "metarObsTime": 1775551860
    },
    "KDUJ": {
      "status": "OK",
      "delay": "—",
      "metarCat": "MVFR",
      "metarRaw": "METAR KDUJ 070853Z AUTO 29011G20KT 4SM -SN BR SCT012 BKN029 OVC035 M01/M03 A3010 RMK AO2 SNB44 SLP208 P0000 60001 T10061028 51013",
      "metarObsTime": 1775551980
    },
    "KBFD": {
      "status": "OK",
      "delay": "—",
      "metarCat": "MVFR",
      "metarRaw": "SPECI KBFD 070858Z AUTO 29013G22KT 7SM SCT013 BKN027 OVC033 M02/M05 A3007 RMK AO2 SNE58 P0000 T10171050",
      "metarObsTime": 1775552280
    },
    "KBTP": {
      "status": "OK",
      "delay": "—",
      "metarCat": "VFR",
      "metarRaw": "METAR KBTP 070856Z AUTO 29010G15KT 10SM FEW029 M01/M03 A3022 RMK AO2 SLP249 60000 T10111028 53021 FZRANO $",
      "metarObsTime": 1775552160
    },
    "KFKL": {
      "status": "OK",
      "delay": "—",
      "metarCat": "MVFR",
      "metarRaw": "METAR KFKL 070856Z AUTO 30009G15KT 9SM BKN014 OVC023 M01/M04 A3019 RMK AO2 SNE55 SLP237 P0000 60000 T10111039 53021 FZRANO",
      "metarObsTime": 1775552160
    },
    "KIDI": {
      "status": "OK",
      "delay": "—",
      "metarCat": "VFR",
      "metarRaw": "METAR KIDI 070855Z AUTO 29010G17KT 10SM SCT015 SCT019 BKN055 01/M01 A3016 RMK A01",
      "metarObsTime": 1775552100
    },
    "KMDT": {
      "status": "OK",
      "delay": "—",
      "metarCat": "VFR",
      "metarRaw": "METAR KMDT 070856Z 30008KT 10SM CLR 06/02 A3011 RMK AO2 SLP199 T00610017 53006",
      "metarObsTime": 1775552160
    },
    "KCXY": {
      "status": "OK",
      "delay": "—",
      "metarCat": "VFR",
      "metarRaw": "METAR KCXY 070856Z AUTO 25006KT 10SM CLR 05/01 A3012 RMK AO2 SLP202 T00500011 53007",
      "metarObsTime": 1775552160
    },
    "KMUI": {
      "status": "OK",
      "delay": "—",
      "metarCat": "VFR",
      "metarRaw": "SPECI KMUI 070758Z AUTO 28010G15KT 10SM CLR 08/02 A3007 RMK AO2 RAE58 SLP187",
      "metarObsTime": 1775548680
    },
    "KUNV": {
      "status": "OK",
      "delay": "—",
      "metarCat": "VFR",
      "metarRaw": "METAR KUNV 070855Z AUTO 29014G21KT 10SM SCT028 OVC070 03/M01 A3010 RMK AO2 T00311015",
      "metarObsTime": 1775552100
    },
    "KAOO": {
      "status": "OK",
      "delay": "—",
      "metarCat": "VFR",
      "metarRaw": "METAR KAOO 070853Z AUTO 32009G20KT 10SM SCT030 BKN037 03/M02 A3013 RMK AO2 PK WND 32026/0824 SLP213 T00281017 53012",
      "metarObsTime": 1775551980
    },
    "KLNS": {
      "status": "OK",
      "delay": "—",
      "metarCat": "VFR",
      "metarRaw": "METAR KLNS 070853Z AUTO 29007KT 10SM SCT043 BKN050 BKN090 06/02 A3011 RMK AO2 SLP198 T00560017 53005",
      "metarObsTime": 1775551980
    },
    "KIPT": {
      "status": "OK",
      "delay": "—",
      "metarCat": "VFR",
      "metarRaw": "METAR KIPT 070854Z AUTO 27008KT 10SM FEW047 SCT070 04/01 A3008 RMK AO2 SLP189 T00390011 53004",
      "metarObsTime": 1775552040
    },
    "KPHL": {
      "status": "OK",
      "delay": "—",
      "metarCat": "VFR",
      "metarRaw": "METAR KPHL 070854Z 29004KT 10SM BKN060 BKN075 OVC100 11/00 A3010 RMK AO2 SLP193 T01060000 53002 $",
      "metarObsTime": 1775552040
    },
    "KABE": {
      "status": "OK",
      "delay": "—",
      "metarCat": "VFR",
      "metarRaw": "METAR KABE 070851Z 23007KT 10SM FEW075 05/01 A3008 RMK AO2 SLP186 T00500011 55001 $",
      "metarObsTime": 1775551860
    },
    "KAVP": {
      "status": "OK",
      "delay": "—",
      "metarCat": "VFR",
      "metarRaw": "METAR KAVP 070854Z 24008KT 10SM CLR 03/M01 A3005 RMK AO2 SLP179 T00331006 53004 $",
      "metarObsTime": 1775552040
    },
    "KHZL": {
      "status": "OK",
      "delay": "—",
      "metarCat": "VFR",
      "metarRaw": "METAR KHZL 070855Z AUTO 00000KT 10SM SCT025 BKN070 03/00 A3007 RMK AO2",
      "metarObsTime": 1775552100
    }
  }
}