{
  "generatedAt": "2026-03-10T16:00:20.072Z",
  "airports": {
    "KPIT": {
      "status": "OK",
      "delay": "—",
      "metarCat": "MVFR",
      "metarRaw": "METAR KPIT 101551Z 21008KT 10SM BKN028 BKN040 19/11 A3001 RMK AO2 SLP168 T01890106",
      "metarObsTime": 1773157860
    },
    "KAGC": {
      "status": "OK",
      "delay": "—",
      "metarCat": "MVFR",
      "metarRaw": "METAR KAGC 101553Z 20009KT 10SM BKN027 OVC070 19/08 A3002 RMK AO2 SLP167 T01890083",
      "metarObsTime": 1773157980
    },
    "KLBE": {
      "status": "OK",
      "delay": "—",
      "metarCat": "MVFR",
      "metarRaw": "METAR KLBE 101455Z 21015G22KT 10SM BKN027 OVC031 19/11 A3004",
      "metarObsTime": 1773154500
    },
    "KJST": {
      "status": "OK",
      "delay": "—",
      "metarCat": "VFR",
      "metarRaw": "METAR KJST 101554Z AUTO 23010G18KT 10SM SCT027 BKN037 OVC043 18/10 A3005 RMK AO2 SLP168 T01780100",
      "metarObsTime": 1773158040
    },
    "KERI": {
      "status": "OK",
      "delay": "—",
      "metarCat": "VFR",
      "metarRaw": "METAR KERI 101551Z 20008KT 10SM FEW026 BKN035 OVC045 19/12 A2993 RMK AO2 SLP134 T01940122",
      "metarObsTime": 1773157860
    },
    "KDUJ": {
      "status": "OK",
      "delay": "—",
      "metarCat": "MVFR",
      "metarRaw": "METAR KDUJ 101553Z AUTO 23010G18KT 10SM BKN020 OVC027 16/08 A3002 RMK AO2 SLP162 T01610078",
      "metarObsTime": 1773157980
    },
    "KBFD": {
      "status": "OK",
      "delay": "—",
      "metarCat": "VFR",
      "metarRaw": "METAR KBFD 101553Z AUTO 22010G19KT 10SM SCT020 16/09 A3000 RMK AO2 SLP154 T01610089",
      "metarObsTime": 1773157980
    },
    "KBTP": {
      "status": "OK",
      "delay": "—",
      "metarCat": "MVFR",
      "metarRaw": "METAR KBTP 101556Z AUTO 20008KT 10SM OVC022 17/10 A3003 RMK AO2 SLP171 T01720100 $",
      "metarObsTime": 1773158160
    },
    "KFKL": {
      "status": "OK",
      "delay": "—",
      "metarCat": "VFR",
      "metarRaw": "METAR KFKL 101556Z AUTO 21011KT 10SM SCT055 18/11 A3000 RMK AO2 SLP157 T01830111",
      "metarObsTime": 1773158160
    },
    "KIDI": {
      "status": "OK",
      "delay": "—",
      "metarCat": "MVFR",
      "metarRaw": "METAR KIDI 101555Z AUTO 22008G14KT 10SM OVC024 18/11 A3004 RMK A01",
      "metarObsTime": 1773158100
    },
    "KMDT": {
      "status": "OK",
      "delay": "—",
      "metarCat": "VFR",
      "metarRaw": "METAR KMDT 101456Z 00000KT 10SM FEW250 12/05 A3004 RMK AO2 SLP172 T01220050 58001",
      "metarObsTime": 1773154560
    },
    "KCXY": {
      "status": "OK",
      "delay": "—",
      "metarCat": "VFR",
      "metarRaw": "METAR KCXY 101456Z 00000KT 10SM CLR 15/06 A3004 RMK AO2 SLP175 T01500056 50000",
      "metarObsTime": 1773154560
    },
    "KMUI": {
      "status": "OK",
      "delay": "—",
      "metarCat": "VFR",
      "metarRaw": "METAR KMUI 101455Z 00000KT 10SM FEW048 SCT250 17/07 A3003 RMK AO2A SLP172 T01670065 50000",
      "metarObsTime": 1773154500
    },
    "KUNV": {
      "status": "OK",
      "delay": "—",
      "metarCat": "VFR",
      "metarRaw": "METAR KUNV 101553Z 24015G21KT 10SM BKN045 21/11 A3001",
      "metarObsTime": 1773157980
    },
    "KAOO": {
      "status": "OK",
      "delay": "—",
      "metarCat": "—",
      "metarRaw": "—",
      "metarObsTime": null
    },
    "KLNS": {
      "status": "OK",
      "delay": "—",
      "metarCat": "VFR",
      "metarRaw": "METAR KLNS 101553Z VRB03KT 10SM CLR 20/09 A3003 RMK AO2 SLP167 T02000094",
      "metarObsTime": 1773157980
    },
    "KIPT": {
      "status": "OK",
      "delay": "—",
      "metarCat": "VFR",
      "metarRaw": "METAR KIPT 101554Z 15003KT 10SM CLR 14/04 A3000 RMK AO2 SLP160 T01390039 $",
      "metarObsTime": 1773158040
    },
    "KPHL": {
      "status": "OK",
      "delay": "—",
      "metarCat": "VFR",
      "metarRaw": "METAR KPHL 101554Z 21004KT 10SM FEW050 BKN280 21/10 A3005 RMK AO2 SLP175 T02110100 $",
      "metarObsTime": 1773158040
    },
    "KABE": {
      "status": "OK",
      "delay": "—",
      "metarCat": "—",
      "metarRaw": "METAR KABE 101551Z 20004KT 10SM 19/06 A3003 RMK AO2 SLP170 T01890061 $",
      "metarObsTime": 1773157860
    },
    "KAVP": {
      "status": "OK",
      "delay": "—",
      "metarCat": "VFR",
      "metarRaw": "METAR KAVP 101554Z 25007KT 10SM CLR 20/03 A3000 RMK AO2 SLP157 T02000033",
      "metarObsTime": 1773158040
    },
    "KHZL": {
      "status": "OK",
      "delay": "—",
      "metarCat": "VFR",
      "metarRaw": "METAR KHZL 101535Z AUTO 19004KT 10SM BKN047 22/02 A3006 RMK AO2",
      "metarObsTime": 1773156900
    }
  }
}