{
  "generatedAt": "2026-03-23T07:10:17.043Z",
  "airports": {
    "KPIT": {
      "status": "OK",
      "delay": "—",
      "metarCat": "VFR",
      "metarRaw": "METAR KPIT 230651Z 31006KT 6SM BR SCT002 OVC040 09/09 A2975 RMK AO2 RAE24 SLP075 P0006 T00940089",
      "metarObsTime": 1774248660
    },
    "KAGC": {
      "status": "OK",
      "delay": "—",
      "metarCat": "VFR",
      "metarRaw": "METAR KAGC 230653Z 25004KT 6SM -RA BR FEW004 BKN046 OVC070 11/11 A2972 RMK AO2 SLP062 P0013 T01110106",
      "metarObsTime": 1774248780
    },
    "KLBE": {
      "status": "OK",
      "delay": "—",
      "metarCat": "MVFR",
      "metarRaw": "METAR KLBE 230655Z AUTO 19003KT 4SM RA BR FEW001 SCT019 BKN046 12/12 A2973 RMK AO2 P0020",
      "metarObsTime": 1774248900
    },
    "KJST": {
      "status": "OK",
      "delay": "—",
      "metarCat": "IFR",
      "metarRaw": "SPECI KJST 230702Z AUTO 19008KT 1SM RA BR BKN011 OVC070 09/09 A2970 RMK AO2 P0003 T00940094",
      "metarObsTime": 1774249320
    },
    "KERI": {
      "status": "OK",
      "delay": "—",
      "metarCat": "IFR",
      "metarRaw": "METAR KERI 230651Z AUTO 04014G23KT 8SM OVC005 01/00 A2985 RMK AO2 SLP112 T00110000",
      "metarObsTime": 1774248660
    },
    "KDUJ": {
      "status": "OK",
      "delay": "—",
      "metarCat": "LIFR",
      "metarRaw": "SPECI KDUJ 230701Z AUTO 33007KT 1 1/2SM BR OVC002 08/08 A2971 RMK AO2 T00780078",
      "metarObsTime": 1774249260
    },
    "KBFD": {
      "status": "OK",
      "delay": "—",
      "metarCat": "LIFR",
      "metarRaw": "METAR KBFD 230653Z AUTO 03008KT 3SM BR OVC002 01/01 A2975 RMK AO2 RAE26 SLP079 P0000 T00060006 $",
      "metarObsTime": 1774248780
    },
    "KBTP": {
      "status": "OK",
      "delay": "—",
      "metarCat": "LIFR",
      "metarRaw": "METAR KBTP 230656Z AUTO 30008KT 2SM BR OVC003 08/ A2976 RMK AO2 RAE10 SLP079 P0001 T0083 $",
      "metarObsTime": 1774248960
    },
    "KFKL": {
      "status": "OK",
      "delay": "—",
      "metarCat": "LIFR",
      "metarRaw": "METAR KFKL 230656Z AUTO 35006KT 4SM BR OVC002 03/03 A2976 RMK AO2 SLP082 T00330033",
      "metarObsTime": 1774248960
    },
    "KIDI": {
      "status": "OK",
      "delay": "—",
      "metarCat": "LIFR",
      "metarRaw": "METAR KIDI 230655Z AUTO 24005KT 9SM BKN004 BKN027 OVC032 11/11 A2973 RMK A01 P0011",
      "metarObsTime": 1774248900
    },
    "KMDT": {
      "status": "OK",
      "delay": "—",
      "metarCat": "IFR",
      "metarRaw": "METAR KMDT 230656Z 34004KT 2SM +TSRA BR SCT014CB BKN050 OVC065 13/12 A2972 RMK AO2 RAB24 TSB43 SLP063 OCNL LTGIC N TS N MOV E P0011 T01280117 $",
      "metarObsTime": 1774248960
    },
    "KCXY": {
      "status": "OK",
      "delay": "—",
      "metarCat": "MVFR",
      "metarRaw": "METAR KCXY 230656Z AUTO 24003KT 4SM TSRA BR FEW009 BKN060 OVC075 12/11 A2972 RMK AO2 LTG DSNT NE RAB16 TSB45 SLP064 P0019 T01220111",
      "metarObsTime": 1774248960
    },
    "KMUI": {
      "status": "OK",
      "delay": "—",
      "metarCat": "IFR",
      "metarRaw": "SPECI KMUI 230656Z AUTO 03006KT 9SM -RA SCT004 BKN009 11/11 A2970 RMK AO2 RAB56 CIG 004V009 SLP059",
      "metarObsTime": 1774248960
    },
    "KUNV": {
      "status": "OK",
      "delay": "—",
      "metarCat": "LIFR",
      "metarRaw": "METAR KUNV 230655Z AUTO 03005KT 5SM RA OVC003 07/07 A2971 RMK AO2 P0013 T00710071",
      "metarObsTime": 1774248900
    },
    "KAOO": {
      "status": "OK",
      "delay": "—",
      "metarCat": "MVFR",
      "metarRaw": "METAR KAOO 230653Z AUTO 22004KT 5SM -RA BR OVC080 11/11 A2972 RMK AO2 SLP056 P0005 T01110106",
      "metarObsTime": 1774248780
    },
    "KLNS": {
      "status": "OK",
      "delay": "—",
      "metarCat": "MVFR",
      "metarRaw": "METAR KLNS 230653Z AUTO 05009KT 10SM OVC013 14/12 A2968 RMK AO2 LTG DSNT W AND NW SLP049 T01390122",
      "metarObsTime": 1774248780
    },
    "KIPT": {
      "status": "OK",
      "delay": "—",
      "metarCat": "MVFR",
      "metarRaw": "METAR KIPT 230654Z AUTO 28004KT 10SM OVC017 05/03 A2977 RMK AO2 RAE51 SLP083 P0005 T00500033 $",
      "metarObsTime": 1774248840
    },
    "KPHL": {
      "status": "OK",
      "delay": "—",
      "metarCat": "VFR",
      "metarRaw": "METAR KPHL 230654Z 03009KT 6SM HZ SCT120 OVC150 14/10 A2969 RMK AO2 SLP052 T01390100 $",
      "metarObsTime": 1774248840
    },
    "KABE": {
      "status": "OK",
      "delay": "—",
      "metarCat": "VFR",
      "metarRaw": "SPECI KABE 230703Z 07007KT 10SM SCT009 OVC060 11/09 A2971 RMK AO2 T01060089 $",
      "metarObsTime": 1774249380
    },
    "KAVP": {
      "status": "OK",
      "delay": "—",
      "metarCat": "LIFR",
      "metarRaw": "METAR KAVP 230654Z 34005KT 3SM RA BR BKN004 OVC010 04/04 A2973 RMK AO2 SLP066 P0011 T00440044",
      "metarObsTime": 1774248840
    },
    "KHZL": {
      "status": "OK",
      "delay": "—",
      "metarCat": "MVFR",
      "metarRaw": "METAR KHZL 230655Z AUTO 00000KT 4SM RA SCT006 BKN055 OVC070 06/05 A2974 RMK AO2 P0005",
      "metarObsTime": 1774248900
    }
  }
}