{
  "generatedAt": "2026-03-13T07:30:17.972Z",
  "airports": {
    "KPIT": {
      "status": "OK",
      "delay": "—",
      "metarCat": "VFR",
      "metarRaw": "METAR KPIT 130651Z 18003KT 10SM FEW120 SCT200 M02/M04 A3006 RMK AO2 SLP198 T10171044 $",
      "metarObsTime": 1773384660
    },
    "KAGC": {
      "status": "OK",
      "delay": "—",
      "metarCat": "VFR",
      "metarRaw": "METAR KAGC 130653Z 19007KT 10SM CLR M01/M06 A3006 RMK AO2 SLP194 T10061061",
      "metarObsTime": 1773384780
    },
    "KLBE": {
      "status": "OK",
      "delay": "—",
      "metarCat": "VFR",
      "metarRaw": "METAR KLBE 130715Z AUTO 00000KT 10SM CLR M03/M05 A3009 RMK AO2",
      "metarObsTime": 1773386100
    },
    "KJST": {
      "status": "OK",
      "delay": "—",
      "metarCat": "VFR",
      "metarRaw": "METAR KJST 130654Z AUTO 23004KT 10SM CLR M03/M07 A3000 RMK AO2 SLP185 T10331072",
      "metarObsTime": 1773384840
    },
    "KERI": {
      "status": "OK",
      "delay": "—",
      "metarCat": "VFR",
      "metarRaw": "METAR KERI 130651Z AUTO 19006KT 10SM CLR M02/M06 A3004 RMK AO2 SLP183 T10171056",
      "metarObsTime": 1773384660
    },
    "KDUJ": {
      "status": "OK",
      "delay": "—",
      "metarCat": "VFR",
      "metarRaw": "METAR KDUJ 130653Z AUTO 23004KT 10SM CLR M06/M09 A3001 RMK AO2 SLP183 T10561094",
      "metarObsTime": 1773384780
    },
    "KBFD": {
      "status": "OK",
      "delay": "—",
      "metarCat": "VFR",
      "metarRaw": "METAR KBFD 130653Z AUTO 23003KT 10SM FEW049 M06/M08 A2999 RMK AO2 SLP179 T10561083 $",
      "metarObsTime": 1773384780
    },
    "KBTP": {
      "status": "OK",
      "delay": "—",
      "metarCat": "VFR",
      "metarRaw": "METAR KBTP 130656Z AUTO 00000KT 10SM CLR M02/M04 A3007 RMK AO2 SLP200 T10221044 FZRANO $",
      "metarObsTime": 1773384960
    },
    "KFKL": {
      "status": "OK",
      "delay": "—",
      "metarCat": "VFR",
      "metarRaw": "METAR KFKL 130656Z AUTO 23004KT 10SM CLR A3003 RMK AO2 SLPNO FZRANO $",
      "metarObsTime": 1773384960
    },
    "KIDI": {
      "status": "OK",
      "delay": "—",
      "metarCat": "VFR",
      "metarRaw": "METAR KIDI 130715Z AUTO 00000KT 10SM CLR M04/M06 A3006 RMK A01",
      "metarObsTime": 1773386100
    },
    "KMDT": {
      "status": "OK",
      "delay": "—",
      "metarCat": "VFR",
      "metarRaw": "METAR KMDT 130656Z 28008KT 10SM CLR 01/M08 A3011 RMK AO2 SLP200 T00111083 $",
      "metarObsTime": 1773384960
    },
    "KCXY": {
      "status": "OK",
      "delay": "—",
      "metarCat": "VFR",
      "metarRaw": "METAR KCXY 130656Z AUTO 26006KT 10SM CLR M01/M09 A3012 RMK AO2 SLP203 T10111089",
      "metarObsTime": 1773384960
    },
    "KMUI": {
      "status": "OK",
      "delay": "—",
      "metarCat": "VFR",
      "metarRaw": "METAR KMUI 130655Z AUTO 32003KT 10SM CLR M00/M08 A3007 RMK AO2 SLP190 T10011085",
      "metarObsTime": 1773384900
    },
    "KUNV": {
      "status": "OK",
      "delay": "—",
      "metarCat": "VFR",
      "metarRaw": "METAR KUNV 130715Z AUTO 00000KT 10SM CLR M04/M09 A3005 RMK AO2 T10451090",
      "metarObsTime": 1773386100
    },
    "KAOO": {
      "status": "OK",
      "delay": "—",
      "metarCat": "VFR",
      "metarRaw": "METAR KAOO 130653Z AUTO 27004KT 10SM CLR M01/M09 A3005 RMK AO2 SLP192 T10111094",
      "metarObsTime": 1773384780
    },
    "KLNS": {
      "status": "OK",
      "delay": "—",
      "metarCat": "VFR",
      "metarRaw": "METAR KLNS 130653Z AUTO 29004KT 10SM CLR M02/M09 A3011 RMK AO2 SLP199 T10221089",
      "metarObsTime": 1773384780
    },
    "KIPT": {
      "status": "OK",
      "delay": "—",
      "metarCat": "VFR",
      "metarRaw": "METAR KIPT 130654Z AUTO 00000KT 10SM CLR M03/M08 A3008 RMK AO2 SLP192 T10331083 $",
      "metarObsTime": 1773384840
    },
    "KPHL": {
      "status": "OK",
      "delay": "—",
      "metarCat": "VFR",
      "metarRaw": "METAR KPHL 130654Z 30006KT 10SM CLR 02/M09 A3012 RMK AO2 SLP198 T00221089",
      "metarObsTime": 1773384840
    },
    "KABE": {
      "status": "OK",
      "delay": "—",
      "metarCat": "VFR",
      "metarRaw": "METAR KABE 130651Z 33003KT 10SM CLR M01/M10 A3007 RMK AO2 SLP187 T10061100 $",
      "metarObsTime": 1773384660
    },
    "KAVP": {
      "status": "OK",
      "delay": "—",
      "metarCat": "VFR",
      "metarRaw": "METAR KAVP 130654Z 28004KT 10SM CLR M02/M12 A3006 RMK AO2 SLP185 T10221117",
      "metarObsTime": 1773384840
    },
    "KHZL": {
      "status": "OK",
      "delay": "—",
      "metarCat": "VFR",
      "metarRaw": "METAR KHZL 130715Z AUTO 29003KT 10SM CLR M02/M10 A3004 RMK AO2",
      "metarObsTime": 1773386100
    }
  }
}