{
  "generatedAt": "2026-03-15T21:50:11.868Z",
  "airports": {
    "KPIT": {
      "status": "OK",
      "delay": "—",
      "metarCat": "VFR",
      "metarRaw": "METAR KPIT 152051Z 14017G30KT 10SM FEW150 OVC230 21/02 A2976 RMK AO2 PK WND 12034/1952 SLP083 T02110022 56030",
      "metarObsTime": 1773607860
    },
    "KAGC": {
      "status": "OK",
      "delay": "—",
      "metarCat": "VFR",
      "metarRaw": "METAR KAGC 152053Z 15022G39KT 10SM CLR 19/03 A2979 RMK AO2 PK WND 16040/2031 SLP093 T01890028 56030",
      "metarObsTime": 1773607980
    },
    "KLBE": {
      "status": "OK",
      "delay": "—",
      "metarCat": "VFR",
      "metarRaw": "METAR KLBE 152149Z 13022G37KT 10SM CLR 15/04 A2986",
      "metarObsTime": 1773611340
    },
    "KJST": {
      "status": "OK",
      "delay": "—",
      "metarCat": "VFR",
      "metarRaw": "METAR KJST 152054Z AUTO 14016G31KT 10SM CLR 08/M01 A2996 RMK AO2 PK WND 13032/2032 SLP159 T00781011 56019",
      "metarObsTime": 1773608040
    },
    "KERI": {
      "status": "OK",
      "delay": "—",
      "metarCat": "VFR",
      "metarRaw": "METAR KERI 152051Z 15017G31KT 10SM CLR 20/01 A2964 RMK AO2 PK WND 16039/2029 SLP040 T02000006 56042 $",
      "metarObsTime": 1773607860
    },
    "KDUJ": {
      "status": "OK",
      "delay": "—",
      "metarCat": "VFR",
      "metarRaw": "METAR KDUJ 152053Z AUTO 15015G34KT 10SM CLR 11/M02 A2990 RMK AO2 PK WND 14037/2038 SLP132 T01111017 $",
      "metarObsTime": 1773607980
    },
    "KBFD": {
      "status": "OK",
      "delay": "—",
      "metarCat": "VFR",
      "metarRaw": "METAR KBFD 152053Z AUTO 14019G30KT 10SM CLR 11/M02 A2988 RMK AO2 PK WND 14035/2015 RAB18E26 SLP130 P0000 60000 T01061017 56025",
      "metarObsTime": 1773607980
    },
    "KBTP": {
      "status": "OK",
      "delay": "—",
      "metarCat": "—",
      "metarRaw": "—",
      "metarObsTime": null
    },
    "KFKL": {
      "status": "OK",
      "delay": "—",
      "metarCat": "VFR",
      "metarRaw": "METAR KFKL 152056Z AUTO 15020G32KT 10SM CLR A2977 RMK AO2 PK WND 14034/2025 SLPNO 56033 FZRANO $",
      "metarObsTime": 1773608160
    },
    "KIDI": {
      "status": "OK",
      "delay": "—",
      "metarCat": "VFR",
      "metarRaw": "METAR KIDI 152135Z AUTO 14017G27KT 110V170 10SM CLR 11/01 A2990 RMK A01",
      "metarObsTime": 1773610500
    },
    "KMDT": {
      "status": "OK",
      "delay": "—",
      "metarCat": "VFR",
      "metarRaw": "METAR KMDT 152056Z 13012KT 10SM OVC043 09/02 A3019 RMK AO2 SLP227 T00890017 56030 $",
      "metarObsTime": 1773608160
    },
    "KCXY": {
      "status": "OK",
      "delay": "—",
      "metarCat": "VFR",
      "metarRaw": "METAR KCXY 152056Z 12015G20KT 10SM OVC044 09/01 A3020 RMK AO2 SLP229 T00890006 56028",
      "metarObsTime": 1773608160
    },
    "KMUI": {
      "status": "OK",
      "delay": "—",
      "metarCat": "VFR",
      "metarRaw": "SPECI KMUI 152146Z AUTO 11004KT 10SM OVC039 10/M01 A3018 RMK AO2 RAE2055RAB37E46 SLP226 $",
      "metarObsTime": 1773611160
    },
    "KUNV": {
      "status": "OK",
      "delay": "—",
      "metarCat": "VFR",
      "metarRaw": "METAR KUNV 152053Z 15012G23KT 10SM OVC034 08/M01 A3009",
      "metarObsTime": 1773607980
    },
    "KAOO": {
      "status": "OK",
      "delay": "—",
      "metarCat": "VFR",
      "metarRaw": "METAR KAOO 152053Z AUTO 16011G22KT 10SM OVC032 08/M02 A3007 RMK AO2 PK WND 16036/2012 SLP190 T00831017 56017",
      "metarObsTime": 1773607980
    },
    "KLNS": {
      "status": "OK",
      "delay": "—",
      "metarCat": "VFR",
      "metarRaw": "METAR KLNS 152053Z 13010G21KT 10SM OVC040 08/00 A3022 RMK AO2 SLP236 T00830000 56028",
      "metarObsTime": 1773607980
    },
    "KIPT": {
      "status": "OK",
      "delay": "—",
      "metarCat": "VFR",
      "metarRaw": "METAR KIPT 152054Z 12015G36KT 10SM OVC042 08/M04 A3015 RMK AO2 PK WND 13036/2052 SLP214 T00831044 56024",
      "metarObsTime": 1773608040
    },
    "KPHL": {
      "status": "OK",
      "delay": "—",
      "metarCat": "VFR",
      "metarRaw": "METAR KPHL 152054Z 11009KT 10SM OVC050 09/02 A3029 RMK AO2 PK WND 11026/2014 SLP255 T00940017 56032 $",
      "metarObsTime": 1773608040
    },
    "KABE": {
      "status": "OK",
      "delay": "—",
      "metarCat": "VFR",
      "metarRaw": "METAR KABE 152051Z 11009G24KT 10SM OVC047 06/M02 A3028 RMK AO2 SLP256 T00611017 56027 $",
      "metarObsTime": 1773607860
    },
    "KAVP": {
      "status": "OK",
      "delay": "—",
      "metarCat": "VFR",
      "metarRaw": "METAR KAVP 152054Z 19008KT 120V220 10SM OVC042 06/M05 A3021 RMK AO2 SLP236 T00561050 56021",
      "metarObsTime": 1773608040
    },
    "KHZL": {
      "status": "OK",
      "delay": "—",
      "metarCat": "MVFR",
      "metarRaw": "METAR KHZL 152135Z AUTO 12011G19KT 100V160 10SM OVC030 03/M03 A3019 RMK AO2 LTG DSNT S",
      "metarObsTime": 1773610500
    }
  }
}