{
  "generatedAt": "2026-04-29T20:21:15.140Z",
  "faaFlow": {
    "updatedAt": "2026-04-29T20:21:14.289Z",
    "source": "https://www.fly.faa.gov/adv/adv_spt",
    "terminal": [
      {
        "time": "—",
        "text": "AFTER",
        "code": "FLOW",
        "label": "FAA flow impact",
        "level": "yellow",
        "section": "Terminal Planned",
        "airports": []
      },
      {
        "time": "2200",
        "text": "DEN GROUND STOP POSSIBLE",
        "code": "GS",
        "label": "Ground stop possible",
        "level": "yellow",
        "section": "Terminal Planned",
        "airports": []
      },
      {
        "time": "—",
        "text": "UNTIL",
        "code": "FLOW",
        "label": "FAA flow impact",
        "level": "yellow",
        "section": "Terminal Planned",
        "airports": []
      },
      {
        "time": "2300",
        "text": "AUS/SAT GROUND STOPS POSSIBLE",
        "code": "GS",
        "label": "Ground stop possible",
        "level": "yellow",
        "section": "Terminal Planned",
        "airports": []
      },
      {
        "time": "—",
        "text": "UNTIL",
        "code": "FLOW",
        "label": "FAA flow impact",
        "level": "yellow",
        "section": "Terminal Planned",
        "airports": []
      },
      {
        "time": "0000",
        "text": "BWI GROUND STOP POSSIBLE",
        "code": "GS",
        "label": "Ground stop possible",
        "level": "yellow",
        "section": "Terminal Planned",
        "airports": []
      },
      {
        "time": "—",
        "text": "UNTIL",
        "code": "FLOW",
        "label": "FAA flow impact",
        "level": "yellow",
        "section": "Terminal Planned",
        "airports": []
      },
      {
        "time": "0000",
        "text": "IAH/HOU GROUND STOP/DELAY PROGRAM PROBABLE",
        "code": "GS",
        "label": "Ground stop possible",
        "level": "orange",
        "section": "Terminal Planned",
        "airports": []
      },
      {
        "time": "—",
        "text": "UNTIL",
        "code": "FLOW",
        "label": "FAA flow impact",
        "level": "yellow",
        "section": "Terminal Planned",
        "airports": []
      },
      {
        "time": "0200",
        "text": "EWR/TEB/PHL GROUND STOP/DELAY PROGRAM POSSIBLE",
        "code": "GS",
        "label": "Ground stop possible",
        "level": "yellow",
        "section": "Terminal Planned",
        "airports": [
          "KPHL"
        ]
      },
      {
        "time": "—",
        "text": "UNTIL",
        "code": "FLOW",
        "label": "FAA flow impact",
        "level": "yellow",
        "section": "Terminal Planned",
        "airports": []
      },
      {
        "time": "0300",
        "text": "LGA/JFK/HPN GROUND STOP/DELAY PROGRAM PROBABLE",
        "code": "GS",
        "label": "Ground stop possible",
        "level": "orange",
        "section": "Terminal Planned",
        "airports": []
      }
    ],
    "enroute": [
      {
        "time": "—",
        "text": "AFTER",
        "code": "FLOW",
        "label": "FAA flow impact",
        "level": "yellow",
        "section": "En Route Planned",
        "airports": []
      },
      {
        "time": "0005",
        "text": "STAVE 2 FLORIDA ARRIVAL ROUTES EXPECTED",
        "code": "ROUTE",
        "label": "Route impact possible",
        "level": "orange",
        "section": "En Route Planned",
        "airports": []
      },
      {
        "time": "—",
        "text": "AFTER",
        "code": "FLOW",
        "label": "FAA flow impact",
        "level": "yellow",
        "section": "En Route Planned",
        "airports": []
      },
      {
        "time": "0005",
        "text": "STAVE 2 OVERFLIGHT ROUTES EXPECTED",
        "code": "ROUTE",
        "label": "Route impact possible",
        "level": "orange",
        "section": "En Route Planned",
        "airports": []
      },
      {
        "time": "—",
        "text": "UNTIL",
        "code": "FLOW",
        "label": "FAA flow impact",
        "level": "yellow",
        "section": "En Route Planned",
        "airports": []
      },
      {
        "time": "0100",
        "text": "N90/PHL SWAP/ESCAPE ROUTES PROBABLE CDRS/SWAP/CAPPING/TUNNELING/HOTLINE/DIVERSION RECOVERY:",
        "code": "ROUTE",
        "label": "Route impact possible",
        "level": "orange",
        "section": "En Route Planned",
        "airports": [
          "KPHL"
        ]
      },
      {
        "time": "—",
        "text": "UNTIL",
        "code": "FLOW",
        "label": "FAA flow impact",
        "level": "yellow",
        "section": "En Route Planned",
        "airports": []
      },
      {
        "time": "2100",
        "text": "DFW DAL CDRS",
        "code": "ROUTE",
        "label": "Route impact possible",
        "level": "blue",
        "section": "En Route Planned",
        "airports": []
      },
      {
        "time": "—",
        "text": "UNTIL",
        "code": "FLOW",
        "label": "FAA flow impact",
        "level": "yellow",
        "section": "En Route Planned",
        "airports": []
      },
      {
        "time": "2200",
        "text": "ZHU SWAP STATEMENT",
        "code": "ROUTE",
        "label": "Route impact possible",
        "level": "blue",
        "section": "En Route Planned",
        "airports": []
      },
      {
        "time": "—",
        "text": "UNTIL",
        "code": "FLOW",
        "label": "FAA flow impact",
        "level": "yellow",
        "section": "En Route Planned",
        "airports": []
      },
      {
        "time": "0100",
        "text": "TEXAS HOTLINE",
        "code": "FLOW",
        "label": "FAA flow impact",
        "level": "yellow",
        "section": "En Route Planned",
        "airports": []
      },
      {
        "time": "—",
        "text": "UNTIL",
        "code": "FLOW",
        "label": "FAA flow impact",
        "level": "yellow",
        "section": "En Route Planned",
        "airports": []
      },
      {
        "time": "0300",
        "text": "ZFW SWAP STATEMENT",
        "code": "ROUTE",
        "label": "Route impact possible",
        "level": "blue",
        "section": "En Route Planned",
        "airports": []
      },
      {
        "time": "—",
        "text": "UNTIL",
        "code": "FLOW",
        "label": "FAA flow impact",
        "level": "yellow",
        "section": "En Route Planned",
        "airports": []
      },
      {
        "time": "0300",
        "text": "DFW/DAL DIVERSION RECOVERY",
        "code": "FLOW",
        "label": "FAA flow impact",
        "level": "yellow",
        "section": "En Route Planned",
        "airports": []
      },
      {
        "time": "—",
        "text": "UNTIL",
        "code": "FLOW",
        "label": "FAA flow impact",
        "level": "yellow",
        "section": "En Route Planned",
        "airports": []
      },
      {
        "time": "0300",
        "text": "ZDV SWAP STATEMENT RUNWAY/EQUIPMENT/POSSIBLE SYSTEM IMPACT REPORTS(SIRs): LAX - RWY 24R/06L CLOSED",
        "code": "CLOSURE",
        "label": "Closure possible",
        "level": "yellow",
        "section": "En Route Planned",
        "airports": []
      },
      {
        "time": "—",
        "text": "2026",
        "code": "FLOW",
        "label": "FAA flow impact",
        "level": "yellow",
        "section": "En Route Planned",
        "airports": []
      },
      {
        "time": "2026",
        "text": "SAN - CONSTRUCTION PHASE 5.2 UNTIL 05/26/26",
        "code": "FLOW",
        "label": "FAA flow impact",
        "level": "yellow",
        "section": "En Route Planned",
        "airports": []
      },
      {
        "time": "—",
        "text": "AFTER",
        "code": "FLOW",
        "label": "FAA flow impact",
        "level": "yellow",
        "section": "En Route Planned",
        "airports": []
      },
      {
        "time": "0400",
        "text": "MDW VIP MOVEMENT(S):",
        "code": "FLOW",
        "label": "FAA flow impact",
        "level": "yellow",
        "section": "En Route Planned",
        "airports": []
      },
      {
        "time": "—",
        "text": "AFTER",
        "code": "FLOW",
        "label": "FAA flow impact",
        "level": "yellow",
        "section": "En Route Planned",
        "airports": []
      },
      {
        "time": "2100",
        "text": "ARR NKX NEXT PLANNING WEBINAR:",
        "code": "FLOW",
        "label": "FAA flow impact",
        "level": "yellow",
        "section": "En Route Planned",
        "airports": []
      }
    ],
    "airports": {
      "KPIT": null,
      "KAGC": null,
      "KLBE": null,
      "KJST": null,
      "KERI": null,
      "KDUJ": null,
      "KBFD": null,
      "KBTP": null,
      "KFKL": null,
      "KIDI": null,
      "KMDT": null,
      "KCXY": null,
      "KMUI": null,
      "KUNV": null,
      "KAOO": null,
      "KLNS": null,
      "KIPT": null,
      "KPHL": {
        "code": "ROUTE",
        "level": "orange",
        "label": "Route impact possible",
        "time": "0100",
        "text": "N90/PHL SWAP/ESCAPE ROUTES PROBABLE CDRS/SWAP/CAPPING/TUNNELING/HOTLINE/DIVERSION RECOVERY:",
        "section": "En Route Planned"
      },
      "KABE": null,
      "KAVP": null,
      "KHZL": null
    }
  },
  "airports": {
    "KPIT": {
      "status": "OK",
      "delay": "—",
      "metarCat": "MVFR",
      "metarRaw": "SPECI KPIT 292012Z 30015KT 10SM SCT007 BKN014 OVC022 16/13 A2971 RMK AO2 T01560128",
      "metarObsTime": 1777493520,
      "faaFlow": null
    },
    "KAGC": {
      "status": "OK",
      "delay": "—",
      "metarCat": "IFR",
      "metarRaw": "SPECI KAGC 292004Z 28008KT 9SM BKN009 BKN018 OVC044 16/14 A2969 RMK AO2 RAE1958 P0000 T01560144",
      "metarObsTime": 1777493040,
      "faaFlow": null
    },
    "KLBE": {
      "status": "OK",
      "delay": "—",
      "metarCat": "MVFR",
      "metarRaw": "METAR KLBE 291947Z 20006G14KT 3SM VCTS -RA BR SCT033 BKN046 OVC075 17/16 A2970 RMK LTG DSNT N AND NW",
      "metarObsTime": 1777492020,
      "faaFlow": null
    },
    "KJST": {
      "status": "OK",
      "delay": "—",
      "metarCat": "LIFR",
      "metarRaw": "METAR KJST 291954Z AUTO 16016G21KT 10SM OVC004 12/12 A2971 RMK AO2 LTG DSNT W AND NW RAE47 SLP059 P0002 T01220117",
      "metarObsTime": 1777492440,
      "faaFlow": null
    },
    "KERI": {
      "status": "OK",
      "delay": "—",
      "metarCat": "IFR",
      "metarRaw": "METAR KERI 291951Z 03013G19KT 10SM -RA OVC005 07/06 A2978 RMK AO2 RAE1854B48 SLP086 P0000 T00720061",
      "metarObsTime": 1777492260,
      "faaFlow": null
    },
    "KDUJ": {
      "status": "OK",
      "delay": "—",
      "metarCat": "IFR",
      "metarRaw": "SPECI KDUJ 292005Z AUTO 15008KT 3SM -RA BR SCT005 BKN009 OVC023 12/12 A2965 RMK AO2 LTG DSNT S P0003 T01220117",
      "metarObsTime": 1777493100,
      "faaFlow": null
    },
    "KBFD": {
      "status": "OK",
      "delay": "—",
      "metarCat": "IFR",
      "metarRaw": "SPECI KBFD 292013Z AUTO 35004KT 1 3/4SM +RA BR OVC006 11/11 A2969 RMK AO2 CIG 003V008 P0007 T01110106",
      "metarObsTime": 1777493580,
      "faaFlow": null
    },
    "KBTP": {
      "status": "OK",
      "delay": "—",
      "metarCat": "IFR",
      "metarRaw": "METAR KBTP 291956Z AUTO 29009KT 10SM -RA OVC009 14/ A2972 RMK AO2 CIG 005V011 SLP068 P0001 T0139 $",
      "metarObsTime": 1777492560,
      "faaFlow": null
    },
    "KFKL": {
      "status": "OK",
      "delay": "—",
      "metarCat": "IFR",
      "metarRaw": "METAR KFKL 291956Z AUTO 33008KT 10SM -RA BKN007 OVC014 13/12 A2970 RMK AO2 RAE1858B25 CIG 004V010 SLP058 P0001 T01280122",
      "metarObsTime": 1777492560,
      "faaFlow": null
    },
    "KIDI": {
      "status": "OK",
      "delay": "—",
      "metarCat": "IFR",
      "metarRaw": "METAR KIDI 292015Z AUTO 00000KT 1 3/4SM BR BKN008 OVC011 14/14 A2968 RMK A01",
      "metarObsTime": 1777493700,
      "faaFlow": null
    },
    "KMDT": {
      "status": "OK",
      "delay": "—",
      "metarCat": "MVFR",
      "metarRaw": "METAR KMDT 291956Z 13010KT 10SM -RA OVC024 14/09 A2980 RMK AO2 RAE10B27 SLP091 P0000 T01390094",
      "metarObsTime": 1777492560,
      "faaFlow": null
    },
    "KCXY": {
      "status": "OK",
      "delay": "—",
      "metarCat": "MVFR",
      "metarRaw": "METAR KCXY 291956Z 10005KT 10SM OVC021 14/09 A2980 RMK AO2 SLP093 T01390094",
      "metarObsTime": 1777492560,
      "faaFlow": null
    },
    "KMUI": {
      "status": "OK",
      "delay": "—",
      "metarCat": "MVFR",
      "metarRaw": "METAR KMUI 291956Z 08006KT 10SM VCSH BKN018 OVC024 14/13 A2981 RMK AO2A SLP097 T01440131",
      "metarObsTime": 1777492560,
      "faaFlow": null
    },
    "KUNV": {
      "status": "OK",
      "delay": "—",
      "metarCat": "IFR",
      "metarRaw": "METAR KUNV 291953Z 16004KT 7SM -DZ OVC009 12/12 A2976",
      "metarObsTime": 1777492380,
      "faaFlow": null
    },
    "KAOO": {
      "status": "OK",
      "delay": "—",
      "metarCat": "LIFR",
      "metarRaw": "SPECI KAOO 292008Z AUTO 18007KT 4SM -RA BR OVC004 12/11 A2973 RMK AO2 P0000 T01220111",
      "metarObsTime": 1777493280,
      "faaFlow": null
    },
    "KLNS": {
      "status": "OK",
      "delay": "—",
      "metarCat": "VFR",
      "metarRaw": "METAR KLNS 291953Z 11004KT 10SM OVC033 14/08 A2982 RMK AO2 SLP098 T01390078",
      "metarObsTime": 1777492380,
      "faaFlow": null
    },
    "KIPT": {
      "status": "OK",
      "delay": "—",
      "metarCat": "MVFR",
      "metarRaw": "METAR KIPT 291954Z 16011G20KT 10SM BKN010 BKN018 OVC075 13/12 A2977 RMK AO2 RAE51 SLP080 P0002 T01280117",
      "metarObsTime": 1777492440,
      "faaFlow": null
    },
    "KPHL": {
      "status": "OK",
      "delay": "—",
      "metarCat": "VFR",
      "metarRaw": "METAR KPHL 291954Z 17009KT 10SM BKN035 OVC070 17/05 A2986 RMK AO2 SLP112 T01720050 $",
      "metarObsTime": 1777492440,
      "faaFlow": {
        "code": "ROUTE",
        "level": "orange",
        "label": "Route impact possible",
        "time": "0100",
        "text": "N90/PHL SWAP/ESCAPE ROUTES PROBABLE CDRS/SWAP/CAPPING/TUNNELING/HOTLINE/DIVERSION RECOVERY:",
        "section": "En Route Planned"
      }
    },
    "KABE": {
      "status": "OK",
      "delay": "—",
      "metarCat": "VFR",
      "metarRaw": "METAR KABE 291951Z 26006KT 10SM -RA OVC038 13/09 A2986 RMK AO2 RAB26 SLP110 P0000 T01330094",
      "metarObsTime": 1777492260,
      "faaFlow": null
    },
    "KAVP": {
      "status": "OK",
      "delay": "—",
      "metarCat": "VFR",
      "metarRaw": "SPECI KAVP 292010Z VRB05KT 6SM RA OVC031 14/08 A2982 RMK AO2 RAB04 P0000 T01390083",
      "metarObsTime": 1777493400,
      "faaFlow": null
    },
    "KHZL": {
      "status": "OK",
      "delay": "—",
      "metarCat": "IFR",
      "metarRaw": "METAR KHZL 292015Z AUTO 13005KT 5SM RA BKN006 OVC016 10/08 A2985 RMK AO2 P0003",
      "metarObsTime": 1777493700,
      "faaFlow": null
    }
  }
}