{
  "generatedAt": "2026-04-05T12:20:33.529Z",
  "airports": {
    "KPIT": {
      "status": "OK",
      "delay": "—",
      "metarCat": "MVFR",
      "metarRaw": "METAR KPIT 051151Z 30013G23KT 10SM OVC015 07/04 A2996 RMK AO2 PK WND 30028/1116 RAE19 SLP151 P0000 60015 70026 T00670039 10178 20067 53027",
      "metarObsTime": 1775389860
    },
    "KAGC": {
      "status": "OK",
      "delay": "—",
      "metarCat": "IFR",
      "metarRaw": "METAR KAGC 051153Z 30010G19KT 10SM -RA OVC009 07/06 A2995 RMK AO2 SLP143 P0003 60029 70033 T00720056 10183 20072 53027",
      "metarObsTime": 1775389980
    },
    "KLBE": {
      "status": "OK",
      "delay": "—",
      "metarCat": "IFR",
      "metarRaw": "METAR KLBE 051055Z 25010KT 2 1/2SM -RA BR OVC022 10/10 A2992",
      "metarObsTime": 1775386500
    },
    "KJST": {
      "status": "OK",
      "delay": "—",
      "metarCat": "LIFR",
      "metarRaw": "METAR KJST 051154Z AUTO 25011G16KT 10SM -RA OVC004 09/08 A2989 RMK AO2 CIG 003V008 SLP117 P0010 60036 70036 T00890083 10183 20089 51019",
      "metarObsTime": 1775390040
    },
    "KERI": {
      "status": "OK",
      "delay": "—",
      "metarCat": "VFR",
      "metarRaw": "METAR KERI 051151Z 26017G29KT 10SM OVC032 06/01 A2991 RMK AO2 PK WND 24030/1133 SLP128 60019 70057 T00610011 10111 20061 $",
      "metarObsTime": 1775389860
    },
    "KDUJ": {
      "status": "OK",
      "delay": "—",
      "metarCat": "MVFR",
      "metarRaw": "SPECI KDUJ 051214Z AUTO 24015KT 10SM BKN012 OVC020 07/06 A2987 RMK AO2 T00720061",
      "metarObsTime": 1775391240
    },
    "KBFD": {
      "status": "OK",
      "delay": "—",
      "metarCat": "IFR",
      "metarRaw": "SPECI KBFD 051201Z AUTO 27008KT 8SM -RA BKN007 BKN014 BKN025 07/06 A2983 RMK AO2 CIG 005V010 P0000 T00670056",
      "metarObsTime": 1775390460
    },
    "KBTP": {
      "status": "OK",
      "delay": "—",
      "metarCat": "MVFR",
      "metarRaw": "METAR KBTP 051156Z AUTO 28010G18KT 10SM OVC020 06/04 A2996 RMK AO2 SLP150 60007 70007 T00610039 10156 20061 53026 $",
      "metarObsTime": 1775390160
    },
    "KFKL": {
      "status": "OK",
      "delay": "—",
      "metarCat": "MVFR",
      "metarRaw": "METAR KFKL 051156Z AUTO 26012KT 10SM OVC016 06/03 A2992 RMK AO2 SLP130 60017 70069 T00560033 10128 20056 53019",
      "metarObsTime": 1775390160
    },
    "KIDI": {
      "status": "OK",
      "delay": "—",
      "metarCat": "IFR",
      "metarRaw": "METAR KIDI 051215Z AUTO 29018KT 5SM BR BKN009 BKN013 OVC022 09/08 A2993 RMK A01",
      "metarObsTime": 1775391300
    },
    "KMDT": {
      "status": "OK",
      "delay": "—",
      "metarCat": "LIFR",
      "metarRaw": "METAR KMDT 051156Z 03003KT 1SM R13/4500VP6000FT BR OVC002 09/09 A2984 RMK AO2 SFC VIS 1 1/4 SLP103 T00890089 10100 20089 56015 $",
      "metarObsTime": 1775390160
    },
    "KCXY": {
      "status": "OK",
      "delay": "—",
      "metarCat": "LIFR",
      "metarRaw": "METAR KCXY 051156Z 08004KT 3/4SM R08/2600V3000FT BR OVC002 09/08 A2984 RMK AO2 SLP105 T00890083 10100 20083 56015 $",
      "metarObsTime": 1775390160
    },
    "KMUI": {
      "status": "OK",
      "delay": "—",
      "metarCat": "LIFR",
      "metarRaw": "METAR KMUI 051155Z AUTO 08003KT 3/4SM BR OVC002 08/08 A2983 RMK AO2 SLP104 60000 T00830080 10090 20073 57017 RVRNO",
      "metarObsTime": 1775390100
    },
    "KUNV": {
      "status": "OK",
      "delay": "—",
      "metarCat": "IFR",
      "metarRaw": "METAR KUNV 051153Z 29007KT 4SM RA OVC009 13/13 A2985",
      "metarObsTime": 1775389980
    },
    "KAOO": {
      "status": "OK",
      "delay": "—",
      "metarCat": "MVFR",
      "metarRaw": "SPECI KAOO 051213Z AUTO 23007KT 5SM -RA BR BKN023 BKN038 OVC080 12/11 A2988 RMK AO2 P0005 T01170106",
      "metarObsTime": 1775391180
    },
    "KLNS": {
      "status": "OK",
      "delay": "—",
      "metarCat": "LIFR",
      "metarRaw": "METAR KLNS 051153Z 08004KT 2SM BR OVC003 09/09 A2984 RMK AO2 SLP105 T00940094 10094 20083 56017",
      "metarObsTime": 1775389980
    },
    "KIPT": {
      "status": "OK",
      "delay": "—",
      "metarCat": "IFR",
      "metarRaw": "SPECI KIPT 051201Z 10004KT 5SM -RA BR OVC006 11/10 A2981 RMK AO2 P0001 T01060100",
      "metarObsTime": 1775390460
    },
    "KPHL": {
      "status": "OK",
      "delay": "—",
      "metarCat": "MVFR",
      "metarRaw": "SPECI KPHL 051200Z 08004KT 3SM BR SCT003 BKN110 12/09 A2987 RMK AO2 T01170094 $",
      "metarObsTime": 1775390400
    },
    "KABE": {
      "status": "OK",
      "delay": "—",
      "metarCat": "LIFR",
      "metarRaw": "METAR KABE 051151Z 07004KT 1SM BR OVC002 07/06 A2987 RMK AO2 SLP115 T00670061 10067 20056 56022 $",
      "metarObsTime": 1775389860
    },
    "KAVP": {
      "status": "OK",
      "delay": "—",
      "metarCat": "MVFR",
      "metarRaw": "METAR KAVP 051154Z AUTO 23007KT 10SM OVC011 11/09 A2982 RMK AO2 RAB13E26 SLP095 P0000 60000 T01110089 10111 20083 56016",
      "metarObsTime": 1775390040
    },
    "KHZL": {
      "status": "OK",
      "delay": "—",
      "metarCat": "LIFR",
      "metarRaw": "METAR KHZL 051212Z AUTO 00000KT 1/4SM FG OVC002 09/08 A2985 RMK AO2",
      "metarObsTime": 1775391120
    }
  }
}