{
  "generatedAt": "2026-04-12T19:00:47.243Z",
  "airports": {
    "KPIT": {
      "status": "OK",
      "delay": "—",
      "metarCat": "VFR",
      "metarRaw": "METAR KPIT 121851Z 21011KT 10SM FEW110 OVC250 23/07 A3017 RMK AO2 SLP223 T02330072 $",
      "metarObsTime": 1776019860
    },
    "KAGC": {
      "status": "OK",
      "delay": "—",
      "metarCat": "VFR",
      "metarRaw": "METAR KAGC 121853Z 21010KT 10SM CLR 24/09 A3017 RMK AO2 SLP220 T02440089",
      "metarObsTime": 1776019980
    },
    "KLBE": {
      "status": "OK",
      "delay": "—",
      "metarCat": "VFR",
      "metarRaw": "METAR KLBE 121847Z 24010G20KT 10SM FEW038 SCT046 BKN070 25/09 A3021",
      "metarObsTime": 1776019620
    },
    "KJST": {
      "status": "OK",
      "delay": "—",
      "metarCat": "VFR",
      "metarRaw": "METAR KJST 121854Z AUTO 17010KT 10SM CLR 21/04 A3023 RMK AO2 SLP237 T02060044",
      "metarObsTime": 1776020040
    },
    "KERI": {
      "status": "OK",
      "delay": "—",
      "metarCat": "VFR",
      "metarRaw": "METAR KERI 121851Z 17012G24KT 10SM BKN085 BKN110 21/07 A3010 RMK AO2 SLP195 T02110067 $",
      "metarObsTime": 1776019860
    },
    "KDUJ": {
      "status": "OK",
      "delay": "—",
      "metarCat": "VFR",
      "metarRaw": "METAR KDUJ 121853Z AUTO 24009G15KT 10SM CLR 22/03 A3019 RMK AO2 SLP224 T02170033",
      "metarObsTime": 1776019980
    },
    "KBFD": {
      "status": "OK",
      "delay": "—",
      "metarCat": "VFR",
      "metarRaw": "METAR KBFD 121853Z AUTO 19009G21KT 10SM FEW085 OVC100 18/01 A3019 RMK AO2 SLP231 T01780006",
      "metarObsTime": 1776019980
    },
    "KBTP": {
      "status": "OK",
      "delay": "—",
      "metarCat": "VFR",
      "metarRaw": "METAR KBTP 121856Z AUTO 22007KT 10SM CLR 24/09 A3018 RMK AO2 SLP224 T02390089 $",
      "metarObsTime": 1776020160
    },
    "KFKL": {
      "status": "OK",
      "delay": "—",
      "metarCat": "VFR",
      "metarRaw": "METAR KFKL 121856Z AUTO 22011G17KT 10SM BKN100 21/07 A3017 RMK AO2 SLP221 T02060072",
      "metarObsTime": 1776020160
    },
    "KIDI": {
      "status": "OK",
      "delay": "—",
      "metarCat": "VFR",
      "metarRaw": "METAR KIDI 121855Z AUTO 25010KT 10SM CLR 24/06 A3020 RMK A01",
      "metarObsTime": 1776020100
    },
    "KMDT": {
      "status": "OK",
      "delay": "—",
      "metarCat": "VFR",
      "metarRaw": "METAR KMDT 121856Z 16011G18KT 10SM SCT050 SCT250 18/07 A3032 RMK AO2 SLP267 T01830067",
      "metarObsTime": 1776020160
    },
    "KCXY": {
      "status": "OK",
      "delay": "—",
      "metarCat": "VFR",
      "metarRaw": "METAR KCXY 121856Z 16010G17KT 10SM CLR 20/06 A3031 RMK AO2 SLP266 T02000061 $",
      "metarObsTime": 1776020160
    },
    "KMUI": {
      "status": "OK",
      "delay": "—",
      "metarCat": "VFR",
      "metarRaw": "METAR KMUI 121755Z AUTO 15009KT 10SM FEW130 BKN170 18/06 A3035 RMK AO2 SLP281 T01840056 10185 20069 57030",
      "metarObsTime": 1776016500
    },
    "KUNV": {
      "status": "OK",
      "delay": "—",
      "metarCat": "VFR",
      "metarRaw": "METAR KUNV 121753Z 18011G17KT 10SM CLR 18/04 A3029",
      "metarObsTime": 1776016380
    },
    "KAOO": {
      "status": "OK",
      "delay": "—",
      "metarCat": "VFR",
      "metarRaw": "METAR KAOO 121853Z AUTO 17014KT 10SM CLR 20/06 A3025 RMK AO2 SLP245 T02000061",
      "metarObsTime": 1776019980
    },
    "KLNS": {
      "status": "OK",
      "delay": "—",
      "metarCat": "VFR",
      "metarRaw": "METAR KLNS 121853Z 17010G20KT 10SM CLR 17/06 A3035 RMK AO2 SLP279 T01720056",
      "metarObsTime": 1776019980
    },
    "KIPT": {
      "status": "OK",
      "delay": "—",
      "metarCat": "VFR",
      "metarRaw": "METAR KIPT 121854Z 15010G20KT 10SM CLR 18/03 A3027 RMK AO2 PK WND 15028/1810 SLP250 T01830033 $",
      "metarObsTime": 1776020040
    },
    "KPHL": {
      "status": "OK",
      "delay": "—",
      "metarCat": "VFR",
      "metarRaw": "METAR KPHL 121854Z 21011G19KT 10SM FEW110 SCT190 BKN280 19/02 A3040 RMK AO2 SLP294 T01890022 $",
      "metarObsTime": 1776020040
    },
    "KABE": {
      "status": "OK",
      "delay": "—",
      "metarCat": "VFR",
      "metarRaw": "METAR KABE 121851Z 17011G21KT 10SM CLR 17/01 A3037 RMK AO2 SLP286 T01670011 $",
      "metarObsTime": 1776019860
    },
    "KAVP": {
      "status": "OK",
      "delay": "—",
      "metarCat": "VFR",
      "metarRaw": "METAR KAVP 121854Z VRB03G22KT 10SM CLR 17/01 A3030 RMK AO2 SLP262 T01720011",
      "metarObsTime": 1776020040
    },
    "KHZL": {
      "status": "OK",
      "delay": "—",
      "metarCat": "VFR",
      "metarRaw": "METAR KHZL 121855Z AUTO 16005G18KT 10SM CLR 16/00 A3035 RMK AO2",
      "metarObsTime": 1776020100
    }
  }
}