{
  "generatedAt": "2026-04-02T12:40:42.928Z",
  "airports": {
    "KPIT": {
      "status": "OK",
      "delay": "—",
      "metarCat": "LIFR",
      "metarRaw": "METAR KPIT 021151Z 00000KT 1/8SM R28R/2400V2600FT FG VV002 10/09 A3017 RMK AO2 SFC VIS 1/4 SLP227 60001 70037 T01000094 10100 20083 53010",
      "metarObsTime": 1775130660
    },
    "KAGC": {
      "status": "OK",
      "delay": "—",
      "metarCat": "LIFR",
      "metarRaw": "SPECI KAGC 021220Z 00000KT 1/4SM R28/1600V2600FT FG VV003 12/12 A3017 RMK AO2 RAE15 P0000 T01170117",
      "metarObsTime": 1775132400
    },
    "KLBE": {
      "status": "OK",
      "delay": "—",
      "metarCat": "VFR",
      "metarRaw": "METAR KLBE 021147Z 00000KT 6SM BR SCT050 BKN080 12/12 A3018",
      "metarObsTime": 1775130420
    },
    "KJST": {
      "status": "OK",
      "delay": "—",
      "metarCat": "MVFR",
      "metarRaw": "METAR KJST 021154Z AUTO 14006KT 3SM BR FEW001 BKN055 OVC120 09/09 A3020 RMK AO2 RAB07E35 SLP225 P0002 60002 70009 T00940094 10094 20083 51019",
      "metarObsTime": 1775130840
    },
    "KERI": {
      "status": "OK",
      "delay": "—",
      "metarCat": "IFR",
      "metarRaw": "METAR KERI 021151Z 05010KT 7SM OVC005 02/02 A3020 RMK AO2 SLP233 70035 T00220017 10028 20017 53001 $",
      "metarObsTime": 1775130660
    },
    "KDUJ": {
      "status": "OK",
      "delay": "—",
      "metarCat": "LIFR",
      "metarRaw": "METAR KDUJ 021153Z AUTO 11010KT 6SM BR OVC004 06/06 A3020 RMK AO2 SLP233 70121 T00610056 10061 20056 53015",
      "metarObsTime": 1775130780
    },
    "KBFD": {
      "status": "OK",
      "delay": "—",
      "metarCat": "LIFR",
      "metarRaw": "SPECI KBFD 021235Z AUTO 12007KT 3/4SM BR OVC002 04/04 A3022 RMK AO2 T00390039",
      "metarObsTime": 1775133300
    },
    "KBTP": {
      "status": "OK",
      "delay": "—",
      "metarCat": "LIFR",
      "metarRaw": "METAR KBTP 021156Z AUTO 09005KT 9SM -RA OVC004 10/ A3019 RMK AO2 SLP233 P0001 60001 70047 T0100 10100 20094 53016 $",
      "metarObsTime": 1775130960
    },
    "KFKL": {
      "status": "OK",
      "delay": "—",
      "metarCat": "LIFR",
      "metarRaw": "METAR KFKL 021156Z AUTO 11005KT 1/2SM FG OVC003 07/07 A3019 RMK AO2 SLP233 60000 70063 T00670067 10067 20061 53012",
      "metarObsTime": 1775130960
    },
    "KIDI": {
      "status": "OK",
      "delay": "—",
      "metarCat": "VFR",
      "metarRaw": "METAR KIDI 021235Z AUTO 10007KT 10SM FEW080 SCT120 12/11 A3021 RMK A01",
      "metarObsTime": 1775133300
    },
    "KMDT": {
      "status": "OK",
      "delay": "—",
      "metarCat": "IFR",
      "metarRaw": "SPECI KMDT 021227Z 11010KT 5SM BR BKN006 OVC011 09/09 A3030 RMK AO2 DZE13 P0000 T00940089",
      "metarObsTime": 1775132820
    },
    "KCXY": {
      "status": "OK",
      "delay": "—",
      "metarCat": "IFR",
      "metarRaw": "METAR KCXY 021156Z 10012KT 2SM BR BKN005 OVC012 09/08 A3030 RMK AO2 RAB36E46 CIG 004V009 SLP259 P0000 60001 70015 T00940083 10122 20094 53020",
      "metarObsTime": 1775130960
    },
    "KMUI": {
      "status": "OK",
      "delay": "—",
      "metarCat": "LIFR",
      "metarRaw": "METAR KMUI 021155Z 07008KT 2SM -DZ BR OVC004 09/09 A3029 RMK AO2A SLP260 60001 70024 T00930090 10120 20093 52031",
      "metarObsTime": 1775130900
    },
    "KUNV": {
      "status": "OK",
      "delay": "—",
      "metarCat": "LIFR",
      "metarRaw": "SPECI KUNV 021227Z COR 01003KT 1SM R24/P6000FT -RA BR OVC003 06/06 A3027",
      "metarObsTime": 1775132820
    },
    "KAOO": {
      "status": "OK",
      "delay": "—",
      "metarCat": "LIFR",
      "metarRaw": "SPECI KAOO 021215Z AUTO 06003KT 1 3/4SM -RA BR OVC004 07/07 A3026 RMK AO2 RAB1157E08B11 P0000 T00720067",
      "metarObsTime": 1775132100
    },
    "KLNS": {
      "status": "OK",
      "delay": "—",
      "metarCat": "MVFR",
      "metarRaw": "METAR KLNS 021153Z 09016G23KT 10SM OVC010 08/07 A3030 RMK AO2 SLP261 60010 70019 T00830072 10128 20083 50021",
      "metarObsTime": 1775130780
    },
    "KIPT": {
      "status": "OK",
      "delay": "—",
      "metarCat": "MVFR",
      "metarRaw": "SPECI KIPT 021236Z 06004KT 9SM OVC014 07/07 A3029 RMK AO2 T00720067 $",
      "metarObsTime": 1775133360
    },
    "KPHL": {
      "status": "OK",
      "delay": "—",
      "metarCat": "IFR",
      "metarRaw": "SPECI KPHL 021226Z 07013G22KT 2 1/2SM -RA BR OVC008 08/07 A3035 RMK AO2 RAB20 CIG 007V009 P0000 T00830067 $",
      "metarObsTime": 1775132760
    },
    "KABE": {
      "status": "OK",
      "delay": "—",
      "metarCat": "IFR",
      "metarRaw": "SPECI KABE 021205Z 09012KT 4SM BR BKN007 OVC013 07/07 A3035 RMK AO2 T00720067 $",
      "metarObsTime": 1775131500
    },
    "KAVP": {
      "status": "OK",
      "delay": "—",
      "metarCat": "MVFR",
      "metarRaw": "SPECI KAVP 021223Z VRB04KT 10SM OVC014 07/05 A3032 RMK AO2 T00720050",
      "metarObsTime": 1775132580
    },
    "KHZL": {
      "status": "OK",
      "delay": "—",
      "metarCat": "LIFR",
      "metarRaw": "METAR KHZL 021235Z AUTO 11005KT 10SM OVC004 06/05 A3033 RMK AO2",
      "metarObsTime": 1775133300
    }
  }
}