{
  "generatedAt": "2026-04-08T02:40:49.057Z",
  "airports": {
    "KPIT": {
      "status": "OK",
      "delay": "—",
      "metarCat": "VFR",
      "metarRaw": "METAR KPIT 080151Z 02009G20KT 10SM FEW250 01/M09 A3046 RMK AO2 SLP335 T00061089",
      "metarObsTime": 1775613060
    },
    "KAGC": {
      "status": "OK",
      "delay": "—",
      "metarCat": "VFR",
      "metarRaw": "METAR KAGC 080153Z 36004KT 10SM CLR M01/M09 A3046 RMK AO2 SLP333 T10061094",
      "metarObsTime": 1775613180
    },
    "KLBE": {
      "status": "OK",
      "delay": "—",
      "metarCat": "VFR",
      "metarRaw": "METAR KLBE 080235Z AUTO 00000KT 10SM CLR M01/M08 A3049 RMK AO2",
      "metarObsTime": 1775615700
    },
    "KJST": {
      "status": "OK",
      "delay": "—",
      "metarCat": "VFR",
      "metarRaw": "METAR KJST 080154Z AUTO 36003KT 10SM CLR M01/M12 A3040 RMK AO2 SLP320 T10111122 $",
      "metarObsTime": 1775613240
    },
    "KERI": {
      "status": "OK",
      "delay": "—",
      "metarCat": "VFR",
      "metarRaw": "METAR KERI 080151Z 18003KT 10SM CLR M03/M09 A3053 RMK AO2 SLP348 T10331089 $",
      "metarObsTime": 1775613060
    },
    "KDUJ": {
      "status": "OK",
      "delay": "—",
      "metarCat": "VFR",
      "metarRaw": "METAR KDUJ 080153Z AUTO 32004KT 10SM CLR M02/M13 A3043 RMK AO2 SLP328 T10221128",
      "metarObsTime": 1775613180
    },
    "KBFD": {
      "status": "OK",
      "delay": "—",
      "metarCat": "VFR",
      "metarRaw": "METAR KBFD 080153Z AUTO 35003KT 10SM CLR M06/M11 A3042 RMK AO2 SLP333 T10561111",
      "metarObsTime": 1775613180
    },
    "KBTP": {
      "status": "OK",
      "delay": "—",
      "metarCat": "VFR",
      "metarRaw": "METAR KBTP 080156Z AUTO 36004KT 10SM CLR M02/M08 A3049 RMK AO2 SLP345 T10221083 FZRANO $",
      "metarObsTime": 1775613360
    },
    "KFKL": {
      "status": "OK",
      "delay": "—",
      "metarCat": "VFR",
      "metarRaw": "METAR KFKL 080156Z AUTO 00000KT 10SM CLR M03/M09 A3047 RMK AO2 SLP342 T10331089 FZRANO",
      "metarObsTime": 1775613360
    },
    "KIDI": {
      "status": "OK",
      "delay": "—",
      "metarCat": "VFR",
      "metarRaw": "METAR KIDI 080235Z AUTO 00000KT 10SM BKN044 OVC055 M03/M09 A3047 RMK A01",
      "metarObsTime": 1775615700
    },
    "KMDT": {
      "status": "OK",
      "delay": "—",
      "metarCat": "VFR",
      "metarRaw": "METAR KMDT 080156Z 35004KT 10SM FEW250 04/M11 A3046 RMK AO2 SLP316 T00441111",
      "metarObsTime": 1775613360
    },
    "KCXY": {
      "status": "OK",
      "delay": "—",
      "metarCat": "VFR",
      "metarRaw": "METAR KCXY 080156Z AUTO 36006KT 10SM CLR 06/M12 A3047 RMK AO2 SLP321 T00561122 $",
      "metarObsTime": 1775613360
    },
    "KMUI": {
      "status": "OK",
      "delay": "—",
      "metarCat": "VFR",
      "metarRaw": "METAR KMUI 080155Z 02007KT 10SM CLR 04/M11 A3044 RMK AO2A SLP314 T00401108",
      "metarObsTime": 1775613300
    },
    "KUNV": {
      "status": "OK",
      "delay": "—",
      "metarCat": "VFR",
      "metarRaw": "METAR KUNV 080235Z AUTO 00000KT 10SM CLR 00/M12 A3046 RMK AO2 T00001119",
      "metarObsTime": 1775615700
    },
    "KAOO": {
      "status": "OK",
      "delay": "—",
      "metarCat": "VFR",
      "metarRaw": "METAR KAOO 080153Z AUTO 35006KT 10SM CLR M01/M11 A3044 RMK AO2 SLP324 T10061111 $",
      "metarObsTime": 1775613180
    },
    "KLNS": {
      "status": "OK",
      "delay": "—",
      "metarCat": "VFR",
      "metarRaw": "METAR KLNS 080153Z 02006KT 10SM CLR 03/M09 A3046 RMK AO2 SLP315 T00281089",
      "metarObsTime": 1775613180
    },
    "KIPT": {
      "status": "OK",
      "delay": "—",
      "metarCat": "VFR",
      "metarRaw": "METAR KIPT 080154Z VRB03KT 10SM CLR 01/M11 A3049 RMK AO2 SLP329 T00061111",
      "metarObsTime": 1775613240
    },
    "KPHL": {
      "status": "OK",
      "delay": "—",
      "metarCat": "VFR",
      "metarRaw": "METAR KPHL 080154Z 36011KT 10SM CLR 07/M11 A3046 RMK AO2 SLP313 T00671106",
      "metarObsTime": 1775613240
    },
    "KABE": {
      "status": "OK",
      "delay": "—",
      "metarCat": "VFR",
      "metarRaw": "METAR KABE 080151Z 36006KT 10SM CLR 01/M11 A3048 RMK AO2 SLP324 T00111106 $",
      "metarObsTime": 1775613060
    },
    "KAVP": {
      "status": "OK",
      "delay": "—",
      "metarCat": "VFR",
      "metarRaw": "METAR KAVP 080154Z 02006KT 10SM CLR M02/M09 A3047 RMK AO2 SLP324 T10171094",
      "metarObsTime": 1775613240
    },
    "KHZL": {
      "status": "OK",
      "delay": "—",
      "metarCat": "VFR",
      "metarRaw": "METAR KHZL 080235Z AUTO 34008KT 10SM CLR M01/M11 A3046 RMK AO2",
      "metarObsTime": 1775615700
    }
  }
}