{
  "generatedAt": "2026-04-03T04:30:36.813Z",
  "airports": {
    "KPIT": {
      "status": "OK",
      "delay": "—",
      "metarCat": "VFR",
      "metarRaw": "METAR KPIT 030351Z 15007KT 10SM SCT080 BKN120 19/14 A3005 RMK AO2 SLP178 T01940139",
      "metarObsTime": 1775188260
    },
    "KAGC": {
      "status": "OK",
      "delay": "—",
      "metarCat": "VFR",
      "metarRaw": "METAR KAGC 030353Z 14008KT 10SM FEW085 18/14 A3007 RMK AO2 RAE0255 SLP181 P0000 T01780139",
      "metarObsTime": 1775188380
    },
    "KLBE": {
      "status": "OK",
      "delay": "—",
      "metarCat": "VFR",
      "metarRaw": "METAR KLBE 030415Z AUTO VRB04KT 10SM CLR 17/13 A3012 RMK AO2",
      "metarObsTime": 1775189700
    },
    "KJST": {
      "status": "OK",
      "delay": "—",
      "metarCat": "LIFR",
      "metarRaw": "METAR KJST 030354Z AUTO 14006KT 3SM BR OVC002 10/10 A3020 RMK AO2 SLP228 T01000100",
      "metarObsTime": 1775188440
    },
    "KERI": {
      "status": "OK",
      "delay": "—",
      "metarCat": "VFR",
      "metarRaw": "METAR KERI 030351Z 16021G31KT 10SM SCT110 18/13 A2996 RMK AO2 PK WND 14031/0349 SLP145 T01780133 $",
      "metarObsTime": 1775188260
    },
    "KDUJ": {
      "status": "OK",
      "delay": "—",
      "metarCat": "LIFR",
      "metarRaw": "SPECI KDUJ 030410Z AUTO 12014G24KT 10SM OVC004 10/09 A3014 RMK AO2 RAE03 CIG 003V008 P0000 T01000089",
      "metarObsTime": 1775189400
    },
    "KBFD": {
      "status": "OK",
      "delay": "—",
      "metarCat": "LIFR",
      "metarRaw": "METAR KBFD 030353Z AUTO 15012G18KT 9SM OVC003 09/09 A3014 RMK AO2 RAB07E27 SLP209 P0000 T00940089",
      "metarObsTime": 1775188380
    },
    "KBTP": {
      "status": "OK",
      "delay": "—",
      "metarCat": "VFR",
      "metarRaw": "METAR KBTP 030356Z AUTO 14009KT 10SM FEW085 17/15 A3007 RMK AO2 SLP185 T01720150 402670089 $",
      "metarObsTime": 1775188560
    },
    "KFKL": {
      "status": "OK",
      "delay": "—",
      "metarCat": "VFR",
      "metarRaw": "METAR KFKL 030356Z AUTO 15010G20KT 10SM BKN080 14/13 A3007 RMK AO2 SLP183 T01440128",
      "metarObsTime": 1775188560
    },
    "KIDI": {
      "status": "OK",
      "delay": "—",
      "metarCat": "VFR",
      "metarRaw": "METAR KIDI 030415Z AUTO 15010KT 10SM FEW041 SCT095 BKN120 14/12 A3015 RMK A01",
      "metarObsTime": 1775189700
    },
    "KMDT": {
      "status": "OK",
      "delay": "—",
      "metarCat": "IFR",
      "metarRaw": "SPECI KMDT 030425Z 11009KT 3SM BR OVC006 06/06 A3036 RMK AO2 CIG 005V009 T00610056",
      "metarObsTime": 1775190300
    },
    "KCXY": {
      "status": "OK",
      "delay": "—",
      "metarCat": "IFR",
      "metarRaw": "SPECI KCXY 030427Z AUTO 10007KT 2 1/2SM BR OVC005 06/06 A3036 RMK AO2 CIG 003V009 T00610056",
      "metarObsTime": 1775190420
    },
    "KMUI": {
      "status": "OK",
      "delay": "—",
      "metarCat": "LIFR",
      "metarRaw": "METAR KMUI 030355Z AUTO 07008KT 4SM BR OVC004 06/06 A3035 RMK AO2 SLP283 T00580055",
      "metarObsTime": 1775188500
    },
    "KUNV": {
      "status": "OK",
      "delay": "—",
      "metarCat": "IFR",
      "metarRaw": "METAR KUNV 030415Z AUTO 15005KT 7SM OVC006 07/07 A3027 RMK AO2 T00710071",
      "metarObsTime": 1775189700
    },
    "KAOO": {
      "status": "OK",
      "delay": "—",
      "metarCat": "LIFR",
      "metarRaw": "METAR KAOO 030353Z AUTO 13007KT 2SM BR OVC004 08/08 A3026 RMK AO2 SLP252 T00830078",
      "metarObsTime": 1775188380
    },
    "KLNS": {
      "status": "OK",
      "delay": "—",
      "metarCat": "LIFR",
      "metarRaw": "METAR KLNS 030353Z AUTO 10009KT 3SM BR OVC004 06/05 A3037 RMK AO2 CIG 003V008 SLP286 T00560050",
      "metarObsTime": 1775188380
    },
    "KIPT": {
      "status": "OK",
      "delay": "—",
      "metarCat": "IFR",
      "metarRaw": "SPECI KIPT 030420Z AUTO 06013G18KT 5SM BR OVC009 07/05 A3031 RMK AO2 T00670050 $",
      "metarObsTime": 1775190000
    },
    "KPHL": {
      "status": "OK",
      "delay": "—",
      "metarCat": "IFR",
      "metarRaw": "METAR KPHL 030354Z 07010KT 2SM -DZ BR OVC007 07/05 A3041 RMK AO2 SLP296 P0000 T00670050 $",
      "metarObsTime": 1775188440
    },
    "KABE": {
      "status": "OK",
      "delay": "—",
      "metarCat": "IFR",
      "metarRaw": "METAR KABE 030351Z 11011KT 10SM OVC009 05/03 A3040 RMK AO2 SLP296 T00500033 $",
      "metarObsTime": 1775188260
    },
    "KAVP": {
      "status": "OK",
      "delay": "—",
      "metarCat": "MVFR",
      "metarRaw": "METAR KAVP 030354Z AUTO VRB04KT 10SM OVC013 06/03 A3034 RMK AO2 SLP276 T00560028",
      "metarObsTime": 1775188440
    },
    "KHZL": {
      "status": "OK",
      "delay": "—",
      "metarCat": "LIFR",
      "metarRaw": "METAR KHZL 030415Z AUTO 13006G14KT 4SM -DZ OVC002 03/02 A3033 RMK AO2",
      "metarObsTime": 1775189700
    }
  }
}