{
  "generatedAt": "2026-03-31T13:10:28.899Z",
  "airports": {
    "KPIT": {
      "status": "OK",
      "delay": "—",
      "metarCat": "VFR",
      "metarRaw": "METAR KPIT 311251Z 23015G25KT 10SM FEW090 OVC220 18/12 A3002 RMK AO2 PK WND 25026/1206 SLP169 T01830117",
      "metarObsTime": 1774961460
    },
    "KAGC": {
      "status": "OK",
      "delay": "—",
      "metarCat": "VFR",
      "metarRaw": "METAR KAGC 311253Z 21013G23KT 10SM FEW031 18/12 A3004 RMK AO2 SLP171 T01830117",
      "metarObsTime": 1774961580
    },
    "KLBE": {
      "status": "OK",
      "delay": "—",
      "metarCat": "VFR",
      "metarRaw": "METAR KLBE 311247Z 21015KT 20SM BKN050 19/12 A3007",
      "metarObsTime": 1774961220
    },
    "KJST": {
      "status": "OK",
      "delay": "—",
      "metarCat": "VFR",
      "metarRaw": "METAR KJST 311254Z AUTO 24015G25KT 10SM SCT025 16/11 A3006 RMK AO2 SLP174 T01610111",
      "metarObsTime": 1774961640
    },
    "KERI": {
      "status": "OK",
      "delay": "—",
      "metarCat": "VFR",
      "metarRaw": "METAR KERI 311251Z 19013G22KT 10SM OVC045 17/13 A2993 RMK AO2 RAB21E48 SLP133 P0001 T01720133",
      "metarObsTime": 1774961460
    },
    "KDUJ": {
      "status": "OK",
      "delay": "—",
      "metarCat": "MVFR",
      "metarRaw": "METAR KDUJ 311253Z AUTO 24014G21KT 10SM OVC028 16/11 A3002 RMK AO2 SLP162 T01610111",
      "metarObsTime": 1774961580
    },
    "KBFD": {
      "status": "OK",
      "delay": "—",
      "metarCat": "MVFR",
      "metarRaw": "METAR KBFD 311253Z AUTO VRB05KT 10SM OVC024 14/11 A3000 RMK AO2 RAB05E51 SLP154 P0001 T01440111",
      "metarObsTime": 1774961580
    },
    "KBTP": {
      "status": "OK",
      "delay": "—",
      "metarCat": "MVFR",
      "metarRaw": "SPECI KBTP 311303Z AUTO 24012G17KT 10SM OVC029 18/12 A3003 RMK AO2 $",
      "metarObsTime": 1774962180
    },
    "KFKL": {
      "status": "OK",
      "delay": "—",
      "metarCat": "MVFR",
      "metarRaw": "METAR KFKL 311256Z AUTO 22011G20KT 10SM OVC026 17/12 A3000 RMK AO2 SLP155 T01720122",
      "metarObsTime": 1774961760
    },
    "KIDI": {
      "status": "OK",
      "delay": "—",
      "metarCat": "VFR",
      "metarRaw": "METAR KIDI 311255Z AUTO 23012G17KT 10SM OVC031 18/12 A3005 RMK A01",
      "metarObsTime": 1774961700
    },
    "KMDT": {
      "status": "OK",
      "delay": "—",
      "metarCat": "VFR",
      "metarRaw": "METAR KMDT 311256Z 22010G17KT 10SM BKN095 BKN250 17/10 A3005 RMK AO2 SLP177 T01720100",
      "metarObsTime": 1774961760
    },
    "KCXY": {
      "status": "OK",
      "delay": "—",
      "metarCat": "VFR",
      "metarRaw": "METAR KCXY 311256Z 24005KT 10SM BKN100 17/11 A3005 RMK AO2 SLP178 T01720106",
      "metarObsTime": 1774961760
    },
    "KMUI": {
      "status": "OK",
      "delay": "—",
      "metarCat": "VFR",
      "metarRaw": "METAR KMUI 311255Z 16003KT 10SM FEW070 BKN100 BKN250 15/13 A3003 RMK AO2A SLP171 T01480128",
      "metarObsTime": 1774961700
    },
    "KUNV": {
      "status": "OK",
      "delay": "—",
      "metarCat": "VFR",
      "metarRaw": "METAR KUNV 311253Z 24012G17KT 10SM SCT045 19/11 A3001",
      "metarObsTime": 1774961580
    },
    "KAOO": {
      "status": "OK",
      "delay": "—",
      "metarCat": "VFR",
      "metarRaw": "METAR KAOO 311253Z AUTO 22014G22KT 10SM BKN036 18/11 A3005 RMK AO2 SLP169 T01830111",
      "metarObsTime": 1774961580
    },
    "KLNS": {
      "status": "OK",
      "delay": "—",
      "metarCat": "VFR",
      "metarRaw": "METAR KLNS 311253Z 22008KT 10SM CLR 18/11 A3006 RMK AO2 SLP179 T01830106",
      "metarObsTime": 1774961580
    },
    "KIPT": {
      "status": "OK",
      "delay": "—",
      "metarCat": "VFR",
      "metarRaw": "METAR KIPT 311254Z 00000KT 10SM CLR 14/11 A2996 RMK AO2 SLP145 T01390111 $",
      "metarObsTime": 1774961640
    },
    "KPHL": {
      "status": "OK",
      "delay": "—",
      "metarCat": "VFR",
      "metarRaw": "METAR KPHL 311254Z 23014KT 10SM FEW090 BKN170 BKN300 19/10 A3009 RMK AO2 SLP188 T01890100 $",
      "metarObsTime": 1774961640
    },
    "KABE": {
      "status": "OK",
      "delay": "—",
      "metarCat": "VFR",
      "metarRaw": "METAR KABE 311251Z 24014G23KT 10SM FEW110 18/11 A3004 RMK AO2 SLP170 T01830106 $",
      "metarObsTime": 1774961460
    },
    "KAVP": {
      "status": "OK",
      "delay": "—",
      "metarCat": "VFR",
      "metarRaw": "METAR KAVP 311254Z AUTO 25010G17KT 10SM FEW090 17/10 A3000 RMK AO2 SLP153 T01720100",
      "metarObsTime": 1774961640
    },
    "KHZL": {
      "status": "OK",
      "delay": "—",
      "metarCat": "VFR",
      "metarRaw": "METAR KHZL 311255Z AUTO 22004KT 10SM CLR 16/08 A3006 RMK AO2",
      "metarObsTime": 1774961700
    }
  }
}