{
  "generatedAt": "2026-04-02T03:00:35.002Z",
  "airports": {
    "KPIT": {
      "status": "OK",
      "delay": "—",
      "metarCat": "IFR",
      "metarRaw": "METAR KPIT 020251Z 12006KT 8SM -RA BKN005 OVC021 09/08 A3014 RMK AO2 SLP215 P0016 60016 T00890078 50013 $",
      "metarObsTime": 1775098260
    },
    "KAGC": {
      "status": "OK",
      "delay": "—",
      "metarCat": "IFR",
      "metarRaw": "METAR KAGC 020253Z 34004KT 6SM -RA BR BKN007 OVC011 10/09 A3014 RMK AO2 RAB20 SLP211 P0002 60005 T01000089 51020",
      "metarObsTime": 1775098380
    },
    "KLBE": {
      "status": "OK",
      "delay": "—",
      "metarCat": "MVFR",
      "metarRaw": "METAR KLBE 020255Z AUTO 30004KT 9SM -RA OVC011 13/13 A3015 RMK AO2",
      "metarObsTime": 1775098500
    },
    "KJST": {
      "status": "OK",
      "delay": "—",
      "metarCat": "VFR",
      "metarRaw": "METAR KJST 020254Z AUTO 08004KT 10SM BKN080 OVC095 12/12 A3013 RMK AO2 RAE53 SLP202 P0005 60005 T01220117 51017",
      "metarObsTime": 1775098440
    },
    "KERI": {
      "status": "OK",
      "delay": "—",
      "metarCat": "IFR",
      "metarRaw": "METAR KERI 020251Z 06012KT 8SM OVC005 03/02 A3022 RMK AO2 RAE35 SLP238 P0001 60002 T00280022 58002 $",
      "metarObsTime": 1775098260
    },
    "KDUJ": {
      "status": "OK",
      "delay": "—",
      "metarCat": "IFR",
      "metarRaw": "METAR KDUJ 020253Z AUTO 03006KT 6SM -RA BR OVC005 07/07 A3018 RMK AO2 RAB31 PRESRR SLP224 P0002 60055 T00720067 53016",
      "metarObsTime": 1775098380
    },
    "KBFD": {
      "status": "OK",
      "delay": "—",
      "metarCat": "VFR",
      "metarRaw": "METAR KBFD 020253Z AUTO 08008G18KT 6SM -RA BR FEW007 BKN034 OVC041 03/02 A3019 RMK AO2 SLP234 P0006 60020 T00330022 50010",
      "metarObsTime": 1775098380
    },
    "KBTP": {
      "status": "OK",
      "delay": "—",
      "metarCat": "IFR",
      "metarRaw": "METAR KBTP 020256Z AUTO 05004KT 10SM -RA BKN006 BKN070 OVC080 09/ A3016 RMK AO2 CIG 004V010 SLP220 P0018 60028 T0089 51017 $",
      "metarObsTime": 1775098560
    },
    "KFKL": {
      "status": "OK",
      "delay": "—",
      "metarCat": "IFR",
      "metarRaw": "METAR KFKL 020256Z AUTO 05007KT 10SM -RA OVC005 06/06 A3017 RMK AO2 CIG 003V007 SLP227 P0001 60010 T00610061 51010",
      "metarObsTime": 1775098560
    },
    "KIDI": {
      "status": "OK",
      "delay": "—",
      "metarCat": "MVFR",
      "metarRaw": "METAR KIDI 020255Z AUTO 08012KT 10SM OVC028 12/10 A3014 RMK A01",
      "metarObsTime": 1775098500
    },
    "KMDT": {
      "status": "OK",
      "delay": "—",
      "metarCat": "VFR",
      "metarRaw": "METAR KMDT 020256Z 02007G15KT 10SM SCT030 BKN110 16/11 A3013 RMK AO2 SLP204 60002 T01610111 51022 $",
      "metarObsTime": 1775098560
    },
    "KCXY": {
      "status": "OK",
      "delay": "—",
      "metarCat": "VFR",
      "metarRaw": "METAR KCXY 020256Z AUTO 04008KT 10SM SCT027 BKN110 16/11 A3014 RMK AO2 SLP206 60001 T01560111 51018",
      "metarObsTime": 1775098560
    },
    "KMUI": {
      "status": "OK",
      "delay": "—",
      "metarCat": "—",
      "metarRaw": "—",
      "metarObsTime": null
    },
    "KUNV": {
      "status": "OK",
      "delay": "—",
      "metarCat": "IFR",
      "metarRaw": "METAR KUNV 020255Z AUTO 04008G16KT 2 1/2SM +RA BKN010 BKN023 OVC060 07/07 A3021 RMK AO2 P0017 60017 T00710070",
      "metarObsTime": 1775098500
    },
    "KAOO": {
      "status": "OK",
      "delay": "—",
      "metarCat": "IFR",
      "metarRaw": "METAR KAOO 020253Z AUTO 06006KT 2 1/2SM +RA BR OVC014 11/09 A3017 RMK AO2 RAB24 SLP218 P0008 60008 T01060094 51023",
      "metarObsTime": 1775098380
    },
    "KLNS": {
      "status": "OK",
      "delay": "—",
      "metarCat": "VFR",
      "metarRaw": "METAR KLNS 020253Z 08011KT 10SM -RA OVC100 15/12 A3014 RMK AO2 RAB51 SLP206 P0000 60001 T01500122 51023",
      "metarObsTime": 1775098380
    },
    "KIPT": {
      "status": "OK",
      "delay": "—",
      "metarCat": "VFR",
      "metarRaw": "METAR KIPT 020254Z AUTO 07006KT 6SM RA BR FEW016 BKN047 OVC060 07/05 A3023 RMK AO2 SLP236 P0014 60019 T00670050 50014 $",
      "metarObsTime": 1775098440
    },
    "KPHL": {
      "status": "OK",
      "delay": "—",
      "metarCat": "VFR",
      "metarRaw": "METAR KPHL 020254Z 06008KT 6SM -RA BR FEW070 SCT090 OVC110 17/15 A3015 RMK AO2 SLP208 P0020 60045 T01720150 50030 $",
      "metarObsTime": 1775098440
    },
    "KABE": {
      "status": "OK",
      "delay": "—",
      "metarCat": "VFR",
      "metarRaw": "METAR KABE 020251Z 07006KT 10SM -RA SCT018 OVC042 11/09 A3020 RMK AO2 SLP226 P0004 60004 T01110094 51024 $",
      "metarObsTime": 1775098260
    },
    "KAVP": {
      "status": "OK",
      "delay": "—",
      "metarCat": "VFR",
      "metarRaw": "METAR KAVP 020254Z AUTO 34010KT 10SM OVC039 08/05 A3023 RMK AO2 SLP236 T00780050 53009",
      "metarObsTime": 1775098440
    },
    "KHZL": {
      "status": "OK",
      "delay": "—",
      "metarCat": "MVFR",
      "metarRaw": "METAR KHZL 020255Z AUTO 35005KT 10SM -RA SCT018 BKN025 OVC032 07/05 A3024 RMK AO2",
      "metarObsTime": 1775098500
    }
  }
}