{
  "generatedAt": "2026-03-05T23:10:38.019Z",
  "airports": {
    "KPIT": {
      "status": "OK",
      "delay": "—",
      "metarCat": "MVFR",
      "metarRaw": "METAR KPIT 052251Z 24007KT 10SM BKN015 BKN028 OVC095 16/14 A3002 RMK AO2 RAE38 SLP172 P0000 T01560139",
      "metarObsTime": 1772751060
    },
    "KAGC": {
      "status": "OK",
      "delay": "—",
      "metarCat": "VFR",
      "metarRaw": "METAR KAGC 052253Z 25011KT 9SM SCT014 SCT065 OVC080 16/13 A3002 RMK AO2 PK WND 22027/2216 RAE19 SLP169 P0001 T01560133",
      "metarObsTime": 1772751180
    },
    "KLBE": {
      "status": "OK",
      "delay": "—",
      "metarCat": "VFR",
      "metarRaw": "METAR KLBE 052153Z 21011KT 8SM -RA SCT033 OVC041 16/15 A3003",
      "metarObsTime": 1772747580
    },
    "KJST": {
      "status": "OK",
      "delay": "—",
      "metarCat": "MVFR",
      "metarRaw": "METAR KJST 052254Z AUTO 22011G18KT 7SM -RA OVC019 14/13 A3004 RMK AO2 SLP173 P0003 T01390128",
      "metarObsTime": 1772751240
    },
    "KERI": {
      "status": "OK",
      "delay": "—",
      "metarCat": "LIFR",
      "metarRaw": "METAR KERI 052251Z 05006KT 1 1/4SM -RA BR OVC003 02/02 A3000 RMK AO2 SLP164 P0003 T00220022",
      "metarObsTime": 1772751060
    },
    "KDUJ": {
      "status": "OK",
      "delay": "—",
      "metarCat": "IFR",
      "metarRaw": "SPECI KDUJ 052256Z AUTO 30007KT 3SM RA BR SCT002 BKN009 OVC016 11/11 A3000 RMK AO2 P0000 T01110106",
      "metarObsTime": 1772751360
    },
    "KBFD": {
      "status": "OK",
      "delay": "—",
      "metarCat": "IFR",
      "metarRaw": "SPECI KBFD 052304Z AUTO 08003KT 6SM -RA BR OVC007 07/06 A3003 RMK AO2 CIG 003V009 P0000 T00670061",
      "metarObsTime": 1772751840
    },
    "KBTP": {
      "status": "OK",
      "delay": "—",
      "metarCat": "MVFR",
      "metarRaw": "SPECI KBTP 052304Z AUTO 23005KT 10SM FEW006 BKN010 OVC055 14/ A3003 RMK AO2 CIG 008V014 $",
      "metarObsTime": 1772751840
    },
    "KFKL": {
      "status": "OK",
      "delay": "—",
      "metarCat": "MVFR",
      "metarRaw": "METAR KFKL 052256Z AUTO 24007KT 10SM OVC013 13/13 A3001 RMK AO2 RAB06E39 SLP166 P0001 T01280128",
      "metarObsTime": 1772751360
    },
    "KIDI": {
      "status": "OK",
      "delay": "—",
      "metarCat": "MVFR",
      "metarRaw": "METAR KIDI 052255Z AUTO 22011KT 5SM BR SCT011 BKN070 OVC085 15/14 A3003 RMK A01 P0002",
      "metarObsTime": 1772751300
    },
    "KMDT": {
      "status": "OK",
      "delay": "—",
      "metarCat": "IFR",
      "metarRaw": "SPECI KMDT 052303Z 10005KT 2SM BR OVC006 09/08 A3013 RMK AO2 SFC VIS 4 T00890083",
      "metarObsTime": 1772751780
    },
    "KCXY": {
      "status": "OK",
      "delay": "—",
      "metarCat": "IFR",
      "metarRaw": "METAR KCXY 052256Z 09004KT 2SM BR OVC006 09/08 A3013 RMK AO2 SLP206 T00890078",
      "metarObsTime": 1772751360
    },
    "KMUI": {
      "status": "OK",
      "delay": "—",
      "metarCat": "LIFR",
      "metarRaw": "METAR KMUI 052256Z 08006KT 2SM -RA BR OVC003 09/08 A3013 RMK AO2A RAB17 SLP208 T00850082",
      "metarObsTime": 1772751360
    },
    "KUNV": {
      "status": "OK",
      "delay": "—",
      "metarCat": "IFR",
      "metarRaw": "METAR KUNV 052253Z 31004KT 3SM RA OVC008 07/07 A3006",
      "metarObsTime": 1772751180
    },
    "KAOO": {
      "status": "OK",
      "delay": "—",
      "metarCat": "LIFR",
      "metarRaw": "SPECI KAOO 052307Z AUTO 00000KT 1/2SM -RA FG FEW005 BKN034 OVC070 08/08 A3006 RMK AO2 P0001 T00830078",
      "metarObsTime": 1772752020
    },
    "KLNS": {
      "status": "OK",
      "delay": "—",
      "metarCat": "IFR",
      "metarRaw": "METAR KLNS 052253Z 09006KT 2 1/2SM BR OVC007 08/07 A3015 RMK AO2 CIG 004V009 SLP210 T00830072",
      "metarObsTime": 1772751180
    },
    "KIPT": {
      "status": "OK",
      "delay": "—",
      "metarCat": "IFR",
      "metarRaw": "METAR KIPT 052254Z 07010KT 6SM -RA BR OVC009 09/08 A3009 RMK AO2 RAB27 SLP192 P0004 T00890078 $",
      "metarObsTime": 1772751240
    },
    "KPHL": {
      "status": "OK",
      "delay": "—",
      "metarCat": "LIFR",
      "metarRaw": "METAR KPHL 052254Z 07007KT 6SM BR OVC004 08/06 A3020 RMK AO2 SLP224 T00780061 $",
      "metarObsTime": 1772751240
    },
    "KABE": {
      "status": "OK",
      "delay": "—",
      "metarCat": "IFR",
      "metarRaw": "METAR KABE 052251Z 11008KT 4SM RA BR OVC006 06/06 A3020 RMK AO2 RAB22 SLP228 P0007 T00610056",
      "metarObsTime": 1772751060
    },
    "KAVP": {
      "status": "OK",
      "delay": "—",
      "metarCat": "MVFR",
      "metarRaw": "SPECI KAVP 052304Z 05009G14KT 10SM -RA BKN014 OVC024 06/04 A3012 RMK AO2 P0000 T00560044",
      "metarObsTime": 1772751840
    },
    "KHZL": {
      "status": "OK",
      "delay": "—",
      "metarCat": "LIFR",
      "metarRaw": "METAR KHZL 052255Z AUTO 12005KT 10SM OVC004 05/04 A3014 RMK AO2 P0009",
      "metarObsTime": 1772751300
    }
  }
}