{
  "generatedAt": "2026-03-21T20:40:15.573Z",
  "airports": {
    "KPIT": {
      "status": "OK",
      "delay": "—",
      "metarCat": "VFR",
      "metarRaw": "METAR KPIT 211951Z VRB05KT 10SM SCT170 SCT250 15/02 A2990 RMK AO2 SLP135 T01500022",
      "metarObsTime": 1774122660
    },
    "KAGC": {
      "status": "OK",
      "delay": "—",
      "metarCat": "VFR",
      "metarRaw": "METAR KAGC 211953Z VRB05KT 10SM CLR 15/03 A2990 RMK AO2 SLP129 T01500028",
      "metarObsTime": 1774122780
    },
    "KLBE": {
      "status": "OK",
      "delay": "—",
      "metarCat": "VFR",
      "metarRaw": "METAR KLBE 211947Z 22007KT 10SM CLR 15/04 A2992",
      "metarObsTime": 1774122420
    },
    "KJST": {
      "status": "OK",
      "delay": "—",
      "metarCat": "VFR",
      "metarRaw": "METAR KJST 211954Z AUTO 10SM CLR 14/M02 A2989 RMK AO2 SLP122 T01441017",
      "metarObsTime": 1774122840
    },
    "KERI": {
      "status": "OK",
      "delay": "—",
      "metarCat": "VFR",
      "metarRaw": "METAR KERI 211951Z 03008KT 10SM BKN110 04/01 A2995 RMK AO2 SLP149 T00440006",
      "metarObsTime": 1774122660
    },
    "KDUJ": {
      "status": "OK",
      "delay": "—",
      "metarCat": "VFR",
      "metarRaw": "METAR KDUJ 211953Z AUTO 25005KT 10SM FEW120 12/00 A2988 RMK AO2 SLP122 T01220000",
      "metarObsTime": 1774122780
    },
    "KBFD": {
      "status": "OK",
      "delay": "—",
      "metarCat": "VFR",
      "metarRaw": "METAR KBFD 211953Z AUTO 35006KT 10SM OVC110 08/01 A2991 RMK AO2 SLP136 T00830006",
      "metarObsTime": 1774122780
    },
    "KBTP": {
      "status": "OK",
      "delay": "—",
      "metarCat": "VFR",
      "metarRaw": "METAR KBTP 211956Z AUTO 21006KT 10SM CLR 15/02 A2991 RMK AO2 SLP136 T01500022 $",
      "metarObsTime": 1774122960
    },
    "KFKL": {
      "status": "OK",
      "delay": "—",
      "metarCat": "VFR",
      "metarRaw": "METAR KFKL 211956Z AUTO VRB03KT 10SM BKN120 12/02 A2991 RMK AO2 SLP133 T01220017",
      "metarObsTime": 1774122960
    },
    "KIDI": {
      "status": "OK",
      "delay": "—",
      "metarCat": "VFR",
      "metarRaw": "METAR KIDI 212035Z AUTO VRB04KT 10SM CLR 15/01 A2988 RMK A01",
      "metarObsTime": 1774125300
    },
    "KMDT": {
      "status": "OK",
      "delay": "—",
      "metarCat": "VFR",
      "metarRaw": "METAR KMDT 211956Z 00000KT 10SM FEW250 13/03 A2990 RMK AO2 SLP126 T01330033",
      "metarObsTime": 1774122960
    },
    "KCXY": {
      "status": "OK",
      "delay": "—",
      "metarCat": "VFR",
      "metarRaw": "METAR KCXY 211956Z 23004KT 10SM CLR 14/03 A2991 RMK AO2 SLP129 T01440028",
      "metarObsTime": 1774122960
    },
    "KMUI": {
      "status": "OK",
      "delay": "—",
      "metarCat": "VFR",
      "metarRaw": "SPECI KMUI 212025Z AUTO 06008KT 10SM -RA OVC150 13/02 A2989 RMK AO2 RAB1955E06DZB06E07RAB07E08DZB14E16RAB25 SLP126",
      "metarObsTime": 1774124700
    },
    "KUNV": {
      "status": "OK",
      "delay": "—",
      "metarCat": "VFR",
      "metarRaw": "METAR KUNV 211953Z 19003KT 10SM CLR 14/02 A2990",
      "metarObsTime": 1774122780
    },
    "KAOO": {
      "status": "OK",
      "delay": "—",
      "metarCat": "VFR",
      "metarRaw": "METAR KAOO 211953Z AUTO 17003KT 10SM CLR 15/02 A2989 RMK AO2 SLP122 T01500017",
      "metarObsTime": 1774122780
    },
    "KLNS": {
      "status": "OK",
      "delay": "—",
      "metarCat": "VFR",
      "metarRaw": "METAR KLNS 211953Z 07004KT 10SM CLR 13/03 A2990 RMK AO2 SLP124 T01330028",
      "metarObsTime": 1774122780
    },
    "KIPT": {
      "status": "OK",
      "delay": "—",
      "metarCat": "VFR",
      "metarRaw": "METAR KIPT 211954Z 00000KT 10SM CLR 10/01 A2994 RMK AO2 SLP139 T01000006 $",
      "metarObsTime": 1774122840
    },
    "KPHL": {
      "status": "OK",
      "delay": "—",
      "metarCat": "VFR",
      "metarRaw": "METAR KPHL 211954Z 01004G14KT 10SM SCT200 BKN300 16/02 A2991 RMK AO2 SLP126 T01610017 $",
      "metarObsTime": 1774122840
    },
    "KABE": {
      "status": "OK",
      "delay": "—",
      "metarCat": "VFR",
      "metarRaw": "METAR KABE 211951Z 36009G15KT 10SM CLR 12/M01 A2993 RMK AO2 SLP135 T01171006 $",
      "metarObsTime": 1774122660
    },
    "KAVP": {
      "status": "OK",
      "delay": "—",
      "metarCat": "MVFR",
      "metarRaw": "METAR KAVP 211954Z 31007KT 10SM OVC026 06/M01 A2997 RMK AO2 SLP150 T00561006",
      "metarObsTime": 1774122840
    },
    "KHZL": {
      "status": "OK",
      "delay": "—",
      "metarCat": "VFR",
      "metarRaw": "METAR KHZL 212015Z AUTO 34004KT 10SM CLR 07/00 A2996 RMK AO2",
      "metarObsTime": 1774124100
    }
  }
}