{
  "generatedAt": "2026-04-03T14:50:36.740Z",
  "airports": {
    "KPIT": {
      "status": "OK",
      "delay": "—",
      "metarCat": "VFR",
      "metarRaw": "METAR KPIT 031351Z 22012G24KT 10SM -RA BKN043 BKN075 OVC250 20/14 A3012 RMK AO2 RAB46 SLP200 P0000 T02000144",
      "metarObsTime": 1775224260
    },
    "KAGC": {
      "status": "OK",
      "delay": "—",
      "metarCat": "VFR",
      "metarRaw": "METAR KAGC 031353Z 22017G25KT 10SM FEW060 BKN075 BKN090 20/14 A3013 RMK AO2 PK WND 20026/1307 RAE04 SLP201 P0000 T02000144",
      "metarObsTime": 1775224380
    },
    "KLBE": {
      "status": "OK",
      "delay": "—",
      "metarCat": "VFR",
      "metarRaw": "METAR KLBE 031353Z 21014KT 10SM OVC050 18/16 A3017",
      "metarObsTime": 1775224380
    },
    "KJST": {
      "status": "OK",
      "delay": "—",
      "metarCat": "VFR",
      "metarRaw": "METAR KJST 031354Z AUTO 21010KT 10SM FEW034 OVC090 17/11 A3019 RMK AO2 RAE02 SLP221 P0000 T01670111",
      "metarObsTime": 1775224440
    },
    "KERI": {
      "status": "OK",
      "delay": "—",
      "metarCat": "VFR",
      "metarRaw": "METAR KERI 031351Z 21016G28KT 10SM FEW037 22/15 A2997 RMK AO2 PK WND 23034/1333 SLP146 T02170150",
      "metarObsTime": 1775224260
    },
    "KDUJ": {
      "status": "OK",
      "delay": "—",
      "metarCat": "VFR",
      "metarRaw": "METAR KDUJ 031353Z AUTO VRB04KT 10SM SCT030 OVC037 13/12 A3013 RMK AO2 RAE18 SLP203 P0008 T01330117",
      "metarObsTime": 1775224380
    },
    "KBFD": {
      "status": "OK",
      "delay": "—",
      "metarCat": "IFR",
      "metarRaw": "METAR KBFD 031353Z AUTO VRB06G18KT 10SM BKN008 OVC013 13/12 A3010 RMK AO2 RAE1258 CIG 006V011 SLP193 P0000 T01330122",
      "metarObsTime": 1775224380
    },
    "KBTP": {
      "status": "OK",
      "delay": "—",
      "metarCat": "VFR",
      "metarRaw": "METAR KBTP 031356Z AUTO 20011KT 10SM OVC043 19/17 A3012 RMK AO2 RAE00 SLP200 P0000 T01890167 $",
      "metarObsTime": 1775224560
    },
    "KFKL": {
      "status": "OK",
      "delay": "—",
      "metarCat": "MVFR",
      "metarRaw": "SPECI KFKL 031410Z AUTO 21017G24KT 10SM BKN022 OVC035 19/15 A3009 RMK AO2",
      "metarObsTime": 1775225400
    },
    "KIDI": {
      "status": "OK",
      "delay": "—",
      "metarCat": "VFR",
      "metarRaw": "METAR KIDI 031435Z AUTO 22011G20KT 10SM FEW041 SCT047 BKN055 20/14 A3015 RMK A01",
      "metarObsTime": 1775226900
    },
    "KMDT": {
      "status": "OK",
      "delay": "—",
      "metarCat": "LIFR",
      "metarRaw": "METAR KMDT 031356Z 13006KT 1SM R13/5500VP6000FT BR OVC003 08/07 A3027 RMK AO2 SFC VIS 1 1/4 SLP254 T00780072 $",
      "metarObsTime": 1775224560
    },
    "KCXY": {
      "status": "OK",
      "delay": "—",
      "metarCat": "LIFR",
      "metarRaw": "SPECI KCXY 031433Z 10005KT 3SM BR OVC004 08/07 A3027 RMK AO2 T00830072",
      "metarObsTime": 1775226780
    },
    "KMUI": {
      "status": "OK",
      "delay": "—",
      "metarCat": "LIFR",
      "metarRaw": "SPECI KMUI 031401Z 00000KT 1 1/2SM BR OVC004 07/07 A3026 RMK AO2A SLP253",
      "metarObsTime": 1775224860
    },
    "KUNV": {
      "status": "OK",
      "delay": "—",
      "metarCat": "LIFR",
      "metarRaw": "METAR KUNV 031353Z 22009KT 5SM BR OVC004 08/08 A3021",
      "metarObsTime": 1775224380
    },
    "KAOO": {
      "status": "OK",
      "delay": "—",
      "metarCat": "IFR",
      "metarRaw": "METAR KAOO 031353Z AUTO 21008KT 10SM OVC005 11/09 A3022 RMK AO2 SLP238 T01060094",
      "metarObsTime": 1775224380
    },
    "KLNS": {
      "status": "OK",
      "delay": "—",
      "metarCat": "LIFR",
      "metarRaw": "METAR KLNS 031353Z 15003KT 1 1/4SM BR OVC003 07/07 A3029 RMK AO2 SLP258 T00720067",
      "metarObsTime": 1775224380
    },
    "KIPT": {
      "status": "OK",
      "delay": "—",
      "metarCat": "IFR",
      "metarRaw": "METAR KIPT 031354Z 12008KT 9SM OVC008 07/06 A3024 RMK AO2 SLP243 T00720056",
      "metarObsTime": 1775224440
    },
    "KPHL": {
      "status": "OK",
      "delay": "—",
      "metarCat": "LIFR",
      "metarRaw": "SPECI KPHL 031441Z 00000KT 3SM BR OVC003 09/08 A3031 RMK AO2 T00940083 $",
      "metarObsTime": 1775227260
    },
    "KABE": {
      "status": "OK",
      "delay": "—",
      "metarCat": "LIFR",
      "metarRaw": "METAR KABE 031351Z 00000KT 2 1/2SM BR OVC004 06/06 A3029 RMK AO2 SLP260 T00610056 $",
      "metarObsTime": 1775224260
    },
    "KAVP": {
      "status": "OK",
      "delay": "—",
      "metarCat": "MVFR",
      "metarRaw": "METAR KAVP 031354Z 24009KT 10SM OVC012 08/06 A3023 RMK AO2 SLP241 T00830056",
      "metarObsTime": 1775224440
    },
    "KHZL": {
      "status": "OK",
      "delay": "—",
      "metarCat": "LIFR",
      "metarRaw": "METAR KHZL 031435Z AUTO 18003KT 10SM OVC002 07/06 A3027 RMK AO2",
      "metarObsTime": 1775226900
    }
  }
}