{
  "generatedAt": "2026-03-24T18:40:21.388Z",
  "airports": {
    "KPIT": {
      "status": "OK",
      "delay": "—",
      "metarCat": "VFR",
      "metarRaw": "METAR KPIT 241751Z VRB03KT 10SM FEW250 04/M09 A3037 RMK AO2 SLP305 T00441094 10044 21056 56020",
      "metarObsTime": 1774374660
    },
    "KAGC": {
      "status": "OK",
      "delay": "—",
      "metarCat": "VFR",
      "metarRaw": "METAR KAGC 241753Z VRB03KT 10SM CLR 04/M09 A3037 RMK AO2 SLP300 T00441094 10044 21050 57019",
      "metarObsTime": 1774374780
    },
    "KLBE": {
      "status": "OK",
      "delay": "—",
      "metarCat": "VFR",
      "metarRaw": "METAR KLBE 241747Z 00000KT 20SM CLR 05/M06 A3039",
      "metarObsTime": 1774374420
    },
    "KJST": {
      "status": "OK",
      "delay": "—",
      "metarCat": "VFR",
      "metarRaw": "METAR KJST 241754Z AUTO 25006KT 10SM CLR 03/M07 A3031 RMK AO2 SLP288 T00331072 10033 21067 56016",
      "metarObsTime": 1774374840
    },
    "KERI": {
      "status": "OK",
      "delay": "—",
      "metarCat": "VFR",
      "metarRaw": "METAR KERI 241751Z 29012KT 10SM BKN100 02/M06 A3039 RMK AO2 SLP301 T00171061 10039 21050 58008",
      "metarObsTime": 1774374660
    },
    "KDUJ": {
      "status": "OK",
      "delay": "—",
      "metarCat": "VFR",
      "metarRaw": "METAR KDUJ 241753Z AUTO 00000KT 10SM CLR 03/M09 A3031 RMK AO2 SLP286 T00281089 10033 21078 58020",
      "metarObsTime": 1774374780
    },
    "KBFD": {
      "status": "OK",
      "delay": "—",
      "metarCat": "VFR",
      "metarRaw": "METAR KBFD 241753Z AUTO 22007G14KT 10SM CLR 03/M09 A3028 RMK AO2 SLP276 T00281089 10028 21072 58019",
      "metarObsTime": 1774374780
    },
    "KBTP": {
      "status": "OK",
      "delay": "—",
      "metarCat": "VFR",
      "metarRaw": "METAR KBTP 241756Z AUTO 17006KT 10SM CLR 04/M08 A3037 RMK AO2 SLP306 T00391078 10050 21061 56021 $",
      "metarObsTime": 1774374960
    },
    "KFKL": {
      "status": "OK",
      "delay": "—",
      "metarCat": "VFR",
      "metarRaw": "METAR KFKL 241756Z AUTO 23007KT 10SM CLR 04/M07 A3034 RMK AO2 SLP293 T00391072 10039 21072 58023",
      "metarObsTime": 1774374960
    },
    "KIDI": {
      "status": "OK",
      "delay": "—",
      "metarCat": "VFR",
      "metarRaw": "METAR KIDI 241815Z AUTO 21005G11KT 10SM CLR 05/M06 A3036 RMK A01",
      "metarObsTime": 1774376100
    },
    "KMDT": {
      "status": "OK",
      "delay": "—",
      "metarCat": "VFR",
      "metarRaw": "METAR KMDT 241756Z 17003KT 10SM CLR 06/M07 A3039 RMK AO2 SLP293 T00611072 10072 20006 58022",
      "metarObsTime": 1774374960
    },
    "KCXY": {
      "status": "OK",
      "delay": "—",
      "metarCat": "VFR",
      "metarRaw": "METAR KCXY 241756Z VRB03KT 10SM CLR 07/M08 A3039 RMK AO2 SLP295 T00671078 10067 20000 58023",
      "metarObsTime": 1774374960
    },
    "KMUI": {
      "status": "OK",
      "delay": "—",
      "metarCat": "VFR",
      "metarRaw": "METAR KMUI 241755Z 23009KT 10SM FEW250 08/M07 A3036 RMK AO2A SLP287 T00771068 10084 20015 57026",
      "metarObsTime": 1774374900
    },
    "KUNV": {
      "status": "OK",
      "delay": "—",
      "metarCat": "VFR",
      "metarRaw": "METAR KUNV 241753Z 30006KT 10SM CLR 05/M08 A3036",
      "metarObsTime": 1774374780
    },
    "KAOO": {
      "status": "OK",
      "delay": "—",
      "metarCat": "VFR",
      "metarRaw": "METAR KAOO 241753Z AUTO VRB05KT 10SM CLR 04/M06 A3034 RMK AO2 SLP291 T00441061 10044 21050 58023",
      "metarObsTime": 1774374780
    },
    "KLNS": {
      "status": "OK",
      "delay": "—",
      "metarCat": "VFR",
      "metarRaw": "METAR KLNS 241753Z 15003KT 10SM CLR 06/M06 A3038 RMK AO2 SLP291 T00611061 10061 20006 58023",
      "metarObsTime": 1774374780
    },
    "KIPT": {
      "status": "OK",
      "delay": "—",
      "metarCat": "VFR",
      "metarRaw": "METAR KIPT 241754Z VRB04KT 10SM CLR 06/M08 A3037 RMK AO2 SLP289 T00561078 10056 21017 56029 $",
      "metarObsTime": 1774374840
    },
    "KPHL": {
      "status": "OK",
      "delay": "—",
      "metarCat": "VFR",
      "metarRaw": "METAR KPHL 241754Z 18005KT 10SM FEW045 08/M06 A3041 RMK AO2 SLP295 T00781056 10083 20017 58020 $",
      "metarObsTime": 1774374840
    },
    "KABE": {
      "status": "OK",
      "delay": "—",
      "metarCat": "—",
      "metarRaw": "METAR KABE 241751Z A3036 RMK AO2 SLPNO 58027 $",
      "metarObsTime": 1774374660
    },
    "KAVP": {
      "status": "OK",
      "delay": "—",
      "metarCat": "VFR",
      "metarRaw": "SPECI KAVP 241811Z 26004KT 10SM CLR 04/M09 A3032 RMK AO2 T00441089",
      "metarObsTime": 1774375860
    },
    "KHZL": {
      "status": "OK",
      "delay": "—",
      "metarCat": "VFR",
      "metarRaw": "METAR KHZL 241835Z AUTO 30003KT 10SM CLR 05/M08 A3033 RMK AO2",
      "metarObsTime": 1774377300
    }
  }
}