{
  "generatedAt": "2026-04-17T10:50:53.763Z",
  "airports": {
    "KPIT": {
      "status": "OK",
      "delay": "—",
      "metarCat": "VFR",
      "metarRaw": "METAR KPIT 170951Z 28006KT 10SM FEW250 13/11 A2994 RMK AO2 SLP143 T01280106",
      "metarObsTime": 1776419460
    },
    "KAGC": {
      "status": "OK",
      "delay": "—",
      "metarCat": "VFR",
      "metarRaw": "METAR KAGC 170953Z 32005KT 10SM CLR 14/11 A2993 RMK AO2 SLP137 T01390106",
      "metarObsTime": 1776419580
    },
    "KLBE": {
      "status": "OK",
      "delay": "—",
      "metarCat": "VFR",
      "metarRaw": "METAR KLBE 171035Z AUTO 25004KT 10SM CLR 14/14 A2997 RMK AO2",
      "metarObsTime": 1776422100
    },
    "KJST": {
      "status": "OK",
      "delay": "—",
      "metarCat": "MVFR",
      "metarRaw": "SPECI KJST 171047Z AUTO 29006KT 10SM BKN012 12/11 A2995 RMK AO2 T01220111",
      "metarObsTime": 1776422820
    },
    "KERI": {
      "status": "OK",
      "delay": "—",
      "metarCat": "LIFR",
      "metarRaw": "METAR KERI 170951Z 24004KT 1/4SM R06/2400V2800FT FG VV002 11/11 A2994 RMK AO2 SLP138 T01060106 $",
      "metarObsTime": 1776419460
    },
    "KDUJ": {
      "status": "OK",
      "delay": "—",
      "metarCat": "IFR",
      "metarRaw": "METAR KDUJ 170953Z AUTO 27006KT 8SM BKN008 OVC015 13/12 A2991 RMK AO2 CIG 004V011 SLP119 T01280122",
      "metarObsTime": 1776419580
    },
    "KBFD": {
      "status": "OK",
      "delay": "—",
      "metarCat": "IFR",
      "metarRaw": "METAR KBFD 170953Z AUTO 29006KT 9SM BKN006 BKN010 OVC028 13/12 A2990 RMK AO2 RAB38E52 CIG 004V008 SLP119 P0000 T01280122",
      "metarObsTime": 1776419580
    },
    "KBTP": {
      "status": "OK",
      "delay": "—",
      "metarCat": "IFR",
      "metarRaw": "METAR KBTP 170956Z AUTO 30006KT 9SM OVC009 12/ A2996 RMK AO2 CIG 007V011 SLP148 T0122 PNO $",
      "metarObsTime": 1776419760
    },
    "KFKL": {
      "status": "OK",
      "delay": "—",
      "metarCat": "—",
      "metarRaw": "—",
      "metarObsTime": null
    },
    "KIDI": {
      "status": "OK",
      "delay": "—",
      "metarCat": "MVFR",
      "metarRaw": "METAR KIDI 171035Z AUTO 30005KT 10SM BKN013 13/12 A2996 RMK A01",
      "metarObsTime": 1776422100
    },
    "KMDT": {
      "status": "OK",
      "delay": "—",
      "metarCat": "VFR",
      "metarRaw": "METAR KMDT 170956Z 31009KT 10SM FEW090 BKN250 18/14 A2983 RMK AO2 SLP098 T01780139",
      "metarObsTime": 1776419760
    },
    "KCXY": {
      "status": "OK",
      "delay": "—",
      "metarCat": "VFR",
      "metarRaw": "METAR KCXY 170956Z AUTO 26007KT 10SM FEW065 FEW100 18/14 A2984 RMK AO2 SLP102 T01780139 $",
      "metarObsTime": 1776419760
    },
    "KMUI": {
      "status": "OK",
      "delay": "—",
      "metarCat": "VFR",
      "metarRaw": "METAR KMUI 170955Z AUTO 28005KT 10SM BKN100 20/15 A2981 RMK AO2 SLP093 T01970151",
      "metarObsTime": 1776419700
    },
    "KUNV": {
      "status": "OK",
      "delay": "—",
      "metarCat": "VFR",
      "metarRaw": "METAR KUNV 170953Z 22003KT 10SM CLR 14/14 A2988",
      "metarObsTime": 1776419580
    },
    "KAOO": {
      "status": "OK",
      "delay": "—",
      "metarCat": "VFR",
      "metarRaw": "METAR KAOO 170953Z AUTO 29003KT 10SM CLR 13/11 A2990 RMK AO2 SLP116 T01330106",
      "metarObsTime": 1776419580
    },
    "KLNS": {
      "status": "OK",
      "delay": "—",
      "metarCat": "VFR",
      "metarRaw": "METAR KLNS 170953Z COR 24004KT 10SM CLR 16/13 A2984 RMK AO2 SLP101 T01610133 $",
      "metarObsTime": 1776419580
    },
    "KIPT": {
      "status": "OK",
      "delay": "—",
      "metarCat": "VFR",
      "metarRaw": "METAR KIPT 170954Z AUTO 34005KT 10SM FEW110 14/13 A2984 RMK AO2 SLP100 T01440133 $",
      "metarObsTime": 1776419640
    },
    "KPHL": {
      "status": "OK",
      "delay": "—",
      "metarCat": "VFR",
      "metarRaw": "METAR KPHL 170954Z 31007KT 10SM FEW035 SCT110 BKN170 BKN250 22/13 A2981 RMK AO2 SLP095 T02170133 $",
      "metarObsTime": 1776419640
    },
    "KABE": {
      "status": "OK",
      "delay": "—",
      "metarCat": "VFR",
      "metarRaw": "METAR KABE 170951Z 25003KT 10SM CLR 16/14 A2982 RMK AO2 SLP096 T01610139",
      "metarObsTime": 1776419460
    },
    "KAVP": {
      "status": "OK",
      "delay": "—",
      "metarCat": "MVFR",
      "metarRaw": "SPECI KAVP 171003Z 00000KT 10SM FEW005 BKN028 BKN038 16/15 A2985 RMK AO2 T01560150",
      "metarObsTime": 1776420180
    },
    "KHZL": {
      "status": "OK",
      "delay": "—",
      "metarCat": "VFR",
      "metarRaw": "METAR KHZL 171035Z AUTO 00000KT 10SM CLR 15/13 A2990 RMK AO2",
      "metarObsTime": 1776422100
    }
  }
}