{
  "generatedAt": "2026-03-23T00:10:19.553Z",
  "airports": {
    "KPIT": {
      "status": "OK",
      "delay": "—",
      "metarCat": "VFR",
      "metarRaw": "METAR KPIT 222351Z 01007KT 10SM FEW024 SCT110 BKN230 14/12 A2970 RMK AO2 RAB31E51 TSB2252E2257 SLP060 OCNL LTG DSNT N P0001 60011 T01440117 10289 20144 51036",
      "metarObsTime": 1774223460
    },
    "KAGC": {
      "status": "OK",
      "delay": "—",
      "metarCat": "VFR",
      "metarRaw": "METAR KAGC 222353Z 35006KT 10SM SCT110 16/13 A2969 RMK AO2 LTG DSNT E-S RAB23E45 SLP055 P0000 60008 T01560133 10289 20156 51041",
      "metarObsTime": 1774223580
    },
    "KLBE": {
      "status": "OK",
      "delay": "—",
      "metarCat": "MVFR",
      "metarRaw": "METAR KLBE 222347Z 34009KT 5SM -RA BKN090 18/16 A2971 RMK LTG DSNT ALQDS",
      "metarObsTime": 1774223220
    },
    "KJST": {
      "status": "OK",
      "delay": "—",
      "metarCat": "VFR",
      "metarRaw": "METAR KJST 222354Z AUTO 30006KT 10SM SCT090 16/13 A2969 RMK AO2 LTG DSNT S-W RAE35 SLP049 P0001 60010 T01560128 10256 20156 53025",
      "metarObsTime": 1774223640
    },
    "KERI": {
      "status": "OK",
      "delay": "—",
      "metarCat": "IFR",
      "metarRaw": "METAR KERI 222351Z 05017G23KT 4SM BR OVC006 04/03 A2983 RMK AO2 SLP102 60001 T00390028 10150 20039 53015",
      "metarObsTime": 1774223460
    },
    "KDUJ": {
      "status": "OK",
      "delay": "—",
      "metarCat": "VFR",
      "metarRaw": "SPECI KDUJ 230001Z AUTO 35006KT 9SM VCTS -RA SCT013 BKN046 OVC090 11/10 A2973 RMK AO2 LTG DSNT ALQDS TSE2359 P0000 T01110100",
      "metarObsTime": 1774224060
    },
    "KBFD": {
      "status": "OK",
      "delay": "—",
      "metarCat": "IFR",
      "metarRaw": "METAR KBFD 222353Z AUTO VRB03KT 10SM OVC006 07/06 A2974 RMK AO2 SLP071 60003 T00670056 10167 20067 51017 $",
      "metarObsTime": 1774223580
    },
    "KBTP": {
      "status": "OK",
      "delay": "—",
      "metarCat": "VFR",
      "metarRaw": "METAR KBTP 222356Z AUTO 35009KT 10SM VCTS -RA FEW021 BKN060 BKN100 14/11 A2973 RMK AO2 LTG DSNT NE TSB07E22B40RAB49 SLP072 P0000 60000 T01440106 10272 20144 53036 $",
      "metarObsTime": 1774223760
    },
    "KFKL": {
      "status": "OK",
      "delay": "—",
      "metarCat": "MVFR",
      "metarRaw": "METAR KFKL 222356Z AUTO 02010KT 9SM OVC010 07/06 A2975 RMK AO2 LTG DSNT SE AND S TSE08 SLP076 60019 T00720061 10206 20072 53014",
      "metarObsTime": 1774223760
    },
    "KIDI": {
      "status": "OK",
      "delay": "—",
      "metarCat": "VFR",
      "metarRaw": "METAR KIDI 222355Z AUTO VRB06G14KT 7SM FEW035 SCT044 BKN090 16/13 A2971 RMK A01 P0002",
      "metarObsTime": 1774223700
    },
    "KMDT": {
      "status": "OK",
      "delay": "—",
      "metarCat": "VFR",
      "metarRaw": "METAR KMDT 222356Z 02007KT 6SM TSRA BKN080CB OVC090 18/15 A2971 RMK AO2 PK WND 34036/2327 WSHFT 2324 RAB32 TSB16 SLP061 OCNL LTGICCCCG N-NE TS OHD-NE MOV E P0002 60002 T01780150 10267 20178 53052 $",
      "metarObsTime": 1774223760
    },
    "KCXY": {
      "status": "OK",
      "delay": "—",
      "metarCat": "VFR",
      "metarRaw": "METAR KCXY 222356Z 00000KT 6SM RA BR FEW065 BKN075 OVC090 17/15 A2971 RMK AO2 PK WND 31040/2316 WSHFT 2314 LTG DSNT E RAB18 TSB26E48 SLP062 TS VC MVG SE P0005 60005 T01720150 10278 20172 51056",
      "metarObsTime": 1774223760
    },
    "KMUI": {
      "status": "OK",
      "delay": "—",
      "metarCat": "VFR",
      "metarRaw": "SPECI KMUI 222357Z AUTO 12009KT 9SM VCTS -RA OVC085 18/17 A2967 RMK AO2 RAB57 PRESFR SLP050",
      "metarObsTime": 1774223820
    },
    "KUNV": {
      "status": "OK",
      "delay": "—",
      "metarCat": "MVFR",
      "metarRaw": "SPECI KUNV 230004Z 34008G18KT 3SM +TSRA BKN050 BKN080 OVC090 14/14 A2971 RMK FRQ LTGICCG ALQDS TS OHD MOV E",
      "metarObsTime": 1774224240
    },
    "KAOO": {
      "status": "OK",
      "delay": "—",
      "metarCat": "VFR",
      "metarRaw": "METAR KAOO 222353Z AUTO 26010KT 10SM -RA FEW055 SCT090 BKN110 19/12 A2967 RMK AO2 RAE29B45 TSE2258 SLP046 P0001 60010 T01890117 10283 20167 53027",
      "metarObsTime": 1774223580
    },
    "KLNS": {
      "status": "OK",
      "delay": "—",
      "metarCat": "VFR",
      "metarRaw": "METAR KLNS 222353Z 34020G24KT 10SM BKN110 19/11 A2969 RMK AO2 LTG DSNT NW PRESRR SLP053 T01890111 10250 20189 53034",
      "metarObsTime": 1774223580
    },
    "KIPT": {
      "status": "OK",
      "delay": "—",
      "metarCat": "MVFR",
      "metarRaw": "SPECI KIPT 230005Z 16007KT 3SM -TSRA BR FEW023 BKN032 OVC044 14/13 A2970 RMK AO2 LTG DSNT SW AND W RAB04 TSB2359 TS W MOV E P0000 T01390133 $",
      "metarObsTime": 1774224300
    },
    "KPHL": {
      "status": "OK",
      "delay": "—",
      "metarCat": "VFR",
      "metarRaw": "METAR KPHL 222354Z 20009KT 10SM SCT130 BKN280 22/11 A2962 RMK AO2 SLP030 T02170111 10239 20183 55008 $",
      "metarObsTime": 1774223640
    },
    "KABE": {
      "status": "OK",
      "delay": "—",
      "metarCat": "VFR",
      "metarRaw": "METAR KABE 222351Z 36008KT 10SM -RA OVC100 16/12 A2970 RMK AO2 RAB25 SLP057 P0002 60002 T01560122 10217 20156 53023 $",
      "metarObsTime": 1774223460
    },
    "KAVP": {
      "status": "OK",
      "delay": "—",
      "metarCat": "IFR",
      "metarRaw": "SPECI KAVP 230006Z 00000KT 2SM RA BR FEW026 BKN050 OVC075 12/11 A2972 RMK AO2 P0002 T01170111",
      "metarObsTime": 1774224360
    },
    "KHZL": {
      "status": "OK",
      "delay": "—",
      "metarCat": "IFR",
      "metarRaw": "METAR KHZL 222355Z AUTO 00000KT 1 1/4SM RA SCT040 OVC055 12/11 A2976 RMK AO2 P0022",
      "metarObsTime": 1774223700
    }
  }
}