{
  "generatedAt": "2026-04-13T10:30:49.704Z",
  "airports": {
    "KPIT": {
      "status": "OK",
      "delay": "—",
      "metarCat": "VFR",
      "metarRaw": "METAR KPIT 130951Z 22010G23KT 10SM FEW065 OVC120 22/06 A3000 RMK AO2 SLP158 T02220061 $",
      "metarObsTime": 1776073860
    },
    "KAGC": {
      "status": "OK",
      "delay": "—",
      "metarCat": "VFR",
      "metarRaw": "METAR KAGC 130953Z 22012G24KT 10SM CLR 22/07 A3002 RMK AO2 SLP160 T02170067",
      "metarObsTime": 1776073980
    },
    "KLBE": {
      "status": "OK",
      "delay": "—",
      "metarCat": "VFR",
      "metarRaw": "METAR KLBE 131015Z AUTO 20013G19KT 10SM CLR 22/09 A3005 RMK AO2",
      "metarObsTime": 1776075300
    },
    "KJST": {
      "status": "OK",
      "delay": "—",
      "metarCat": "VFR",
      "metarRaw": "METAR KJST 130954Z AUTO 20012G18KT 10SM CLR 18/07 A3008 RMK AO2 SLP175 T01780072",
      "metarObsTime": 1776074040
    },
    "KERI": {
      "status": "OK",
      "delay": "—",
      "metarCat": "VFR",
      "metarRaw": "METAR KERI 130951Z 24010G24KT 10SM -RA FEW065 OVC095 18/08 A2991 RMK AO2 RAB17 SLP123 P0001 T01780083 $",
      "metarObsTime": 1776073860
    },
    "KDUJ": {
      "status": "OK",
      "delay": "—",
      "metarCat": "VFR",
      "metarRaw": "METAR KDUJ 130953Z AUTO 21011G19KT 10SM CLR 19/08 A3001 RMK AO2 SLP150 T01890083",
      "metarObsTime": 1776073980
    },
    "KBFD": {
      "status": "OK",
      "delay": "—",
      "metarCat": "VFR",
      "metarRaw": "METAR KBFD 130953Z AUTO VRB06KT 10SM CLR 17/08 A2999 RMK AO2 SLP143 T01720078",
      "metarObsTime": 1776073980
    },
    "KBTP": {
      "status": "OK",
      "delay": "—",
      "metarCat": "VFR",
      "metarRaw": "METAR KBTP 130956Z AUTO 23012G19KT 10SM -RA FEW090 BKN110 21/08 A3001 RMK AO2 RAB54 SLP158 P0000 T02110078 $",
      "metarObsTime": 1776074160
    },
    "KFKL": {
      "status": "OK",
      "delay": "—",
      "metarCat": "VFR",
      "metarRaw": "METAR KFKL 130956Z AUTO 22012G19KT 10SM OVC110 20/07 A2997 RMK AO2 SLP138 T02000072",
      "metarObsTime": 1776074160
    },
    "KIDI": {
      "status": "OK",
      "delay": "—",
      "metarCat": "VFR",
      "metarRaw": "METAR KIDI 131015Z AUTO 22012G18KT 10SM FEW070 FEW120 21/08 A3004 RMK A01",
      "metarObsTime": 1776075300
    },
    "KMDT": {
      "status": "OK",
      "delay": "—",
      "metarCat": "VFR",
      "metarRaw": "METAR KMDT 130956Z 00000KT 10SM OVC180 11/08 A3012 RMK AO2 SLP200 T01110083",
      "metarObsTime": 1776074160
    },
    "KCXY": {
      "status": "OK",
      "delay": "—",
      "metarCat": "VFR",
      "metarRaw": "METAR KCXY 130956Z AUTO 00000KT 10SM CLR 11/08 A3012 RMK AO2 SLP202 T01110083 $",
      "metarObsTime": 1776074160
    },
    "KMUI": {
      "status": "OK",
      "delay": "—",
      "metarCat": "MVFR",
      "metarRaw": "METAR KMUI 130955Z 00000KT 7SM BKN019 OVC180 12/10 A3011 RMK AO2A CIG 019V180 BKN V SCT SLP199 T01150099",
      "metarObsTime": 1776074100
    },
    "KUNV": {
      "status": "OK",
      "delay": "—",
      "metarCat": "VFR",
      "metarRaw": "METAR KUNV 130953Z 28004KT 10SM CLR 14/08 A3006",
      "metarObsTime": 1776073980
    },
    "KAOO": {
      "status": "OK",
      "delay": "—",
      "metarCat": "VFR",
      "metarRaw": "METAR KAOO 130953Z AUTO 22007KT 10SM CLR 16/09 A3008 RMK AO2 SLP179 T01610094",
      "metarObsTime": 1776073980
    },
    "KLNS": {
      "status": "OK",
      "delay": "—",
      "metarCat": "VFR",
      "metarRaw": "METAR KLNS 130953Z 09005KT 10SM CLR 09/08 A3013 RMK AO2 SLP203 T00940083",
      "metarObsTime": 1776073980
    },
    "KIPT": {
      "status": "OK",
      "delay": "—",
      "metarCat": "VFR",
      "metarRaw": "METAR KIPT 130954Z AUTO 11010G19KT 10SM CLR 13/08 A3007 RMK AO2 SLP181 T01280078 $",
      "metarObsTime": 1776074040
    },
    "KPHL": {
      "status": "OK",
      "delay": "—",
      "metarCat": "MVFR",
      "metarRaw": "SPECI KPHL 131011Z 20006KT 10SM BKN019 BKN065 14/12 A3016 RMK AO2 T01440117 $",
      "metarObsTime": 1776075060
    },
    "KABE": {
      "status": "OK",
      "delay": "—",
      "metarCat": "MVFR",
      "metarRaw": "SPECI KABE 131010Z 18004KT 10SM OVC014 12/08 A3014 RMK AO2 T01170078 $",
      "metarObsTime": 1776075000
    },
    "KAVP": {
      "status": "OK",
      "delay": "—",
      "metarCat": "VFR",
      "metarRaw": "METAR KAVP 130954Z 21007G17KT 10SM CLR 12/08 A3009 RMK AO2 SLP186 T01220078",
      "metarObsTime": 1776074040
    },
    "KHZL": {
      "status": "OK",
      "delay": "—",
      "metarCat": "IFR",
      "metarRaw": "METAR KHZL 131015Z AUTO 17005KT 10SM OVC009 10/08 A3014 RMK AO2",
      "metarObsTime": 1776075300
    }
  }
}