{
  "generatedAt": "2026-04-25T22:01:03.151Z",
  "airports": {
    "KPIT": {
      "status": "OK",
      "delay": "—",
      "metarCat": "MVFR",
      "metarRaw": "METAR KPIT 252151Z 35012KT 10SM OVC013 13/09 A2986 RMK AO2 PK WND 33027/2055 SLP117 T01330094",
      "metarObsTime": 1777153860
    },
    "KAGC": {
      "status": "OK",
      "delay": "—",
      "metarCat": "MVFR",
      "metarRaw": "METAR KAGC 252153Z 34008KT 300V010 10SM OVC014 14/11 A2984 RMK AO2 SLP106 T01390111",
      "metarObsTime": 1777153980
    },
    "KLBE": {
      "status": "OK",
      "delay": "—",
      "metarCat": "MVFR",
      "metarRaw": "METAR KLBE 252147Z 30010KT 260V330 10SM OVC015 14/12 A2986",
      "metarObsTime": 1777153620
    },
    "KJST": {
      "status": "OK",
      "delay": "—",
      "metarCat": "LIFR",
      "metarRaw": "METAR KJST 252154Z AUTO 30006KT 3SM BR OVC002 12/12 A2982 RMK AO2 RAE51 SLP097 P0008 T01220117",
      "metarObsTime": 1777154040
    },
    "KERI": {
      "status": "OK",
      "delay": "—",
      "metarCat": "IFR",
      "metarRaw": "METAR KERI 252151Z 02009KT 10SM OVC008 04/03 A2993 RMK AO2 SLP137 T00440033",
      "metarObsTime": 1777153860
    },
    "KDUJ": {
      "status": "OK",
      "delay": "—",
      "metarCat": "LIFR",
      "metarRaw": "METAR KDUJ 252153Z AUTO 31009KT 8SM OVC004 11/10 A2982 RMK AO2 RAE06B30E39 CIG 003V007 SLP097 P0001 T01110100",
      "metarObsTime": 1777153980
    },
    "KBFD": {
      "status": "OK",
      "delay": "—",
      "metarCat": "IFR",
      "metarRaw": "METAR KBFD 252153Z AUTO 30005KT 2SM BR BKN005 OVC009 09/08 A2983 RMK AO2 RAE45 SLP103 P0002 T00890083 $",
      "metarObsTime": 1777153980
    },
    "KBTP": {
      "status": "OK",
      "delay": "—",
      "metarCat": "MVFR",
      "metarRaw": "METAR KBTP 252156Z AUTO 32008G14KT 10SM OVC010 11/10 A2987 RMK AO2 SLP122 T01110100 $",
      "metarObsTime": 1777154160
    },
    "KFKL": {
      "status": "OK",
      "delay": "—",
      "metarCat": "—",
      "metarRaw": "—",
      "metarObsTime": null
    },
    "KIDI": {
      "status": "OK",
      "delay": "—",
      "metarCat": "IFR",
      "metarRaw": "METAR KIDI 252155Z AUTO 30008KT 10SM OVC009 13/12 A2984 RMK A01",
      "metarObsTime": 1777154100
    },
    "KMDT": {
      "status": "OK",
      "delay": "—",
      "metarCat": "IFR",
      "metarRaw": "METAR KMDT 252156Z 09008KT 2SM +RA BR OVC014 08/07 A2992 RMK AO2 RAE22B41 SLP134 P0003 T00830072",
      "metarObsTime": 1777154160
    },
    "KCXY": {
      "status": "OK",
      "delay": "—",
      "metarCat": "IFR",
      "metarRaw": "METAR KCXY 252156Z 09010KT 2 1/2SM R08/6000VP6000FT -RA BR OVC013 08/07 A2993 RMK AO2 RAE2059B27 SLP136 P0007 T00830072",
      "metarObsTime": 1777154160
    },
    "KMUI": {
      "status": "OK",
      "delay": "—",
      "metarCat": "LIFR",
      "metarRaw": "SPECI KMUI 252135Z AUTO 06006KT 3SM -RA BR OVC004 10/09 A2992 RMK AO2 SLP136",
      "metarObsTime": 1777152900
    },
    "KUNV": {
      "status": "OK",
      "delay": "—",
      "metarCat": "IFR",
      "metarRaw": "METAR KUNV 252153Z 16004KT 2 1/2SM -RA BR OVC009 09/09 A2986",
      "metarObsTime": 1777153980
    },
    "KAOO": {
      "status": "OK",
      "delay": "—",
      "metarCat": "IFR",
      "metarRaw": "METAR KAOO 252153Z AUTO 09004KT 10SM OVC007 11/09 A2985 RMK AO2 SLP109 T01060094",
      "metarObsTime": 1777153980
    },
    "KLNS": {
      "status": "OK",
      "delay": "—",
      "metarCat": "MVFR",
      "metarRaw": "METAR KLNS 252153Z 09006KT 9SM -RA BKN010 BKN015 OVC021 08/06 A2993 RMK AO2 SLP135 P0001 T00780061",
      "metarObsTime": 1777153980
    },
    "KIPT": {
      "status": "OK",
      "delay": "—",
      "metarCat": "IFR",
      "metarRaw": "METAR KIPT 252154Z 08011KT 2SM -RA BR BKN013 OVC023 08/06 A2990 RMK AO2 RAB45 SLP125 P0001 T00780061 $",
      "metarObsTime": 1777154040
    },
    "KPHL": {
      "status": "OK",
      "delay": "—",
      "metarCat": "MVFR",
      "metarRaw": "METAR KPHL 252154Z 08011KT 4SM -RA BR FEW008 BKN021 OVC036 08/07 A2996 RMK AO2 SLP145 P0012 T00830067 $",
      "metarObsTime": 1777154040
    },
    "KABE": {
      "status": "OK",
      "delay": "—",
      "metarCat": "MVFR",
      "metarRaw": "METAR KABE 252151Z 09007KT 5SM RA BR BKN010 OVC014 06/05 A2996 RMK AO2 SLP146 P0010 T00610050 $",
      "metarObsTime": 1777153860
    },
    "KAVP": {
      "status": "OK",
      "delay": "—",
      "metarCat": "MVFR",
      "metarRaw": "METAR KAVP 252154Z 00000KT 7SM R04/2800VP6000FT -RA FEW018 OVC026 06/05 A2995 RMK AO2 SLP145 P0011 T00560050 $",
      "metarObsTime": 1777154040
    },
    "KHZL": {
      "status": "OK",
      "delay": "—",
      "metarCat": "IFR",
      "metarRaw": "METAR KHZL 252155Z AUTO 13004KT 10SM -RA OVC008 04/03 A2995 RMK AO2 P0009",
      "metarObsTime": 1777154100
    }
  }
}