{
  "generatedAt": "2026-04-11T03:20:41.959Z",
  "airports": {
    "KPIT": {
      "status": "OK",
      "delay": "—",
      "metarCat": "MVFR",
      "metarRaw": "METAR KPIT 110251Z 32008KT 9SM BKN011 OVC020 14/12 A3021 RMK AO2 RAE01 SLP235 P0000 60015 T01390122 51008 $",
      "metarObsTime": 1775875860
    },
    "KAGC": {
      "status": "OK",
      "delay": "—",
      "metarCat": "IFR",
      "metarRaw": "SPECI KAGC 110312Z 30005KT 9SM BKN009 OVC014 13/12 A3021 RMK AO2 T01330122",
      "metarObsTime": 1775877120
    },
    "KLBE": {
      "status": "OK",
      "delay": "—",
      "metarCat": "MVFR",
      "metarRaw": "METAR KLBE 110315Z AUTO 21007KT 9SM OVC015 14/14 A3022 RMK AO2",
      "metarObsTime": 1775877300
    },
    "KJST": {
      "status": "OK",
      "delay": "—",
      "metarCat": "IFR",
      "metarRaw": "METAR KJST 110254Z AUTO 26007KT 6SM -RA BR BKN006 OVC011 12/11 A3020 RMK AO2 CIG 003V009 SLP222 P0006 60014 T01170111 50010",
      "metarObsTime": 1775876040
    },
    "KERI": {
      "status": "OK",
      "delay": "—",
      "metarCat": "MVFR",
      "metarRaw": "METAR KERI 110251Z 29005KT 6SM BR OVC012 06/05 A3029 RMK AO2 SLP259 T00610050 51017 $",
      "metarObsTime": 1775875860
    },
    "KDUJ": {
      "status": "OK",
      "delay": "—",
      "metarCat": "MVFR",
      "metarRaw": "SPECI KDUJ 110314Z AUTO 30010KT 7SM SCT008 OVC014 11/10 A3019 RMK AO2 T01110100",
      "metarObsTime": 1775877240
    },
    "KBFD": {
      "status": "OK",
      "delay": "—",
      "metarCat": "IFR",
      "metarRaw": "METAR KBFD 110253Z AUTO 32014G19KT 7SM OVC008 09/08 A3019 RMK AO2 RAE20 CIG 005V010 SLP220 P0000 60002 T00890078 51011",
      "metarObsTime": 1775875980
    },
    "KBTP": {
      "status": "OK",
      "delay": "—",
      "metarCat": "MVFR",
      "metarRaw": "METAR KBTP 110256Z AUTO 30008KT 10SM BKN010 OVC017 12/12 A3024 RMK AO2 SLP244 60002 T01170117 53016 $",
      "metarObsTime": 1775876160
    },
    "KFKL": {
      "status": "OK",
      "delay": "—",
      "metarCat": "LIFR",
      "metarRaw": "SPECI KFKL 110317Z AUTO 34006KT 2 1/2SM BR OVC003 07/07 A3026 RMK AO2 P0001",
      "metarObsTime": 1775877420
    },
    "KIDI": {
      "status": "OK",
      "delay": "—",
      "metarCat": "MVFR",
      "metarRaw": "METAR KIDI 110315Z AUTO 26009KT 10SM BKN011 OVC018 13/13 A3021 RMK A01",
      "metarObsTime": 1775877300
    },
    "KMDT": {
      "status": "OK",
      "delay": "—",
      "metarCat": "VFR",
      "metarRaw": "METAR KMDT 110256Z 00000KT 10SM OVC110 17/08 A3014 RMK AO2 SLP207 T01720083 51018",
      "metarObsTime": 1775876160
    },
    "KCXY": {
      "status": "OK",
      "delay": "—",
      "metarCat": "VFR",
      "metarRaw": "METAR KCXY 110256Z AUTO 35004KT 10SM OVC110 20/09 A3015 RMK AO2 SLP209 T02000089 51021 $",
      "metarObsTime": 1775876160
    },
    "KMUI": {
      "status": "OK",
      "delay": "—",
      "metarCat": "VFR",
      "metarRaw": "SPECI KMUI 110232Z AUTO 00000KT 10SM -RA BKN090 OVC110 17/10 A3013 RMK AO2 RAB32 SLP206",
      "metarObsTime": 1775874720
    },
    "KUNV": {
      "status": "OK",
      "delay": "—",
      "metarCat": "VFR",
      "metarRaw": "METAR KUNV 110315Z AUTO 22003KT 10SM SCT039 BKN075 OVC095 14/14 A3016 RMK AO2 T01350135",
      "metarObsTime": 1775877300
    },
    "KAOO": {
      "status": "OK",
      "delay": "—",
      "metarCat": "VFR",
      "metarRaw": "METAR KAOO 110253Z AUTO 29011KT 8SM -RA SCT048 BKN060 OVC110 14/12 A3019 RMK AO2 PK WND 30027/0159 SLP219 P0007 60007 T01390117 50016",
      "metarObsTime": 1775875980
    },
    "KLNS": {
      "status": "OK",
      "delay": "—",
      "metarCat": "VFR",
      "metarRaw": "METAR KLNS 110253Z 12003KT 10SM BKN120 15/07 A3015 RMK AO2 SLP208 T01500072 53011",
      "metarObsTime": 1775875980
    },
    "KIPT": {
      "status": "OK",
      "delay": "—",
      "metarCat": "VFR",
      "metarRaw": "METAR KIPT 110254Z AUTO 29008KT 10SM -RA FEW050 BKN070 OVC085 14/12 A3013 RMK AO2 PK WND 24026/0156 SLP202 P0011 60024 T01440122 50008",
      "metarObsTime": 1775876040
    },
    "KPHL": {
      "status": "OK",
      "delay": "—",
      "metarCat": "VFR",
      "metarRaw": "METAR KPHL 110254Z 21006KT 10SM OVC120 13/07 A3015 RMK AO2 SLP209 T01330072 50000 $",
      "metarObsTime": 1775876040
    },
    "KABE": {
      "status": "OK",
      "delay": "—",
      "metarCat": "VFR",
      "metarRaw": "METAR KABE 110251Z 24003KT 10SM BKN120 16/06 A3015 RMK AO2 SLP209 T01610056 53014 $",
      "metarObsTime": 1775875860
    },
    "KAVP": {
      "status": "OK",
      "delay": "—",
      "metarCat": "MVFR",
      "metarRaw": "METAR KAVP 110254Z AUTO 00000KT 5SM -RA BR OVC060 13/12 A3015 RMK AO2 SLP208 P0009 60009 T01280117 50027",
      "metarObsTime": 1775876040
    },
    "KHZL": {
      "status": "OK",
      "delay": "—",
      "metarCat": "VFR",
      "metarRaw": "METAR KHZL 110315Z AUTO 00000KT 10SM -RA SCT016 BKN050 OVC055 13/11 A3019 RMK AO2 P0002",
      "metarObsTime": 1775877300
    }
  }
}