{
  "generatedAt": "2026-04-14T07:50:46.812Z",
  "airports": {
    "KPIT": {
      "status": "OK",
      "delay": "—",
      "metarCat": "VFR",
      "metarRaw": "METAR KPIT 140651Z 19003KT 10SM BKN048 BKN150 19/09 A3003 RMK AO2 SLP169 T01890094",
      "metarObsTime": 1776149460
    },
    "KAGC": {
      "status": "OK",
      "delay": "—",
      "metarCat": "VFR",
      "metarRaw": "METAR KAGC 140653Z 19007KT 10SM BKN041 OVC050 18/09 A3004 RMK AO2 SLP167 T01830094",
      "metarObsTime": 1776149580
    },
    "KLBE": {
      "status": "OK",
      "delay": "—",
      "metarCat": "VFR",
      "metarRaw": "METAR KLBE 140715Z AUTO 20007KT 10SM BKN041 19/11 A3006 RMK AO2",
      "metarObsTime": 1776150900
    },
    "KJST": {
      "status": "OK",
      "delay": "—",
      "metarCat": "VFR",
      "metarRaw": "METAR KJST 140654Z AUTO 26008KT 10SM FEW035 SCT048 17/08 A3008 RMK AO2 SLP173 T01720078",
      "metarObsTime": 1776149640
    },
    "KERI": {
      "status": "OK",
      "delay": "—",
      "metarCat": "VFR",
      "metarRaw": "METAR KERI 140651Z AUTO 17012KT 10SM -RA SCT037 SCT070 OVC100 17/13 A2994 RMK AO2 RAB46 SLP137 P0000 T01720133 $",
      "metarObsTime": 1776149460
    },
    "KDUJ": {
      "status": "OK",
      "delay": "—",
      "metarCat": "MVFR",
      "metarRaw": "METAR KDUJ 140653Z AUTO 25008KT 10SM OVC025 16/14 A3005 RMK AO2 SLP164 T01610139",
      "metarObsTime": 1776149580
    },
    "KBFD": {
      "status": "OK",
      "delay": "—",
      "metarCat": "VFR",
      "metarRaw": "METAR KBFD 140653Z AUTO 28006KT 10SM -RA FEW013 OVC100 14/13 A3006 RMK AO2 SLP168 P0002 T01440128",
      "metarObsTime": 1776149580
    },
    "KBTP": {
      "status": "OK",
      "delay": "—",
      "metarCat": "VFR",
      "metarRaw": "METAR KBTP 140656Z AUTO 18004KT 10SM OVC043 18/11 A3004 RMK AO2 SLP171 T01830111 $",
      "metarObsTime": 1776149760
    },
    "KFKL": {
      "status": "OK",
      "delay": "—",
      "metarCat": "VFR",
      "metarRaw": "SPECI KFKL 140714Z AUTO 15004KT 10SM BKN031 BKN045 BKN050 15/13 A3003 RMK AO2",
      "metarObsTime": 1776150840
    },
    "KIDI": {
      "status": "OK",
      "delay": "—",
      "metarCat": "VFR",
      "metarRaw": "METAR KIDI 140735Z AUTO 21005KT 10SM FEW037 SCT042 BKN048 18/11 A3005 RMK A01",
      "metarObsTime": 1776152100
    },
    "KMDT": {
      "status": "OK",
      "delay": "—",
      "metarCat": "VFR",
      "metarRaw": "METAR KMDT 140656Z 00000KT 10SM CLR 15/13 A3000 RMK AO2 SLP159 T01500133",
      "metarObsTime": 1776149760
    },
    "KCXY": {
      "status": "OK",
      "delay": "—",
      "metarCat": "VFR",
      "metarRaw": "METAR KCXY 140656Z AUTO 26004KT 10SM FEW110 16/13 A3001 RMK AO2 SLP160 T01610128 $",
      "metarObsTime": 1776149760
    },
    "KMUI": {
      "status": "OK",
      "delay": "—",
      "metarCat": "VFR",
      "metarRaw": "METAR KMUI 140655Z AUTO 00000KT 10SM FEW130 16/15 A2999 RMK AO2 SLP156 T01640149",
      "metarObsTime": 1776149700
    },
    "KUNV": {
      "status": "OK",
      "delay": "—",
      "metarCat": "VFR",
      "metarRaw": "METAR KUNV 140735Z AUTO 18003KT 10SM SCT037 SCT043 16/15 A3003 RMK AO2 T01600153",
      "metarObsTime": 1776152100
    },
    "KAOO": {
      "status": "OK",
      "delay": "—",
      "metarCat": "VFR",
      "metarRaw": "METAR KAOO 140653Z AUTO 25005KT 10SM CLR 17/09 A3006 RMK AO2 SLP170 T01720094",
      "metarObsTime": 1776149580
    },
    "KLNS": {
      "status": "OK",
      "delay": "—",
      "metarCat": "VFR",
      "metarRaw": "METAR KLNS 140653Z AUTO 25003KT 10SM CLR 17/13 A3000 RMK AO2 SLP158 T01720128",
      "metarObsTime": 1776149580
    },
    "KIPT": {
      "status": "OK",
      "delay": "—",
      "metarCat": "VFR",
      "metarRaw": "METAR KIPT 140654Z AUTO 00000KT 10SM CLR 15/14 A2999 RMK AO2 RAE0557 SLP154 P0000 T01500139 $",
      "metarObsTime": 1776149640
    },
    "KPHL": {
      "status": "OK",
      "delay": "—",
      "metarCat": "VFR",
      "metarRaw": "METAR KPHL 140654Z 22006KT 10SM SCT110 19/11 A3001 RMK AO2 SLP161 T01890111 $",
      "metarObsTime": 1776149640
    },
    "KABE": {
      "status": "OK",
      "delay": "—",
      "metarCat": "VFR",
      "metarRaw": "METAR KABE 140651Z 33004KT 10SM BKN120 16/15 A3000 RMK AO2 SLP156 T01610150 $",
      "metarObsTime": 1776149460
    },
    "KAVP": {
      "status": "OK",
      "delay": "—",
      "metarCat": "VFR",
      "metarRaw": "SPECI KAVP 140713Z 00000KT 8SM -RA SCT045 BKN070 OVC090 15/14 A3001 RMK AO2 P0014 T01500139",
      "metarObsTime": 1776150780
    },
    "KHZL": {
      "status": "OK",
      "delay": "—",
      "metarCat": "VFR",
      "metarRaw": "METAR KHZL 140735Z AUTO 00000KT 10SM BKN110 15/12 A3006 RMK AO2",
      "metarObsTime": 1776152100
    }
  }
}