{
  "generatedAt": "2026-04-18T11:50:53.266Z",
  "airports": {
    "KPIT": {
      "status": "OK",
      "delay": "—",
      "metarCat": "VFR",
      "metarRaw": "METAR KPIT 181051Z 13007KT 10SM FEW130 OVC220 15/09 A2987 RMK AO2 SLP116 T01500094",
      "metarObsTime": 1776509460
    },
    "KAGC": {
      "status": "OK",
      "delay": "—",
      "metarCat": "VFR",
      "metarRaw": "METAR KAGC 181053Z 16006KT 10SM CLR 15/09 A2988 RMK AO2 SLP118 T01500094",
      "metarObsTime": 1776509580
    },
    "KLBE": {
      "status": "OK",
      "delay": "—",
      "metarCat": "VFR",
      "metarRaw": "METAR KLBE 181147Z 15017KT 10SM CLR 20/10 A2991",
      "metarObsTime": 1776512820
    },
    "KJST": {
      "status": "OK",
      "delay": "—",
      "metarCat": "VFR",
      "metarRaw": "METAR KJST 181054Z AUTO 19005KT 10SM CLR 13/08 A2997 RMK AO2 SLP140 T01330078",
      "metarObsTime": 1776509640
    },
    "KERI": {
      "status": "OK",
      "delay": "—",
      "metarCat": "VFR",
      "metarRaw": "METAR KERI 181051Z 17016G24KT 10SM CLR 19/09 A2977 RMK AO2 SLP079 T01890094 $",
      "metarObsTime": 1776509460
    },
    "KDUJ": {
      "status": "OK",
      "delay": "—",
      "metarCat": "VFR",
      "metarRaw": "METAR KDUJ 181053Z AUTO 13006KT 10SM CLR 14/08 A2992 RMK AO2 SLP125 T01440083",
      "metarObsTime": 1776509580
    },
    "KBFD": {
      "status": "OK",
      "delay": "—",
      "metarCat": "VFR",
      "metarRaw": "METAR KBFD 181053Z AUTO 16007KT 10SM CLR 13/09 A2993 RMK AO2 SLP124 T01330094",
      "metarObsTime": 1776509580
    },
    "KBTP": {
      "status": "OK",
      "delay": "—",
      "metarCat": "VFR",
      "metarRaw": "METAR KBTP 181056Z AUTO 15008KT 10SM CLR 16/09 A2989 RMK AO2 SLP121 T01560094 PNO $",
      "metarObsTime": 1776509760
    },
    "KFKL": {
      "status": "OK",
      "delay": "—",
      "metarCat": "—",
      "metarRaw": "—",
      "metarObsTime": null
    },
    "KIDI": {
      "status": "OK",
      "delay": "—",
      "metarCat": "VFR",
      "metarRaw": "METAR KIDI 181135Z AUTO 15010G16KT 10SM CLR 18/10 A2992 RMK A01",
      "metarObsTime": 1776512100
    },
    "KMDT": {
      "status": "OK",
      "delay": "—",
      "metarCat": "MVFR",
      "metarRaw": "SPECI KMDT 181147Z 11009KT 9SM BKN012 BKN050 BKN250 16/13 A3001 RMK AO2 T01560133",
      "metarObsTime": 1776512820
    },
    "KCXY": {
      "status": "OK",
      "delay": "—",
      "metarCat": "VFR",
      "metarRaw": "METAR KCXY 181056Z 09005KT 10SM CLR 14/12 A3000 RMK AO2 SLP159 T01440122 $",
      "metarObsTime": 1776509760
    },
    "KMUI": {
      "status": "OK",
      "delay": "—",
      "metarCat": "IFR",
      "metarRaw": "METAR KMUI 181055Z AUTO 07008KT 10SM OVC005 15/15 A3000 RMK AO2 SLP160 T01480145",
      "metarObsTime": 1776509700
    },
    "KUNV": {
      "status": "OK",
      "delay": "—",
      "metarCat": "VFR",
      "metarRaw": "METAR KUNV 181053Z 00000KT 10SM CLR 11/11 A2998",
      "metarObsTime": 1776509580
    },
    "KAOO": {
      "status": "OK",
      "delay": "—",
      "metarCat": "VFR",
      "metarRaw": "METAR KAOO 181053Z AUTO 00000KT 10SM CLR 13/09 A2998 RMK AO2 SLP149 T01280089",
      "metarObsTime": 1776509580
    },
    "KLNS": {
      "status": "OK",
      "delay": "—",
      "metarCat": "IFR",
      "metarRaw": "METAR KLNS 181053Z 09009KT 4SM BR BKN009 13/13 A3001 RMK AO2 SLP160 T01330128",
      "metarObsTime": 1776509580
    },
    "KIPT": {
      "status": "OK",
      "delay": "—",
      "metarCat": "VFR",
      "metarRaw": "METAR KIPT 181054Z 00000KT 10SM CLR 10/08 A2998 RMK AO2 SLP151 T01000078 $",
      "metarObsTime": 1776509640
    },
    "KPHL": {
      "status": "OK",
      "delay": "—",
      "metarCat": "IFR",
      "metarRaw": "SPECI KPHL 181109Z 06005KT 10SM OVC009 14/12 A3005 RMK AO2 T01440122 $",
      "metarObsTime": 1776510540
    },
    "KABE": {
      "status": "OK",
      "delay": "—",
      "metarCat": "VFR",
      "metarRaw": "SPECI KABE 181128Z 09006KT 10SM FEW009 SCT013 14/12 A3006 RMK AO2 T01390117 $",
      "metarObsTime": 1776511680
    },
    "KAVP": {
      "status": "OK",
      "delay": "—",
      "metarCat": "VFR",
      "metarRaw": "METAR KAVP 181054Z 10004KT 10SM FEW055 14/11 A3002 RMK AO2 SLP160 T01440111",
      "metarObsTime": 1776509640
    },
    "KHZL": {
      "status": "OK",
      "delay": "—",
      "metarCat": "IFR",
      "metarRaw": "METAR KHZL 181135Z AUTO 12007KT 100V160 10SM OVC005 13/11 A3006 RMK AO2",
      "metarObsTime": 1776512100
    }
  }
}