{
  "generatedAt": "2026-03-16T06:20:16.846Z",
  "airports": {
    "KPIT": {
      "status": "OK",
      "delay": "—",
      "metarCat": "VFR",
      "metarRaw": "METAR KPIT 160551Z 15015G22KT 10SM FEW050 SCT120 SCT230 14/07 A2955 RMK AO2 SLP009 T01390072 10189 20139 56037 VISNO SE $",
      "metarObsTime": 1773640260
    },
    "KAGC": {
      "status": "OK",
      "delay": "—",
      "metarCat": "VFR",
      "metarRaw": "METAR KAGC 160553Z 15015G31KT 10SM CLR 13/08 A2956 RMK AO2 PK WND 14034/0502 SLP011 T01330083 10139 20122 56043",
      "metarObsTime": 1773640380
    },
    "KLBE": {
      "status": "OK",
      "delay": "—",
      "metarCat": "MVFR",
      "metarRaw": "METAR KLBE 160615Z AUTO 15007KT 110V220 10SM BKN025 BKN032 BKN100 14/10 A2960 RMK AO2",
      "metarObsTime": 1773641700
    },
    "KJST": {
      "status": "OK",
      "delay": "—",
      "metarCat": "LIFR",
      "metarRaw": "SPECI KJST 160615Z AUTO 15015G28KT 3SM BR OVC003 08/08 A2967 RMK AO2 PK WND 13028/0556 RAB04E14 P0000 T00780078",
      "metarObsTime": 1773641700
    },
    "KERI": {
      "status": "OK",
      "delay": "—",
      "metarCat": "—",
      "metarRaw": "—",
      "metarObsTime": null
    },
    "KDUJ": {
      "status": "OK",
      "delay": "—",
      "metarCat": "IFR",
      "metarRaw": "METAR KDUJ 160553Z AUTO 14011G24KT 10SM OVC008 09/08 A2965 RMK AO2 PK WND 13029/0501 SLP038 T00940078 10094 20072 56042 $",
      "metarObsTime": 1773640380
    },
    "KBFD": {
      "status": "OK",
      "delay": "—",
      "metarCat": "IFR",
      "metarRaw": "METAR KBFD 160553Z AUTO 15012G28KT 10SM OVC006 08/07 A2964 RMK AO2 PK WND 14032/0531 SLP038 T00830067 10083 20061 58039",
      "metarObsTime": 1773640380
    },
    "KBTP": {
      "status": "OK",
      "delay": "—",
      "metarCat": "—",
      "metarRaw": "—",
      "metarObsTime": null
    },
    "KFKL": {
      "status": "OK",
      "delay": "—",
      "metarCat": "VFR",
      "metarRaw": "METAR KFKL 160556Z AUTO 14016G23KT 10SM FEW080 11/07 A2956 RMK AO2 PK WND 15027/0532 SLPNO T01060072 10106 20100 56037",
      "metarObsTime": 1773640560
    },
    "KIDI": {
      "status": "OK",
      "delay": "—",
      "metarCat": "MVFR",
      "metarRaw": "METAR KIDI 160615Z AUTO 19009G18KT 150V220 10SM OVC014 12/09 A2964 RMK A01",
      "metarObsTime": 1773641700
    },
    "KMDT": {
      "status": "OK",
      "delay": "—",
      "metarCat": "IFR",
      "metarRaw": "METAR KMDT 160556Z 11016KT 4SM RA BR OVC009 11/09 A2982 RMK AO2 RAB50 SLP101 P0001 60001 T01060094 10106 20078 58063 $",
      "metarObsTime": 1773640560
    },
    "KCXY": {
      "status": "OK",
      "delay": "—",
      "metarCat": "IFR",
      "metarRaw": "METAR KCXY 160556Z AUTO 10009KT 3SM +RA BR OVC008 09/09 A2982 RMK AO2 RAB07E16B48 CIG 007V011 PRESFR SLP101 P0007 60007 T00940089 10094 20078 55045",
      "metarObsTime": 1773640560
    },
    "KMUI": {
      "status": "OK",
      "delay": "—",
      "metarCat": "LIFR",
      "metarRaw": "SPECI KMUI 160609Z AUTO 06008KT 7SM -RA OVC004 07/07 A2984 RMK AO2 RAE0555RAB0558E07RAB09 SLP110 $",
      "metarObsTime": 1773641340
    },
    "KUNV": {
      "status": "OK",
      "delay": "—",
      "metarCat": "MVFR",
      "metarRaw": "METAR KUNV 160615Z AUTO 00000KT 5SM DZ OVC010 08/08 A2976 RMK AO2 T00750075",
      "metarObsTime": 1773641700
    },
    "KAOO": {
      "status": "OK",
      "delay": "—",
      "metarCat": "IFR",
      "metarRaw": "METAR KAOO 160553Z AUTO 12008KT 5SM BR OVC006 09/08 A2974 RMK AO2 RAE34 CIG 005V010 SLP074 P0001 60001 T00890078 10089 20083 58055",
      "metarObsTime": 1773640380
    },
    "KLNS": {
      "status": "OK",
      "delay": "—",
      "metarCat": "IFR",
      "metarRaw": "METAR KLNS 160553Z AUTO 10010KT 10SM OVC006 09/09 A2986 RMK AO2 RAE31 SLP113 P0002 60003 T00940089 10094 20078 58061",
      "metarObsTime": 1773640380
    },
    "KIPT": {
      "status": "OK",
      "delay": "—",
      "metarCat": "MVFR",
      "metarRaw": "METAR KIPT 160554Z AUTO 09013G20KT 10SM OVC011 08/07 A2982 RMK AO2 RAE53 PRESFR SLP098 P0003 60008 T00830067 10083 20056 58059 $",
      "metarObsTime": 1773640440
    },
    "KPHL": {
      "status": "OK",
      "delay": "—",
      "metarCat": "IFR",
      "metarRaw": "METAR KPHL 160554Z 06003KT 2 1/2SM -RA BR OVC009 11/09 A2994 RMK AO2 PRESFR SLP136 P0005 60006 T01060094 10111 20094 58058 $",
      "metarObsTime": 1773640440
    },
    "KABE": {
      "status": "OK",
      "delay": "—",
      "metarCat": "IFR",
      "metarRaw": "SPECI KABE 160610Z 08008KT 4SM -RA BR OVC009 08/07 A2993 RMK AO2 P0001 T00780067 $",
      "metarObsTime": 1773641400
    },
    "KAVP": {
      "status": "OK",
      "delay": "—",
      "metarCat": "MVFR",
      "metarRaw": "METAR KAVP 160554Z VRB04KT 9SM OVC015 08/07 A2988 RMK AO2 SLP122 T00830067 10094 20039 58045",
      "metarObsTime": 1773640440
    },
    "KHZL": {
      "status": "OK",
      "delay": "—",
      "metarCat": "IFR",
      "metarRaw": "METAR KHZL 160615Z AUTO 13011G23KT 090V150 4SM -RA OVC005 07/06 A2986 RMK AO2",
      "metarObsTime": 1773641700
    }
  }
}