{
  "generatedAt": "2026-04-07T08:50:40.094Z",
  "airports": {
    "KPIT": {
      "status": "OK",
      "delay": "—",
      "metarCat": "MVFR",
      "metarRaw": "METAR KPIT 070751Z 31010KT 10SM BKN025 BKN040 03/M02 A3018 RMK AO2 SLP236 T00281017",
      "metarObsTime": 1775548260
    },
    "KAGC": {
      "status": "OK",
      "delay": "—",
      "metarCat": "VFR",
      "metarRaw": "METAR KAGC 070753Z 32013G23KT 10SM CLR 03/M03 A3016 RMK AO2 SLP225 T00331028",
      "metarObsTime": 1775548380
    },
    "KLBE": {
      "status": "OK",
      "delay": "—",
      "metarCat": "VFR",
      "metarRaw": "METAR KLBE 070835Z AUTO 28006KT 10SM SCT032 03/M02 A3020 RMK AO2",
      "metarObsTime": 1775550900
    },
    "KJST": {
      "status": "OK",
      "delay": "—",
      "metarCat": "MVFR",
      "metarRaw": "METAR KJST 070754Z AUTO 27012G18KT 10SM BKN024 02/M03 A3009 RMK AO2 SLP206 T00171028",
      "metarObsTime": 1775548440
    },
    "KERI": {
      "status": "OK",
      "delay": "—",
      "metarCat": "MVFR",
      "metarRaw": "METAR KERI 070751Z AUTO 31010G23KT 10SM BKN026 OVC034 00/M06 A3021 RMK AO2 SLP236 T00001056 $",
      "metarObsTime": 1775548260
    },
    "KDUJ": {
      "status": "OK",
      "delay": "—",
      "metarCat": "MVFR",
      "metarRaw": "SPECI KDUJ 070827Z AUTO 27009KT 10SM SCT013 BKN018 OVC075 00/M02 A3010 RMK AO2 T00001022",
      "metarObsTime": 1775550420
    },
    "KBFD": {
      "status": "OK",
      "delay": "—",
      "metarCat": "IFR",
      "metarRaw": "SPECI KBFD 070846Z AUTO 29010KT 2 1/2SM -SN BR BKN013 BKN024 OVC035 M02/M03 A3007 RMK AO2 SNB39 P0000 T10171033",
      "metarObsTime": 1775551560
    },
    "KBTP": {
      "status": "OK",
      "delay": "—",
      "metarCat": "VFR",
      "metarRaw": "METAR KBTP 070756Z AUTO 30007KT 10SM CLR M01/M01 A3019 RMK AO2 RAE09SNB09E32 SLP238 P0000 T10061006 FZRANO $",
      "metarObsTime": 1775548560
    },
    "KFKL": {
      "status": "OK",
      "delay": "—",
      "metarCat": "MVFR",
      "metarRaw": "SPECI KFKL 070844Z AUTO 31011G19KT 270V340 9SM -SN BKN015 OVC019 M01/M03 A3018 RMK AO2 P0000 FZRANO",
      "metarObsTime": 1775551440
    },
    "KIDI": {
      "status": "OK",
      "delay": "—",
      "metarCat": "MVFR",
      "metarRaw": "METAR KIDI 070835Z AUTO 30011KT 10SM BKN017 BKN031 OVC055 01/M00 A3016 RMK A01",
      "metarObsTime": 1775550900
    },
    "KMDT": {
      "status": "OK",
      "delay": "—",
      "metarCat": "VFR",
      "metarRaw": "METAR KMDT 070756Z 31008KT 10SM FEW100 07/02 A3010 RMK AO2 SLP193 T00670017",
      "metarObsTime": 1775548560
    },
    "KCXY": {
      "status": "OK",
      "delay": "—",
      "metarCat": "VFR",
      "metarRaw": "METAR KCXY 070756Z AUTO 24006KT 10SM FEW075 05/01 A3011 RMK AO2 SLP197 T00500011",
      "metarObsTime": 1775548560
    },
    "KMUI": {
      "status": "OK",
      "delay": "—",
      "metarCat": "VFR",
      "metarRaw": "SPECI KMUI 070758Z AUTO 28010G15KT 10SM CLR 08/02 A3007 RMK AO2 RAE58 SLP187",
      "metarObsTime": 1775548680
    },
    "KUNV": {
      "status": "OK",
      "delay": "—",
      "metarCat": "VFR",
      "metarRaw": "METAR KUNV 070835Z AUTO 27013G17KT 10SM SCT026 OVC080 03/M01 A3010 RMK AO2 T00341010",
      "metarObsTime": 1775550900
    },
    "KAOO": {
      "status": "OK",
      "delay": "—",
      "metarCat": "VFR",
      "metarRaw": "METAR KAOO 070753Z AUTO 28010G18KT 10SM FEW034 SCT045 04/M02 A3010 RMK AO2 SLP202 T00391017",
      "metarObsTime": 1775548380
    },
    "KLNS": {
      "status": "OK",
      "delay": "—",
      "metarCat": "VFR",
      "metarRaw": "METAR KLNS 070753Z AUTO 28004KT 10SM SCT070 OVC090 06/02 A3009 RMK AO2 SLP190 T00610022",
      "metarObsTime": 1775548380
    },
    "KIPT": {
      "status": "OK",
      "delay": "—",
      "metarCat": "VFR",
      "metarRaw": "METAR KIPT 070754Z AUTO 27004KT 10SM FEW043 03/02 A3007 RMK AO2 SLP184 T00330017",
      "metarObsTime": 1775548440
    },
    "KPHL": {
      "status": "OK",
      "delay": "—",
      "metarCat": "VFR",
      "metarRaw": "METAR KPHL 070754Z 27006KT 10SM SCT060 OVC080 12/01 A3009 RMK AO2 SLP187 T01170006 $",
      "metarObsTime": 1775548440
    },
    "KABE": {
      "status": "OK",
      "delay": "—",
      "metarCat": "VFR",
      "metarRaw": "METAR KABE 070751Z 28003KT 10SM OVC080 06/01 A3007 RMK AO2 SLP184 T00560011 $",
      "metarObsTime": 1775548260
    },
    "KAVP": {
      "status": "OK",
      "delay": "—",
      "metarCat": "VFR",
      "metarRaw": "METAR KAVP 070754Z 22005KT 10SM CLR 03/M01 A3002 RMK AO2 SLP170 T00331011 $",
      "metarObsTime": 1775548440
    },
    "KHZL": {
      "status": "OK",
      "delay": "—",
      "metarCat": "VFR",
      "metarRaw": "METAR KHZL 070835Z AUTO 26003KT 10SM SCT070 03/00 A3007 RMK AO2",
      "metarObsTime": 1775550900
    }
  }
}