{
  "generatedAt": "2026-03-27T14:50:31.515Z",
  "airports": {
    "KPIT": {
      "status": "OK",
      "delay": "—",
      "metarCat": "MVFR",
      "metarRaw": "METAR KPIT 271351Z 36012KT 10SM BKN011 OVC017 03/01 A3013 RMK AO2 SLP213 T00280006",
      "metarObsTime": 1774619460
    },
    "KAGC": {
      "status": "OK",
      "delay": "—",
      "metarCat": "IFR",
      "metarRaw": "SPECI KAGC 271401Z 34008G17KT 5SM BR OVC007 03/02 A3011 RMK AO2 PRESRR T00280017",
      "metarObsTime": 1774620060
    },
    "KLBE": {
      "status": "OK",
      "delay": "—",
      "metarCat": "MVFR",
      "metarRaw": "METAR KLBE 271350Z 34015G24KT 9SM OVC013 04/02 A3010",
      "metarObsTime": 1774619400
    },
    "KJST": {
      "status": "OK",
      "delay": "—",
      "metarCat": "IFR",
      "metarRaw": "SPECI KJST 271420Z AUTO 35010KT 10SM OVC005 02/01 A3004 RMK AO2 CIG 002V010 T00220011",
      "metarObsTime": 1774621200
    },
    "KERI": {
      "status": "OK",
      "delay": "—",
      "metarCat": "MVFR",
      "metarRaw": "METAR KERI 271351Z 02013KT 10SM OVC017 M03/M07 A3025 RMK AO2 SLP249 T10281067 $",
      "metarObsTime": 1774619460
    },
    "KDUJ": {
      "status": "OK",
      "delay": "—",
      "metarCat": "MVFR",
      "metarRaw": "SPECI KDUJ 271420Z AUTO 36008KT 10SM OVC013 01/M02 A3008 RMK AO2 T00061022",
      "metarObsTime": 1774621200
    },
    "KBFD": {
      "status": "OK",
      "delay": "—",
      "metarCat": "MVFR",
      "metarRaw": "METAR KBFD 271353Z AUTO 01010G17KT 10SM SCT007 OVC013 M03/M05 A3008 RMK AO2 SLP198 T10281050",
      "metarObsTime": 1774619580
    },
    "KBTP": {
      "status": "OK",
      "delay": "—",
      "metarCat": "MVFR",
      "metarRaw": "METAR KBTP 271356Z AUTO 34010G14KT 320V020 10SM OVC016 01/M01 A3015 RMK AO2 SLP221 T00111011 FZRANO $",
      "metarObsTime": 1774619760
    },
    "KFKL": {
      "status": "OK",
      "delay": "—",
      "metarCat": "MVFR",
      "metarRaw": "METAR KFKL 271356Z AUTO 01007KT 10SM OVC014 M01/M03 A3015 RMK AO2 SLP223 T10111033 FZRANO",
      "metarObsTime": 1774619760
    },
    "KIDI": {
      "status": "OK",
      "delay": "—",
      "metarCat": "MVFR",
      "metarRaw": "METAR KIDI 271435Z AUTO 35011KT 10SM OVC018 03/00 A3012 RMK A01",
      "metarObsTime": 1774622100
    },
    "KMDT": {
      "status": "OK",
      "delay": "—",
      "metarCat": "VFR",
      "metarRaw": "SPECI KMDT 271408Z 01014G22KT 10SM SCT023 BKN034 OVC250 08/03 A3001 RMK AO2 T00830033",
      "metarObsTime": 1774620480
    },
    "KCXY": {
      "status": "OK",
      "delay": "—",
      "metarCat": "VFR",
      "metarRaw": "SPECI KCXY 271433Z 36013G25KT 10SM SCT026 OVC033 08/02 A3005 RMK AO2 T00780017",
      "metarObsTime": 1774621980
    },
    "KMUI": {
      "status": "OK",
      "delay": "—",
      "metarCat": "VFR",
      "metarRaw": "SPECI KMUI 271348Z 35015G25KT 10SM SCT018 BKN060 OVC200 07/02 A2999 RMK AO2A SLP158",
      "metarObsTime": 1774619280
    },
    "KUNV": {
      "status": "OK",
      "delay": "—",
      "metarCat": "MVFR",
      "metarRaw": "METAR KUNV 271353Z 02014G17KT 10SM BKN020 05/00 A3005",
      "metarObsTime": 1774619580
    },
    "KAOO": {
      "status": "OK",
      "delay": "—",
      "metarCat": "MVFR",
      "metarRaw": "METAR KAOO 271353Z AUTO 35012KT 10SM BKN017 OVC023 06/03 A3003 RMK AO2 SLP169 T00560028",
      "metarObsTime": 1774619580
    },
    "KLNS": {
      "status": "OK",
      "delay": "—",
      "metarCat": "VFR",
      "metarRaw": "METAR KLNS 271353Z 36018G27KT 10SM OVC035 08/03 A2998 RMK AO2 PK WND 01029/1306 SLP150 T00830033",
      "metarObsTime": 1774619580
    },
    "KIPT": {
      "status": "OK",
      "delay": "—",
      "metarCat": "MVFR",
      "metarRaw": "METAR KIPT 271354Z 01010G19KT 10SM OVC029 03/M02 A3009 RMK AO2 SLP191 T00281022",
      "metarObsTime": 1774619640
    },
    "KPHL": {
      "status": "OK",
      "delay": "—",
      "metarCat": "VFR",
      "metarRaw": "METAR KPHL 271354Z 35020G25KT 10SM FEW018 OVC033 11/05 A2996 RMK AO2 PK WND 01030/1303 RAE08 SLP145 P0000 T01110050",
      "metarObsTime": 1774619640
    },
    "KABE": {
      "status": "OK",
      "delay": "—",
      "metarCat": "VFR",
      "metarRaw": "SPECI KABE 271443Z 35016G24KT 10SM SCT027 BKN070 07/01 A3004 RMK AO2 T00720006 $",
      "metarObsTime": 1774622580
    },
    "KAVP": {
      "status": "OK",
      "delay": "—",
      "metarCat": "MVFR",
      "metarRaw": "SPECI KAVP 271435Z 34011G21KT 10SM OVC025 02/M02 A3006 RMK AO2 PK WND 35026/1421 T00221022",
      "metarObsTime": 1774622100
    },
    "KHZL": {
      "status": "OK",
      "delay": "—",
      "metarCat": "MVFR",
      "metarRaw": "METAR KHZL 271435Z AUTO 33013G22KT 10SM OVC018 01/M03 A3005 RMK AO2",
      "metarObsTime": 1774622100
    }
  }
}