{
  "generatedAt": "2026-03-15T15:50:13.853Z",
  "airports": {
    "KPIT": {
      "status": "OK",
      "delay": "—",
      "metarCat": "VFR",
      "metarRaw": "METAR KPIT 151451Z 14013G22KT 10SM FEW150 BKN250 15/M01 A2998 RMK AO2 SLP160 T01501006 58012",
      "metarObsTime": 1773586260
    },
    "KAGC": {
      "status": "OK",
      "delay": "—",
      "metarCat": "VFR",
      "metarRaw": "METAR KAGC 151453Z 14011G23KT 10SM CLR 15/M01 A2999 RMK AO2 PK WND 16028/1426 SLP164 T01501011 58008",
      "metarObsTime": 1773586380
    },
    "KLBE": {
      "status": "OK",
      "delay": "—",
      "metarCat": "VFR",
      "metarRaw": "METAR KLBE 151548Z 18015G22KT 10SM CLR 16/M01 A3004",
      "metarObsTime": 1773589680
    },
    "KJST": {
      "status": "OK",
      "delay": "—",
      "metarCat": "VFR",
      "metarRaw": "METAR KJST 151454Z AUTO 15012G29KT 10SM CLR 07/M07 A3013 RMK AO2 PK WND 16032/1401 SLP217 T00721072 58004",
      "metarObsTime": 1773586440
    },
    "KERI": {
      "status": "OK",
      "delay": "—",
      "metarCat": "VFR",
      "metarRaw": "METAR KERI 151451Z 15018G30KT 10SM CLR 09/M07 A2991 RMK AO2 PK WND 16030/1451 PRESFR SLP134 60000 T00941067 58047 $",
      "metarObsTime": 1773586260
    },
    "KDUJ": {
      "status": "OK",
      "delay": "—",
      "metarCat": "VFR",
      "metarRaw": "METAR KDUJ 151453Z AUTO 15016G35KT 110V170 10SM CLR 08/M09 A3007 RMK AO2 PK WND 12037/1438 SLP194 T00831089 58014",
      "metarObsTime": 1773586380
    },
    "KBFD": {
      "status": "OK",
      "delay": "—",
      "metarCat": "VFR",
      "metarRaw": "METAR KBFD 151453Z AUTO 14017G29KT 10SM SCT110 03/M09 A3007 RMK AO2 PK WND 14032/1424 SLP201 T00331089 56021",
      "metarObsTime": 1773586380
    },
    "KBTP": {
      "status": "OK",
      "delay": "—",
      "metarCat": "—",
      "metarRaw": "—",
      "metarObsTime": null
    },
    "KFKL": {
      "status": "OK",
      "delay": "—",
      "metarCat": "VFR",
      "metarRaw": "METAR KFKL 151456Z AUTO 14011G25KT 10SM CLR A3000 RMK AO2 SLPNO 58019 FZRANO $",
      "metarObsTime": 1773586560
    },
    "KIDI": {
      "status": "OK",
      "delay": "—",
      "metarCat": "VFR",
      "metarRaw": "METAR KIDI 151535Z AUTO 16013G27KT 10SM CLR 13/M05 A3005 RMK A01",
      "metarObsTime": 1773588900
    },
    "KMDT": {
      "status": "OK",
      "delay": "—",
      "metarCat": "VFR",
      "metarRaw": "METAR KMDT 151456Z 13015KT 10SM BKN055 07/M03 A3035 RMK AO2 SLP279 T00721033 58003 $",
      "metarObsTime": 1773586560
    },
    "KCXY": {
      "status": "OK",
      "delay": "—",
      "metarCat": "VFR",
      "metarRaw": "METAR KCXY 151456Z 12014G20KT 10SM OVC055 07/M04 A3035 RMK AO2 SLP281 T00721044 58003",
      "metarObsTime": 1773586560
    },
    "KMUI": {
      "status": "OK",
      "delay": "—",
      "metarCat": "VFR",
      "metarRaw": "METAR KMUI 151455Z AUTO 08007KT 10SM OVC055 06/M04 A3035 RMK AO2 SLP284 T00641044 58001 $",
      "metarObsTime": 1773586500
    },
    "KUNV": {
      "status": "OK",
      "delay": "—",
      "metarCat": "VFR",
      "metarRaw": "METAR KUNV 151453Z 18010G20KT 10SM CLR 07/M09 A3023",
      "metarObsTime": 1773586380
    },
    "KAOO": {
      "status": "OK",
      "delay": "—",
      "metarCat": "VFR",
      "metarRaw": "METAR KAOO 151453Z AUTO 15013G24KT 10SM CLR 08/M07 A3022 RMK AO2 PK WND 16028/1443 SLP243 T00831067 58006",
      "metarObsTime": 1773586380
    },
    "KLNS": {
      "status": "OK",
      "delay": "—",
      "metarCat": "VFR",
      "metarRaw": "METAR KLNS 151453Z 12013G23KT 10SM OVC060 07/M04 A3037 RMK AO2 SLP288 T00671039 50002",
      "metarObsTime": 1773586380
    },
    "KIPT": {
      "status": "OK",
      "delay": "—",
      "metarCat": "VFR",
      "metarRaw": "METAR KIPT 151454Z 10014G28KT 10SM CLR 06/M08 A3032 RMK AO2 PK WND 10030/1440 SLP270 T00611078 58008",
      "metarObsTime": 1773586440
    },
    "KPHL": {
      "status": "OK",
      "delay": "—",
      "metarCat": "VFR",
      "metarRaw": "METAR KPHL 151454Z 09011KT 10SM SCT055 BKN065 BKN350 08/M06 A3044 RMK AO2 SLP307 T00781061 51011 $",
      "metarObsTime": 1773586440
    },
    "KABE": {
      "status": "OK",
      "delay": "—",
      "metarCat": "VFR",
      "metarRaw": "METAR KABE 151451Z 12009KT 10SM BKN060 05/M07 A3042 RMK AO2 SLP303 T00501072 50001 $",
      "metarObsTime": 1773586260
    },
    "KAVP": {
      "status": "OK",
      "delay": "—",
      "metarCat": "VFR",
      "metarRaw": "SPECI KAVP 151545Z 10SM OVC060 07/M12 A3032 RMK AO2 T00671117",
      "metarObsTime": 1773589500
    },
    "KHZL": {
      "status": "OK",
      "delay": "—",
      "metarCat": "VFR",
      "metarRaw": "METAR KHZL 151535Z AUTO 13009G17KT 090V150 10SM CLR 04/M10 A3032 RMK AO2",
      "metarObsTime": 1773588900
    }
  }
}