{
  "generatedAt": "2026-03-06T22:20:16.166Z",
  "airports": {
    "KPIT": {
      "status": "OK",
      "delay": "—",
      "metarCat": "VFR",
      "metarRaw": "METAR KPIT 062151Z 20010KT 10SM BKN032 BKN250 22/14 A3014 RMK AO2 SLP209 T02170139",
      "metarObsTime": 1772833860
    },
    "KAGC": {
      "status": "OK",
      "delay": "—",
      "metarCat": "VFR",
      "metarRaw": "METAR KAGC 062153Z 21007KT 10SM BKN039 21/14 A3015 RMK AO2 SLP210 T02060139",
      "metarObsTime": 1772833980
    },
    "KLBE": {
      "status": "OK",
      "delay": "—",
      "metarCat": "VFR",
      "metarRaw": "METAR KLBE 062153Z 21016KT 10SM CLR 22/15 A3017",
      "metarObsTime": 1772833980
    },
    "KJST": {
      "status": "OK",
      "delay": "—",
      "metarCat": "VFR",
      "metarRaw": "METAR KJST 062154Z AUTO 21005KT 10SM FEW035 BKN060 18/11 A3019 RMK AO2 SLP218 T01830111",
      "metarObsTime": 1772834040
    },
    "KERI": {
      "status": "OK",
      "delay": "—",
      "metarCat": "VFR",
      "metarRaw": "METAR KERI 062151Z 03004KT 8SM CLR 12/07 A3009 RMK AO2 SLP193 T01220067 $",
      "metarObsTime": 1772833860
    },
    "KDUJ": {
      "status": "OK",
      "delay": "—",
      "metarCat": "VFR",
      "metarRaw": "METAR KDUJ 062153Z AUTO 22010G15KT 10SM BKN042 19/10 A3016 RMK AO2 SLP208 T01940100",
      "metarObsTime": 1772833980
    },
    "KBFD": {
      "status": "OK",
      "delay": "—",
      "metarCat": "VFR",
      "metarRaw": "METAR KBFD 062153Z AUTO VRB03KT 10SM CLR 17/09 A3015 RMK AO2 SLP208 T01720094",
      "metarObsTime": 1772833980
    },
    "KBTP": {
      "status": "OK",
      "delay": "—",
      "metarCat": "VFR",
      "metarRaw": "METAR KBTP 062156Z AUTO 18006KT 10SM BKN033 BKN041 21/14 A3015 RMK AO2 SLP212 T02110139 $",
      "metarObsTime": 1772834160
    },
    "KFKL": {
      "status": "OK",
      "delay": "—",
      "metarCat": "VFR",
      "metarRaw": "METAR KFKL 062156Z AUTO 21010G16KT 10SM FEW037 19/13 A3014 RMK AO2 SLP206 T01940128",
      "metarObsTime": 1772834160
    },
    "KIDI": {
      "status": "OK",
      "delay": "—",
      "metarCat": "VFR",
      "metarRaw": "METAR KIDI 062215Z AUTO 24004KT 10SM CLR 20/13 A3017 RMK A01",
      "metarObsTime": 1772835300
    },
    "KMDT": {
      "status": "OK",
      "delay": "—",
      "metarCat": "IFR",
      "metarRaw": "METAR KMDT 062156Z 10007KT 4SM BR OVC007 06/05 A3033 RMK AO2 SLP272 T00610050",
      "metarObsTime": 1772834160
    },
    "KCXY": {
      "status": "OK",
      "delay": "—",
      "metarCat": "IFR",
      "metarRaw": "METAR KCXY 062156Z 11005KT 2SM BR OVC007 06/04 A3033 RMK AO2 SLP274 T00610044",
      "metarObsTime": 1772834160
    },
    "KMUI": {
      "status": "OK",
      "delay": "—",
      "metarCat": "IFR",
      "metarRaw": "METAR KMUI 062155Z 08006KT 4SM BR OVC006 06/05 A3032 RMK AO2A SLP274 T00570054",
      "metarObsTime": 1772834100
    },
    "KUNV": {
      "status": "OK",
      "delay": "—",
      "metarCat": "MVFR",
      "metarRaw": "METAR KUNV 062153Z 14005KT 8SM OVC011 09/08 A3025",
      "metarObsTime": 1772833980
    },
    "KAOO": {
      "status": "OK",
      "delay": "—",
      "metarCat": "VFR",
      "metarRaw": "METAR KAOO 062153Z AUTO 11006KT 10SM FEW060 14/11 A3021 RMK AO2 SLP231 T01390111",
      "metarObsTime": 1772833980
    },
    "KLNS": {
      "status": "OK",
      "delay": "—",
      "metarCat": "IFR",
      "metarRaw": "METAR KLNS 062153Z 09007KT 4SM BR OVC006 06/04 A3033 RMK AO2 SLP273 T00560044",
      "metarObsTime": 1772833980
    },
    "KIPT": {
      "status": "OK",
      "delay": "—",
      "metarCat": "MVFR",
      "metarRaw": "METAR KIPT 062154Z 07005G14KT 9SM OVC010 07/05 A3029 RMK AO2 SLP261 T00670050",
      "metarObsTime": 1772834040
    },
    "KPHL": {
      "status": "OK",
      "delay": "—",
      "metarCat": "MVFR",
      "metarRaw": "METAR KPHL 062154Z 08008KT 10SM OVC010 07/04 A3037 RMK AO2 SLP283 T00670039 $",
      "metarObsTime": 1772834040
    },
    "KABE": {
      "status": "OK",
      "delay": "—",
      "metarCat": "IFR",
      "metarRaw": "METAR KABE 062151Z 10005KT 10SM OVC007 05/03 A3036 RMK AO2 SLP284 T00500033",
      "metarObsTime": 1772833860
    },
    "KAVP": {
      "status": "OK",
      "delay": "—",
      "metarCat": "MVFR",
      "metarRaw": "SPECI KAVP 062208Z 12004KT 10SM OVC014 05/02 A3032 RMK AO2 T00500022",
      "metarObsTime": 1772834880
    },
    "KHZL": {
      "status": "OK",
      "delay": "—",
      "metarCat": "LIFR",
      "metarRaw": "METAR KHZL 062215Z AUTO 13003KT M1/4SM FG OVC002 02/02 A3033 RMK AO2",
      "metarObsTime": 1772835300
    }
  }
}