{
  "generatedAt": "2026-04-23T12:21:06.570Z",
  "airports": {
    "KPIT": {
      "status": "OK",
      "delay": "—",
      "metarCat": "VFR",
      "metarRaw": "METAR KPIT 231151Z 00000KT 10SM SCT250 14/12 A3003 RMK AO2 SLP172 70001 T01390117 10144 20111 53010",
      "metarObsTime": 1776945060
    },
    "KAGC": {
      "status": "OK",
      "delay": "—",
      "metarCat": "VFR",
      "metarRaw": "METAR KAGC 231153Z 27006KT 10SM SCT055 14/12 A3003 RMK AO2 SLP169 T01440117 10156 20128 53011",
      "metarObsTime": 1776945180
    },
    "KLBE": {
      "status": "OK",
      "delay": "—",
      "metarCat": "VFR",
      "metarRaw": "METAR KLBE 231155Z 21005KT 10SM CLR 15/13 A3006",
      "metarObsTime": 1776945300
    },
    "KJST": {
      "status": "OK",
      "delay": "—",
      "metarCat": "VFR",
      "metarRaw": "METAR KJST 231154Z AUTO 24007KT 10SM CLR 13/10 A3003 RMK AO2 SLP164 T01280100 10144 20111 53011",
      "metarObsTime": 1776945240
    },
    "KERI": {
      "status": "OK",
      "delay": "—",
      "metarCat": "VFR",
      "metarRaw": "METAR KERI 231151Z 00000KT 8SM CLR 11/07 A3002 RMK AO2 SLP167 T01060067 10106 20056 53007",
      "metarObsTime": 1776945060
    },
    "KDUJ": {
      "status": "OK",
      "delay": "—",
      "metarCat": "VFR",
      "metarRaw": "METAR KDUJ 231153Z AUTO 00000KT 10SM CLR 11/06 A3002 RMK AO2 SLP162 T01110056 10139 20072 53012",
      "metarObsTime": 1776945180
    },
    "KBFD": {
      "status": "OK",
      "delay": "—",
      "metarCat": "VFR",
      "metarRaw": "METAR KBFD 231153Z AUTO 00000KT 10SM CLR 06/04 A3003 RMK AO2 SLP168 T00610039 10061 20017 53011 $",
      "metarObsTime": 1776945180
    },
    "KBTP": {
      "status": "OK",
      "delay": "—",
      "metarCat": "VFR",
      "metarRaw": "METAR KBTP 231156Z AUTO 00000KT 8SM CLR 12/ A3005 RMK AO2 SLP177 70002 T0122 10144 20094 53013 $",
      "metarObsTime": 1776945360
    },
    "KFKL": {
      "status": "OK",
      "delay": "—",
      "metarCat": "—",
      "metarRaw": "—",
      "metarObsTime": null
    },
    "KIDI": {
      "status": "OK",
      "delay": "—",
      "metarCat": "—",
      "metarRaw": "—",
      "metarObsTime": null
    },
    "KMDT": {
      "status": "OK",
      "delay": "—",
      "metarCat": "VFR",
      "metarRaw": "METAR KMDT 231156Z 00000KT 6SM BR SCT250 12/09 A2999 RMK AO2 SLP156 70002 T01170094 10128 20089 53013",
      "metarObsTime": 1776945360
    },
    "KCXY": {
      "status": "OK",
      "delay": "—",
      "metarCat": "MVFR",
      "metarRaw": "METAR KCXY 231156Z 00000KT 4SM HZ CLR 12/09 A3000 RMK AO2 SLP160 70001 T01170089 10128 20078 53012",
      "metarObsTime": 1776945360
    },
    "KMUI": {
      "status": "OK",
      "delay": "—",
      "metarCat": "VFR",
      "metarRaw": "METAR KMUI 231155Z 00000KT 6SM BR FEW250 12/11 A2997 RMK AO2A SLP151 70007 T01160113 10117 20082 53009",
      "metarObsTime": 1776945300
    },
    "KUNV": {
      "status": "OK",
      "delay": "—",
      "metarCat": "VFR",
      "metarRaw": "METAR KUNV 231153Z 00000KT 10SM CLR 11/06 A3001",
      "metarObsTime": 1776945180
    },
    "KAOO": {
      "status": "OK",
      "delay": "—",
      "metarCat": "VFR",
      "metarRaw": "METAR KAOO 231153Z AUTO 22003KT 10SM CLR 14/11 A3002 RMK AO2 SLP161 T01440111 10161 20117 53011",
      "metarObsTime": 1776945180
    },
    "KLNS": {
      "status": "OK",
      "delay": "—",
      "metarCat": "VFR",
      "metarRaw": "METAR KLNS 231153Z 26004KT 7SM CLR 11/09 A2999 RMK AO2 SLP156 70002 T01060089 10106 20061 53012",
      "metarObsTime": 1776945180
    },
    "KIPT": {
      "status": "OK",
      "delay": "—",
      "metarCat": "VFR",
      "metarRaw": "METAR KIPT 231154Z 00000KT 10SM CLR 09/06 A3001 RMK AO2 SLP160 T00940061 10094 20061 53012 $",
      "metarObsTime": 1776945240
    },
    "KPHL": {
      "status": "OK",
      "delay": "—",
      "metarCat": "VFR",
      "metarRaw": "METAR KPHL 231154Z 00000KT 10SM SCT330 11/07 A2999 RMK AO2 SLP154 70003 T01110072 10111 20089 53005 $",
      "metarObsTime": 1776945240
    },
    "KABE": {
      "status": "OK",
      "delay": "—",
      "metarCat": "VFR",
      "metarRaw": "METAR KABE 231151Z AUTO 00000KT 8SM CLR 08/07 A2998 RMK AO2 SLP152 70002 T00830072 10089 20044 53005",
      "metarObsTime": 1776945060
    },
    "KAVP": {
      "status": "OK",
      "delay": "—",
      "metarCat": "VFR",
      "metarRaw": "METAR KAVP 231154Z AUTO 00000KT 9SM CLR 08/06 A3000 RMK AO2 SLP157 T00830056 10094 20056 53009",
      "metarObsTime": 1776945240
    },
    "KHZL": {
      "status": "OK",
      "delay": "—",
      "metarCat": "VFR",
      "metarRaw": "METAR KHZL 231215Z AUTO 34003KT 10SM CLR 11/10 A3003 RMK AO2",
      "metarObsTime": 1776946500
    }
  }
}