{
  "generatedAt": "2026-03-08T04:00:14.169Z",
  "airports": {
    "KPIT": {
      "status": "OK",
      "delay": "—",
      "metarCat": "VFR",
      "metarRaw": "METAR KPIT 080351Z 24010G18KT 10SM FEW027 BKN037 16/13 A2983 RMK AO2 SLP103 T01610128 $",
      "metarObsTime": 1772941860
    },
    "KAGC": {
      "status": "OK",
      "delay": "—",
      "metarCat": "VFR",
      "metarRaw": "METAR KAGC 080353Z 23011KT 10SM CLR 16/13 A2984 RMK AO2 SLP103 T01560128",
      "metarObsTime": 1772941980
    },
    "KLBE": {
      "status": "OK",
      "delay": "—",
      "metarCat": "VFR",
      "metarRaw": "METAR KLBE 080355Z AUTO 21013KT 10SM SCT120 16/14 A2986 RMK AO2",
      "metarObsTime": 1772942100
    },
    "KJST": {
      "status": "OK",
      "delay": "—",
      "metarCat": "VFR",
      "metarRaw": "METAR KJST 080354Z AUTO 23011KT 10SM SCT110 14/12 A2985 RMK AO2 SLP098 T01390122",
      "metarObsTime": 1772942040
    },
    "KERI": {
      "status": "OK",
      "delay": "—",
      "metarCat": "VFR",
      "metarRaw": "METAR KERI 080351Z 25009G25KT 10SM BKN035 BKN042 OVC050 18/11 A2973 RMK AO2 PK WND 25032/0330 SLP063 T01780111",
      "metarObsTime": 1772941860
    },
    "KDUJ": {
      "status": "OK",
      "delay": "—",
      "metarCat": "MVFR",
      "metarRaw": "METAR KDUJ 080353Z AUTO 22008KT 10SM FEW008 BKN011 BKN019 14/13 A2979 RMK AO2 SLP081 T01390128",
      "metarObsTime": 1772941980
    },
    "KBFD": {
      "status": "OK",
      "delay": "—",
      "metarCat": "VFR",
      "metarRaw": "METAR KBFD 080353Z AUTO 23007G22KT 10SM FEW016 BKN031 OVC041 14/12 A2976 RMK AO2 SLP072 T01440122",
      "metarObsTime": 1772941980
    },
    "KBTP": {
      "status": "OK",
      "delay": "—",
      "metarCat": "VFR",
      "metarRaw": "METAR KBTP 080256Z AUTO 23011KT 10SM CLR 16/15 A2983 RMK AO2 SLP101 60000 T01560150 55002 $",
      "metarObsTime": 1772938560
    },
    "KFKL": {
      "status": "OK",
      "delay": "—",
      "metarCat": "MVFR",
      "metarRaw": "METAR KFKL 080256Z AUTO 23007KT 10SM OVC017 15/13 A2981 RMK AO2 SLP088 60000 T01500133 53001",
      "metarObsTime": 1772938560
    },
    "KIDI": {
      "status": "OK",
      "delay": "—",
      "metarCat": "VFR",
      "metarRaw": "METAR KIDI 080355Z AUTO 23010KT 10SM FEW120 15/14 A2984 RMK A01",
      "metarObsTime": 1772942100
    },
    "KMDT": {
      "status": "OK",
      "delay": "—",
      "metarCat": "LIFR",
      "metarRaw": "METAR KMDT 080256Z 12006KT 5SM BR OVC004 08/08 A2988 RMK AO2 LTG DSNT NE AND E RAE33 SLP119 P0011 60011 T00830083 58010",
      "metarObsTime": 1772938560
    },
    "KCXY": {
      "status": "OK",
      "delay": "—",
      "metarCat": "IFR",
      "metarRaw": "METAR KCXY 080256Z AUTO 06005KT 6SM BR OVC006 09/08 A2988 RMK AO2 RAE28 SLP120 P0015 60024 T00890083 56035",
      "metarObsTime": 1772938560
    },
    "KMUI": {
      "status": "OK",
      "delay": "—",
      "metarCat": "LIFR",
      "metarRaw": "METAR KMUI 080355Z AUTO 00000KT 7SM OVC003 09/09 A2984 RMK AO2 SLP110 T00890086",
      "metarObsTime": 1772942100
    },
    "KUNV": {
      "status": "OK",
      "delay": "—",
      "metarCat": "VFR",
      "metarRaw": "METAR KUNV 080335Z AUTO 24005KT 10SM CLR 13/13 A2980 RMK AO2 T01280128",
      "metarObsTime": 1772940900
    },
    "KAOO": {
      "status": "OK",
      "delay": "—",
      "metarCat": "—",
      "metarRaw": "—",
      "metarObsTime": null
    },
    "KLNS": {
      "status": "OK",
      "delay": "—",
      "metarCat": "LIFR",
      "metarRaw": "METAR KLNS 080353Z 15008KT 1 1/2SM BR OVC002 08/08 A2986 RMK AO2 SLP114 T00830083",
      "metarObsTime": 1772941980
    },
    "KIPT": {
      "status": "OK",
      "delay": "—",
      "metarCat": "IFR",
      "metarRaw": "METAR KIPT 080354Z AUTO 13004KT 6SM BR BKN006 OVC013 08/08 A2981 RMK AO2 SLP096 T00830078",
      "metarObsTime": 1772942040
    },
    "KPHL": {
      "status": "OK",
      "delay": "—",
      "metarCat": "MVFR",
      "metarRaw": "METAR KPHL 080354Z 12004KT 4SM BR SCT006 OVC010 11/09 A2991 RMK AO2 SLP127 T01060089 $",
      "metarObsTime": 1772942040
    },
    "KABE": {
      "status": "OK",
      "delay": "—",
      "metarCat": "MVFR",
      "metarRaw": "METAR KABE 080351Z AUTO 00000KT 6SM -RA BR BKN020 BKN026 09/08 A2985 RMK AO2 RAE0256B09 SLP109 P0008 T00890083",
      "metarObsTime": 1772941860
    },
    "KAVP": {
      "status": "OK",
      "delay": "—",
      "metarCat": "VFR",
      "metarRaw": "METAR KAVP 080354Z 26003KT 9SM BKN100 09/08 A2980 RMK AO2 SLP092 T00890083",
      "metarObsTime": 1772942040
    },
    "KHZL": {
      "status": "OK",
      "delay": "—",
      "metarCat": "VFR",
      "metarRaw": "METAR KHZL 080335Z AUTO 15003KT 7SM SCT007 BKN065 OVC110 11/10 A2985 RMK AO2",
      "metarObsTime": 1772940900
    }
  }
}