{
  "generatedAt": "2026-03-19T05:00:26.452Z",
  "airports": {
    "KPIT": {
      "status": "OK",
      "delay": "—",
      "metarCat": "VFR",
      "metarRaw": "METAR KPIT 190451Z 16004KT 10SM OVC042 01/M07 A3014 RMK AO2 SLP227 T00111072 400171094 $",
      "metarObsTime": 1773895860
    },
    "KAGC": {
      "status": "OK",
      "delay": "—",
      "metarCat": "VFR",
      "metarRaw": "METAR KAGC 190453Z AUTO 16007KT 10SM OVC045 01/M08 A3014 RMK AO2 SLP225 T00111078 400171094",
      "metarObsTime": 1773895980
    },
    "KLBE": {
      "status": "OK",
      "delay": "—",
      "metarCat": "VFR",
      "metarRaw": "METAR KLBE 190455Z AUTO 16006KT 10SM OVC047 03/M04 A3018 RMK AO2",
      "metarObsTime": 1773896100
    },
    "KJST": {
      "status": "OK",
      "delay": "—",
      "metarCat": "MVFR",
      "metarRaw": "METAR KJST 190454Z AUTO 17008KT 10SM BKN023 OVC033 M01/M08 A3013 RMK AO2 SNE02 SLP233 P0000 T10111083 410061122",
      "metarObsTime": 1773896040
    },
    "KERI": {
      "status": "OK",
      "delay": "—",
      "metarCat": "VFR",
      "metarRaw": "METAR KERI 190451Z AUTO 19011G21KT 10SM BKN044 OVC060 01/M07 A3012 RMK AO2 SLP207 T00111067 400111067",
      "metarObsTime": 1773895860
    },
    "KDUJ": {
      "status": "OK",
      "delay": "—",
      "metarCat": "MVFR",
      "metarRaw": "METAR KDUJ 190453Z AUTO 20006KT 10SM BKN022 BKN030 OVC036 M01/M08 A3013 RMK AO2 SLP227 T10111078 410061133",
      "metarObsTime": 1773895980
    },
    "KBFD": {
      "status": "OK",
      "delay": "—",
      "metarCat": "MVFR",
      "metarRaw": "METAR KBFD 190453Z AUTO 21009KT 10SM OVC024 M02/M08 A3011 RMK AO2 SLP222 T10221083 410171128",
      "metarObsTime": 1773895980
    },
    "KBTP": {
      "status": "OK",
      "delay": "—",
      "metarCat": "VFR",
      "metarRaw": "METAR KBTP 190356Z AUTO 15004KT 10SM OVC042 01/M07 A3017 RMK AO2 RAE0257 SLP234 T00061067 400171133 FZRANO $",
      "metarObsTime": 1773892560
    },
    "KFKL": {
      "status": "OK",
      "delay": "—",
      "metarCat": "VFR",
      "metarRaw": "METAR KFKL 190356Z AUTO 18007KT 10SM OVC034 M01/M06 A3014 RMK AO2 SLP228 T10111061 FZRANO",
      "metarObsTime": 1773892560
    },
    "KIDI": {
      "status": "OK",
      "delay": "—",
      "metarCat": "VFR",
      "metarRaw": "METAR KIDI 190455Z AUTO 15006KT 10SM OVC041 01/M05 A3016 RMK A01",
      "metarObsTime": 1773896100
    },
    "KMDT": {
      "status": "OK",
      "delay": "—",
      "metarCat": "VFR",
      "metarRaw": "METAR KMDT 190356Z 17006KT 10SM OVC070 01/M07 A3031 RMK AO2 SLP267 T00111067",
      "metarObsTime": 1773892560
    },
    "KCXY": {
      "status": "OK",
      "delay": "—",
      "metarCat": "VFR",
      "metarRaw": "METAR KCXY 190356Z AUTO 16008KT 10SM BKN070 OVC100 01/M08 A3031 RMK AO2 SLP269 T00111083",
      "metarObsTime": 1773892560
    },
    "KMUI": {
      "status": "OK",
      "delay": "—",
      "metarCat": "VFR",
      "metarRaw": "METAR KMUI 190455Z AUTO 00000KT 10SM SCT070 OVC100 00/M06 A3028 RMK AO2 SLP262 T00011059 400331057",
      "metarObsTime": 1773896100
    },
    "KUNV": {
      "status": "OK",
      "delay": "—",
      "metarCat": "VFR",
      "metarRaw": "METAR KUNV 190435Z AUTO 20004KT 10SM OVC042 00/M11 A3021 RMK AO2 T00021107",
      "metarObsTime": 1773894900
    },
    "KAOO": {
      "status": "OK",
      "delay": "—",
      "metarCat": "VFR",
      "metarRaw": "METAR KAOO 190453Z AUTO 20005KT 10SM OVC046 00/M09 A3020 RMK AO2 SLP244 T00001094 400171106",
      "metarObsTime": 1773895980
    },
    "KLNS": {
      "status": "OK",
      "delay": "—",
      "metarCat": "VFR",
      "metarRaw": "METAR KLNS 190453Z AUTO 16005KT 10SM OVC070 00/M08 A3032 RMK AO2 SLP271 T00001078 400281067",
      "metarObsTime": 1773895980
    },
    "KIPT": {
      "status": "OK",
      "delay": "—",
      "metarCat": "VFR",
      "metarRaw": "METAR KIPT 190454Z AUTO 16014G24KT 10SM OVC065 01/M09 A3023 RMK AO2 SLP244 T00061089 400171072 $",
      "metarObsTime": 1773896040
    },
    "KPHL": {
      "status": "OK",
      "delay": "—",
      "metarCat": "VFR",
      "metarRaw": "METAR KPHL 190454Z 18006KT 10SM OVC110 01/M06 A3036 RMK AO2 SLP282 T00061061 400441022",
      "metarObsTime": 1773896040
    },
    "KABE": {
      "status": "OK",
      "delay": "—",
      "metarCat": "VFR",
      "metarRaw": "METAR KABE 190451Z AUTO 20005KT 10SM OVC110 01/M11 A3032 RMK AO2 SLP273 T00061106 400281072",
      "metarObsTime": 1773895860
    },
    "KAVP": {
      "status": "OK",
      "delay": "—",
      "metarCat": "VFR",
      "metarRaw": "METAR KAVP 190454Z 21004KT 10SM OVC075 M01/M11 A3025 RMK AO2 SLP254 T10061106 400171078",
      "metarObsTime": 1773896040
    },
    "KHZL": {
      "status": "OK",
      "delay": "—",
      "metarCat": "VFR",
      "metarRaw": "METAR KHZL 190435Z AUTO 17003KT 10SM SCT060 OVC070 M01/M11 RMK AO2",
      "metarObsTime": 1773894900
    }
  }
}