{
  "generatedAt": "2026-04-20T23:01:06.020Z",
  "airports": {
    "KPIT": {
      "status": "OK",
      "delay": "—",
      "metarCat": "VFR",
      "metarRaw": "METAR KPIT 202251Z 32008G19KT 10SM FEW070 FEW250 07/M10 A3029 RMK AO2 SLP274 T00721100",
      "metarObsTime": 1776725460
    },
    "KAGC": {
      "status": "OK",
      "delay": "—",
      "metarCat": "VFR",
      "metarRaw": "METAR KAGC 202253Z 31008KT 10SM FEW070 07/M10 A3028 RMK AO2 SLP269 T00671100",
      "metarObsTime": 1776725580
    },
    "KLBE": {
      "status": "OK",
      "delay": "—",
      "metarCat": "VFR",
      "metarRaw": "METAR KLBE 202155Z 27009KT 10SM SCT060 07/M08 A3031",
      "metarObsTime": 1776722100
    },
    "KJST": {
      "status": "OK",
      "delay": "—",
      "metarCat": "VFR",
      "metarRaw": "METAR KJST 202254Z AUTO 30012KT 10SM CLR 02/M11 A3023 RMK AO2 SLP261 T00221106",
      "metarObsTime": 1776725640
    },
    "KERI": {
      "status": "OK",
      "delay": "—",
      "metarCat": "VFR",
      "metarRaw": "METAR KERI 202251Z 26006KT 10SM CLR 04/M07 A3035 RMK AO2 SLP285 T00391072",
      "metarObsTime": 1776725460
    },
    "KDUJ": {
      "status": "OK",
      "delay": "—",
      "metarCat": "VFR",
      "metarRaw": "METAR KDUJ 202253Z AUTO 27009G16KT 10SM CLR 03/M12 A3025 RMK AO2 SLP260 T00331122",
      "metarObsTime": 1776725580
    },
    "KBFD": {
      "status": "OK",
      "delay": "—",
      "metarCat": "VFR",
      "metarRaw": "METAR KBFD 202253Z AUTO 29011G16KT 10SM CLR 01/M12 A3025 RMK AO2 SLP265 T00061117",
      "metarObsTime": 1776725580
    },
    "KBTP": {
      "status": "OK",
      "delay": "—",
      "metarCat": "VFR",
      "metarRaw": "METAR KBTP 202256Z AUTO VRB06KT 10SM CLR 06/M08 A3030 RMK AO2 SLP278 T00611083 $",
      "metarObsTime": 1776725760
    },
    "KFKL": {
      "status": "OK",
      "delay": "—",
      "metarCat": "—",
      "metarRaw": "—",
      "metarObsTime": null
    },
    "KIDI": {
      "status": "OK",
      "delay": "—",
      "metarCat": "VFR",
      "metarRaw": "METAR KIDI 202255Z AUTO 30009KT 10SM FEW060 05/M09 A3028 RMK A01",
      "metarObsTime": 1776725700
    },
    "KMDT": {
      "status": "OK",
      "delay": "—",
      "metarCat": "VFR",
      "metarRaw": "METAR KMDT 202256Z 31014G22KT 10SM BKN070 08/M08 A3026 RMK AO2 PK WND 29027/2221 SLP250 T00781083",
      "metarObsTime": 1776725760
    },
    "KCXY": {
      "status": "OK",
      "delay": "—",
      "metarCat": "VFR",
      "metarRaw": "METAR KCXY 202256Z 32010KT 10SM SCT080 08/M11 A3027 RMK AO2 SLP255 T00831111",
      "metarObsTime": 1776725760
    },
    "KMUI": {
      "status": "OK",
      "delay": "—",
      "metarCat": "VFR",
      "metarRaw": "METAR KMUI 202155Z 29008G20KT 10SM BKN080 09/M10 A3023 RMK AO2A SLP243 T00861103",
      "metarObsTime": 1776722100
    },
    "KUNV": {
      "status": "OK",
      "delay": "—",
      "metarCat": "VFR",
      "metarRaw": "METAR KUNV 202253Z 30009G15KT 10SM BKN075 05/M11 A3026",
      "metarObsTime": 1776725580
    },
    "KAOO": {
      "status": "OK",
      "delay": "—",
      "metarCat": "VFR",
      "metarRaw": "METAR KAOO 202253Z AUTO 30009KT 10SM CLR 05/M11 A3026 RMK AO2 SLP260 T00501111",
      "metarObsTime": 1776725580
    },
    "KLNS": {
      "status": "OK",
      "delay": "—",
      "metarCat": "VFR",
      "metarRaw": "METAR KLNS 202253Z COR 32012G18KT 10SM BKN075 08/M08 A3025 RMK AO2 SLP247 T00781078",
      "metarObsTime": 1776725580
    },
    "KIPT": {
      "status": "OK",
      "delay": "—",
      "metarCat": "VFR",
      "metarRaw": "METAR KIPT 202254Z 01008G15KT 10SM SCT080 06/M10 A3027 RMK AO2 SLP253 T00561100 $",
      "metarObsTime": 1776725640
    },
    "KPHL": {
      "status": "OK",
      "delay": "—",
      "metarCat": "VFR",
      "metarRaw": "METAR KPHL 202254Z 31012G23KT 10SM FEW065 SCT085 11/M08 A3023 RMK AO2 SLP237 T01061083 $",
      "metarObsTime": 1776725640
    },
    "KABE": {
      "status": "OK",
      "delay": "—",
      "metarCat": "VFR",
      "metarRaw": "METAR KABE 202251Z 34012G19KT 10SM CLR 07/M09 A3025 RMK AO2 SLP249 T00671089",
      "metarObsTime": 1776725460
    },
    "KAVP": {
      "status": "OK",
      "delay": "—",
      "metarCat": "VFR",
      "metarRaw": "METAR KAVP 202254Z 33008KT 10SM OVC070 03/M08 A3027 RMK AO2 SLP255 T00331078",
      "metarObsTime": 1776725640
    },
    "KHZL": {
      "status": "OK",
      "delay": "—",
      "metarCat": "VFR",
      "metarRaw": "METAR KHZL 202255Z AUTO 33006G16KT 10SM CLR 03/M12 A3026 RMK AO2",
      "metarObsTime": 1776725700
    }
  }
}