{
  "generatedAt": "2026-03-22T11:40:23.700Z",
  "airports": {
    "KPIT": {
      "status": "OK",
      "delay": "—",
      "metarCat": "VFR",
      "metarRaw": "METAR KPIT 221051Z 21010KT 10SM SCT120 SCT250 16/04 A2972 RMK AO2 SLP069 T01610039 $",
      "metarObsTime": 1774176660
    },
    "KAGC": {
      "status": "OK",
      "delay": "—",
      "metarCat": "VFR",
      "metarRaw": "METAR KAGC 221053Z 18011KT 10SM CLR 13/04 A2974 RMK AO2 SLP072 T01280039",
      "metarObsTime": 1774176780
    },
    "KLBE": {
      "status": "OK",
      "delay": "—",
      "metarCat": "VFR",
      "metarRaw": "METAR KLBE 221053Z 21016G21KT 10SM FEW120 14/05 A2977",
      "metarObsTime": 1774176780
    },
    "KJST": {
      "status": "OK",
      "delay": "—",
      "metarCat": "VFR",
      "metarRaw": "METAR KJST 221054Z AUTO 21009KT 10SM CLR 14/02 A2978 RMK AO2 SLP078 T01390022",
      "metarObsTime": 1774176840
    },
    "KERI": {
      "status": "OK",
      "delay": "—",
      "metarCat": "VFR",
      "metarRaw": "METAR KERI 221051Z 21011G16KT 10SM SCT120 16/05 A2962 RMK AO2 SLP033 T01560050",
      "metarObsTime": 1774176660
    },
    "KDUJ": {
      "status": "OK",
      "delay": "—",
      "metarCat": "VFR",
      "metarRaw": "METAR KDUJ 221053Z AUTO 21007KT 10SM BKN110 13/04 A2971 RMK AO2 SLP058 T01330039",
      "metarObsTime": 1774176780
    },
    "KBFD": {
      "status": "OK",
      "delay": "—",
      "metarCat": "VFR",
      "metarRaw": "METAR KBFD 221053Z AUTO 22008KT 10SM BKN110 11/02 A2970 RMK AO2 SLP056 T01110022",
      "metarObsTime": 1774176780
    },
    "KBTP": {
      "status": "OK",
      "delay": "—",
      "metarCat": "VFR",
      "metarRaw": "METAR KBTP 221056Z AUTO 19006KT 10SM CLR 14/04 A2973 RMK AO2 SLP070 T01390044 $",
      "metarObsTime": 1774176960
    },
    "KFKL": {
      "status": "OK",
      "delay": "—",
      "metarCat": "VFR",
      "metarRaw": "METAR KFKL 221056Z AUTO 22010KT 10SM CLR 14/05 A2970 RMK AO2 SLP056 T01390050",
      "metarObsTime": 1774176960
    },
    "KIDI": {
      "status": "OK",
      "delay": "—",
      "metarCat": "VFR",
      "metarRaw": "METAR KIDI 221135Z AUTO 21010KT 10SM FEW110 14/05 A2975 RMK A01",
      "metarObsTime": 1774179300
    },
    "KMDT": {
      "status": "OK",
      "delay": "—",
      "metarCat": "MVFR",
      "metarRaw": "METAR KMDT 221056Z 10005KT 5SM BR OVC021 08/07 A2984 RMK AO2 SLP105 T00780067",
      "metarObsTime": 1774176960
    },
    "KCXY": {
      "status": "OK",
      "delay": "—",
      "metarCat": "MVFR",
      "metarRaw": "METAR KCXY 221056Z 11006KT 7SM OVC020 08/07 A2984 RMK AO2 SLP106 T00830067",
      "metarObsTime": 1774176960
    },
    "KMUI": {
      "status": "OK",
      "delay": "—",
      "metarCat": "MVFR",
      "metarRaw": "METAR KMUI 221055Z AUTO 00000KT 10SM OVC011 08/06 A2983 RMK AO2 SLP105 T00830061",
      "metarObsTime": 1774176900
    },
    "KUNV": {
      "status": "OK",
      "delay": "—",
      "metarCat": "VFR",
      "metarRaw": "METAR KUNV 221053Z 00000KT 10SM SCT090 05/02 A2977",
      "metarObsTime": 1774176780
    },
    "KAOO": {
      "status": "OK",
      "delay": "—",
      "metarCat": "VFR",
      "metarRaw": "METAR KAOO 221053Z AUTO 28003KT 10SM CLR 04/02 A2978 RMK AO2 SLP087 T00440022",
      "metarObsTime": 1774176780
    },
    "KLNS": {
      "status": "OK",
      "delay": "—",
      "metarCat": "VFR",
      "metarRaw": "METAR KLNS 221053Z 11003KT 7SM FEW013 06/05 A2985 RMK AO2 SLP110 T00610050",
      "metarObsTime": 1774176780
    },
    "KIPT": {
      "status": "OK",
      "delay": "—",
      "metarCat": "VFR",
      "metarRaw": "METAR KIPT 221054Z 00000KT 10SM OVC090 05/02 A2979 RMK AO2 SLP091 T00500022 $",
      "metarObsTime": 1774176840
    },
    "KPHL": {
      "status": "OK",
      "delay": "—",
      "metarCat": "VFR",
      "metarRaw": "METAR KPHL 221054Z 04005KT 10SM SCT034 BKN130 BKN210 08/06 A2991 RMK AO2 SLP128 T00830056 $",
      "metarObsTime": 1774176840
    },
    "KABE": {
      "status": "OK",
      "delay": "—",
      "metarCat": "VFR",
      "metarRaw": "SPECI KABE 221110Z 12003KT 10SM SCT026 OVC036 07/04 A2987 RMK AO2 T00720039 $",
      "metarObsTime": 1774177800
    },
    "KAVP": {
      "status": "OK",
      "delay": "—",
      "metarCat": "VFR",
      "metarRaw": "SPECI KAVP 221121Z VRB05KT 10SM FEW019 SCT027 OVC085 07/04 A2980 RMK AO2 T00720044",
      "metarObsTime": 1774178460
    },
    "KHZL": {
      "status": "OK",
      "delay": "—",
      "metarCat": "IFR",
      "metarRaw": "METAR KHZL 221135Z AUTO 17004KT 7SM OVC007 06/04 A2984 RMK AO2",
      "metarObsTime": 1774179300
    }
  }
}