{
  "generatedAt": "2026-03-08T05:10:12.569Z",
  "airports": {
    "KPIT": {
      "status": "OK",
      "delay": "—",
      "metarCat": "VFR",
      "metarRaw": "METAR KPIT 080451Z 23009G19KT 10SM FEW020 OVC040 16/12 A2983 RMK AO2 SLP102 T01560122 402560156 $",
      "metarObsTime": 1772945460
    },
    "KAGC": {
      "status": "OK",
      "delay": "—",
      "metarCat": "VFR",
      "metarRaw": "METAR KAGC 080453Z 23011G19KT 10SM FEW025 OVC037 16/12 A2984 RMK AO2 SLP102 T01560122 402560150",
      "metarObsTime": 1772945580
    },
    "KLBE": {
      "status": "OK",
      "delay": "—",
      "metarCat": "VFR",
      "metarRaw": "METAR KLBE 080455Z AUTO 20010KT 10SM BKN032 BKN120 16/13 A2987 RMK AO2",
      "metarObsTime": 1772945700
    },
    "KJST": {
      "status": "OK",
      "delay": "—",
      "metarCat": "VFR",
      "metarRaw": "METAR KJST 080454Z AUTO 24012G23KT 10SM FEW029 BKN110 14/11 A2985 RMK AO2 SLP099 T01440106 402390078",
      "metarObsTime": 1772945640
    },
    "KERI": {
      "status": "OK",
      "delay": "—",
      "metarCat": "VFR",
      "metarRaw": "METAR KERI 080451Z 25016G27KT 10SM FEW029 BKN048 OVC075 17/11 A2972 RMK AO2 PK WND 25030/0439 RAB06E15 SLP061 P0000 T01670106 402440117",
      "metarObsTime": 1772945460
    },
    "KDUJ": {
      "status": "OK",
      "delay": "—",
      "metarCat": "MVFR",
      "metarRaw": "METAR KDUJ 080453Z AUTO 23012G21KT 10SM BKN014 OVC022 14/13 A2979 RMK AO2 SLP078 T01390128 402440083",
      "metarObsTime": 1772945580
    },
    "KBFD": {
      "status": "OK",
      "delay": "—",
      "metarCat": "VFR",
      "metarRaw": "METAR KBFD 080453Z AUTO 25007KT 10SM FEW019 SCT034 OVC044 14/12 A2975 RMK AO2 SLP066 T01390117 402220072",
      "metarObsTime": 1772945580
    },
    "KBTP": {
      "status": "OK",
      "delay": "—",
      "metarCat": "MVFR",
      "metarRaw": "METAR KBTP 080456Z AUTO 22010KT 10SM SCT021 BKN025 OVC042 15/14 A2983 RMK AO2 SLP102 T01500144 $",
      "metarObsTime": 1772945760
    },
    "KFKL": {
      "status": "OK",
      "delay": "—",
      "metarCat": "MVFR",
      "metarRaw": "METAR KFKL 080456Z AUTO 23008KT 10SM BKN017 BKN026 OVC045 14/12 A2979 RMK AO2 SLP083 T01440122 402390128",
      "metarObsTime": 1772945760
    },
    "KIDI": {
      "status": "OK",
      "delay": "—",
      "metarCat": "MVFR",
      "metarRaw": "METAR KIDI 080455Z AUTO 23009KT 10SM FEW014 BKN019 OVC032 15/14 A2985 RMK A01",
      "metarObsTime": 1772945700
    },
    "KMDT": {
      "status": "OK",
      "delay": "—",
      "metarCat": "LIFR",
      "metarRaw": "METAR KMDT 080456Z 08005KT 2 1/2SM BR OVC004 08/07 A2983 RMK AO2 SLP104 T00780072 401000039",
      "metarObsTime": 1772945760
    },
    "KCXY": {
      "status": "OK",
      "delay": "—",
      "metarCat": "LIFR",
      "metarRaw": "METAR KCXY 080456Z AUTO 05005KT 3SM BR OVC004 08/08 A2985 RMK AO2 SLP108 T00830083 401000044",
      "metarObsTime": 1772945760
    },
    "KMUI": {
      "status": "OK",
      "delay": "—",
      "metarCat": "IFR",
      "metarRaw": "SPECI KMUI 080457Z AUTO 00000KT 4SM BR OVC005 09/09 A2982 RMK AO2 DZE57 SLP103",
      "metarObsTime": 1772945820
    },
    "KUNV": {
      "status": "OK",
      "delay": "—",
      "metarCat": "VFR",
      "metarRaw": "METAR KUNV 080455Z AUTO 24008KT 10SM CLR 13/13 A2981 RMK AO2 T01310131",
      "metarObsTime": 1772945700
    },
    "KAOO": {
      "status": "OK",
      "delay": "—",
      "metarCat": "—",
      "metarRaw": "—",
      "metarObsTime": null
    },
    "KLNS": {
      "status": "OK",
      "delay": "—",
      "metarCat": "LIFR",
      "metarRaw": "SPECI KLNS 080503Z AUTO 00000KT 3/4SM BR OVC002 08/08 A2984 RMK AO2 T00830083",
      "metarObsTime": 1772946180
    },
    "KIPT": {
      "status": "OK",
      "delay": "—",
      "metarCat": "IFR",
      "metarRaw": "METAR KIPT 080454Z AUTO 00000KT 3SM BR OVC005 08/08 A2981 RMK AO2 SLP097 T00780078 400940050",
      "metarObsTime": 1772945640
    },
    "KPHL": {
      "status": "OK",
      "delay": "—",
      "metarCat": "MVFR",
      "metarRaw": "METAR KPHL 080454Z 00000KT 3SM BR BKN010 OVC040 11/09 A2989 RMK AO2 SLP119 T01060089 401170039 $",
      "metarObsTime": 1772945640
    },
    "KABE": {
      "status": "OK",
      "delay": "—",
      "metarCat": "MVFR",
      "metarRaw": "METAR KABE 080451Z 29004KT 3SM BR FEW025 BKN110 08/08 A2984 RMK AO2 RAE0355 SLP106 P0000 T00830078 400890028",
      "metarObsTime": 1772945460
    },
    "KAVP": {
      "status": "OK",
      "delay": "—",
      "metarCat": "VFR",
      "metarRaw": "METAR KAVP 080454Z 23003KT 8SM FEW005 FEW009 SCT095 09/09 A2980 RMK AO2 RAB07E16 SLP093 P0000 T00940089 401220028",
      "metarObsTime": 1772945640
    },
    "KHZL": {
      "status": "OK",
      "delay": "—",
      "metarCat": "IFR",
      "metarRaw": "METAR KHZL 080455Z AUTO 00000KT 10SM BKN007 BKN070 OVC090 13/12 A2984 RMK AO2",
      "metarObsTime": 1772945700
    }
  }
}