{
  "generatedAt": "2026-03-26T12:40:25.852Z",
  "airports": {
    "KPIT": {
      "status": "OK",
      "delay": "—",
      "metarCat": "VFR",
      "metarRaw": "METAR KPIT 261151Z 21008KT 10SM FEW060 FEW120 BKN250 15/05 A2992 RMK AO2 SLP137 T01500050 10167 20144 50003",
      "metarObsTime": 1774525860
    },
    "KAGC": {
      "status": "OK",
      "delay": "—",
      "metarCat": "VFR",
      "metarRaw": "METAR KAGC 261153Z 19010KT 10SM SCT060 13/03 A2993 RMK AO2 SLP137 T01330033 10156 20128 53004",
      "metarObsTime": 1774525980
    },
    "KLBE": {
      "status": "OK",
      "delay": "—",
      "metarCat": "VFR",
      "metarRaw": "METAR KLBE 261147Z 20009KT 10SM SCT065 14/03 A2996",
      "metarObsTime": 1774525620
    },
    "KJST": {
      "status": "OK",
      "delay": "—",
      "metarCat": "VFR",
      "metarRaw": "METAR KJST 261154Z AUTO 25014G23KT 10SM CLR 14/04 A2994 RMK AO2 SLP138 T01390044 10139 20106 53002",
      "metarObsTime": 1774526040
    },
    "KERI": {
      "status": "OK",
      "delay": "—",
      "metarCat": "VFR",
      "metarRaw": "METAR KERI 261151Z 20007KT 10SM CLR 13/05 A2986 RMK AO2 SLP111 T01280050 10150 20117 53013",
      "metarObsTime": 1774525860
    },
    "KDUJ": {
      "status": "OK",
      "delay": "—",
      "metarCat": "VFR",
      "metarRaw": "METAR KDUJ 261153Z AUTO 22008KT 10SM CLR 11/03 A2989 RMK AO2 SLP120 T01110033 10128 20100 53001",
      "metarObsTime": 1774525980
    },
    "KBFD": {
      "status": "OK",
      "delay": "—",
      "metarCat": "VFR",
      "metarRaw": "METAR KBFD 261153Z AUTO 24004KT 10SM CLR 11/03 A2989 RMK AO2 SLP120 60000 T01060028 10117 20067 53005",
      "metarObsTime": 1774525980
    },
    "KBTP": {
      "status": "OK",
      "delay": "—",
      "metarCat": "VFR",
      "metarRaw": "METAR KBTP 261156Z AUTO 21007KT 10SM CLR 14/06 A2992 RMK AO2 SLP136 T01390061 10150 20128 50001 $",
      "metarObsTime": 1774526160
    },
    "KFKL": {
      "status": "OK",
      "delay": "—",
      "metarCat": "VFR",
      "metarRaw": "METAR KFKL 261156Z AUTO 22007KT 10SM CLR 12/06 A2989 RMK AO2 SLP124 T01220056 10139 20117 50002",
      "metarObsTime": 1774526160
    },
    "KIDI": {
      "status": "OK",
      "delay": "—",
      "metarCat": "VFR",
      "metarRaw": "METAR KIDI 261235Z AUTO 23006KT 10SM CLR 14/02 A2993 RMK A01",
      "metarObsTime": 1774528500
    },
    "KMDT": {
      "status": "OK",
      "delay": "—",
      "metarCat": "VFR",
      "metarRaw": "METAR KMDT 261156Z 11004KT 10SM BKN090 BKN250 11/03 A2998 RMK AO2 SLP155 T01060028 10106 20089 51004",
      "metarObsTime": 1774526160
    },
    "KCXY": {
      "status": "OK",
      "delay": "—",
      "metarCat": "VFR",
      "metarRaw": "METAR KCXY 261156Z 00000KT 10SM BKN080 OVC090 09/04 A2999 RMK AO2 SLP157 T00940039 10117 20089 52004",
      "metarObsTime": 1774526160
    },
    "KMUI": {
      "status": "OK",
      "delay": "—",
      "metarCat": "VFR",
      "metarRaw": "METAR KMUI 261155Z 00000KT 10SM BKN075 BKN200 09/05 A2997 RMK AO2A SLP153 T00850052 10106 20075",
      "metarObsTime": 1774526100
    },
    "KUNV": {
      "status": "OK",
      "delay": "—",
      "metarCat": "VFR",
      "metarRaw": "METAR KUNV 261153Z 27005KT 10SM CLR 09/M01 A2993",
      "metarObsTime": 1774525980
    },
    "KAOO": {
      "status": "OK",
      "delay": "—",
      "metarCat": "VFR",
      "metarRaw": "METAR KAOO 261153Z AUTO 24005KT 10SM SCT055 11/02 A2995 RMK AO2 SLP144 T01110017 10117 20078 53003",
      "metarObsTime": 1774525980
    },
    "KLNS": {
      "status": "OK",
      "delay": "—",
      "metarCat": "VFR",
      "metarRaw": "METAR KLNS 261153Z 00000KT 10SM OVC100 08/04 A2999 RMK AO2 SLP156 T00780044 10094 20072 51002",
      "metarObsTime": 1774525980
    },
    "KIPT": {
      "status": "OK",
      "delay": "—",
      "metarCat": "VFR",
      "metarRaw": "METAR KIPT 261154Z 00000KT 10SM CLR 04/01 A2993 RMK AO2 SLP137 T00440006 10094 20039 53000 $",
      "metarObsTime": 1774526040
    },
    "KPHL": {
      "status": "OK",
      "delay": "—",
      "metarCat": "VFR",
      "metarRaw": "METAR KPHL 261154Z 23007KT 10SM SCT080 BKN140 BKN240 BKN330 11/06 A3002 RMK AO2 SLP164 T01110061 10111 20094 56003 $",
      "metarObsTime": 1774526040
    },
    "KABE": {
      "status": "OK",
      "delay": "—",
      "metarCat": "VFR",
      "metarRaw": "METAR KABE 261151Z 00000KT 10SM OVC090 08/03 A2999 RMK AO2 SLP155 T00780028 10089 20072 55001 $",
      "metarObsTime": 1774525860
    },
    "KAVP": {
      "status": "OK",
      "delay": "—",
      "metarCat": "VFR",
      "metarRaw": "METAR KAVP 261154Z 27004KT 10SM BKN080 09/01 A2993 RMK AO2 SLP136 T00940011 10094 20078 56003",
      "metarObsTime": 1774526040
    },
    "KHZL": {
      "status": "OK",
      "delay": "—",
      "metarCat": "VFR",
      "metarRaw": "METAR KHZL 261235Z AUTO 00000KT 10SM BKN075 12/00 A2997 RMK AO2",
      "metarObsTime": 1774528500
    }
  }
}