{
  "generatedAt": "2026-07-23T23:50:34.390Z",
  "faaFlow": {
    "updatedAt": "2026-07-23T23:50:34.172Z",
    "source": "https://www.fly.faa.gov/adv/adv_spt",
    "terminal": [
      {
        "time": "—",
        "text": "AFTER",
        "code": "FLOW",
        "label": "FAA flow impact",
        "level": "yellow",
        "section": "Terminal Planned",
        "airports": []
      },
      {
        "time": "0400",
        "text": "LAS GROUND STOP/DELAY PROGRAM POSSIBLE",
        "code": "GS",
        "label": "Ground stop possible",
        "level": "yellow",
        "section": "Terminal Planned",
        "airports": []
      }
    ],
    "enroute": [
      {
        "time": "—",
        "text": "UNTIL",
        "code": "FLOW",
        "label": "FAA flow impact",
        "level": "yellow",
        "section": "En Route Planned",
        "airports": []
      },
      {
        "time": "0200",
        "text": "CLT CDRS",
        "code": "ROUTE",
        "label": "Route impact possible",
        "level": "blue",
        "section": "En Route Planned",
        "airports": []
      },
      {
        "time": "—",
        "text": "UNTIL",
        "code": "FLOW",
        "label": "FAA flow impact",
        "level": "yellow",
        "section": "En Route Planned",
        "airports": []
      },
      {
        "time": "0230",
        "text": "NY METRO CDRS",
        "code": "ROUTE",
        "label": "Route impact possible",
        "level": "blue",
        "section": "En Route Planned",
        "airports": []
      },
      {
        "time": "—",
        "text": "UNTIL",
        "code": "FLOW",
        "label": "FAA flow impact",
        "level": "yellow",
        "section": "En Route Planned",
        "airports": []
      },
      {
        "time": "0300",
        "text": "ZDV SWAP STATEMENT",
        "code": "ROUTE",
        "label": "Route impact possible",
        "level": "blue",
        "section": "En Route Planned",
        "airports": []
      },
      {
        "time": "—",
        "text": "UNTIL",
        "code": "FLOW",
        "label": "FAA flow impact",
        "level": "yellow",
        "section": "En Route Planned",
        "airports": []
      },
      {
        "time": "0400",
        "text": "ZNY SWAP STATEMENT",
        "code": "ROUTE",
        "label": "Route impact possible",
        "level": "blue",
        "section": "En Route Planned",
        "airports": []
      },
      {
        "time": "—",
        "text": "UNTIL",
        "code": "FLOW",
        "label": "FAA flow impact",
        "level": "yellow",
        "section": "En Route Planned",
        "airports": []
      },
      {
        "time": "0400",
        "text": "ATL CDRS RUNWAY/EQUIPMENT/POSSIBLE SYSTEM IMPACT REPORTS(SIRs): MSP - RWY 12L GS OTS CONSTRUCTION UNTIL 08/01/26 AT",
        "code": "ROUTE",
        "label": "Route impact possible",
        "level": "blue",
        "section": "En Route Planned",
        "airports": []
      },
      {
        "time": "2245",
        "text": "-",
        "code": "FLOW",
        "label": "FAA flow impact",
        "level": "yellow",
        "section": "En Route Planned",
        "airports": []
      },
      {
        "time": "2245",
        "text": "-",
        "code": "FLOW",
        "label": "FAA flow impact",
        "level": "yellow",
        "section": "En Route Planned",
        "airports": []
      }
    ],
    "airports": {
      "KPIT": null,
      "KAGC": null,
      "KLBE": null,
      "KJST": null,
      "KERI": null,
      "KDUJ": null,
      "KBFD": null,
      "KBTP": null,
      "KFKL": null,
      "KIDI": null,
      "KMDT": null,
      "KCXY": null,
      "KMUI": null,
      "KUNV": null,
      "KAOO": null,
      "KLNS": null,
      "KIPT": null,
      "KPHL": null,
      "KABE": null,
      "KAVP": null,
      "KHZL": null
    }
  },
  "airports": {
    "KPIT": {
      "status": "OK",
      "delay": "—",
      "metarCat": "VFR",
      "metarRaw": "METAR KPIT 232251Z 08003KT 10SM FEW065 SCT250 23/09 A3018 RMK AO2 SLP223 T02330094",
      "metarObsTime": 1784847060,
      "faaFlow": null
    },
    "KAGC": {
      "status": "OK",
      "delay": "—",
      "metarCat": "VFR",
      "metarRaw": "METAR KAGC 232253Z 08003KT 10SM CLR 23/08 A3017 RMK AO2 SLP218 T02330083",
      "metarObsTime": 1784847180,
      "faaFlow": null
    },
    "KLBE": {
      "status": "OK",
      "delay": "—",
      "metarCat": "VFR",
      "metarRaw": "METAR KLBE 232347Z 03011KT 10SM CLR 22/11 A3020",
      "metarObsTime": 1784850420,
      "faaFlow": null
    },
    "KJST": {
      "status": "OK",
      "delay": "—",
      "metarCat": "VFR",
      "metarRaw": "METAR KJST 232254Z AUTO 31004KT 10SM CLR 21/09 A3021 RMK AO2 SLP226 T02060094",
      "metarObsTime": 1784847240,
      "faaFlow": null
    },
    "KERI": {
      "status": "OK",
      "delay": "—",
      "metarCat": "VFR",
      "metarRaw": "METAR KERI 232251Z 28004KT 10SM CLR 23/08 A3020 RMK AO2 SLP224 T02280083",
      "metarObsTime": 1784847060,
      "faaFlow": null
    },
    "KDUJ": {
      "status": "OK",
      "delay": "—",
      "metarCat": "VFR",
      "metarRaw": "METAR KDUJ 232253Z AUTO 27004KT 10SM CLR 21/09 A3020 RMK AO2 SLP224 T02110089",
      "metarObsTime": 1784847180,
      "faaFlow": null
    },
    "KBFD": {
      "status": "OK",
      "delay": "—",
      "metarCat": "VFR",
      "metarRaw": "METAR KBFD 232253Z AUTO 26004KT 10SM CLR 21/07 A3021 RMK AO2 SLP229 T02060072",
      "metarObsTime": 1784847180,
      "faaFlow": null
    },
    "KBTP": {
      "status": "OK",
      "delay": "—",
      "metarCat": "VFR",
      "metarRaw": "METAR KBTP 232256Z AUTO 00000KT 10SM CLR 22/11 A3020 RMK AO2 SLP229 T02220106",
      "metarObsTime": 1784847360,
      "faaFlow": null
    },
    "KFKL": {
      "status": "OK",
      "delay": "—",
      "metarCat": "VFR",
      "metarRaw": "METAR KFKL 232256Z AUTO 03004KT 10SM OVC050 22/10 A3022 RMK AO2 SLP232 T02220100",
      "metarObsTime": 1784847360,
      "faaFlow": null
    },
    "KIDI": {
      "status": "OK",
      "delay": "—",
      "metarCat": "VFR",
      "metarRaw": "METAR KIDI 232335Z AUTO 03003KT 10SM CLR 22/10 A3020 RMK A01",
      "metarObsTime": 1784849700,
      "faaFlow": null
    },
    "KMDT": {
      "status": "OK",
      "delay": "—",
      "metarCat": "VFR",
      "metarRaw": "METAR KMDT 232256Z 26005KT 10SM FEW250 26/09 A3014 RMK AO2 SLP205 T02610089",
      "metarObsTime": 1784847360,
      "faaFlow": null
    },
    "KCXY": {
      "status": "OK",
      "delay": "—",
      "metarCat": "VFR",
      "metarRaw": "METAR KCXY 232256Z 31004KT 10SM CLR 26/06 A3015 RMK AO2 SLP208 T02610061",
      "metarObsTime": 1784847360,
      "faaFlow": null
    },
    "KMUI": {
      "status": "OK",
      "delay": "—",
      "metarCat": "VFR",
      "metarRaw": "METAR KMUI 232255Z 36006KT 10SM CLR 26/04 A3013 RMK AO2A SLP203 T02600039",
      "metarObsTime": 1784847300,
      "faaFlow": null
    },
    "KUNV": {
      "status": "OK",
      "delay": "—",
      "metarCat": "VFR",
      "metarRaw": "METAR KUNV 232253Z 27003KT 10SM CLR 24/08 A3019",
      "metarObsTime": 1784847180,
      "faaFlow": null
    },
    "KAOO": {
      "status": "OK",
      "delay": "—",
      "metarCat": "VFR",
      "metarRaw": "METAR KAOO 232253Z AUTO 03003KT 10SM CLR 22/11 A3020 RMK AO2 SLP223 T02220106",
      "metarObsTime": 1784847180,
      "faaFlow": null
    },
    "KLNS": {
      "status": "OK",
      "delay": "—",
      "metarCat": "VFR",
      "metarRaw": "METAR KLNS 232253Z 28006KT 10SM CLR 24/09 A3015 RMK AO2 SLP207 T02440089",
      "metarObsTime": 1784847180,
      "faaFlow": null
    },
    "KIPT": {
      "status": "OK",
      "delay": "—",
      "metarCat": "VFR",
      "metarRaw": "METAR KIPT 232254Z 35004KT 10SM CLR 26/06 A3013 RMK AO2 SLP201 T02610061 $",
      "metarObsTime": 1784847240,
      "faaFlow": null
    },
    "KPHL": {
      "status": "OK",
      "delay": "—",
      "metarCat": "VFR",
      "metarRaw": "METAR KPHL 232254Z 17004KT 10SM SCT330 28/09 A3013 RMK AO2 SLP201 T02780089 $",
      "metarObsTime": 1784847240,
      "faaFlow": null
    },
    "KABE": {
      "status": "OK",
      "delay": "—",
      "metarCat": "VFR",
      "metarRaw": "METAR KABE 232251Z 02008KT 10SM CLR 26/08 A3014 RMK AO2 SLP205 T02560078 $",
      "metarObsTime": 1784847060,
      "faaFlow": null
    },
    "KAVP": {
      "status": "OK",
      "delay": "—",
      "metarCat": "VFR",
      "metarRaw": "METAR KAVP 232254Z 31005KT 10SM CLR 24/05 A3016 RMK AO2 SLP209 T02440050",
      "metarObsTime": 1784847240,
      "faaFlow": null
    },
    "KHZL": {
      "status": "OK",
      "delay": "—",
      "metarCat": "VFR",
      "metarRaw": "METAR KHZL 232335Z AUTO 00000KT 10SM CLR 20/10 A3024 RMK AO2",
      "metarObsTime": 1784849700,
      "faaFlow": null
    }
  }
}