{
  "generatedAt": "2026-03-16T19:30:19.982Z",
  "airports": {
    "KPIT": {
      "status": "OK",
      "delay": "—",
      "metarCat": "IFR",
      "metarRaw": "SPECI KPIT 161912Z 26010G17KT 3SM -RAPL BR BKN009 OVC015 04/02 A2946 RMK AO2 PLB11 P0000 T00390017 $",
      "metarObsTime": 1773688320
    },
    "KAGC": {
      "status": "OK",
      "delay": "—",
      "metarCat": "IFR",
      "metarRaw": "SPECI KAGC 161918Z 29011G25KT 260V340 2SM -RA BR SCT010 BKN017 OVC031 04/02 A2945 RMK AO2 PK WND 26033/1854 P0001 T00390022",
      "metarObsTime": 1773688680
    },
    "KLBE": {
      "status": "OK",
      "delay": "—",
      "metarCat": "—",
      "metarRaw": "—",
      "metarObsTime": null
    },
    "KJST": {
      "status": "OK",
      "delay": "—",
      "metarCat": "VFR",
      "metarRaw": "METAR KJST 161854Z AUTO 27012KT 10SM -RA SCT031 BKN038 OVC085 09/07 A2937 RMK AO2 PK WND 26028/1831 WSHFT 1825 RAB46 SLP948 P0000 T00940072",
      "metarObsTime": 1773687240
    },
    "KERI": {
      "status": "OK",
      "delay": "—",
      "metarCat": "MVFR",
      "metarRaw": "METAR KERI 161851Z 26017G28KT 10SM BKN020 OVC029 02/M02 A2944 RMK AO2 PK WND 27032/1828 RAE04B40E46 SLP970 P0000 T00171017 $",
      "metarObsTime": 1773687060
    },
    "KDUJ": {
      "status": "OK",
      "delay": "—",
      "metarCat": "MVFR",
      "metarRaw": "METAR KDUJ 161853Z AUTO 26016G26KT 10SM OVC010 07/04 A2935 RMK AO2 PK WND 25035/1811 WSHFT 1801 CIG 008V012 SLP941 T00720044",
      "metarObsTime": 1773687180
    },
    "KBFD": {
      "status": "OK",
      "delay": "—",
      "metarCat": "IFR",
      "metarRaw": "METAR KBFD 161853Z AUTO 29008G21KT 10SM -RA BKN007 BKN017 OVC021 08/07 A2933 RMK AO2 PK WND 19027/1836 WSHFT 1836 RAB15 CIG 005V012 SLP933 P0001 T00780067",
      "metarObsTime": 1773687180
    },
    "KBTP": {
      "status": "OK",
      "delay": "—",
      "metarCat": "—",
      "metarRaw": "—",
      "metarObsTime": null
    },
    "KFKL": {
      "status": "OK",
      "delay": "—",
      "metarCat": "IFR",
      "metarRaw": "SPECI KFKL 161926Z AUTO 26010G17KT 3SM RA BR BKN008 OVC011 03/02 A2943 RMK AO2 CIG 005V009 P0002",
      "metarObsTime": 1773689160
    },
    "KIDI": {
      "status": "OK",
      "delay": "—",
      "metarCat": "MVFR",
      "metarRaw": "METAR KIDI 161915Z AUTO 25013G25KT 10SM FEW016 OVC022 07/03 A2941 RMK A01",
      "metarObsTime": 1773688500
    },
    "KMDT": {
      "status": "OK",
      "delay": "—",
      "metarCat": "VFR",
      "metarRaw": "METAR KMDT 161856Z 15011KT 9SM -RA FEW020 SCT080 OVC100 16/14 A2940 RMK AO2 RAB06 SLP956 P0002 T01610144",
      "metarObsTime": 1773687360
    },
    "KCXY": {
      "status": "OK",
      "delay": "—",
      "metarCat": "VFR",
      "metarRaw": "METAR KCXY 161856Z 15013G25KT 10SM -RA FEW019 OVC095 17/16 A2940 RMK AO2 RAB10 SLP955 P0002 T01720156",
      "metarObsTime": 1773687360
    },
    "KMUI": {
      "status": "OK",
      "delay": "—",
      "metarCat": "MVFR",
      "metarRaw": "SPECI KMUI 161903Z 17007KT 10SM -RA BKN012 OVC026 18/18 A2941 RMK AO2A SLP962",
      "metarObsTime": 1773687780
    },
    "KUNV": {
      "status": "OK",
      "delay": "—",
      "metarCat": "VFR",
      "metarRaw": "METAR KUNV 161853Z 20009G15KT 10SM SCT031 BKN085 OVC110 17/12 A2935",
      "metarObsTime": 1773687180
    },
    "KAOO": {
      "status": "OK",
      "delay": "—",
      "metarCat": "VFR",
      "metarRaw": "METAR KAOO 161853Z AUTO 19009KT 10SM FEW041 SCT120 17/12 A2934 RMK AO2 RAE1755 SLP933 P0000 T01720122",
      "metarObsTime": 1773687180
    },
    "KLNS": {
      "status": "OK",
      "delay": "—",
      "metarCat": "MVFR",
      "metarRaw": "SPECI KLNS 161919Z 22012G18KT 10SM OVC013 17/16 A2945 RMK AO2 PK WND 20028/1859 RAE03 P0000 T01720156",
      "metarObsTime": 1773688740
    },
    "KIPT": {
      "status": "OK",
      "delay": "—",
      "metarCat": "VFR",
      "metarRaw": "SPECI KIPT 161915Z 13016G25KT 10SM FEW024 SCT030 18/14 A2931 RMK AO2 RAE00 P0000 T01830144",
      "metarObsTime": 1773688500
    },
    "KPHL": {
      "status": "OK",
      "delay": "—",
      "metarCat": "VFR",
      "metarRaw": "METAR KPHL 161854Z 18016G23KT 10SM -RA FEW020 SCT060 BKN100 OVC200 18/15 A2953 RMK AO2 PK WND 19029/1806 SLP999 P0001 T01830150 $",
      "metarObsTime": 1773687240
    },
    "KABE": {
      "status": "OK",
      "delay": "—",
      "metarCat": "MVFR",
      "metarRaw": "SPECI KABE 161918Z 17016G25KT 10SM -RA BKN026 BKN032 OVC039 19/15 A2946 RMK AO2 RAB11 P0000 T01890150",
      "metarObsTime": 1773688680
    },
    "KAVP": {
      "status": "OK",
      "delay": "—",
      "metarCat": "VFR",
      "metarRaw": "METAR KAVP 161854Z 20009G27KT 10SM -RA OVC095 17/14 A2942 RMK AO2 PK WND 19027/1846 SLP958 P0009 T01720139",
      "metarObsTime": 1773687240
    },
    "KHZL": {
      "status": "OK",
      "delay": "—",
      "metarCat": "MVFR",
      "metarRaw": "METAR KHZL 161915Z AUTO 16011G19KT 120V200 7SM RA BKN010 OVC014 16/13 A2946 RMK AO2",
      "metarObsTime": 1773688500
    }
  }
}