{
  "generatedAt": "2026-04-05T02:20:35.804Z",
  "airports": {
    "KPIT": {
      "status": "OK",
      "delay": "—",
      "metarCat": "VFR",
      "metarRaw": "METAR KPIT 050151Z 25008G16KT 10SM BKN070 OVC110 24/12 A2986 RMK AO2 PK WND 22028/0123 SLP110 T02390122 $",
      "metarObsTime": 1775353860
    },
    "KAGC": {
      "status": "OK",
      "delay": "—",
      "metarCat": "VFR",
      "metarRaw": "METAR KAGC 050153Z 21008KT 10SM BKN110 24/10 A2986 RMK AO2 SLP106 T02440100",
      "metarObsTime": 1775353980
    },
    "KLBE": {
      "status": "OK",
      "delay": "—",
      "metarCat": "VFR",
      "metarRaw": "METAR KLBE 050215Z AUTO 17009KT 10SM SCT090 25/12 A2988 RMK AO2",
      "metarObsTime": 1775355300
    },
    "KJST": {
      "status": "OK",
      "delay": "—",
      "metarCat": "VFR",
      "metarRaw": "METAR KJST 050154Z AUTO 19011KT 10SM BKN085 21/11 A2994 RMK AO2 SLP125 T02060106",
      "metarObsTime": 1775354040
    },
    "KERI": {
      "status": "OK",
      "delay": "—",
      "metarCat": "VFR",
      "metarRaw": "METAR KERI 050151Z 22010KT 7SM -RA FEW046 OVC070 19/17 A2979 RMK AO2 SLP088 P0009 T01890167",
      "metarObsTime": 1775353860
    },
    "KDUJ": {
      "status": "OK",
      "delay": "—",
      "metarCat": "VFR",
      "metarRaw": "METAR KDUJ 050153Z AUTO 15007KT 10SM SCT120 21/13 A2986 RMK AO2 SLP102 T02110128",
      "metarObsTime": 1775353980
    },
    "KBFD": {
      "status": "OK",
      "delay": "—",
      "metarCat": "VFR",
      "metarRaw": "METAR KBFD 050153Z AUTO 15008G16KT 10SM SCT110 21/13 A2985 RMK AO2 SLP097 T02060128",
      "metarObsTime": 1775353980
    },
    "KBTP": {
      "status": "OK",
      "delay": "—",
      "metarCat": "VFR",
      "metarRaw": "METAR KBTP 050156Z AUTO 25009KT 10SM SCT080 BKN110 23/13 A2987 RMK AO2 PK WND 23028/0141 WSHFT 0134 SLP112 T02280133 $",
      "metarObsTime": 1775354160
    },
    "KFKL": {
      "status": "OK",
      "delay": "—",
      "metarCat": "VFR",
      "metarRaw": "METAR KFKL 050156Z AUTO 24017G34KT 7SM +RA FEW041 BKN070 OVC100 20/14 A2988 RMK AO2 PK WND 23034/0151 RAB48 PRESRR SLP113 P0004 T02000144",
      "metarObsTime": 1775354160
    },
    "KIDI": {
      "status": "OK",
      "delay": "—",
      "metarCat": "VFR",
      "metarRaw": "METAR KIDI 050215Z AUTO 18007KT 10SM SCT085 BKN110 23/12 A2987 RMK A01",
      "metarObsTime": 1775355300
    },
    "KMDT": {
      "status": "OK",
      "delay": "—",
      "metarCat": "VFR",
      "metarRaw": "METAR KMDT 050156Z 09011KT 10SM BKN080 BKN250 17/12 A3002 RMK AO2 PK WND 11026/0126 SLP166 T01720117 $",
      "metarObsTime": 1775354160
    },
    "KCXY": {
      "status": "OK",
      "delay": "—",
      "metarCat": "VFR",
      "metarRaw": "METAR KCXY 050156Z AUTO 11016G26KT 10SM CLR 17/12 A3001 RMK AO2 PK WND 12026/0153 SLP164 T01720122 $",
      "metarObsTime": 1775354160
    },
    "KMUI": {
      "status": "OK",
      "delay": "—",
      "metarCat": "MVFR",
      "metarRaw": "SPECI KMUI 050203Z AUTO 08014G21KT 10SM BKN018 OVC022 15/12 A3004 RMK AO2 CIG 018V024 SLP174",
      "metarObsTime": 1775354580
    },
    "KUNV": {
      "status": "OK",
      "delay": "—",
      "metarCat": "VFR",
      "metarRaw": "METAR KUNV 050215Z AUTO 17006KT 10SM OVC090 22/16 A2992 RMK AO2 T02170155",
      "metarObsTime": 1775355300
    },
    "KAOO": {
      "status": "OK",
      "delay": "—",
      "metarCat": "VFR",
      "metarRaw": "METAR KAOO 050153Z AUTO 23005KT 10SM CLR 20/14 A2993 RMK AO2 SLP128 T02000139",
      "metarObsTime": 1775353980
    },
    "KLNS": {
      "status": "OK",
      "delay": "—",
      "metarCat": "MVFR",
      "metarRaw": "METAR KLNS 050153Z 09010KT 10SM BKN018 13/10 A3006 RMK AO2 SLP180 T01330100",
      "metarObsTime": 1775353980
    },
    "KIPT": {
      "status": "OK",
      "delay": "—",
      "metarCat": "VFR",
      "metarRaw": "METAR KIPT 050154Z 12018G28KT 10SM -RA SCT016 BKN110 16/12 A2996 RMK AO2 PK WND 12040/0115 RAB0055E14B51 SLP144 P0006 T01610122",
      "metarObsTime": 1775354040
    },
    "KPHL": {
      "status": "OK",
      "delay": "—",
      "metarCat": "IFR",
      "metarRaw": "SPECI KPHL 050211Z 08018G25KT 8SM OVC006 09/08 A3014 RMK AO2 T00940078 $",
      "metarObsTime": 1775355060
    },
    "KABE": {
      "status": "OK",
      "delay": "—",
      "metarCat": "MVFR",
      "metarRaw": "SPECI KABE 050201Z 11016G22KT 10SM OVC013 08/05 A3015 RMK AO2 T00830050 $",
      "metarObsTime": 1775354460
    },
    "KAVP": {
      "status": "OK",
      "delay": "—",
      "metarCat": "MVFR",
      "metarRaw": "METAR KAVP 050154Z AUTO VRB04KT 10SM OVC017 11/07 A3006 RMK AO2 SLP178 T01110072",
      "metarObsTime": 1775354040
    },
    "KHZL": {
      "status": "OK",
      "delay": "—",
      "metarCat": "IFR",
      "metarRaw": "METAR KHZL 050215Z AUTO 13007G19KT 100V180 10SM OVC006 08/06 A3007 RMK AO2",
      "metarObsTime": 1775355300
    }
  }
}