{
  "generatedAt": "2026-05-14T20:17:16.326Z",
  "faaFlow": {
    "updatedAt": "2026-05-14T20:17:16.231Z",
    "source": "https://www.fly.faa.gov/adv/adv_spt",
    "terminal": [
      {
        "time": "—",
        "text": "UNTIL",
        "code": "FLOW",
        "label": "FAA flow impact",
        "level": "yellow",
        "section": "Terminal Planned",
        "airports": []
      },
      {
        "time": "0000",
        "text": "BNA GROUND STOP POSSIBLE",
        "code": "GS",
        "label": "Ground stop possible",
        "level": "yellow",
        "section": "Terminal Planned",
        "airports": []
      }
    ],
    "enroute": [
      {
        "time": "—",
        "text": "UNTIL",
        "code": "FLOW",
        "label": "FAA flow impact",
        "level": "yellow",
        "section": "En Route Planned",
        "airports": []
      },
      {
        "time": "2300",
        "text": "SAN DIVERSION RECOVERY",
        "code": "FLOW",
        "label": "FAA flow impact",
        "level": "yellow",
        "section": "En Route Planned",
        "airports": []
      },
      {
        "time": "—",
        "text": "UNTIL",
        "code": "FLOW",
        "label": "FAA flow impact",
        "level": "yellow",
        "section": "En Route Planned",
        "airports": []
      },
      {
        "time": "0200",
        "text": "ZMP SWAP STATEMENT RUNWAY/EQUIPMENT/POSSIBLE SYSTEM IMPACT REPORTS(SIRs): PDX - RWYs 10R/28L & 03/21 CLOSED UNTIL 05/22/26",
        "code": "CLOSURE",
        "label": "Closure possible",
        "level": "yellow",
        "section": "En Route Planned",
        "airports": []
      },
      {
        "time": "—",
        "text": "AFTER",
        "code": "FLOW",
        "label": "FAA flow impact",
        "level": "yellow",
        "section": "En Route Planned",
        "airports": []
      },
      {
        "time": "2000",
        "text": "SEA VIP MOVEMENT(S):",
        "code": "FLOW",
        "label": "FAA flow impact",
        "level": "yellow",
        "section": "En Route Planned",
        "airports": []
      },
      {
        "time": "—",
        "text": "AFTER",
        "code": "FLOW",
        "label": "FAA flow impact",
        "level": "yellow",
        "section": "En Route Planned",
        "airports": []
      },
      {
        "time": "0500",
        "text": "DEP ZBAA NEXT PLANNING WEBINAR:",
        "code": "FLOW",
        "label": "FAA flow impact",
        "level": "yellow",
        "section": "En Route Planned",
        "airports": []
      }
    ],
    "airports": {
      "KPIT": null,
      "KAGC": null,
      "KLBE": null,
      "KJST": null,
      "KERI": null,
      "KDUJ": null,
      "KBFD": null,
      "KBTP": null,
      "KFKL": null,
      "KIDI": null,
      "KMDT": null,
      "KCXY": null,
      "KMUI": null,
      "KUNV": null,
      "KAOO": null,
      "KLNS": null,
      "KIPT": null,
      "KPHL": null,
      "KABE": null,
      "KAVP": null,
      "KHZL": null
    }
  },
  "airports": {
    "KPIT": {
      "status": "OK",
      "delay": "—",
      "metarCat": "VFR",
      "metarRaw": "METAR KPIT 141951Z 31006KT 10SM BKN036 OVC044 11/04 A2993 RMK AO2 SLP145 T01060044",
      "metarObsTime": 1778788260,
      "faaFlow": null
    },
    "KAGC": {
      "status": "OK",
      "delay": "—",
      "metarCat": "VFR",
      "metarRaw": "SPECI KAGC 142000Z 30005G16KT 10SM OVC034 09/04 A2992 RMK AO2 T00940044",
      "metarObsTime": 1778788800,
      "faaFlow": null
    },
    "KLBE": {
      "status": "OK",
      "delay": "—",
      "metarCat": "MVFR",
      "metarRaw": "METAR KLBE 141947Z 27005KT 10SM SCT008 OVC015 08/07 A2995",
      "metarObsTime": 1778788020,
      "faaFlow": null
    },
    "KJST": {
      "status": "OK",
      "delay": "—",
      "metarCat": "IFR",
      "metarRaw": "METAR KJST 141954Z AUTO 29010G22KT 8SM -RA BKN005 OVC009 05/04 A2987 RMK AO2 SLP125 P0001 T00500044",
      "metarObsTime": 1778788440,
      "faaFlow": null
    },
    "KERI": {
      "status": "OK",
      "delay": "—",
      "metarCat": "VFR",
      "metarRaw": "METAR KERI 141951Z 28004KT 10SM OVC041 10/05 A2991 RMK AO2 SLP131 T01000050",
      "metarObsTime": 1778788260,
      "faaFlow": null
    },
    "KDUJ": {
      "status": "OK",
      "delay": "—",
      "metarCat": "MVFR",
      "metarRaw": "SPECI KDUJ 142011Z AUTO 29008KT 10SM BKN015 OVC022 07/03 A2986 RMK AO2 T00670033",
      "metarObsTime": 1778789460,
      "faaFlow": null
    },
    "KBFD": {
      "status": "OK",
      "delay": "—",
      "metarCat": "MVFR",
      "metarRaw": "METAR KBFD 141953Z AUTO 31008KT 6SM BR BKN011 OVC018 05/03 A2985 RMK AO2 RAB1854E15 CIG 008V014 SLP119 P0000 T00500033",
      "metarObsTime": 1778788380,
      "faaFlow": null
    },
    "KBTP": {
      "status": "OK",
      "delay": "—",
      "metarCat": "MVFR",
      "metarRaw": "METAR KBTP 141956Z AUTO 30006KT 10SM OVC028 09/06 A2993 RMK AO2 SLP147 T00890056 $",
      "metarObsTime": 1778788560,
      "faaFlow": null
    },
    "KFKL": {
      "status": "OK",
      "delay": "—",
      "metarCat": "MVFR",
      "metarRaw": "METAR KFKL 141956Z AUTO 30007KT 10SM FEW017 OVC026 08/05 A2991 RMK AO2 SLP137 T00780050",
      "metarObsTime": 1778788560,
      "faaFlow": null
    },
    "KIDI": {
      "status": "OK",
      "delay": "—",
      "metarCat": "MVFR",
      "metarRaw": "METAR KIDI 142015Z AUTO 29007G15KT 5SM BR BKN016 BKN021 07/06 A2991 RMK A01",
      "metarObsTime": 1778789700,
      "faaFlow": null
    },
    "KMDT": {
      "status": "OK",
      "delay": "—",
      "metarCat": "VFR",
      "metarRaw": "METAR KMDT 141956Z 33013KT 10SM SCT042 OVC060 14/05 A2982 RMK AO2 SLP098 T01440050",
      "metarObsTime": 1778788560,
      "faaFlow": null
    },
    "KCXY": {
      "status": "OK",
      "delay": "—",
      "metarCat": "VFR",
      "metarRaw": "METAR KCXY 141956Z 31012G17KT 10SM FEW041 OVC060 14/04 A2983 RMK AO2 SLP101 T01440044",
      "metarObsTime": 1778788560,
      "faaFlow": null
    },
    "KMUI": {
      "status": "OK",
      "delay": "—",
      "metarCat": "VFR",
      "metarRaw": "METAR KMUI 141955Z 30008KT 280V340 10SM OVC039 15/07 A2980 RMK AO2A SLP094 T01520067",
      "metarObsTime": 1778788500,
      "faaFlow": null
    },
    "KUNV": {
      "status": "OK",
      "delay": "—",
      "metarCat": "VFR",
      "metarRaw": "METAR KUNV 141953Z 30008KT 10SM SCT031 OVC037 09/04 A2985",
      "metarObsTime": 1778788380,
      "faaFlow": null
    },
    "KAOO": {
      "status": "OK",
      "delay": "—",
      "metarCat": "MVFR",
      "metarRaw": "METAR KAOO 141953Z AUTO 31013KT 10SM -RA SCT024 BKN029 OVC045 08/04 A2987 RMK AO2 RAB18 SLP119 P0000 T00830039",
      "metarObsTime": 1778788380,
      "faaFlow": null
    },
    "KLNS": {
      "status": "OK",
      "delay": "—",
      "metarCat": "VFR",
      "metarRaw": "METAR KLNS 141953Z 31013G18KT 10SM FEW055 OVC095 14/06 A2981 RMK AO2 SLP095 T01390056",
      "metarObsTime": 1778788380,
      "faaFlow": null
    },
    "KIPT": {
      "status": "OK",
      "delay": "—",
      "metarCat": "VFR",
      "metarRaw": "METAR KIPT 141954Z 29005KT 10SM -RA OVC032 10/07 A2982 RMK AO2 RAB52 SLP099 P0000 T01000067",
      "metarObsTime": 1778788440,
      "faaFlow": null
    },
    "KPHL": {
      "status": "OK",
      "delay": "—",
      "metarCat": "VFR",
      "metarRaw": "METAR KPHL 141954Z 29015KT 10SM SCT055 BKN090 19/05 A2976 RMK AO2 SLP078 T01890050 $",
      "metarObsTime": 1778788440,
      "faaFlow": null
    },
    "KABE": {
      "status": "OK",
      "delay": "—",
      "metarCat": "VFR",
      "metarRaw": "METAR KABE 141951Z 26013G20KT 10SM FEW045 SCT055 OVC090 16/06 A2976 RMK AO2 SLP078 T01610056",
      "metarObsTime": 1778788260,
      "faaFlow": null
    },
    "KAVP": {
      "status": "OK",
      "delay": "—",
      "metarCat": "MVFR",
      "metarRaw": "METAR KAVP 141954Z 31006KT 10SM -RA BKN025 OVC034 10/06 A2980 RMK AO2 RAB28 SLP089 P0000 T01000061",
      "metarObsTime": 1778788440,
      "faaFlow": null
    },
    "KHZL": {
      "status": "OK",
      "delay": "—",
      "metarCat": "MVFR",
      "metarRaw": "METAR KHZL 141955Z AUTO 29003KT 10SM SCT022 OVC029 10/03 A2983 RMK AO2",
      "metarObsTime": 1778788500,
      "faaFlow": null
    }
  }
}