{
  "generatedAt": "2026-03-05T18:40:15.038Z",
  "airports": {
    "KPIT": {
      "status": "OK",
      "delay": "—",
      "metarCat": "MVFR",
      "metarRaw": "METAR KPIT 051751Z 19006KT 4SM -RA BR SCT009 BKN014 OVC080 16/14 A3003 RMK AO2 RAB16 SLP177 P0005 60022 T01560139 10161 20106 56014",
      "metarObsTime": 1772733060
    },
    "KAGC": {
      "status": "OK",
      "delay": "—",
      "metarCat": "IFR",
      "metarRaw": "METAR KAGC 051753Z 22010KT 6SM -RA BR BKN007 OVC024 16/14 A3004 RMK AO2 RAB48 SLP177 P0001 60022 T01560139 10156 20122 56013",
      "metarObsTime": 1772733180
    },
    "KLBE": {
      "status": "OK",
      "delay": "—",
      "metarCat": "MVFR",
      "metarRaw": "METAR KLBE 051748Z 18010KT 10SM -RA BKN029 OVC034 17/15 A3006",
      "metarObsTime": 1772732880
    },
    "KJST": {
      "status": "OK",
      "delay": "—",
      "metarCat": "IFR",
      "metarRaw": "SPECI KJST 051820Z AUTO 21010KT 10SM BKN009 OVC013 13/12 A3005 RMK AO2 CIG 007V011 T01330122",
      "metarObsTime": 1772734800
    },
    "KERI": {
      "status": "OK",
      "delay": "—",
      "metarCat": "IFR",
      "metarRaw": "SPECI KERI 051826Z 04005KT 1SM R06/P6000FT RA BR SCT006 BKN013 OVC046 03/03 A3003 RMK AO2 P0011 T00330033",
      "metarObsTime": 1772735160
    },
    "KDUJ": {
      "status": "OK",
      "delay": "—",
      "metarCat": "LIFR",
      "metarRaw": "METAR KDUJ 051753Z AUTO 12006KT 1/4SM FG VV002 08/08 A3003 RMK AO2 RAE1658B14E39 SLP177 P0001 60005 T00830083 10089 20061 58020",
      "metarObsTime": 1772733180
    },
    "KBFD": {
      "status": "OK",
      "delay": "—",
      "metarCat": "LIFR",
      "metarRaw": "SPECI KBFD 051835Z AUTO 13005KT 2 1/2SM -RA BR OVC002 07/06 A3003 RMK AO2 VIS 2V5 P0000 T00670061",
      "metarObsTime": 1772735700
    },
    "KBTP": {
      "status": "OK",
      "delay": "—",
      "metarCat": "IFR",
      "metarRaw": "METAR KBTP 051756Z AUTO 24003KT 5SM RA OVC009 14/ A3005 RMK AO2 RAB19 CIG 006V012 SLP184 P0007 60023 T0144 10150 20106 55013 $",
      "metarObsTime": 1772733360
    },
    "KFKL": {
      "status": "OK",
      "delay": "—",
      "metarCat": "IFR",
      "metarRaw": "SPECI KFKL 051832Z AUTO 12004KT 8SM -RA BKN005 BKN008 OVC012 11/11 A3002 RMK AO2 CIG 002V005 P0007",
      "metarObsTime": 1772735520
    },
    "KIDI": {
      "status": "OK",
      "delay": "—",
      "metarCat": "MVFR",
      "metarRaw": "METAR KIDI 051835Z AUTO 25007KT 9SM BKN011 BKN018 OVC034 16/15 A3004 RMK A01",
      "metarObsTime": 1772735700
    },
    "KMDT": {
      "status": "OK",
      "delay": "—",
      "metarCat": "IFR",
      "metarRaw": "METAR KMDT 051756Z 00000KT 2SM R13/2800VP6000FT RA BR OVC007 07/07 A3015 RMK AO2 TWR VIS 2 1/2 SLP213 P0003 60005 T00720067 10078 20044 58016",
      "metarObsTime": 1772733360
    },
    "KCXY": {
      "status": "OK",
      "delay": "—",
      "metarCat": "IFR",
      "metarRaw": "SPECI KCXY 051758Z 12006KT 1SM R08/P6000FT -RA BR BKN005 OVC012 08/08 A3015 RMK AO2 CIG 003V008 P0000 T00830078",
      "metarObsTime": 1772733480
    },
    "KMUI": {
      "status": "OK",
      "delay": "—",
      "metarCat": "IFR",
      "metarRaw": "SPECI KMUI 051810Z 07006KT 4SM BR OVC005 08/08 A3012 RMK AO2A PRESFR SLP205",
      "metarObsTime": 1772734200
    },
    "KUNV": {
      "status": "OK",
      "delay": "—",
      "metarCat": "LIFR",
      "metarRaw": "METAR KUNV 051753Z 02003KT 2SM BR BKN004 OVC013 07/07 A3012",
      "metarObsTime": 1772733180
    },
    "KAOO": {
      "status": "OK",
      "delay": "—",
      "metarCat": "IFR",
      "metarRaw": "METAR KAOO 051753Z AUTO 00000KT 10SM OVC006 08/08 A3010 RMK AO2 SLP202 60005 T00830078 10089 20044 56015",
      "metarObsTime": 1772733180
    },
    "KLNS": {
      "status": "OK",
      "delay": "—",
      "metarCat": "LIFR",
      "metarRaw": "METAR KLNS 051753Z 11004KT 3SM BR OVC004 08/08 A3016 RMK AO2 RAE23 SLP216 P0002 60005 T00830078 10083 20056 58010",
      "metarObsTime": 1772733180
    },
    "KIPT": {
      "status": "OK",
      "delay": "—",
      "metarCat": "MVFR",
      "metarRaw": "SPECI KIPT 051835Z 06006KT 4SM -RA BR SCT007 BKN012 OVC020 07/07 A3012 RMK AO2 P0002 T00720067 $",
      "metarObsTime": 1772735700
    },
    "KPHL": {
      "status": "OK",
      "delay": "—",
      "metarCat": "IFR",
      "metarRaw": "SPECI KPHL 051824Z 06006KT 5SM BR OVC006 09/07 A3018 RMK AO2 T00890067 $",
      "metarObsTime": 1772735040
    },
    "KABE": {
      "status": "OK",
      "delay": "—",
      "metarCat": "LIFR",
      "metarRaw": "SPECI KABE 051800Z 09003KT 2 1/2SM -RA BR OVC004 07/07 A3020 RMK AO2 SFC VIS 5 P0000 T00720067",
      "metarObsTime": 1772733600
    },
    "KAVP": {
      "status": "OK",
      "delay": "—",
      "metarCat": "IFR",
      "metarRaw": "SPECI KAVP 051829Z 10004KT 2SM OVC010 07/07 A3015 RMK AO2 SFC VIS 10 P0001 T00720067",
      "metarObsTime": 1772735340
    },
    "KHZL": {
      "status": "OK",
      "delay": "—",
      "metarCat": "LIFR",
      "metarRaw": "METAR KHZL 051815Z AUTO 14003KT 1SM -RA OVC002 07/06 A3018 RMK AO2",
      "metarObsTime": 1772734500
    }
  }
}