{
  "generatedAt": "2026-04-15T12:20:52.772Z",
  "airports": {
    "KPIT": {
      "status": "OK",
      "delay": "—",
      "metarCat": "VFR",
      "metarRaw": "METAR KPIT 151151Z 25005KT 10SM BKN032 BKN055 BKN220 19/15 A2998 RMK AO2 SLP155 70027 T01940150 10206 20167 53024 $",
      "metarObsTime": 1776253860
    },
    "KAGC": {
      "status": "OK",
      "delay": "—",
      "metarCat": "VFR",
      "metarRaw": "METAR KAGC 151153Z 21011KT 10SM BKN042 OVC050 19/14 A2998 RMK AO2 SLP152 70033 T01940144 10194 20167 53020",
      "metarObsTime": 1776253980
    },
    "KLBE": {
      "status": "OK",
      "delay": "—",
      "metarCat": "VFR",
      "metarRaw": "METAR KLBE 151153Z 21017G21KT 10SM BKN043 OVC049 20/16 A3001",
      "metarObsTime": 1776253980
    },
    "KJST": {
      "status": "OK",
      "delay": "—",
      "metarCat": "MVFR",
      "metarRaw": "METAR KJST 151154Z AUTO 25013G20KT 5SM RA SCT031 BKN045 BKN060 18/14 A3003 RMK AO2 PK WND 24029/1106 RAB03E18B44 SLP163 P0002 60002 70032 T01780139 10189 20167 53016",
      "metarObsTime": 1776254040
    },
    "KERI": {
      "status": "OK",
      "delay": "—",
      "metarCat": "VFR",
      "metarRaw": "METAR KERI 151151Z 20016G23KT 10SM FEW070 BKN110 19/12 A2983 RMK AO2 PK WND 19029/1110 RAB26E38 SLP099 P0000 60017 70025 T01940122 10200 20139 51003 $",
      "metarObsTime": 1776253860
    },
    "KDUJ": {
      "status": "OK",
      "delay": "—",
      "metarCat": "VFR",
      "metarRaw": "METAR KDUJ 151153Z AUTO 23008KT 10SM FEW022 OVC032 17/15 A2998 RMK AO2 RAE13 SLP144 P0000 60001 70008 T01670150 10178 20139 50017",
      "metarObsTime": 1776253980
    },
    "KBFD": {
      "status": "OK",
      "delay": "—",
      "metarCat": "VFR",
      "metarRaw": "METAR KBFD 151153Z AUTO 20005KT 10SM CLR 16/14 A2995 RMK AO2 RAE1055 SLP134 P0000 60011 70043 T01560144 10156 20117 51013",
      "metarObsTime": 1776253980
    },
    "KBTP": {
      "status": "OK",
      "delay": "—",
      "metarCat": "VFR",
      "metarRaw": "METAR KBTP 151156Z AUTO 24006KT 10SM FEW080 20/16 A2999 RMK AO2 SLP155 6//// 7//// T02000161 10200 20156 51021 PNO $",
      "metarObsTime": 1776254160
    },
    "KFKL": {
      "status": "OK",
      "delay": "—",
      "metarCat": "VFR",
      "metarRaw": "METAR KFKL 151156Z AUTO 22006KT 10SM FEW045 18/14 A2996 RMK AO2 SLP141 60001 70008 T01780144 10178 20150 51020",
      "metarObsTime": 1776254160
    },
    "KIDI": {
      "status": "OK",
      "delay": "—",
      "metarCat": "VFR",
      "metarRaw": "METAR KIDI 151215Z AUTO 22007KT 10SM BKN035 19/16 A3000 RMK A01",
      "metarObsTime": 1776255300
    },
    "KMDT": {
      "status": "OK",
      "delay": "—",
      "metarCat": "VFR",
      "metarRaw": "METAR KMDT 151156Z 00000KT 9SM SCT110 BKN220 OVC250 18/16 A2998 RMK AO2 SLP152 7//// T01780161 10183 20156 53013",
      "metarObsTime": 1776254160
    },
    "KCXY": {
      "status": "OK",
      "delay": "—",
      "metarCat": "VFR",
      "metarRaw": "METAR KCXY 151156Z 26004KT 10SM FEW110 18/16 A2999 RMK AO2 SLP154 70006 T01780156 10178 20156 53012",
      "metarObsTime": 1776254160
    },
    "KMUI": {
      "status": "OK",
      "delay": "—",
      "metarCat": "VFR",
      "metarRaw": "METAR KMUI 151155Z 00000KT 10SM FEW120 BKN200 17/17 A2997 RMK AO2A SLP149 T01720169 10186 20145 53013",
      "metarObsTime": 1776254100
    },
    "KUNV": {
      "status": "OK",
      "delay": "—",
      "metarCat": "VFR",
      "metarRaw": "METAR KUNV 151153Z 30003KT 10SM BKN040 15/15 A2997 RMK LTG DSNT N",
      "metarObsTime": 1776253980
    },
    "KAOO": {
      "status": "OK",
      "delay": "—",
      "metarCat": "VFR",
      "metarRaw": "METAR KAOO 151153Z AUTO 21011KT 10SM CLR 18/14 A3000 RMK AO2 SLP152 70014 T01830144 10194 20144 53010",
      "metarObsTime": 1776253980
    },
    "KLNS": {
      "status": "OK",
      "delay": "—",
      "metarCat": "MVFR",
      "metarRaw": "METAR KLNS 151153Z 00000KT 4SM BR CLR 16/16 A2999 RMK AO2 SLP152 T01560156 10156 20139 53015",
      "metarObsTime": 1776253980
    },
    "KIPT": {
      "status": "OK",
      "delay": "—",
      "metarCat": "LIFR",
      "metarRaw": "METAR KIPT 151154Z 00000KT 2SM BR OVC002 15/15 A2995 RMK AO2 SLP138 70006 T01500150 10156 20144 53006 $",
      "metarObsTime": 1776254040
    },
    "KPHL": {
      "status": "OK",
      "delay": "—",
      "metarCat": "VFR",
      "metarRaw": "METAR KPHL 151154Z 24006KT 10SM FEW075 BKN240 BKN280 19/17 A2997 RMK AO2 SLP147 70010 T01940172 10194 20167 53013 $",
      "metarObsTime": 1776254040
    },
    "KABE": {
      "status": "OK",
      "delay": "—",
      "metarCat": "VFR",
      "metarRaw": "METAR KABE 151151Z 24005KT 10SM CLR 18/16 A2996 RMK AO2 SLP141 T01830156 10194 20150 53010 $",
      "metarObsTime": 1776253860
    },
    "KAVP": {
      "status": "OK",
      "delay": "—",
      "metarCat": "VFR",
      "metarRaw": "METAR KAVP 151154Z 00000KT 10SM CLR 16/14 A2995 RMK AO2 SLP136 70017 T01560144 10167 20139 53007",
      "metarObsTime": 1776254040
    },
    "KHZL": {
      "status": "OK",
      "delay": "—",
      "metarCat": "VFR",
      "metarRaw": "METAR KHZL 151215Z AUTO 00000KT 10SM CLR 16/15 A3002 RMK AO2",
      "metarObsTime": 1776255300
    }
  }
}