{
  "generatedAt": "2026-04-10T01:00:46.486Z",
  "airports": {
    "KPIT": {
      "status": "OK",
      "delay": "—",
      "metarCat": "VFR",
      "metarRaw": "METAR KPIT 100051Z 20005KT 10SM FEW070 FEW250 20/04 A3024 RMK AO2 SLP245 T02000039",
      "metarObsTime": 1775782260
    },
    "KAGC": {
      "status": "OK",
      "delay": "—",
      "metarCat": "VFR",
      "metarRaw": "METAR KAGC 100053Z 21005KT 10SM CLR 20/03 A3024 RMK AO2 SLP245 T02000033",
      "metarObsTime": 1775782380
    },
    "KLBE": {
      "status": "OK",
      "delay": "—",
      "metarCat": "VFR",
      "metarRaw": "METAR KLBE 100047Z 15009KT 10SM CLR 17/04 A3027",
      "metarObsTime": 1775782020
    },
    "KJST": {
      "status": "OK",
      "delay": "—",
      "metarCat": "VFR",
      "metarRaw": "METAR KJST 100054Z AUTO 15010KT 10SM CLR 12/M01 A3030 RMK AO2 SLP271 T01171011",
      "metarObsTime": 1775782440
    },
    "KERI": {
      "status": "OK",
      "delay": "—",
      "metarCat": "VFR",
      "metarRaw": "METAR KERI 100051Z 25003KT 10SM BKN100 15/07 A3021 RMK AO2 SLP230 T01500067 $",
      "metarObsTime": 1775782260
    },
    "KDUJ": {
      "status": "OK",
      "delay": "—",
      "metarCat": "VFR",
      "metarRaw": "METAR KDUJ 100053Z AUTO 08006KT 10SM SCT050 OVC070 15/02 A3029 RMK AO2 RAB35E44 SLP261 P0000 T01500017",
      "metarObsTime": 1775782380
    },
    "KBFD": {
      "status": "OK",
      "delay": "—",
      "metarCat": "VFR",
      "metarRaw": "METAR KBFD 100053Z AUTO 15006KT 10SM FEW050 BKN075 OVC110 11/09 A3027 RMK AO2 RAE50 SLP256 P0003 T01110094",
      "metarObsTime": 1775782380
    },
    "KBTP": {
      "status": "OK",
      "delay": "—",
      "metarCat": "VFR",
      "metarRaw": "METAR KBTP 100056Z AUTO 20004KT 10SM CLR 19/04 A3025 RMK AO2 SLP248 T01890044 $",
      "metarObsTime": 1775782560
    },
    "KFKL": {
      "status": "OK",
      "delay": "—",
      "metarCat": "VFR",
      "metarRaw": "METAR KFKL 100056Z AUTO 12004KT 10SM SCT080 12/11 A3024 RMK AO2 SLP246 T01170111",
      "metarObsTime": 1775782560
    },
    "KIDI": {
      "status": "OK",
      "delay": "—",
      "metarCat": "VFR",
      "metarRaw": "METAR KIDI 100055Z AUTO 15010G17KT 10SM FEW090 17/01 A3027 RMK A01",
      "metarObsTime": 1775782500
    },
    "KMDT": {
      "status": "OK",
      "delay": "—",
      "metarCat": "VFR",
      "metarRaw": "METAR KMDT 100056Z 14005KT 10SM FEW250 12/01 A3040 RMK AO2 SLP297 T01170006",
      "metarObsTime": 1775782560
    },
    "KCXY": {
      "status": "OK",
      "delay": "—",
      "metarCat": "VFR",
      "metarRaw": "METAR KCXY 100056Z 15008KT 10SM CLR 12/M03 A3040 RMK AO2 SLP298 T01221033 $",
      "metarObsTime": 1775782560
    },
    "KMUI": {
      "status": "OK",
      "delay": "—",
      "metarCat": "VFR",
      "metarRaw": "METAR KMUI 100055Z 00000KT 10SM FEW250 11/M01 A3039 RMK AO2A SLP297 T01081007",
      "metarObsTime": 1775782500
    },
    "KUNV": {
      "status": "OK",
      "delay": "—",
      "metarCat": "VFR",
      "metarRaw": "METAR KUNV 100053Z 22005KT 10SM CLR 13/M02 A3033",
      "metarObsTime": 1775782380
    },
    "KAOO": {
      "status": "OK",
      "delay": "—",
      "metarCat": "VFR",
      "metarRaw": "METAR KAOO 100053Z AUTO 16010KT 10SM CLR 12/M02 A3034 RMK AO2 SLP281 T01171017 $",
      "metarObsTime": 1775782380
    },
    "KLNS": {
      "status": "OK",
      "delay": "—",
      "metarCat": "VFR",
      "metarRaw": "METAR KLNS 100053Z 14007KT 10SM CLR 09/03 A3041 RMK AO2 SLP301 T00890028",
      "metarObsTime": 1775782380
    },
    "KIPT": {
      "status": "OK",
      "delay": "—",
      "metarCat": "VFR",
      "metarRaw": "METAR KIPT 100054Z 12014G20KT 10SM CLR 14/M02 A3033 RMK AO2 SLP274 T01391017",
      "metarObsTime": 1775782440
    },
    "KPHL": {
      "status": "OK",
      "delay": "—",
      "metarCat": "VFR",
      "metarRaw": "METAR KPHL 100054Z 16009KT 10SM FEW260 10/03 A3046 RMK AO2 SLP314 T01000028 $",
      "metarObsTime": 1775782440
    },
    "KABE": {
      "status": "OK",
      "delay": "—",
      "metarCat": "VFR",
      "metarRaw": "METAR KABE 100051Z 22008KT 10SM CLR 11/M01 A3042 RMK AO2 SLP302 T01061006 $",
      "metarObsTime": 1775782260
    },
    "KAVP": {
      "status": "OK",
      "delay": "—",
      "metarCat": "VFR",
      "metarRaw": "METAR KAVP 100054Z 21004KT 10SM CLR 11/M04 A3037 RMK AO2 SLP287 T01111039",
      "metarObsTime": 1775782440
    },
    "KHZL": {
      "status": "OK",
      "delay": "—",
      "metarCat": "VFR",
      "metarRaw": "METAR KHZL 100055Z AUTO 00000KT 10SM CLR 10/M02 A3041 RMK AO2",
      "metarObsTime": 1775782500
    }
  }
}