{
  "generatedAt": "2026-04-06T23:30:44.742Z",
  "airports": {
    "KPIT": {
      "status": "OK",
      "delay": "—",
      "metarCat": "MVFR",
      "metarRaw": "METAR KPIT 062251Z 31011KT 10SM -RA BKN030 BKN060 BKN090 09/00 A3004 RMK AO2 WSHFT 2220 RAB48 SLP188 P0000 T00940000",
      "metarObsTime": 1775515860
    },
    "KAGC": {
      "status": "OK",
      "delay": "—",
      "metarCat": "VFR",
      "metarRaw": "METAR KAGC 062253Z 28010G17KT 10SM SCT090 BKN110 09/M01 A3003 RMK AO2 SLP180 T00941006",
      "metarObsTime": 1775515980
    },
    "KLBE": {
      "status": "OK",
      "delay": "—",
      "metarCat": "VFR",
      "metarRaw": "METAR KLBE 062253Z 30010G14KT 10SM FEW080 SCT090 10/01 A3006",
      "metarObsTime": 1775515980
    },
    "KJST": {
      "status": "OK",
      "delay": "—",
      "metarCat": "VFR",
      "metarRaw": "METAR KJST 062254Z AUTO 29010G24KT 10SM FEW032 SCT048 BKN070 05/00 A3001 RMK AO2 RAB18E34B41E51 SLP181 P0000 T00500000",
      "metarObsTime": 1775516040
    },
    "KERI": {
      "status": "OK",
      "delay": "—",
      "metarCat": "VFR",
      "metarRaw": "METAR KERI 062251Z 27007KT 9SM FEW048 BKN080 OVC090 05/02 A3004 RMK AO2 SLP179 T00500017 $",
      "metarObsTime": 1775515860
    },
    "KDUJ": {
      "status": "OK",
      "delay": "—",
      "metarCat": "VFR",
      "metarRaw": "SPECI KDUJ 062324Z AUTO 29006KT 10SM SCT016 BKN050 BKN060 03/01 A3002 RMK AO2 RAE19 P0002 T00280011",
      "metarObsTime": 1775517840
    },
    "KBFD": {
      "status": "OK",
      "delay": "—",
      "metarCat": "VFR",
      "metarRaw": "METAR KBFD 062253Z AUTO 29006KT 10SM CLR 03/M02 A2999 RMK AO2 SLP174 T00331022",
      "metarObsTime": 1775515980
    },
    "KBTP": {
      "status": "OK",
      "delay": "—",
      "metarCat": "VFR",
      "metarRaw": "METAR KBTP 062256Z AUTO 26008KT 10SM FEW026 SCT043 BKN110 07/02 A3006 RMK AO2 RAB30E52 SLP194 P0000 T00720022 $",
      "metarObsTime": 1775516160
    },
    "KFKL": {
      "status": "OK",
      "delay": "—",
      "metarCat": "VFR",
      "metarRaw": "METAR KFKL 062256Z AUTO 25005KT 10SM FEW095 06/02 A3003 RMK AO2 RAE38 SLP183 P0000 T00560017",
      "metarObsTime": 1775516160
    },
    "KIDI": {
      "status": "OK",
      "delay": "—",
      "metarCat": "VFR",
      "metarRaw": "METAR KIDI 062315Z AUTO 00000KT 10SM BKN075 OVC090 06/03 A3005 RMK A01",
      "metarObsTime": 1775517300
    },
    "KMDT": {
      "status": "OK",
      "delay": "—",
      "metarCat": "VFR",
      "metarRaw": "METAR KMDT 062256Z 31008KT 10SM SCT060 BKN100 12/M01 A3003 RMK AO2 SLP171 T01221006",
      "metarObsTime": 1775516160
    },
    "KCXY": {
      "status": "OK",
      "delay": "—",
      "metarCat": "VFR",
      "metarRaw": "METAR KCXY 062256Z 29009KT 10SM SCT075 OVC095 12/M03 A3004 RMK AO2 SLP174 T01221028",
      "metarObsTime": 1775516160
    },
    "KMUI": {
      "status": "OK",
      "delay": "—",
      "metarCat": "VFR",
      "metarRaw": "METAR KMUI 062255Z 29009KT 10SM FEW050 SCT080 12/M04 A3002 RMK AO2A SLP170 T01231039",
      "metarObsTime": 1775516100
    },
    "KUNV": {
      "status": "OK",
      "delay": "—",
      "metarCat": "VFR",
      "metarRaw": "METAR KUNV 062253Z 30008G14KT 10SM BKN050 BKN065 08/M02 A3003",
      "metarObsTime": 1775515980
    },
    "KAOO": {
      "status": "OK",
      "delay": "—",
      "metarCat": "VFR",
      "metarRaw": "METAR KAOO 062253Z AUTO 27007KT 10SM FEW090 FEW110 07/01 A3004 RMK AO2 RAE15 SLP181 P0000 T00720006",
      "metarObsTime": 1775515980
    },
    "KLNS": {
      "status": "OK",
      "delay": "—",
      "metarCat": "VFR",
      "metarRaw": "METAR KLNS 062253Z 30004KT 10SM OVC090 11/M01 A3004 RMK AO2 SLP173 T01111011",
      "metarObsTime": 1775515980
    },
    "KIPT": {
      "status": "OK",
      "delay": "—",
      "metarCat": "VFR",
      "metarRaw": "METAR KIPT 062254Z 29012G19KT 10SM CLR 09/M02 A3002 RMK AO2 SLP170 T00891022",
      "metarObsTime": 1775516040
    },
    "KPHL": {
      "status": "OK",
      "delay": "—",
      "metarCat": "VFR",
      "metarRaw": "METAR KPHL 062254Z 26010KT 10SM SCT075 SCT095 13/M02 A3006 RMK AO2 SLP178 T01331022 $",
      "metarObsTime": 1775516040
    },
    "KABE": {
      "status": "OK",
      "delay": "—",
      "metarCat": "VFR",
      "metarRaw": "METAR KABE 062251Z 32007KT 10SM FEW080 10/M02 A3004 RMK AO2 SLP173 T01001022 $",
      "metarObsTime": 1775515860
    },
    "KAVP": {
      "status": "OK",
      "delay": "—",
      "metarCat": "VFR",
      "metarRaw": "METAR KAVP 062254Z 31007KT 10SM FEW048 OVC060 07/M02 A3003 RMK AO2 SLP173 T00721022 $",
      "metarObsTime": 1775516040
    },
    "KHZL": {
      "status": "OK",
      "delay": "—",
      "metarCat": "VFR",
      "metarRaw": "METAR KHZL 062315Z AUTO 00000KT 10SM CLR 06/M02 A3004 RMK AO2",
      "metarObsTime": 1775517300
    }
  }
}