{
  "generatedAt": "2026-03-17T02:00:22.818Z",
  "airports": {
    "KPIT": {
      "status": "OK",
      "delay": "—",
      "metarCat": "IFR",
      "metarRaw": "METAR KPIT 170151Z 25009G16KT 2 1/2SM -SN BR BKN007 OVC016 M02/M02 A2957 RMK AO2 SLP026 P0009 T10221022 $",
      "metarObsTime": 1773712260
    },
    "KAGC": {
      "status": "OK",
      "delay": "—",
      "metarCat": "IFR",
      "metarRaw": "METAR KAGC 170153Z 25018G24KT 6SM BR BKN008 BKN065 OVC120 M03/M04 A2957 RMK AO2 PK WND 28031/0116 SNE35 SLP025 P0000 T10331044 $",
      "metarObsTime": 1773712380
    },
    "KLBE": {
      "status": "OK",
      "delay": "—",
      "metarCat": "LIFR",
      "metarRaw": "METAR KLBE 170147Z 27023G33KT 1/2SM -SN FZFG VV001 M02/M02 A2957",
      "metarObsTime": 1773712020
    },
    "KJST": {
      "status": "OK",
      "delay": "—",
      "metarCat": "LIFR",
      "metarRaw": "METAR KJST 170154Z AUTO 27014G30KT 1/2SM SN FZFG VV005 M03/M04 A2945 RMK AO2 PK WND 27032/0130 SLP983 P0002 T10331044",
      "metarObsTime": 1773712440
    },
    "KERI": {
      "status": "OK",
      "delay": "—",
      "metarCat": "LIFR",
      "metarRaw": "METAR KERI 170151Z 23010G28KT 1/2SM R06/2800VP6000FT SN FZFG VV008 M03/M04 A2948 RMK AO2 PK WND 24029/0053 SLP988 P0003 T10281039 $",
      "metarObsTime": 1773712260
    },
    "KDUJ": {
      "status": "OK",
      "delay": "—",
      "metarCat": "LIFR",
      "metarRaw": "METAR KDUJ 170153Z AUTO 27020G33KT 1/4SM +SN FZFG VV005 M04/M05 A2946 RMK AO2 PK WND 25036/0138 SLP983 P0002 T10391050",
      "metarObsTime": 1773712380
    },
    "KBFD": {
      "status": "OK",
      "delay": "—",
      "metarCat": "LIFR",
      "metarRaw": "METAR KBFD 170153Z AUTO 1/2SM SN FZFG VV007 M03/M04 A2939 RMK AO2 PK WND 24030/0103 SLP957 P0003 T10331044",
      "metarObsTime": 1773712380
    },
    "KBTP": {
      "status": "OK",
      "delay": "—",
      "metarCat": "—",
      "metarRaw": "—",
      "metarObsTime": null
    },
    "KFKL": {
      "status": "OK",
      "delay": "—",
      "metarCat": "IFR",
      "metarRaw": "METAR KFKL 170156Z AUTO 25010G19KT 230V290 1 1/2SM -SN BR BKN008 OVC013 M04/M05 A2949 RMK AO2 PK WND 27029/0105 CIG 004V010 SLP995 P0001 T10441050 FZRANO",
      "metarObsTime": 1773712560
    },
    "KIDI": {
      "status": "OK",
      "delay": "—",
      "metarCat": "LIFR",
      "metarRaw": "METAR KIDI 170155Z AUTO 26015G27KT 1/2SM FZFG OVC003 M03/M03 A2953 RMK A01",
      "metarObsTime": 1773712500
    },
    "KMDT": {
      "status": "OK",
      "delay": "—",
      "metarCat": "MVFR",
      "metarRaw": "SPECI KMDT 170135Z 30025G35KT 3SM RA BR FEW014 OVC036 06/04 A2937 RMK AO2 PK WND 32043/0125 WSHFT 0043 P0008 T00610044",
      "metarObsTime": 1773711300
    },
    "KCXY": {
      "status": "OK",
      "delay": "—",
      "metarCat": "MVFR",
      "metarRaw": "SPECI KCXY 170132Z AUTO 30019G37KT 5SM -RA BR SCT012 BKN018 OVC035 06/03 A2938 RMK AO2 PK WND 31037/0126 PRESRR P0013 T00560033",
      "metarObsTime": 1773711120
    },
    "KMUI": {
      "status": "OK",
      "delay": "—",
      "metarCat": "IFR",
      "metarRaw": "METAR KMUI 170155Z 30031G47KT 4SM -RA BR BKN006 BKN012 BKN029 OVC039 05/03 A2934 RMK AO2A PK WND 29047/46 RAB09 CIG 006V016 BKN006 V FEW PRESRR SLP938 T00540032",
      "metarObsTime": 1773712500
    },
    "KUNV": {
      "status": "OK",
      "delay": "—",
      "metarCat": "IFR",
      "metarRaw": "SPECI KUNV 170130Z 27016G23KT 1SM -SN BKN009 OVC014 00/00 A2944",
      "metarObsTime": 1773711000
    },
    "KAOO": {
      "status": "OK",
      "delay": "—",
      "metarCat": "IFR",
      "metarRaw": "METAR KAOO 170153Z AUTO 27016G23KT 1SM -SN BR VV011 M02/M03 A2948 RMK AO2 PK WND 25028/0057 SLP987 P0000 T10171028",
      "metarObsTime": 1773712380
    },
    "KLNS": {
      "status": "OK",
      "delay": "—",
      "metarCat": "IFR",
      "metarRaw": "SPECI KLNS 170155Z 28035G51KT 2 1/2SM RA BR FEW009 BKN013 OVC019 07/05 A2932 RMK AO2 PK WND 28051/0154 WSHFT 0140 PRESRR P0001 T00670050",
      "metarObsTime": 1773712500
    },
    "KIPT": {
      "status": "OK",
      "delay": "—",
      "metarCat": "MVFR",
      "metarRaw": "METAR KIPT 170154Z 27016G26KT 5SM RA BR FEW011 SCT018 OVC031 03/01 A2938 RMK AO2 PK WND 28032/0124 PRESRR SLP949 P0015 T00330011",
      "metarObsTime": 1773712440
    },
    "KPHL": {
      "status": "OK",
      "delay": "—",
      "metarCat": "MVFR",
      "metarRaw": "METAR KPHL 170154Z 17017G25KT 10SM SCT014 OVC030 16/14 A2932 RMK AO2 SLP929 T01610139 $",
      "metarObsTime": 1773712440
    },
    "KABE": {
      "status": "OK",
      "delay": "—",
      "metarCat": "MVFR",
      "metarRaw": "METAR KABE 170151Z 17011G24KT 10SM SCT015 BKN021 OVC120 17/14 A2924 RMK AO2 PK WND 16029/0114 SLP900 T01670139 $",
      "metarObsTime": 1773712260
    },
    "KAVP": {
      "status": "OK",
      "delay": "—",
      "metarCat": "IFR",
      "metarRaw": "METAR KAVP 170154Z 23022G34KT 1 1/2SM R04/3500VP6000FT +RA BR FEW009 BKN029 OVC041 11/09 A2921 RMK AO2 PK WND 23034/0153 WSHFT 0139 RAB27 PRESRR SLP889 P0000 T01060089",
      "metarObsTime": 1773712440
    },
    "KHZL": {
      "status": "OK",
      "delay": "—",
      "metarCat": "IFR",
      "metarRaw": "METAR KHZL 170155Z AUTO 26007G17KT 2 1/2SM UP BKN007 OVC012 06/04 A2928 RMK AO2 P0043",
      "metarObsTime": 1773712500
    }
  }
}