{
  "generatedAt": "2026-04-03T07:30:31.727Z",
  "airports": {
    "KPIT": {
      "status": "OK",
      "delay": "—",
      "metarCat": "VFR",
      "metarRaw": "METAR KPIT 030651Z 15004KT 10SM BKN100 OVC150 18/13 A3005 RMK AO2 SLP177 T01830133",
      "metarObsTime": 1775199060
    },
    "KAGC": {
      "status": "OK",
      "delay": "—",
      "metarCat": "—",
      "metarRaw": "—",
      "metarObsTime": null
    },
    "KLBE": {
      "status": "OK",
      "delay": "—",
      "metarCat": "VFR",
      "metarRaw": "METAR KLBE 030615Z AUTO 18007KT 150V210 10SM CLR 18/13 A3012 RMK AO2",
      "metarObsTime": 1775196900
    },
    "KJST": {
      "status": "OK",
      "delay": "—",
      "metarCat": "—",
      "metarRaw": "—",
      "metarObsTime": null
    },
    "KERI": {
      "status": "OK",
      "delay": "—",
      "metarCat": "—",
      "metarRaw": "—",
      "metarObsTime": null
    },
    "KDUJ": {
      "status": "OK",
      "delay": "—",
      "metarCat": "IFR",
      "metarRaw": "SPECI KDUJ 030619Z AUTO VRB04KT 10SM BKN007 OVC100 10/09 A3013 RMK AO2 CIG 005V013 T01000089",
      "metarObsTime": 1775197140
    },
    "KBFD": {
      "status": "OK",
      "delay": "—",
      "metarCat": "—",
      "metarRaw": "—",
      "metarObsTime": null
    },
    "KBTP": {
      "status": "OK",
      "delay": "—",
      "metarCat": "—",
      "metarRaw": "—",
      "metarObsTime": null
    },
    "KFKL": {
      "status": "OK",
      "delay": "—",
      "metarCat": "—",
      "metarRaw": "—",
      "metarObsTime": null
    },
    "KIDI": {
      "status": "OK",
      "delay": "—",
      "metarCat": "VFR",
      "metarRaw": "METAR KIDI 030615Z AUTO 15008G16KT 10SM SCT055 13/12 A3014 RMK A01",
      "metarObsTime": 1775196900
    },
    "KMDT": {
      "status": "OK",
      "delay": "—",
      "metarCat": "—",
      "metarRaw": "—",
      "metarObsTime": null
    },
    "KCXY": {
      "status": "OK",
      "delay": "—",
      "metarCat": "LIFR",
      "metarRaw": "SPECI KCXY 030623Z AUTO 10008KT 2 1/2SM BR OVC004 06/06 A3035 RMK AO2 T00610056",
      "metarObsTime": 1775197380
    },
    "KMUI": {
      "status": "OK",
      "delay": "—",
      "metarCat": "LIFR",
      "metarRaw": "METAR KMUI 030655Z AUTO 08006KT 3SM BR OVC003 05/05 A3032 RMK AO2 SLP273 T00540051",
      "metarObsTime": 1775199300
    },
    "KUNV": {
      "status": "OK",
      "delay": "—",
      "metarCat": "IFR",
      "metarRaw": "METAR KUNV 030615Z AUTO 00000KT 10SM OVC008 07/07 A3025 RMK AO2 T00670067",
      "metarObsTime": 1775196900
    },
    "KAOO": {
      "status": "OK",
      "delay": "—",
      "metarCat": "—",
      "metarRaw": "—",
      "metarObsTime": null
    },
    "KLNS": {
      "status": "OK",
      "delay": "—",
      "metarCat": "LIFR",
      "metarRaw": "SPECI KLNS 030608Z AUTO 11007KT 4SM BR OVC004 06/05 A3036 RMK AO2 CIG 003V007 T00560050",
      "metarObsTime": 1775196480
    },
    "KIPT": {
      "status": "OK",
      "delay": "—",
      "metarCat": "—",
      "metarRaw": "—",
      "metarObsTime": null
    },
    "KPHL": {
      "status": "OK",
      "delay": "—",
      "metarCat": "—",
      "metarRaw": "—",
      "metarObsTime": null
    },
    "KABE": {
      "status": "OK",
      "delay": "—",
      "metarCat": "—",
      "metarRaw": "—",
      "metarObsTime": null
    },
    "KAVP": {
      "status": "OK",
      "delay": "—",
      "metarCat": "—",
      "metarRaw": "—",
      "metarObsTime": null
    },
    "KHZL": {
      "status": "OK",
      "delay": "—",
      "metarCat": "LIFR",
      "metarRaw": "METAR KHZL 030615Z AUTO 14006KT 1 3/4SM -DZ OVC002 03/02 A3034 RMK AO2",
      "metarObsTime": 1775196900
    }
  }
}