{
  "generatedAt": "2026-03-06T19:50:11.610Z",
  "airports": {
    "KPIT": {
      "status": "OK",
      "delay": "—",
      "metarCat": "MVFR",
      "metarRaw": "METAR KPIT 061851Z 17008G16KT 10SM BKN023 BKN120 BKN250 19/14 A3015 RMK AO2 SLP214 T01940139",
      "metarObsTime": 1772823060
    },
    "KAGC": {
      "status": "OK",
      "delay": "—",
      "metarCat": "MVFR",
      "metarRaw": "SPECI KAGC 061923Z 19011KT 10SM BKN022 BKN029 19/14 A3015 RMK AO2 T01940139",
      "metarObsTime": 1772824980
    },
    "KLBE": {
      "status": "OK",
      "delay": "—",
      "metarCat": "VFR",
      "metarRaw": "METAR KLBE 061847Z 22009KT 10SM SCT021 BKN060 BKN110 20/16 A3018",
      "metarObsTime": 1772822820
    },
    "KJST": {
      "status": "OK",
      "delay": "—",
      "metarCat": "VFR",
      "metarRaw": "METAR KJST 061854Z AUTO 25009KT 220V280 10SM BKN085 18/10 A3018 RMK AO2 SLP214 T01780100",
      "metarObsTime": 1772823240
    },
    "KERI": {
      "status": "OK",
      "delay": "—",
      "metarCat": "VFR",
      "metarRaw": "SPECI KERI 061923Z 06007KT 6SM BR FEW016 07/05 A3011 RMK AO2 T00720050",
      "metarObsTime": 1772824980
    },
    "KDUJ": {
      "status": "OK",
      "delay": "—",
      "metarCat": "VFR",
      "metarRaw": "METAR KDUJ 061853Z AUTO 22011KT 10SM FEW030 BKN040 19/10 A3015 RMK AO2 SLP204 T01890100",
      "metarObsTime": 1772823180
    },
    "KBFD": {
      "status": "OK",
      "delay": "—",
      "metarCat": "VFR",
      "metarRaw": "METAR KBFD 061853Z AUTO 20007G15KT 10SM SCT025 BKN037 BKN045 16/10 A3015 RMK AO2 SLP207 T01560100",
      "metarObsTime": 1772823180
    },
    "KBTP": {
      "status": "OK",
      "delay": "—",
      "metarCat": "VFR",
      "metarRaw": "SPECI KBTP 061934Z AUTO 20005KT 10SM SCT032 SCT042 20/14 A3015 RMK AO2 $",
      "metarObsTime": 1772825640
    },
    "KFKL": {
      "status": "OK",
      "delay": "—",
      "metarCat": "VFR",
      "metarRaw": "METAR KFKL 061856Z AUTO 21012KT 10SM FEW024 SCT032 18/13 A3015 RMK AO2 SLP210 T01830128",
      "metarObsTime": 1772823360
    },
    "KIDI": {
      "status": "OK",
      "delay": "—",
      "metarCat": "VFR",
      "metarRaw": "METAR KIDI 061935Z AUTO 24009KT 10SM SCT032 BKN110 20/13 A3017 RMK A01",
      "metarObsTime": 1772825700
    },
    "KMDT": {
      "status": "OK",
      "delay": "—",
      "metarCat": "IFR",
      "metarRaw": "METAR KMDT 061856Z 10007KT 6SM BR OVC006 06/05 A3031 RMK AO2 SLP267 T00610050",
      "metarObsTime": 1772823360
    },
    "KCXY": {
      "status": "OK",
      "delay": "—",
      "metarCat": "IFR",
      "metarRaw": "METAR KCXY 061856Z 12006KT 2SM BR OVC006 06/04 A3031 RMK AO2 SLP269 T00610044",
      "metarObsTime": 1772823360
    },
    "KMUI": {
      "status": "OK",
      "delay": "—",
      "metarCat": "LIFR",
      "metarRaw": "METAR KMUI 061855Z 05007KT 3SM BR OVC004 05/05 A3030 RMK AO2A SLP267 T00510048",
      "metarObsTime": 1772823300
    },
    "KUNV": {
      "status": "OK",
      "delay": "—",
      "metarCat": "IFR",
      "metarRaw": "METAR KUNV 061853Z 00000KT 7SM OVC009 12/10 A3021",
      "metarObsTime": 1772823180
    },
    "KAOO": {
      "status": "OK",
      "delay": "—",
      "metarCat": "MVFR",
      "metarRaw": "SPECI KAOO 061936Z AUTO 13011KT 10SM BKN030 OVC041 16/12 A3018 RMK AO2 T01610122",
      "metarObsTime": 1772825760
    },
    "KLNS": {
      "status": "OK",
      "delay": "—",
      "metarCat": "IFR",
      "metarRaw": "METAR KLNS 061853Z 10010KT 3SM BR OVC005 06/04 A3032 RMK AO2 SLP267 T00560044",
      "metarObsTime": 1772823180
    },
    "KIPT": {
      "status": "OK",
      "delay": "—",
      "metarCat": "IFR",
      "metarRaw": "METAR KIPT 061854Z 09009KT 8SM OVC007 06/04 A3027 RMK AO2 SLP253 T00610044",
      "metarObsTime": 1772823240
    },
    "KPHL": {
      "status": "OK",
      "delay": "—",
      "metarCat": "IFR",
      "metarRaw": "METAR KPHL 061854Z 08008KT 9SM OVC008 07/04 A3036 RMK AO2 SLP280 T00670039 $",
      "metarObsTime": 1772823240
    },
    "KABE": {
      "status": "OK",
      "delay": "—",
      "metarCat": "IFR",
      "metarRaw": "METAR KABE 061851Z 08005KT 10SM OVC007 05/03 A3035 RMK AO2 SLP278 T00500033",
      "metarObsTime": 1772823060
    },
    "KAVP": {
      "status": "OK",
      "delay": "—",
      "metarCat": "MVFR",
      "metarRaw": "SPECI KAVP 061922Z 00000KT 10SM OVC015 06/03 A3029 RMK AO2 T00560028",
      "metarObsTime": 1772824920
    },
    "KHZL": {
      "status": "OK",
      "delay": "—",
      "metarCat": "LIFR",
      "metarRaw": "METAR KHZL 061935Z AUTO 14006KT 7SM OVC002 03/02 A3030 RMK AO2",
      "metarObsTime": 1772825700
    }
  }
}