{
  "generatedAt": "2026-03-29T23:10:29.067Z",
  "airports": {
    "KPIT": {
      "status": "OK",
      "delay": "—",
      "metarCat": "VFR",
      "metarRaw": "METAR KPIT 292251Z 22006G14KT 10SM OVC130 16/M06 A3022 RMK AO2 SLP245 T01611061",
      "metarObsTime": 1774824660
    },
    "KAGC": {
      "status": "OK",
      "delay": "—",
      "metarCat": "VFR",
      "metarRaw": "METAR KAGC 292253Z 21007KT 10SM CLR 16/M05 A3022 RMK AO2 SLP244 T01561050",
      "metarObsTime": 1774824780
    },
    "KLBE": {
      "status": "OK",
      "delay": "—",
      "metarCat": "VFR",
      "metarRaw": "METAR KLBE 292250Z 19006KT 10SM BKN100 17/M04 A3025",
      "metarObsTime": 1774824600
    },
    "KJST": {
      "status": "OK",
      "delay": "—",
      "metarCat": "VFR",
      "metarRaw": "METAR KJST 292254Z AUTO 24005KT 10SM OVC110 12/M06 A3024 RMK AO2 SLP253 T01171061",
      "metarObsTime": 1774824840
    },
    "KERI": {
      "status": "OK",
      "delay": "—",
      "metarCat": "VFR",
      "metarRaw": "METAR KERI 292251Z 07003KT 10SM CLR 10/M09 A3021 RMK AO2 SLP234 T01001094 $",
      "metarObsTime": 1774824660
    },
    "KDUJ": {
      "status": "OK",
      "delay": "—",
      "metarCat": "VFR",
      "metarRaw": "METAR KDUJ 292253Z AUTO 20003KT 10SM BKN110 12/M09 A3022 RMK AO2 SLP245 T01171089",
      "metarObsTime": 1774824780
    },
    "KBFD": {
      "status": "OK",
      "delay": "—",
      "metarCat": "VFR",
      "metarRaw": "METAR KBFD 292253Z AUTO 21006KT 10SM SCT120 11/M12 A3021 RMK AO2 SLP245 T01061117",
      "metarObsTime": 1774824780
    },
    "KBTP": {
      "status": "OK",
      "delay": "—",
      "metarCat": "VFR",
      "metarRaw": "METAR KBTP 292256Z AUTO 22005KT 10SM CLR 14/M05 A3023 RMK AO2 SLP248 T01441050 $",
      "metarObsTime": 1774824960
    },
    "KFKL": {
      "status": "OK",
      "delay": "—",
      "metarCat": "VFR",
      "metarRaw": "METAR KFKL 292256Z AUTO 21007KT 10SM CLR 12/M06 A3022 RMK AO2 SLP244 T01221061",
      "metarObsTime": 1774824960
    },
    "KIDI": {
      "status": "OK",
      "delay": "—",
      "metarCat": "VFR",
      "metarRaw": "METAR KIDI 292255Z AUTO 22006KT 10SM SCT110 14/M06 A3024 RMK A01",
      "metarObsTime": 1774824900
    },
    "KMDT": {
      "status": "OK",
      "delay": "—",
      "metarCat": "VFR",
      "metarRaw": "METAR KMDT 292256Z 19007G16KT 170V240 10SM BKN200 15/M03 A3031 RMK AO2 SLP266 T01501033",
      "metarObsTime": 1774824960
    },
    "KCXY": {
      "status": "OK",
      "delay": "—",
      "metarCat": "VFR",
      "metarRaw": "METAR KCXY 292256Z 18012G19KT 10SM CLR 14/M04 A3031 RMK AO2 SLP267 T01441039",
      "metarObsTime": 1774824960
    },
    "KMUI": {
      "status": "OK",
      "delay": "—",
      "metarCat": "—",
      "metarRaw": "—",
      "metarObsTime": null
    },
    "KUNV": {
      "status": "OK",
      "delay": "—",
      "metarCat": "VFR",
      "metarRaw": "METAR KUNV 292253Z 20005KT 10SM OVC110 14/M05 A3025",
      "metarObsTime": 1774824780
    },
    "KAOO": {
      "status": "OK",
      "delay": "—",
      "metarCat": "VFR",
      "metarRaw": "METAR KAOO 292253Z AUTO 17011KT 10SM OVC110 14/M03 A3025 RMK AO2 SLP249 T01391033 $",
      "metarObsTime": 1774824780
    },
    "KLNS": {
      "status": "OK",
      "delay": "—",
      "metarCat": "VFR",
      "metarRaw": "METAR KLNS 292253Z 16013G19KT 10SM CLR 12/M02 A3034 RMK AO2 SLP277 T01171017",
      "metarObsTime": 1774824780
    },
    "KIPT": {
      "status": "OK",
      "delay": "—",
      "metarCat": "VFR",
      "metarRaw": "METAR KIPT 292254Z 17009KT 10SM OVC120 13/M06 A3028 RMK AO2 SLP256 T01331056 $",
      "metarObsTime": 1774824840
    },
    "KPHL": {
      "status": "OK",
      "delay": "—",
      "metarCat": "VFR",
      "metarRaw": "METAR KPHL 292254Z 20009KT 10SM SCT120 BKN260 13/M03 A3040 RMK AO2 SLP295 T01331028 $",
      "metarObsTime": 1774824840
    },
    "KABE": {
      "status": "OK",
      "delay": "—",
      "metarCat": "VFR",
      "metarRaw": "METAR KABE 292251Z 20008KT 10SM SCT110 12/M04 A3035 RMK AO2 SLP280 T01221039 $",
      "metarObsTime": 1774824660
    },
    "KAVP": {
      "status": "OK",
      "delay": "—",
      "metarCat": "VFR",
      "metarRaw": "METAR KAVP 292254Z AUTO 20006G15KT 10SM CLR 12/M06 A3031 RMK AO2 SLP268 T01221061",
      "metarObsTime": 1774824840
    },
    "KHZL": {
      "status": "OK",
      "delay": "—",
      "metarCat": "VFR",
      "metarRaw": "METAR KHZL 292255Z AUTO 15004KT 10SM SCT110 10/M05 A3034 RMK AO2",
      "metarObsTime": 1774824900
    }
  }
}