{
  "generatedAt": "2026-03-11T22:30:19.475Z",
  "airports": {
    "KPIT": {
      "status": "OK",
      "delay": "—",
      "metarCat": "MVFR",
      "metarRaw": "SPECI KPIT 112213Z 25012G25KT 5SM -TSRA BKN034CB BKN048 OVC090 19/15 A2965 RMK AO2 RAB2156 TSB12 PRESFR OCNL LTGIC SE-S TS SE-S MOV NE P0002 T01890150 $",
      "metarObsTime": 1773267180
    },
    "KAGC": {
      "status": "OK",
      "delay": "—",
      "metarCat": "IFR",
      "metarRaw": "SPECI KAGC 112221Z 30012G30KT 1 3/4SM R28/4000VP6000FT VCTS +RA BR SCT021 BKN040 OVC100 18/16 A2967 RMK AO2 PK WND 30030/2220 LTG DSNT SW AND W RAB14 P0010 T01780156",
      "metarObsTime": 1773267660
    },
    "KLBE": {
      "status": "OK",
      "delay": "—",
      "metarCat": "VFR",
      "metarRaw": "METAR KLBE 112147Z 20011KT 10SM SCT044 BKN050 BKN065 19/17 A2971",
      "metarObsTime": 1773265620
    },
    "KJST": {
      "status": "OK",
      "delay": "—",
      "metarCat": "VFR",
      "metarRaw": "SPECI KJST 112210Z AUTO 24008KT 10SM FEW009 SCT012 17/16 A2972 RMK AO2 T01670156",
      "metarObsTime": 1773267000
    },
    "KERI": {
      "status": "OK",
      "delay": "—",
      "metarCat": "VFR",
      "metarRaw": "METAR KERI 112151Z 25015G28KT 10SM -RA FEW047 SCT090 BKN110 17/13 A2958 RMK AO2 PK WND 25037/2106 RAB50 SLP015 P0000 T01670128",
      "metarObsTime": 1773265860
    },
    "KDUJ": {
      "status": "OK",
      "delay": "—",
      "metarCat": "VFR",
      "metarRaw": "METAR KDUJ 112153Z AUTO 24017G24KT 10SM FEW033 SCT095 BKN110 19/14 A2965 RMK AO2 PK WND 23032/2102 SLP032 T01890139",
      "metarObsTime": 1773265980
    },
    "KBFD": {
      "status": "OK",
      "delay": "—",
      "metarCat": "VFR",
      "metarRaw": "METAR KBFD 112153Z AUTO 23015G30KT 10SM FEW039 SCT050 BKN060 19/12 A2961 RMK AO2 PK WND 22032/2131 SLP014 T01890117",
      "metarObsTime": 1773265980
    },
    "KBTP": {
      "status": "OK",
      "delay": "—",
      "metarCat": "VFR",
      "metarRaw": "METAR KBTP 112156Z AUTO 25012G17KT 10SM -RA BKN065 OVC085 19/16 A2966 RMK AO2 RAB18 SLP045 P0000 T01940156 $",
      "metarObsTime": 1773266160
    },
    "KFKL": {
      "status": "OK",
      "delay": "—",
      "metarCat": "VFR",
      "metarRaw": "METAR KFKL 112156Z AUTO 23008G19KT 10SM -RA FEW055 BKN070 OVC085 A2962 RMK AO2 RAB54 SLPNO P0000 FZRANO $",
      "metarObsTime": 1773266160
    },
    "KIDI": {
      "status": "OK",
      "delay": "—",
      "metarCat": "—",
      "metarRaw": "—",
      "metarObsTime": null
    },
    "KMDT": {
      "status": "OK",
      "delay": "—",
      "metarCat": "VFR",
      "metarRaw": "METAR KMDT 112156Z 24004KT 10SM SCT030 BKN100 24/16 A2966 RMK AO2 LTG DSNT W AND NW RAB22E47 SLP044 P0000 T02390156",
      "metarObsTime": 1773266160
    },
    "KCXY": {
      "status": "OK",
      "delay": "—",
      "metarCat": "VFR",
      "metarRaw": "METAR KCXY 112156Z 20007KT 10SM CLR 25/16 A2966 RMK AO2 PK WND 22027/2136 LTG DSNT NW SLP044 T02500161",
      "metarObsTime": 1773266160
    },
    "KMUI": {
      "status": "OK",
      "delay": "—",
      "metarCat": "VFR",
      "metarRaw": "SPECI KMUI 112223Z 01003KT 10SM -TSRA SCT042CB BKN060 BKN100 BKN120 BKN180 22/18 A2965 RMK AO2A RAB23 TSB23 TS 4W MOV E SLP042",
      "metarObsTime": 1773267780
    },
    "KUNV": {
      "status": "OK",
      "delay": "—",
      "metarCat": "VFR",
      "metarRaw": "METAR KUNV 112153Z 23013G22KT 10SM -RA BKN090 20/15 A2968",
      "metarObsTime": 1773265980
    },
    "KAOO": {
      "status": "OK",
      "delay": "—",
      "metarCat": "VFR",
      "metarRaw": "METAR KAOO 112153Z AUTO 29006KT 10SM FEW021 SCT049 BKN120 18/16 A2972 RMK AO2 RAB13E52 SLP063 P0001 T01830161",
      "metarObsTime": 1773265980
    },
    "KLNS": {
      "status": "OK",
      "delay": "—",
      "metarCat": "VFR",
      "metarRaw": "METAR KLNS 112153Z 17010KT 10SM -RA FEW055 BKN100 OVC120 24/14 A2969 RMK AO2 RAB47 SLP051 P0000 T02390144",
      "metarObsTime": 1773265980
    },
    "KIPT": {
      "status": "OK",
      "delay": "—",
      "metarCat": "VFR",
      "metarRaw": "METAR KIPT 112154Z 16010G21KT 10SM SCT120 20/16 A2963 RMK AO2 SLP034 T02000156 $",
      "metarObsTime": 1773266040
    },
    "KPHL": {
      "status": "OK",
      "delay": "—",
      "metarCat": "VFR",
      "metarRaw": "METAR KPHL 112154Z 20012KT 10SM FEW050 SCT110 BKN150 BKN260 27/14 A2970 RMK AO2 SLP058 T02670144 $",
      "metarObsTime": 1773266040
    },
    "KABE": {
      "status": "OK",
      "delay": "—",
      "metarCat": "VFR",
      "metarRaw": "METAR KABE 112151Z 20005KT 10SM FEW110 24/14 A2969 RMK AO2 SLP052 T02390144 $",
      "metarObsTime": 1773265860
    },
    "KAVP": {
      "status": "OK",
      "delay": "—",
      "metarCat": "VFR",
      "metarRaw": "METAR KAVP 112154Z 23008G15KT 200V260 8SM -RA FEW070 BKN090 OVC110 18/16 A2969 RMK AO2 SLP050 P0020 T01780156",
      "metarObsTime": 1773266040
    },
    "KHZL": {
      "status": "OK",
      "delay": "—",
      "metarCat": "VFR",
      "metarRaw": "METAR KHZL 112215Z AUTO 18003KT 7SM -RA SCT025 SCT033 OVC085 18/15 A2975 RMK AO2",
      "metarObsTime": 1773267300
    }
  }
}