{
  "generatedAt": "2026-03-05T20:55:14.786Z",
  "airports": {
    "KPIT": {
      "status": "OK",
      "delay": "—",
      "metarCat": "MVFR",
      "metarRaw": "METAR KPIT 052051Z 21006KT 3SM -RA BR FEW010 BKN015 OVC020 16/14 A3000 RMK AO2 RAB08 SLP166 P0000 60001 T01560139 55011",
      "metarObsTime": 1772743860
    },
    "KAGC": {
      "status": "OK",
      "delay": "—",
      "metarCat": "MVFR",
      "metarRaw": "SPECI KAGC 052050Z 20009KT 7SM -RA BKN025 OVC036 16/14 A3000 RMK AO2 RAB46 P0000",
      "metarObsTime": 1772743800
    },
    "KLBE": {
      "status": "OK",
      "delay": "—",
      "metarCat": "VFR",
      "metarRaw": "METAR KLBE 051947Z 20009KT 8SM -DZ SCT034 BKN049 BKN090 17/15 A3004",
      "metarObsTime": 1772740020
    },
    "KJST": {
      "status": "OK",
      "delay": "—",
      "metarCat": "MVFR",
      "metarRaw": "SPECI KJST 052008Z AUTO 20008KT 4SM -RA BR OVC018 13/13 A3004 RMK AO2 P0002 T01330128",
      "metarObsTime": 1772741280
    },
    "KERI": {
      "status": "OK",
      "delay": "—",
      "metarCat": "IFR",
      "metarRaw": "METAR KERI 052051Z 04008KT 1 1/2SM -RA BR SCT033 BKN044 OVC065 05/04 A2996 RMK AO2 SLP151 P0008 60035 T00500044 56025",
      "metarObsTime": 1772743860
    },
    "KDUJ": {
      "status": "OK",
      "delay": "—",
      "metarCat": "LIFR",
      "metarRaw": "SPECI KDUJ 052013Z AUTO 12006KT 3/4SM BR VV002 09/09 A3001 RMK AO2 RAE05 P0000 T00940089",
      "metarObsTime": 1772741580
    },
    "KBFD": {
      "status": "OK",
      "delay": "—",
      "metarCat": "LIFR",
      "metarRaw": "SPECI KBFD 052036Z AUTO 09006KT 4SM -RA BR OVC004 07/06 A3002 RMK AO2 P0006 T00670061",
      "metarObsTime": 1772742960
    },
    "KBTP": {
      "status": "OK",
      "delay": "—",
      "metarCat": "MVFR",
      "metarRaw": "SPECI KBTP 052033Z AUTO 18007KT 8SM -RA OVC012 15/ A2999 RMK AO2 RAE11B27 P0000 $",
      "metarObsTime": 1772742780
    },
    "KFKL": {
      "status": "OK",
      "delay": "—",
      "metarCat": "IFR",
      "metarRaw": "SPECI KFKL 052044Z AUTO 33003KT 1SM +RA BR SCT003 BKN007 OVC013 11/11 A3000 RMK AO2 VIS 1/2V1 3/4 CIG 005V011 P0019",
      "metarObsTime": 1772743440
    },
    "KIDI": {
      "status": "OK",
      "delay": "—",
      "metarCat": "MVFR",
      "metarRaw": "METAR KIDI 052035Z AUTO 20008G16KT 10SM SCT019 BKN026 OVC043 15/14 A3002 RMK A01",
      "metarObsTime": 1772742900
    },
    "KMDT": {
      "status": "OK",
      "delay": "—",
      "metarCat": "IFR",
      "metarRaw": "SPECI KMDT 052010Z 15004KT 2 1/2SM BR OVC007 08/08 A3013 RMK AO2 T00830078",
      "metarObsTime": 1772741400
    },
    "KCXY": {
      "status": "OK",
      "delay": "—",
      "metarCat": "IFR",
      "metarRaw": "METAR KCXY 051956Z 12005KT 2SM BR BKN008 OVC021 09/08 A3014 RMK AO2 RAE17 CIG 006V011 SLP208 P0001 T00890078",
      "metarObsTime": 1772740560
    },
    "KMUI": {
      "status": "OK",
      "delay": "—",
      "metarCat": "IFR",
      "metarRaw": "METAR KMUI 051955Z 08003KT 5SM BR OVC005 09/09 A3012 RMK AO2A SLP205 T00880085",
      "metarObsTime": 1772740500
    },
    "KUNV": {
      "status": "OK",
      "delay": "—",
      "metarCat": "LIFR",
      "metarRaw": "SPECI KUNV 052020Z COR 00000KT 1SM R24/P6000PFT RA BR OVC002 07/07 A3010",
      "metarObsTime": 1772742000
    },
    "KAOO": {
      "status": "OK",
      "delay": "—",
      "metarCat": "IFR",
      "metarRaw": "SPECI KAOO 052013Z AUTO 03003KT 9SM BKN007 BKN019 OVC026 11/09 A3008 RMK AO2 RAE09 P0000 T01060089",
      "metarObsTime": 1772741580
    },
    "KLNS": {
      "status": "OK",
      "delay": "—",
      "metarCat": "IFR",
      "metarRaw": "SPECI KLNS 052020Z 10007KT 2 1/2SM BR OVC005 09/08 A3015 RMK AO2 T00890083",
      "metarObsTime": 1772742000
    },
    "KIPT": {
      "status": "OK",
      "delay": "—",
      "metarCat": "IFR",
      "metarRaw": "SPECI KIPT 052048Z 12004KT 2SM RA BR SCT009 OVC015 08/07 A3012 RMK AO2 RAB21 P0007 $",
      "metarObsTime": 1772743680
    },
    "KPHL": {
      "status": "OK",
      "delay": "—",
      "metarCat": "IFR",
      "metarRaw": "METAR KPHL 051954Z 05007KT 5SM BR OVC006 09/07 A3018 RMK AO2 SLP217 T00890067 $",
      "metarObsTime": 1772740440
    },
    "KABE": {
      "status": "OK",
      "delay": "—",
      "metarCat": "IFR",
      "metarRaw": "METAR KABE 052051Z 11009G18KT 10SM OVC006 07/06 A3017 RMK AO2 RAB17E30 SLP217 P0000 60005 T00720061 50004",
      "metarObsTime": 1772743860
    },
    "KAVP": {
      "status": "OK",
      "delay": "—",
      "metarCat": "MVFR",
      "metarRaw": "SPECI KAVP 052044Z 10006KT 10SM BKN013 OVC022 07/06 A3011 RMK AO2 RAE17 P0000 T00720061",
      "metarObsTime": 1772743440
    },
    "KHZL": {
      "status": "OK",
      "delay": "—",
      "metarCat": "LIFR",
      "metarRaw": "METAR KHZL 052035Z AUTO 12005KT 1/4SM FG OVC002 06/05 A3013 RMK AO2",
      "metarObsTime": 1772742900
    }
  }
}