{
  "generatedAt": "2026-03-13T02:10:14.821Z",
  "airports": {
    "KPIT": {
      "status": "OK",
      "delay": "—",
      "metarCat": "VFR",
      "metarRaw": "METAR KPIT 130151Z 22003KT 10SM FEW055 00/M04 A3010 RMK AO2 SLP210 T00001039 $",
      "metarObsTime": 1773366660
    },
    "KAGC": {
      "status": "OK",
      "delay": "—",
      "metarCat": "VFR",
      "metarRaw": "METAR KAGC 130153Z 32006KT 10SM CLR 01/M06 A3009 RMK AO2 SLP207 T00061056",
      "metarObsTime": 1773366780
    },
    "KLBE": {
      "status": "OK",
      "delay": "—",
      "metarCat": "VFR",
      "metarRaw": "METAR KLBE 130053Z 25005KT 10SM FEW049 BKN085 02/M08 A3012",
      "metarObsTime": 1773363180
    },
    "KJST": {
      "status": "OK",
      "delay": "—",
      "metarCat": "VFR",
      "metarRaw": "METAR KJST 130154Z AUTO 27006KT 10SM OVC050 M02/M09 A3004 RMK AO2 SLP197 T10171094",
      "metarObsTime": 1773366840
    },
    "KERI": {
      "status": "OK",
      "delay": "—",
      "metarCat": "VFR",
      "metarRaw": "METAR KERI 130151Z 18005KT 10SM FEW080 M02/M05 A3008 RMK AO2 SLP196 T10171050",
      "metarObsTime": 1773366660
    },
    "KDUJ": {
      "status": "OK",
      "delay": "—",
      "metarCat": "VFR",
      "metarRaw": "METAR KDUJ 130153Z AUTO 26003KT 10SM CLR M03/M10 A3004 RMK AO2 SLP195 T10281100",
      "metarObsTime": 1773366780
    },
    "KBFD": {
      "status": "OK",
      "delay": "—",
      "metarCat": "VFR",
      "metarRaw": "METAR KBFD 130153Z AUTO 28003KT 10SM CLR M04/M09 A3002 RMK AO2 SLP188 T10441094 $",
      "metarObsTime": 1773366780
    },
    "KBTP": {
      "status": "OK",
      "delay": "—",
      "metarCat": "VFR",
      "metarRaw": "METAR KBTP 130156Z AUTO 23004KT 10SM FEW070 00/M06 A3010 RMK AO2 SLP212 T00001061 FZRANO $",
      "metarObsTime": 1773366960
    },
    "KFKL": {
      "status": "OK",
      "delay": "—",
      "metarCat": "VFR",
      "metarRaw": "METAR KFKL 130156Z AUTO 00000KT 10SM CLR A3007 RMK AO2 SLPNO FZRANO $",
      "metarObsTime": 1773366960
    },
    "KIDI": {
      "status": "OK",
      "delay": "—",
      "metarCat": "VFR",
      "metarRaw": "METAR KIDI 130155Z AUTO 27005KT 10SM FEW039 BKN065 OVC075 M01/M08 A3009 RMK A01",
      "metarObsTime": 1773366900
    },
    "KMDT": {
      "status": "OK",
      "delay": "—",
      "metarCat": "VFR",
      "metarRaw": "METAR KMDT 130156Z 31020G27KT 10SM CLR 03/M12 A3009 RMK AO2 PK WND 32030/0129 SLP192 T00331117 $",
      "metarObsTime": 1773366960
    },
    "KCXY": {
      "status": "OK",
      "delay": "—",
      "metarCat": "VFR",
      "metarRaw": "METAR KCXY 130156Z AUTO 31012G19KT 10SM CLR 03/M12 A3010 RMK AO2 SLP197 T00331122",
      "metarObsTime": 1773366960
    },
    "KMUI": {
      "status": "OK",
      "delay": "—",
      "metarCat": "VFR",
      "metarRaw": "METAR KMUI 130155Z 29009G16KT 10SM CLR 03/M12 A3006 RMK AO2A SLP186 T00311120",
      "metarObsTime": 1773366900
    },
    "KUNV": {
      "status": "OK",
      "delay": "—",
      "metarCat": "VFR",
      "metarRaw": "METAR KUNV 130153Z 32004KT 10SM CLR 00/M11 A3007",
      "metarObsTime": 1773366780
    },
    "KAOO": {
      "status": "OK",
      "delay": "—",
      "metarCat": "VFR",
      "metarRaw": "METAR KAOO 130153Z AUTO 31005KT 10SM SCT050 M01/M11 A3007 RMK AO2 SLP200 T10061106",
      "metarObsTime": 1773366780
    },
    "KLNS": {
      "status": "OK",
      "delay": "—",
      "metarCat": "VFR",
      "metarRaw": "METAR KLNS 130153Z 31016G25KT 10SM CLR 03/M11 A3006 RMK AO2 PK WND 28027/0054 SLP183 T00281106",
      "metarObsTime": 1773366780
    },
    "KIPT": {
      "status": "OK",
      "delay": "—",
      "metarCat": "VFR",
      "metarRaw": "METAR KIPT 130154Z 29010KT 10SM CLR 01/M11 A3007 RMK AO2 SLP187 T00061106 $",
      "metarObsTime": 1773366840
    },
    "KPHL": {
      "status": "OK",
      "delay": "—",
      "metarCat": "VFR",
      "metarRaw": "METAR KPHL 130154Z 26009KT 10SM FEW065 03/M02 A3006 RMK AO2 SLP177 T00331022",
      "metarObsTime": 1773366840
    },
    "KABE": {
      "status": "OK",
      "delay": "—",
      "metarCat": "VFR",
      "metarRaw": "METAR KABE 130151Z 31015G26KT 10SM FEW060 OVC080 03/M10 A3002 RMK AO2 PK WND 28026/0144 SLP168 T00281100 $",
      "metarObsTime": 1773366660
    },
    "KAVP": {
      "status": "OK",
      "delay": "—",
      "metarCat": "VFR",
      "metarRaw": "METAR KAVP 130154Z 30008KT 10SM FEW055 BKN070 01/M10 A3001 RMK AO2 SLP167 T00061100",
      "metarObsTime": 1773366840
    },
    "KHZL": {
      "status": "OK",
      "delay": "—",
      "metarCat": "VFR",
      "metarRaw": "METAR KHZL 130155Z AUTO 30006KT 10SM BKN050 OVC060 00/M11 A3002 RMK AO2",
      "metarObsTime": 1773366900
    }
  }
}