{
  "generatedAt": "2026-04-20T06:00:57.628Z",
  "airports": {
    "KPIT": {
      "status": "OK",
      "delay": "—",
      "metarCat": "VFR",
      "metarRaw": "METAR KPIT 200551Z 35005KT 10SM SCT025 BKN045 OVC060 04/01 A3012 RMK AO2 RAB04E22 SLP214 P0000 60000 T00440006 10078 20039 53006 $",
      "metarObsTime": 1776664260
    },
    "KAGC": {
      "status": "OK",
      "delay": "—",
      "metarCat": "VFR",
      "metarRaw": "METAR KAGC 200553Z 27009G17KT 10SM SCT050 SCT075 OVC100 04/M01 A3011 RMK AO2 SLP207 60000 T00441006 10078 20039 53002",
      "metarObsTime": 1776664380
    },
    "KLBE": {
      "status": "OK",
      "delay": "—",
      "metarCat": "VFR",
      "metarRaw": "METAR KLBE 200555Z AUTO 25013G23KT 7SM -RA SCT016 BKN032 OVC065 05/01 A3014 RMK AO2",
      "metarObsTime": 1776664500
    },
    "KJST": {
      "status": "OK",
      "delay": "—",
      "metarCat": "VFR",
      "metarRaw": "METAR KJST 200554Z AUTO 27007KT 10SM FEW036 BKN046 BKN055 02/M02 A3005 RMK AO2 SLP191 T00221017 10050 20022 58004",
      "metarObsTime": 1776664440
    },
    "KERI": {
      "status": "OK",
      "delay": "—",
      "metarCat": "MVFR",
      "metarRaw": "METAR KERI 200551Z AUTO 34009KT 10SM BKN024 OVC060 02/M03 A3017 RMK AO2 SLP223 60001 T00221028 10039 20022 53015 $",
      "metarObsTime": 1776664260
    },
    "KDUJ": {
      "status": "OK",
      "delay": "—",
      "metarCat": "LIFR",
      "metarRaw": "METAR KDUJ 200553Z AUTO 27005KT 2 1/2SM -SN BR OVC003 00/M01 A3008 RMK AO2 SNB03 SLP199 P0001 60004 T00001006 10022 20000 53002 $",
      "metarObsTime": 1776664380
    },
    "KBFD": {
      "status": "OK",
      "delay": "—",
      "metarCat": "MVFR",
      "metarRaw": "METAR KBFD 200553Z AUTO 31006KT 10SM BKN014 OVC028 00/M02 A3005 RMK AO2 SNB04E13B25E34 SLP193 P0000 60000 T00001017 10033 20000 51006",
      "metarObsTime": 1776664380
    },
    "KBTP": {
      "status": "OK",
      "delay": "—",
      "metarCat": "IFR",
      "metarRaw": "METAR KBTP 200556Z AUTO VRB03KT 10SM BKN009 OVC016 02/02 A3014 RMK AO2 CIG 008V013 SLP221 60000 T00220022 10056 20017 53010 FZRANO $",
      "metarObsTime": 1776664560
    },
    "KFKL": {
      "status": "OK",
      "delay": "—",
      "metarCat": "—",
      "metarRaw": "—",
      "metarObsTime": null
    },
    "KIDI": {
      "status": "OK",
      "delay": "—",
      "metarCat": "VFR",
      "metarRaw": "METAR KIDI 200555Z AUTO 30006KT 10SM FEW028 BKN046 OVC080 03/01 A3011 RMK A01",
      "metarObsTime": 1776664500
    },
    "KMDT": {
      "status": "OK",
      "delay": "—",
      "metarCat": "VFR",
      "metarRaw": "METAR KMDT 200556Z 30006KT 10SM FEW070 06/M01 A3011 RMK AO2 SLP198 T00611006 10106 20061 50001",
      "metarObsTime": 1776664560
    },
    "KCXY": {
      "status": "OK",
      "delay": "—",
      "metarCat": "VFR",
      "metarRaw": "METAR KCXY 200556Z AUTO 24003KT 10SM FEW070 03/M01 A3011 RMK AO2 SLP201 T00331006 10100 20033 50001 $",
      "metarObsTime": 1776664560
    },
    "KMUI": {
      "status": "OK",
      "delay": "—",
      "metarCat": "VFR",
      "metarRaw": "METAR KMUI 200455Z AUTO 22003KT 10SM FEW033 FEW042 BKN060 OVC080 05/00 A3009 RMK AO2 SLP195 T00500004 401680037",
      "metarObsTime": 1776660900
    },
    "KUNV": {
      "status": "OK",
      "delay": "—",
      "metarCat": "VFR",
      "metarRaw": "METAR KUNV 200555Z AUTO 28005KT 10SM SCT048 SCT075 03/02 A3009 RMK AO2 60001 T00250019 10066 20023",
      "metarObsTime": 1776664500
    },
    "KAOO": {
      "status": "OK",
      "delay": "—",
      "metarCat": "VFR",
      "metarRaw": "METAR KAOO 200553Z AUTO 00000KT 10SM BKN065 02/M01 A3008 RMK AO2 SLP196 60000 T00221011 10067 20022 58004",
      "metarObsTime": 1776664380
    },
    "KLNS": {
      "status": "OK",
      "delay": "—",
      "metarCat": "VFR",
      "metarRaw": "METAR KLNS 200553Z AUTO 26004KT 10SM CLR 04/M02 A3011 RMK AO2 SLP197 T00441017 10094 20033 50001",
      "metarObsTime": 1776664380
    },
    "KIPT": {
      "status": "OK",
      "delay": "—",
      "metarCat": "VFR",
      "metarRaw": "METAR KIPT 200554Z AUTO 25005KT 10SM BKN043 OVC060 02/M01 A3010 RMK AO2 SLP194 T00171006 10072 20006 51010 $",
      "metarObsTime": 1776664440
    },
    "KPHL": {
      "status": "OK",
      "delay": "—",
      "metarCat": "VFR",
      "metarRaw": "METAR KPHL 200554Z 36003KT 10SM FEW110 07/M01 A3012 RMK AO2 SLP200 T00671011 10106 20056 50003 $",
      "metarObsTime": 1776664440
    },
    "KABE": {
      "status": "OK",
      "delay": "—",
      "metarCat": "VFR",
      "metarRaw": "METAR KABE 200551Z 00000KT 10SM CLR 02/01 A3010 RMK AO2 SLP195 T00170006 10072 20017 50003 $",
      "metarObsTime": 1776664260
    },
    "KAVP": {
      "status": "OK",
      "delay": "—",
      "metarCat": "VFR",
      "metarRaw": "METAR KAVP 200554Z 00000KT 10SM CLR M01/M02 A3007 RMK AO2 SLP187 T10061017 10056 21006 50001",
      "metarObsTime": 1776664440
    },
    "KHZL": {
      "status": "OK",
      "delay": "—",
      "metarCat": "VFR",
      "metarRaw": "METAR KHZL 200555Z AUTO 00000KT 10SM CLR M01/M03 A3009 RMK AO2",
      "metarObsTime": 1776664500
    }
  }
}