{
  "generatedAt": "2026-03-29T10:10:35.198Z",
  "airports": {
    "KPIT": {
      "status": "OK",
      "delay": "—",
      "metarCat": "VFR",
      "metarRaw": "METAR KPIT 290951Z 15003KT 10SM OVC120 01/M07 A3041 RMK AO2 SLP315 T00061067",
      "metarObsTime": 1774777860
    },
    "KAGC": {
      "status": "OK",
      "delay": "—",
      "metarCat": "VFR",
      "metarRaw": "METAR KAGC 290953Z 18007KT 10SM OVC120 01/M07 A3041 RMK AO2 SLP314 T00061072",
      "metarObsTime": 1774777980
    },
    "KLBE": {
      "status": "OK",
      "delay": "—",
      "metarCat": "VFR",
      "metarRaw": "METAR KLBE 290955Z AUTO 00000KT 10SM OVC120 M00/M04 A3046 RMK AO2",
      "metarObsTime": 1774778100
    },
    "KJST": {
      "status": "OK",
      "delay": "—",
      "metarCat": "VFR",
      "metarRaw": "METAR KJST 290954Z AUTO 20006KT 10SM OVC110 M01/M09 A3040 RMK AO2 SLP318 T10111089",
      "metarObsTime": 1774778040
    },
    "KERI": {
      "status": "OK",
      "delay": "—",
      "metarCat": "VFR",
      "metarRaw": "METAR KERI 290951Z 19008KT 10SM CLR 01/M07 A3040 RMK AO2 SLP302 T00061072 $",
      "metarObsTime": 1774777860
    },
    "KDUJ": {
      "status": "OK",
      "delay": "—",
      "metarCat": "VFR",
      "metarRaw": "METAR KDUJ 290953Z AUTO 13003KT 10SM OVC120 M04/M07 A3040 RMK AO2 SLP315 T10441072",
      "metarObsTime": 1774777980
    },
    "KBFD": {
      "status": "OK",
      "delay": "—",
      "metarCat": "VFR",
      "metarRaw": "METAR KBFD 290953Z AUTO 20004KT 10SM FEW120 M03/M10 A3037 RMK AO2 SLP306 T10281100",
      "metarObsTime": 1774777980
    },
    "KBTP": {
      "status": "OK",
      "delay": "—",
      "metarCat": "VFR",
      "metarRaw": "METAR KBTP 290956Z AUTO 17004KT 10SM OVC120 01/M07 A3042 RMK AO2 SLP320 T00061067 FZRANO $",
      "metarObsTime": 1774778160
    },
    "KFKL": {
      "status": "OK",
      "delay": "—",
      "metarCat": "VFR",
      "metarRaw": "METAR KFKL 290956Z AUTO 18005KT 10SM OVC120 M01/M07 A3040 RMK AO2 SLP311 T10061067 FZRANO",
      "metarObsTime": 1774778160
    },
    "KIDI": {
      "status": "OK",
      "delay": "—",
      "metarCat": "VFR",
      "metarRaw": "METAR KIDI 290955Z AUTO 00000KT 10SM BKN100 OVC120 M01/M05 A3043 RMK A01",
      "metarObsTime": 1774778100
    },
    "KMDT": {
      "status": "OK",
      "delay": "—",
      "metarCat": "VFR",
      "metarRaw": "METAR KMDT 290956Z VRB03KT 10SM OVC130 02/M07 A3054 RMK AO2 SLP345 T00221067",
      "metarObsTime": 1774778160
    },
    "KCXY": {
      "status": "OK",
      "delay": "—",
      "metarCat": "VFR",
      "metarRaw": "METAR KCXY 290956Z AUTO 00000KT 10SM CLR M01/M05 A3054 RMK AO2 SLP348 T10061050",
      "metarObsTime": 1774778160
    },
    "KMUI": {
      "status": "OK",
      "delay": "—",
      "metarCat": "VFR",
      "metarRaw": "METAR KMUI 290855Z AUTO 00000KT 10SM OVC130 M02/M05 A3050 RMK AO2 SLP336 T10161046 55004",
      "metarObsTime": 1774774500
    },
    "KUNV": {
      "status": "OK",
      "delay": "—",
      "metarCat": "VFR",
      "metarRaw": "METAR KUNV 290953Z 00000KT 10SM CLR M03/M07 A3046",
      "metarObsTime": 1774777980
    },
    "KAOO": {
      "status": "OK",
      "delay": "—",
      "metarCat": "VFR",
      "metarRaw": "METAR KAOO 290953Z AUTO 00000KT 10SM OVC120 00/M09 A3045 RMK AO2 SLP327 T00001089 $",
      "metarObsTime": 1774777980
    },
    "KLNS": {
      "status": "OK",
      "delay": "—",
      "metarCat": "VFR",
      "metarRaw": "METAR KLNS 290953Z 00000KT 10SM CLR M01/M07 A3054 RMK AO2 SLP345 T10111067",
      "metarObsTime": 1774777980
    },
    "KIPT": {
      "status": "OK",
      "delay": "—",
      "metarCat": "VFR",
      "metarRaw": "METAR KIPT 290954Z AUTO 00000KT 10SM CLR M03/M07 A3050 RMK AO2 SLP332 T10281072 $",
      "metarObsTime": 1774778040
    },
    "KPHL": {
      "status": "OK",
      "delay": "—",
      "metarCat": "VFR",
      "metarRaw": "METAR KPHL 290954Z 20003KT 10SM SCT140 02/M04 A3057 RMK AO2 SLP352 T00171039 $",
      "metarObsTime": 1774778040
    },
    "KABE": {
      "status": "OK",
      "delay": "—",
      "metarCat": "VFR",
      "metarRaw": "METAR KABE 290951Z 34003KT 10SM CLR M04/M08 A3055 RMK AO2 SLP347 T10441078 $",
      "metarObsTime": 1774777860
    },
    "KAVP": {
      "status": "OK",
      "delay": "—",
      "metarCat": "VFR",
      "metarRaw": "METAR KAVP 290954Z AUTO 00000KT 10SM FEW110 M04/M10 A3047 RMK AO2 SLP328 T10441100",
      "metarObsTime": 1774778040
    },
    "KHZL": {
      "status": "OK",
      "delay": "—",
      "metarCat": "VFR",
      "metarRaw": "METAR KHZL 290955Z AUTO 00000KT 10SM OVC120 M05/M08 A3049 RMK AO2",
      "metarObsTime": 1774778100
    }
  }
}