{
  "generatedAt": "2026-03-27T23:20:31.618Z",
  "airports": {
    "KPIT": {
      "status": "OK",
      "delay": "—",
      "metarCat": "VFR",
      "metarRaw": "METAR KPIT 272251Z 31017G20KT 10SM BKN044 BKN210 07/M03 A3018 RMK AO2 SLP235 T00671033",
      "metarObsTime": 1774651860
    },
    "KAGC": {
      "status": "OK",
      "delay": "—",
      "metarCat": "VFR",
      "metarRaw": "METAR KAGC 272253Z 31006KT 10SM SCT044 06/M03 A3017 RMK AO2 SLP227 T00611033",
      "metarObsTime": 1774651980
    },
    "KLBE": {
      "status": "OK",
      "delay": "—",
      "metarCat": "VFR",
      "metarRaw": "METAR KLBE 272250Z 26008KT 10SM SCT040 06/M01 A3017",
      "metarObsTime": 1774651800
    },
    "KJST": {
      "status": "OK",
      "delay": "—",
      "metarCat": "MVFR",
      "metarRaw": "METAR KJST 272254Z AUTO 27010G18KT 10SM OVC028 04/M02 A3009 RMK AO2 SLP204 T00391022",
      "metarObsTime": 1774652040
    },
    "KERI": {
      "status": "OK",
      "delay": "—",
      "metarCat": "VFR",
      "metarRaw": "METAR KERI 272251Z 00000KT 10SM CLR M01/M09 A3028 RMK AO2 SLP264 T10061094 $",
      "metarObsTime": 1774651860
    },
    "KDUJ": {
      "status": "OK",
      "delay": "—",
      "metarCat": "VFR",
      "metarRaw": "METAR KDUJ 272253Z AUTO 29010G15KT 10SM CLR 04/M07 A3012 RMK AO2 SLP212 T00391072",
      "metarObsTime": 1774651980
    },
    "KBFD": {
      "status": "OK",
      "delay": "—",
      "metarCat": "VFR",
      "metarRaw": "METAR KBFD 272253Z AUTO 33010KT 10SM FEW042 01/M08 A3012 RMK AO2 SLP219 T00111078",
      "metarObsTime": 1774651980
    },
    "KBTP": {
      "status": "OK",
      "delay": "—",
      "metarCat": "VFR",
      "metarRaw": "METAR KBTP 272256Z AUTO 31009KT 10SM BKN042 04/M04 A3020 RMK AO2 SLP243 T00441039 $",
      "metarObsTime": 1774652160
    },
    "KFKL": {
      "status": "OK",
      "delay": "—",
      "metarCat": "VFR",
      "metarRaw": "METAR KFKL 272256Z AUTO 33010G15KT 10SM FEW034 01/M06 A3021 RMK AO2 SLP248 T00061061 FZRANO",
      "metarObsTime": 1774652160
    },
    "KIDI": {
      "status": "OK",
      "delay": "—",
      "metarCat": "VFR",
      "metarRaw": "METAR KIDI 272315Z AUTO 26006G12KT 10SM BKN045 05/M02 A3015 RMK A01",
      "metarObsTime": 1774653300
    },
    "KMDT": {
      "status": "OK",
      "delay": "—",
      "metarCat": "VFR",
      "metarRaw": "METAR KMDT 272256Z 32006KT 10SM BKN110 06/M05 A3014 RMK AO2 SLP210 T00561050",
      "metarObsTime": 1774652160
    },
    "KCXY": {
      "status": "OK",
      "delay": "—",
      "metarCat": "VFR",
      "metarRaw": "METAR KCXY 272256Z 36005KT 10SM FEW110 06/M06 A3015 RMK AO2 SLP213 T00561061",
      "metarObsTime": 1774652160
    },
    "KMUI": {
      "status": "OK",
      "delay": "—",
      "metarCat": "VFR",
      "metarRaw": "METAR KMUI 272155Z 34006KT 10SM BKN100 BKN250 06/M04 A3010 RMK AO2A SLP197 T00621040",
      "metarObsTime": 1774648500
    },
    "KUNV": {
      "status": "OK",
      "delay": "—",
      "metarCat": "VFR",
      "metarRaw": "METAR KUNV 272253Z 07003KT 10SM CLR 06/M04 A3010",
      "metarObsTime": 1774651980
    },
    "KAOO": {
      "status": "OK",
      "delay": "—",
      "metarCat": "VFR",
      "metarRaw": "METAR KAOO 272253Z AUTO 27004KT 10SM BKN041 07/M02 A3009 RMK AO2 SLP197 T00671017",
      "metarObsTime": 1774651980
    },
    "KLNS": {
      "status": "OK",
      "delay": "—",
      "metarCat": "VFR",
      "metarRaw": "METAR KLNS 272253Z 35009KT 10SM OVC110 06/M04 A3013 RMK AO2 SLP202 T00561044",
      "metarObsTime": 1774651980
    },
    "KIPT": {
      "status": "OK",
      "delay": "—",
      "metarCat": "VFR",
      "metarRaw": "METAR KIPT 272254Z 33007KT 10SM CLR 05/M09 A3015 RMK AO2 SLP212 T00501089",
      "metarObsTime": 1774652040
    },
    "KPHL": {
      "status": "OK",
      "delay": "—",
      "metarCat": "VFR",
      "metarRaw": "METAR KPHL 272254Z 33013G20KT 10SM FEW050 BKN100 BKN250 09/M03 A3011 RMK AO2 SLP194 T00891033",
      "metarObsTime": 1774652040
    },
    "KABE": {
      "status": "OK",
      "delay": "—",
      "metarCat": "VFR",
      "metarRaw": "METAR KABE 272251Z 36005KT 10SM OVC110 06/M06 A3012 RMK AO2 SLP199 T00611061 $",
      "metarObsTime": 1774651860
    },
    "KAVP": {
      "status": "OK",
      "delay": "—",
      "metarCat": "VFR",
      "metarRaw": "METAR KAVP 272254Z 32008KT 10SM CLR 04/M08 A3012 RMK AO2 SLP202 T00391083",
      "metarObsTime": 1774652040
    },
    "KHZL": {
      "status": "OK",
      "delay": "—",
      "metarCat": "VFR",
      "metarRaw": "METAR KHZL 272315Z AUTO 34006KT 10SM CLR 02/M08 A3013 RMK AO2",
      "metarObsTime": 1774653300
    }
  }
}