{
  "generatedAt": "2026-03-23T08:20:18.772Z",
  "airports": {
    "KPIT": {
      "status": "OK",
      "delay": "—",
      "metarCat": "LIFR",
      "metarRaw": "METAR KPIT 230751Z 33012KT 1SM R28R/P6000FT BR OVC002 08/07 A2975 RMK AO2 SFC VIS 4 SLP078 T00780072",
      "metarObsTime": 1774252260
    },
    "KAGC": {
      "status": "OK",
      "delay": "—",
      "metarCat": "LIFR",
      "metarRaw": "SPECI KAGC 230811Z 33012G17KT 3/4SM R28/3000VP6000FT BR OVC002 09/09 A2973 RMK AO2 T00940094",
      "metarObsTime": 1774253460
    },
    "KLBE": {
      "status": "OK",
      "delay": "—",
      "metarCat": "MVFR",
      "metarRaw": "METAR KLBE 230815Z AUTO 23004KT 10SM BKN028 12/12 A2973 RMK AO2",
      "metarObsTime": 1774253700
    },
    "KJST": {
      "status": "OK",
      "delay": "—",
      "metarCat": "LIFR",
      "metarRaw": "SPECI KJST 230813Z AUTO 25008KT 3/4SM BR BKN002 OVC021 09/09 A2970 RMK AO2 RAE10 P0000 T00940094",
      "metarObsTime": 1774253580
    },
    "KERI": {
      "status": "OK",
      "delay": "—",
      "metarCat": "IFR",
      "metarRaw": "SPECI KERI 230814Z AUTO 03013G19KT 10SM BKN007 OVC013 01/M01 A2988 RMK AO2 T00111006",
      "metarObsTime": 1774253640
    },
    "KDUJ": {
      "status": "OK",
      "delay": "—",
      "metarCat": "LIFR",
      "metarRaw": "METAR KDUJ 230753Z AUTO 35004KT 1 1/2SM BR OVC002 07/06 A2971 RMK AO2 SLP057 T00670061",
      "metarObsTime": 1774252380
    },
    "KBFD": {
      "status": "OK",
      "delay": "—",
      "metarCat": "LIFR",
      "metarRaw": "SPECI KBFD 230810Z AUTO 02006KT 10SM OVC004 00/M01 A2975 RMK AO2 T00001006 $",
      "metarObsTime": 1774253400
    },
    "KBTP": {
      "status": "OK",
      "delay": "—",
      "metarCat": "LIFR",
      "metarRaw": "SPECI KBTP 230815Z AUTO 30007KT 270V330 3/4SM BR OVC003 06/ A2978 RMK AO2 $",
      "metarObsTime": 1774253700
    },
    "KFKL": {
      "status": "OK",
      "delay": "—",
      "metarCat": "LIFR",
      "metarRaw": "SPECI KFKL 230809Z AUTO 33005KT 2 1/2SM BR OVC002 03/03 A2979 RMK AO2 VIS 2V3",
      "metarObsTime": 1774253340
    },
    "KIDI": {
      "status": "OK",
      "delay": "—",
      "metarCat": "LIFR",
      "metarRaw": "METAR KIDI 230815Z AUTO 29007KT 10SM OVC004 11/11 A2973 RMK A01",
      "metarObsTime": 1774253700
    },
    "KMDT": {
      "status": "OK",
      "delay": "—",
      "metarCat": "MVFR",
      "metarRaw": "SPECI KMDT 230808Z 00000KT 3SM RA BR FEW006 OVC075 11/11 A2970 RMK AO2 P0002 T01110106 $",
      "metarObsTime": 1774253280
    },
    "KCXY": {
      "status": "OK",
      "delay": "—",
      "metarCat": "MVFR",
      "metarRaw": "SPECI KCXY 230805Z AUTO 00000KT 5SM -RA BR SCT006 BKN075 OVC085 12/11 A2971 RMK AO2 P0001 T01170111",
      "metarObsTime": 1774253100
    },
    "KMUI": {
      "status": "OK",
      "delay": "—",
      "metarCat": "IFR",
      "metarRaw": "SPECI KMUI 230803Z AUTO 06004KT 9SM -RA BKN005 11/10 A2966 RMK AO2 CIG 005V070 BKN V SCT SLP045",
      "metarObsTime": 1774252980
    },
    "KUNV": {
      "status": "OK",
      "delay": "—",
      "metarCat": "MVFR",
      "metarRaw": "METAR KUNV 230815Z AUTO 04011KT 10SM SCT006 OVC010 06/06 A2972 RMK AO2 T00550055",
      "metarObsTime": 1774253700
    },
    "KAOO": {
      "status": "OK",
      "delay": "—",
      "metarCat": "MVFR",
      "metarRaw": "METAR KAOO 230753Z AUTO 00000KT 4SM RA BR BKN060 OVC075 11/11 A2969 RMK AO2 SLP046 P0014 T01110106",
      "metarObsTime": 1774252380
    },
    "KLNS": {
      "status": "OK",
      "delay": "—",
      "metarCat": "MVFR",
      "metarRaw": "METAR KLNS 230753Z AUTO 11008KT 4SM RA BR FEW048 BKN065 OVC075 12/11 A2970 RMK AO2 RAB11 SLP055 P0009 T01220111",
      "metarObsTime": 1774252380
    },
    "KIPT": {
      "status": "OK",
      "delay": "—",
      "metarCat": "MVFR",
      "metarRaw": "METAR KIPT 230754Z AUTO 34003KT 8SM -RA BKN017 OVC021 04/02 A2975 RMK AO2 RAB0656 SLP076 P0002 T00390022 $",
      "metarObsTime": 1774252440
    },
    "KPHL": {
      "status": "OK",
      "delay": "—",
      "metarCat": "MVFR",
      "metarRaw": "SPECI KPHL 230803Z 36013KT 7SM BKN014 OVC021 14/11 A2970 RMK AO2 T01390106 $",
      "metarObsTime": 1774252980
    },
    "KABE": {
      "status": "OK",
      "delay": "—",
      "metarCat": "VFR",
      "metarRaw": "METAR KABE 230751Z 09005KT 7SM RA SCT050 BKN070 OVC090 09/08 A2970 RMK AO2 RAB13 SLP056 P0018 T00890078 $",
      "metarObsTime": 1774252260
    },
    "KAVP": {
      "status": "OK",
      "delay": "—",
      "metarCat": "IFR",
      "metarRaw": "METAR KAVP 230754Z 36006KT 10SM -RA OVC007 04/03 A2975 RMK AO2 CIG 006V011 SLP072 P0007 T00390028",
      "metarObsTime": 1774252440
    },
    "KHZL": {
      "status": "OK",
      "delay": "—",
      "metarCat": "LIFR",
      "metarRaw": "METAR KHZL 230815Z AUTO 33005KT 5SM -RA OVC003 04/03 A2974 RMK AO2 P0001",
      "metarObsTime": 1774253700
    }
  }
}