{
  "generatedAt": "2026-04-15T16:10:50.726Z",
  "airports": {
    "KPIT": {
      "status": "OK",
      "delay": "—",
      "metarCat": "VFR",
      "metarRaw": "METAR KPIT 151551Z 24013G23KT 10SM BKN036 BKN055 BKN250 24/15 A2998 RMK AO2 PK WND 23029/1502 SLP152 T02390150 $",
      "metarObsTime": 1776268260
    },
    "KAGC": {
      "status": "OK",
      "delay": "—",
      "metarCat": "VFR",
      "metarRaw": "METAR KAGC 151553Z 22012G24KT 10SM SCT038 24/16 A2999 RMK AO2 SLP153 T02440156",
      "metarObsTime": 1776268380
    },
    "KLBE": {
      "status": "OK",
      "delay": "—",
      "metarCat": "VFR",
      "metarRaw": "METAR KLBE 151555Z 22017G26KT 10SM BKN038 24/16 A3002",
      "metarObsTime": 1776268500
    },
    "KJST": {
      "status": "OK",
      "delay": "—",
      "metarCat": "VFR",
      "metarRaw": "METAR KJST 151554Z AUTO 25011G23KT 10SM SCT030 22/14 A3002 RMK AO2 SLP154 T02220144",
      "metarObsTime": 1776268440
    },
    "KERI": {
      "status": "OK",
      "delay": "—",
      "metarCat": "VFR",
      "metarRaw": "METAR KERI 151551Z 33003KT 10SM CLR 19/13 A2990 RMK AO2 SLP121 T01940128 $",
      "metarObsTime": 1776268260
    },
    "KDUJ": {
      "status": "OK",
      "delay": "—",
      "metarCat": "MVFR",
      "metarRaw": "SPECI KDUJ 151607Z AUTO 22015G30KT 10SM BKN030 BKN036 23/16 A2996 RMK AO2 PK WND 21030/1558 T02280156",
      "metarObsTime": 1776269220
    },
    "KBFD": {
      "status": "OK",
      "delay": "—",
      "metarCat": "VFR",
      "metarRaw": "METAR KBFD 151553Z AUTO 24013G26KT 210V270 10SM CLR 21/14 A2994 RMK AO2 PK WND 23026/1553 SLP129 T02110144",
      "metarObsTime": 1776268380
    },
    "KBTP": {
      "status": "OK",
      "delay": "—",
      "metarCat": "VFR",
      "metarRaw": "METAR KBTP 151556Z AUTO 21013G21KT 10SM OVC032 24/16 A2998 RMK AO2 SLP149 T02440161 PNO $",
      "metarObsTime": 1776268560
    },
    "KFKL": {
      "status": "OK",
      "delay": "—",
      "metarCat": "MVFR",
      "metarRaw": "METAR KFKL 151556Z AUTO 22016G23KT 10SM BKN029 23/17 A2995 RMK AO2 PK WND 21026/1525 SLP134 T02330167",
      "metarObsTime": 1776268560
    },
    "KIDI": {
      "status": "OK",
      "delay": "—",
      "metarCat": "VFR",
      "metarRaw": "METAR KIDI 151555Z AUTO 24013G19KT 10SM BKN042 24/16 A3000 RMK A01",
      "metarObsTime": 1776268500
    },
    "KMDT": {
      "status": "OK",
      "delay": "—",
      "metarCat": "VFR",
      "metarRaw": "METAR KMDT 151556Z 24004KT 10SM FEW047 BKN250 27/17 A2992 RMK AO2 SLP132 T02670167",
      "metarObsTime": 1776268560
    },
    "KCXY": {
      "status": "OK",
      "delay": "—",
      "metarCat": "VFR",
      "metarRaw": "METAR KCXY 151556Z 22011G19KT 10SM CLR 28/17 A2993 RMK AO2 SLP133 T02780172 $",
      "metarObsTime": 1776268560
    },
    "KMUI": {
      "status": "OK",
      "delay": "—",
      "metarCat": "VFR",
      "metarRaw": "METAR KMUI 151555Z 21011KT 10SM SCT050 SCT160 BKN200 28/17 A2990 RMK AO2A SLP125 T02840169",
      "metarObsTime": 1776268500
    },
    "KUNV": {
      "status": "OK",
      "delay": "—",
      "metarCat": "VFR",
      "metarRaw": "METAR KUNV 151553Z 26010KT 10SM SCT035 23/16 A2996",
      "metarObsTime": 1776268380
    },
    "KAOO": {
      "status": "OK",
      "delay": "—",
      "metarCat": "VFR",
      "metarRaw": "METAR KAOO 151553Z AUTO 26012G19KT 10SM CLR 26/16 A2997 RMK AO2 SLP142 T02560156",
      "metarObsTime": 1776268380
    },
    "KLNS": {
      "status": "OK",
      "delay": "—",
      "metarCat": "VFR",
      "metarRaw": "METAR KLNS 151553Z 27012G18KT 10SM CLR 27/17 A2993 RMK AO2 SLP133 T02720167",
      "metarObsTime": 1776268380
    },
    "KIPT": {
      "status": "OK",
      "delay": "—",
      "metarCat": "VFR",
      "metarRaw": "METAR KIPT 151554Z 00000KT 10SM CLR 22/17 A2988 RMK AO2 SLP115 T02220172 $",
      "metarObsTime": 1776268440
    },
    "KPHL": {
      "status": "OK",
      "delay": "—",
      "metarCat": "VFR",
      "metarRaw": "METAR KPHL 151554Z 20010KT 10SM FEW090 BKN230 BKN300 28/17 A2994 RMK AO2 SLP138 T02830172 $",
      "metarObsTime": 1776268440
    },
    "KABE": {
      "status": "OK",
      "delay": "—",
      "metarCat": "VFR",
      "metarRaw": "METAR KABE 151551Z 24014G19KT 10SM CLR 26/16 A2992 RMK AO2 SLP128 T02610161",
      "metarObsTime": 1776268260
    },
    "KAVP": {
      "status": "OK",
      "delay": "—",
      "metarCat": "VFR",
      "metarRaw": "METAR KAVP 151554Z AUTO 24014G26KT 10SM CLR 24/16 A2990 RMK AO2 PK WND 22027/1532 SLP116 T02390156",
      "metarObsTime": 1776268440
    },
    "KHZL": {
      "status": "OK",
      "delay": "—",
      "metarCat": "VFR",
      "metarRaw": "METAR KHZL 151555Z AUTO 22005KT 10SM SCT036 25/14 A2997 RMK AO2",
      "metarObsTime": 1776268500
    }
  }
}