{
  "generatedAt": "2026-03-16T12:20:18.532Z",
  "airports": {
    "KPIT": {
      "status": "OK",
      "delay": "—",
      "metarCat": "VFR",
      "metarRaw": "METAR KPIT 161151Z 24014G26KT 10SM -RA FEW025 BKN040 OVC060 14/11 A2941 RMK AO2 RAB14 SLP962 6//// 7//// T01390111 10156 20139 53003 PNO VISNO SE $",
      "metarObsTime": 1773661860
    },
    "KAGC": {
      "status": "OK",
      "delay": "—",
      "metarCat": "VFR",
      "metarRaw": "METAR KAGC 161153Z 25018G34KT 10SM -RA BKN045 OVC060 13/10 A2942 RMK AO2 PK WND 23045/1136 WSHFT 1126 RAB34 SLP966 P0000 60000 T01330100 10167 20133 55004",
      "metarObsTime": 1773661980
    },
    "KLBE": {
      "status": "OK",
      "delay": "—",
      "metarCat": "VFR",
      "metarRaw": "METAR KLBE 161145Z 15018G30KT 10SM CLR 17/11 A2941",
      "metarObsTime": 1773661500
    },
    "KJST": {
      "status": "OK",
      "delay": "—",
      "metarCat": "VFR",
      "metarRaw": "METAR KJST 161154Z AUTO 16019G29KT 10SM SCT008 12/11 A2947 RMK AO2 PK WND 18031/1058 SLP981 60000 T01170106 10117 20078 56039",
      "metarObsTime": 1773662040
    },
    "KERI": {
      "status": "OK",
      "delay": "—",
      "metarCat": "MVFR",
      "metarRaw": "SPECI KERI 161214Z 22013KT 4SM RA BR SCT027 BKN035 OVC043 13/12 A2931 RMK AO2 P0002 T01330117 $",
      "metarObsTime": 1773663240
    },
    "KDUJ": {
      "status": "OK",
      "delay": "—",
      "metarCat": "VFR",
      "metarRaw": "METAR KDUJ 161153Z AUTO 13007G20KT 10SM FEW013 SCT085 13/11 A2941 RMK AO2 SLP958 T01280106 10128 20094 56041 $",
      "metarObsTime": 1773661980
    },
    "KBFD": {
      "status": "OK",
      "delay": "—",
      "metarCat": "IFR",
      "metarRaw": "METAR KBFD 161153Z AUTO 15014G32KT 10SM OVC008 11/10 A2941 RMK AO2 PK WND 15032/1151 SLP958 60000 T01110100 10111 20083 56040",
      "metarObsTime": 1773661980
    },
    "KBTP": {
      "status": "OK",
      "delay": "—",
      "metarCat": "—",
      "metarRaw": "—",
      "metarObsTime": null
    },
    "KFKL": {
      "status": "OK",
      "delay": "—",
      "metarCat": "VFR",
      "metarRaw": "METAR KFKL 161156Z AUTO 17015G24KT 10SM BKN048 OVC060 14/10 A2934 RMK AO2 SLP933 7//// T01440100 10144 20111 56031",
      "metarObsTime": 1773662160
    },
    "KIDI": {
      "status": "OK",
      "delay": "—",
      "metarCat": "VFR",
      "metarRaw": "METAR KIDI 161215Z AUTO 15016G27KT 10SM FEW065 SCT090 16/11 A2940 RMK A01",
      "metarObsTime": 1773663300
    },
    "KMDT": {
      "status": "OK",
      "delay": "—",
      "metarCat": "MVFR",
      "metarRaw": "METAR KMDT 161156Z 12010KT 9SM SCT008 OVC012 13/13 A2960 RMK AO2 RAB1058E14 SLP025 P0000 60007 70008 T01280128 10133 20106 56031",
      "metarObsTime": 1773662160
    },
    "KCXY": {
      "status": "OK",
      "delay": "—",
      "metarCat": "IFR",
      "metarRaw": "SPECI KCXY 161203Z 11008KT 10SM BKN009 OVC017 14/13 A2960 RMK AO2 T01390133",
      "metarObsTime": 1773662580
    },
    "KMUI": {
      "status": "OK",
      "delay": "—",
      "metarCat": "LIFR",
      "metarRaw": "METAR KMUI 161155Z 16007KT 4SM BR OVC003 15/14 A2961 RMK AO2A RAE32 SLP030 60008 70013 T01450142 10150 20071 57036",
      "metarObsTime": 1773662100
    },
    "KUNV": {
      "status": "OK",
      "delay": "—",
      "metarCat": "MVFR",
      "metarRaw": "METAR KUNV 161153Z 18010KT 10SM OVC010 14/13 A2953",
      "metarObsTime": 1773661980
    },
    "KAOO": {
      "status": "OK",
      "delay": "—",
      "metarCat": "VFR",
      "metarRaw": "METAR KAOO 161153Z AUTO 17022G32KT 10SM FEW010 14/12 A2952 RMK AO2 PK WND 18032/1151 SLP995 60002 70003 T01390122 10139 20089 56031",
      "metarObsTime": 1773661980
    },
    "KLNS": {
      "status": "OK",
      "delay": "—",
      "metarCat": "LIFR",
      "metarRaw": "SPECI KLNS 161216Z 16007KT 4SM BR OVC003 15/14 A2964 RMK AO2 RAE03 P0000 T01500144",
      "metarObsTime": 1773663360
    },
    "KIPT": {
      "status": "OK",
      "delay": "—",
      "metarCat": "IFR",
      "metarRaw": "METAR KIPT 161154Z 00000KT 4SM BR OVC009 11/11 A2956 RMK AO2 RAB00E42 CIG 006V011 SLP010 P0001 60014 70022 T01110106 10128 20083 58021",
      "metarObsTime": 1773662040
    },
    "KPHL": {
      "status": "OK",
      "delay": "—",
      "metarCat": "IFR",
      "metarRaw": "SPECI KPHL 161212Z 17010KT 9SM OVC005 16/14 A2971 RMK AO2 T01610144 $",
      "metarObsTime": 1773663120
    },
    "KABE": {
      "status": "OK",
      "delay": "—",
      "metarCat": "LIFR",
      "metarRaw": "SPECI KABE 161206Z 00000KT 2SM BR OVC004 13/12 A2968 RMK AO2 SFC VIS 4 RAB1153E04 P0000 T01280122 $",
      "metarObsTime": 1773662760
    },
    "KAVP": {
      "status": "OK",
      "delay": "—",
      "metarCat": "MVFR",
      "metarRaw": "METAR KAVP 161154Z VRB06KT 8SM BKN017 BKN024 OVC031 13/11 A2965 RMK AO2 RAE19 SLP040 P0000 60003 70003 T01280111 10128 20083 56034",
      "metarObsTime": 1773662040
    },
    "KHZL": {
      "status": "OK",
      "delay": "—",
      "metarCat": "LIFR",
      "metarRaw": "METAR KHZL 161215Z AUTO 14006G18KT 1/2SM -DZ OVC003 11/10 A2966 RMK AO2 LTG DSNT SE",
      "metarObsTime": 1773663300
    }
  }
}