{
  "generatedAt": "2026-03-11T23:10:15.881Z",
  "airports": {
    "KPIT": {
      "status": "OK",
      "delay": "—",
      "metarCat": "VFR",
      "metarRaw": "METAR KPIT 112251Z 25006KT 10SM FEW034 BKN045 BKN080 OVC250 17/15 A2964 RMK AO2 RAB2156E51 TSB12E36 SLP040 P0005 T01720150 $",
      "metarObsTime": 1773269460
    },
    "KAGC": {
      "status": "OK",
      "delay": "—",
      "metarCat": "VFR",
      "metarRaw": "METAR KAGC 112253Z 23011G17KT 7SM VCTS -RA FEW020 SCT035 OVC100 17/16 A2965 RMK AO2 PK WND 30030/2220 LTG DSNT NE-S RAB14 SLP042 P0032 T01720156",
      "metarObsTime": 1773269580
    },
    "KLBE": {
      "status": "OK",
      "delay": "—",
      "metarCat": "IFR",
      "metarRaw": "SPECI KLBE 112255Z COR 27014KT 2 1/2SM TSRA BR SCT001 BKN018 BKN036 18/17 A2970 RMK OCNL LTG CC TS OHD MOV E TSB55",
      "metarObsTime": 1773269700
    },
    "KJST": {
      "status": "OK",
      "delay": "—",
      "metarCat": "VFR",
      "metarRaw": "METAR KJST 112254Z AUTO 20006KT 10SM FEW050 SCT070 BKN095 17/15 A2969 RMK AO2 SLP047 T01670150",
      "metarObsTime": 1773269640
    },
    "KERI": {
      "status": "OK",
      "delay": "—",
      "metarCat": "MVFR",
      "metarRaw": "SPECI KERI 112300Z 25014G23KT 7SM -RA FEW010 BKN022 OVC048 16/14 A2957 RMK AO2 P0002 T01560139",
      "metarObsTime": 1773270000
    },
    "KDUJ": {
      "status": "OK",
      "delay": "—",
      "metarCat": "MVFR",
      "metarRaw": "METAR KDUJ 112253Z AUTO 24011KT 3SM -RA BR FEW024 BKN060 OVC080 17/14 A2965 RMK AO2 PK WND 24027/2212 RAB15 SLP034 P0005 T01670144",
      "metarObsTime": 1773269580
    },
    "KBFD": {
      "status": "OK",
      "delay": "—",
      "metarCat": "VFR",
      "metarRaw": "METAR KBFD 112253Z AUTO 23009G17KT 10SM -RA FEW070 BKN090 OVC100 18/12 A2962 RMK AO2 PK WND 22030/2204 RAB47 SLP019 P0000 T01830117",
      "metarObsTime": 1773269580
    },
    "KBTP": {
      "status": "OK",
      "delay": "—",
      "metarCat": "VFR",
      "metarRaw": "METAR KBTP 112256Z AUTO 24008KT 10SM -RA FEW025 SCT040 OVC095 17/17 A2966 RMK AO2 PK WND 27028/2209 LTG DSNT SE AND S SLP043 P0008 T01670167 $",
      "metarObsTime": 1773269760
    },
    "KFKL": {
      "status": "OK",
      "delay": "—",
      "metarCat": "VFR",
      "metarRaw": "METAR KFKL 112256Z AUTO 23004KT 10SM RA FEW030 OVC060 A2964 RMK AO2 SLPNO P0011 FZRANO $",
      "metarObsTime": 1773269760
    },
    "KIDI": {
      "status": "OK",
      "delay": "—",
      "metarCat": "—",
      "metarRaw": "—",
      "metarObsTime": null
    },
    "KMDT": {
      "status": "OK",
      "delay": "—",
      "metarCat": "LIFR",
      "metarRaw": "SPECI KMDT 112304Z 26033G45KT 1/2SM R13/4000VP6000FT +TSRA BKN026 OVC070 18/16 A2973 RMK AO2 PK WND 27045/2304 TSB02 OCNL LTG ICCCCCG ALQDS TS N MOV E P0014 T01830156",
      "metarObsTime": 1773270240
    },
    "KCXY": {
      "status": "OK",
      "delay": "—",
      "metarCat": "IFR",
      "metarRaw": "METAR KCXY 112256Z 23023G33KT 2SM R08/6000VP6000FT VCTS +RA SCT042 BKN065 OVC085 21/17 A2972 RMK AO2 PK WND 23033/2255 LTG DSNT ALQDS RAB39 SLP063 VCTS MOV E P0015 T02060172",
      "metarObsTime": 1773269760
    },
    "KMUI": {
      "status": "OK",
      "delay": "—",
      "metarCat": "VFR",
      "metarRaw": "METAR KMUI 112255Z 00000KT 6SM -TSRA FEW010 BKN040CB OVC060 20/19 A2970 RMK AO2A RAB23 TSB23 TS 4E MOV E PRESRR SLP059 T01950192",
      "metarObsTime": 1773269700
    },
    "KUNV": {
      "status": "OK",
      "delay": "—",
      "metarCat": "VFR",
      "metarRaw": "METAR KUNV 112253Z 22009G16KT 10SM BKN070 BKN080 19/15 A2968",
      "metarObsTime": 1773269580
    },
    "KAOO": {
      "status": "OK",
      "delay": "—",
      "metarCat": "VFR",
      "metarRaw": "METAR KAOO 112253Z AUTO 00000KT 10SM FEW050 FEW060 18/16 A2969 RMK AO2 SLP051 T01780161",
      "metarObsTime": 1773269580
    },
    "KLNS": {
      "status": "OK",
      "delay": "—",
      "metarCat": "VFR",
      "metarRaw": "METAR KLNS 112253Z 18007KT 10SM FEW095 23/14 A2968 RMK AO2 LTG DSNT N RAE2158 SLP048 P0000 T02280144",
      "metarObsTime": 1773269580
    },
    "KIPT": {
      "status": "OK",
      "delay": "—",
      "metarCat": "VFR",
      "metarRaw": "METAR KIPT 112254Z 17008KT 10SM -RA OVC100 19/16 A2964 RMK AO2 RAB43 SLP035 P0000 T01940161 $",
      "metarObsTime": 1773269640
    },
    "KPHL": {
      "status": "OK",
      "delay": "—",
      "metarCat": "VFR",
      "metarRaw": "METAR KPHL 112254Z 18010KT 10SM FEW045 SCT090 BKN130 BKN260 24/14 A2970 RMK AO2 SLP058 T02440144 $",
      "metarObsTime": 1773269640
    },
    "KABE": {
      "status": "OK",
      "delay": "—",
      "metarCat": "VFR",
      "metarRaw": "METAR KABE 112251Z 19006KT 10SM BKN100 23/14 A2968 RMK AO2 SLP050 T02330139 $",
      "metarObsTime": 1773269460
    },
    "KAVP": {
      "status": "OK",
      "delay": "—",
      "metarCat": "VFR",
      "metarRaw": "METAR KAVP 112254Z 25005KT 10SM SCT110 17/16 A2968 RMK AO2 RAE11 SLP047 P0001 T01720161",
      "metarObsTime": 1773269640
    },
    "KHZL": {
      "status": "OK",
      "delay": "—",
      "metarCat": "VFR",
      "metarRaw": "METAR KHZL 112255Z AUTO 19003KT 10SM SCT047 SCT075 OVC095 18/15 A2976 RMK AO2 P0001",
      "metarObsTime": 1773269700
    }
  }
}