{
  "generatedAt": "2026-03-10T00:00:16.551Z",
  "airports": {
    "KPIT": {
      "status": "OK",
      "delay": "—",
      "metarCat": "VFR",
      "metarRaw": "METAR KPIT 092351Z 22003KT 10SM CLR 18/M01 A2994 RMK AO2 SLP149 T01831011 10211 20178 53001",
      "metarObsTime": 1773100260
    },
    "KAGC": {
      "status": "OK",
      "delay": "—",
      "metarCat": "VFR",
      "metarRaw": "METAR KAGC 092353Z AUTO 21006KT 10SM CLR 18/M02 A2995 RMK AO2 SLP147 T01831022 10211 20178 53002",
      "metarObsTime": 1773100380
    },
    "KLBE": {
      "status": "OK",
      "delay": "—",
      "metarCat": "VFR",
      "metarRaw": "METAR KLBE 092347Z 20010KT 20SM CLR 18/00 A2998",
      "metarObsTime": 1773100020
    },
    "KJST": {
      "status": "OK",
      "delay": "—",
      "metarCat": "VFR",
      "metarRaw": "METAR KJST 092354Z AUTO 23005KT 10SM CLR 14/M03 A2998 RMK AO2 SLP155 T01391028 10189 20139 53005",
      "metarObsTime": 1773100440
    },
    "KERI": {
      "status": "OK",
      "delay": "—",
      "metarCat": "VFR",
      "metarRaw": "METAR KERI 092351Z 19011G19KT 10SM CLR 18/M01 A2986 RMK AO2 SLP110 T01831006 10211 20183 53002",
      "metarObsTime": 1773100260
    },
    "KDUJ": {
      "status": "OK",
      "delay": "—",
      "metarCat": "VFR",
      "metarRaw": "METAR KDUJ 092353Z AUTO 21004KT 10SM CLR 14/M04 A2994 RMK AO2 SLP143 T01391039 10189 20139 53003",
      "metarObsTime": 1773100380
    },
    "KBFD": {
      "status": "OK",
      "delay": "—",
      "metarCat": "VFR",
      "metarRaw": "METAR KBFD 092353Z AUTO 20004KT 10SM CLR 14/M04 A2993 RMK AO2 SLP137 T01441044 10178 20144 51006 $",
      "metarObsTime": 1773100380
    },
    "KBTP": {
      "status": "OK",
      "delay": "—",
      "metarCat": "VFR",
      "metarRaw": "METAR KBTP 092256Z AUTO 23010KT 10SM CLR 19/M01 A2995 RMK AO2 SLP147 T01891011 $",
      "metarObsTime": 1773096960
    },
    "KFKL": {
      "status": "OK",
      "delay": "—",
      "metarCat": "VFR",
      "metarRaw": "METAR KFKL 092356Z AUTO 21006KT 10SM CLR 16/M01 A2994 RMK AO2 SLP141 T01561011 10194 20150 53003",
      "metarObsTime": 1773100560
    },
    "KIDI": {
      "status": "OK",
      "delay": "—",
      "metarCat": "VFR",
      "metarRaw": "METAR KIDI 092355Z AUTO 22004KT 10SM CLR 16/M03 A2996 RMK A01",
      "metarObsTime": 1773100500
    },
    "KMDT": {
      "status": "OK",
      "delay": "—",
      "metarCat": "VFR",
      "metarRaw": "METAR KMDT 092356Z 17004KT 10SM CLR 16/03 A2995 RMK AO2 SLP145 T01560033 10217 20133 53004",
      "metarObsTime": 1773100560
    },
    "KCXY": {
      "status": "OK",
      "delay": "—",
      "metarCat": "VFR",
      "metarRaw": "METAR KCXY 092356Z 17006KT 10SM CLR 18/03 A2996 RMK AO2 SLP147 T01830028 10233 20172 53005",
      "metarObsTime": 1773100560
    },
    "KMUI": {
      "status": "OK",
      "delay": "—",
      "metarCat": "VFR",
      "metarRaw": "METAR KMUI 092355Z 00000KT 10SM CLR 17/07 A2994 RMK AO2A SLP143 T01680074 10232 20151 53006",
      "metarObsTime": 1773100500
    },
    "KUNV": {
      "status": "OK",
      "delay": "—",
      "metarCat": "VFR",
      "metarRaw": "METAR KUNV 092353Z 23006KT 10SM CLR 17/M05 A2995",
      "metarObsTime": 1773100380
    },
    "KAOO": {
      "status": "OK",
      "delay": "—",
      "metarCat": "VFR",
      "metarRaw": "METAR KAOO 092353Z AUTO 21008KT 10SM CLR 14/M03 A2997 RMK AO2 SLP151 T01441028 10211 20144 53006",
      "metarObsTime": 1773100380
    },
    "KLNS": {
      "status": "OK",
      "delay": "—",
      "metarCat": "VFR",
      "metarRaw": "METAR KLNS 092353Z 20005KT 10SM CLR 18/03 A2998 RMK AO2 SLP151 T01830033 10228 20183 53007",
      "metarObsTime": 1773100380
    },
    "KIPT": {
      "status": "OK",
      "delay": "—",
      "metarCat": "VFR",
      "metarRaw": "METAR KIPT 092354Z 19007KT 10SM CLR 18/01 A2991 RMK AO2 SLP130 T01780011 10228 20156 53002 $",
      "metarObsTime": 1773100440
    },
    "KPHL": {
      "status": "OK",
      "delay": "—",
      "metarCat": "VFR",
      "metarRaw": "METAR KPHL 092354Z 21004KT 10SM CLR 19/04 A2998 RMK AO2 SLP153 T01890044 10239 20183 53004 $",
      "metarObsTime": 1773100440
    },
    "KABE": {
      "status": "OK",
      "delay": "—",
      "metarCat": "VFR",
      "metarRaw": "METAR KABE 092351Z 18004KT 10SM CLR 16/03 A2996 RMK AO2 SLP147 T01560033 10222 20156 53002",
      "metarObsTime": 1773100260
    },
    "KAVP": {
      "status": "OK",
      "delay": "—",
      "metarCat": "VFR",
      "metarRaw": "METAR KAVP 092354Z 00000KT 10SM CLR 17/00 A2995 RMK AO2 SLP141 T01670000 10206 20167 53005",
      "metarObsTime": 1773100440
    },
    "KHZL": {
      "status": "OK",
      "delay": "—",
      "metarCat": "VFR",
      "metarRaw": "METAR KHZL 092335Z AUTO 00000KT 10SM CLR 15/00 A3001 RMK AO2",
      "metarObsTime": 1773099300
    }
  }
}