{
  "generatedAt": "2026-03-17T03:00:13.558Z",
  "airports": {
    "KPIT": {
      "status": "OK",
      "delay": "—",
      "metarCat": "IFR",
      "metarRaw": "METAR KPIT 170251Z 25013G23KT 1 1/2SM -SN BR BKN007 OVC020 M03/M03 A2959 RMK AO2 SFC VIS 3 SLP034 P0000 60014 T10281033 53024 $",
      "metarObsTime": 1773715860
    },
    "KAGC": {
      "status": "OK",
      "delay": "—",
      "metarCat": "IFR",
      "metarRaw": "METAR KAGC 170253Z 27017G30KT 5SM BR BKN008 BKN050 OVC120 M03/M05 A2959 RMK AO2 PK WND 26030/0248 SNB0154E15 SLP030 P0000 60000 T10331050 51027 $",
      "metarObsTime": 1773715980
    },
    "KLBE": {
      "status": "OK",
      "delay": "—",
      "metarCat": "MVFR",
      "metarRaw": "METAR KLBE 170255Z AUTO 23012G20KT 9SM SCT020 BKN024 BKN029 M02/M04 A2961 RMK AO2",
      "metarObsTime": 1773716100
    },
    "KJST": {
      "status": "OK",
      "delay": "—",
      "metarCat": "IFR",
      "metarRaw": "METAR KJST 170254Z AUTO 27019G31KT 2SM -SN BR FEW005 SCT009 OVC015 M05/M07 A2948 RMK AO2 PK WND 27035/0243 SLP996 P0001 60007 T10501067 51033",
      "metarObsTime": 1773716040
    },
    "KERI": {
      "status": "OK",
      "delay": "—",
      "metarCat": "VFR",
      "metarRaw": "METAR KERI 170251Z 23014G23KT 6SM UP SCT018 BKN037 OVC070 M03/M06 A2948 RMK AO2 PK WND 22028/0213 UPB46SNE01B13E46 SLP991 P0001 60008 T10281056 51007 $",
      "metarObsTime": 1773715860
    },
    "KDUJ": {
      "status": "OK",
      "delay": "—",
      "metarCat": "IFR",
      "metarRaw": "METAR KDUJ 170253Z AUTO 26015G26KT 1 1/4SM -SN BR FEW010 OVC016 M05/M07 A2946 RMK AO2 PK WND 24040/0219 SLP985 P0001 60005 T10501067 51019",
      "metarObsTime": 1773715980
    },
    "KBFD": {
      "status": "OK",
      "delay": "—",
      "metarCat": "LIFR",
      "metarRaw": "METAR KBFD 170253Z AUTO 24008G23KT 1/2SM SN FZFG VV006 M04/M05 A2939 RMK AO2 PK WND 20026/0207 SLP960 P0003 60013 T10441050 51015",
      "metarObsTime": 1773715980
    },
    "KBTP": {
      "status": "OK",
      "delay": "—",
      "metarCat": "—",
      "metarRaw": "—",
      "metarObsTime": null
    },
    "KFKL": {
      "status": "OK",
      "delay": "—",
      "metarCat": "VFR",
      "metarRaw": "METAR KFKL 170256Z AUTO 25010G19KT 10SM SCT011 BKN035 OVC075 M04/M06 A2950 RMK AO2 SNE19 SLP999 P0000 60001 T10441056 55003 FZRANO",
      "metarObsTime": 1773716160
    },
    "KIDI": {
      "status": "OK",
      "delay": "—",
      "metarCat": "IFR",
      "metarRaw": "METAR KIDI 170255Z AUTO 27016G24KT 2SM BR FEW003 SCT011 BKN016 M03/M04 A2956 RMK A01",
      "metarObsTime": 1773716100
    },
    "KMDT": {
      "status": "OK",
      "delay": "—",
      "metarCat": "MVFR",
      "metarRaw": "SPECI KMDT 170245Z 30016KT 3SM +RA BR SCT008 BKN014 OVC025 02/01 A2946 RMK AO2 PK WND 31038/0158 P0007 T00170011",
      "metarObsTime": 1773715500
    },
    "KCXY": {
      "status": "OK",
      "delay": "—",
      "metarCat": "IFR",
      "metarRaw": "SPECI KCXY 170251Z AUTO 27011G21KT 3SM -SN BR BKN008 OVC013 01/00 A2950 RMK AO2 PK WND 28028/0157 RAE41SNB22 P0013",
      "metarObsTime": 1773715860
    },
    "KMUI": {
      "status": "OK",
      "delay": "—",
      "metarCat": "MVFR",
      "metarRaw": "METAR KMUI 170255Z AUTO 29019G34KT 5SM RA BR FEW017 BKN050 OVC060 03/02 A2942 RMK AO2 PK WND 29042/0157 SLP966 P0008 60022 T00300015 53067",
      "metarObsTime": 1773716100
    },
    "KUNV": {
      "status": "OK",
      "delay": "—",
      "metarCat": "IFR",
      "metarRaw": "METAR KUNV 170235Z AUTO 26012G23KT 1 1/2SM -SN OVC012 M01/M01 A2945 RMK AO2 T10071010",
      "metarObsTime": 1773714900
    },
    "KAOO": {
      "status": "OK",
      "delay": "—",
      "metarCat": "MVFR",
      "metarRaw": "METAR KAOO 170253Z AUTO 28020G29KT 4SM -SN BKN026 BKN046 OVC110 M02/M05 A2949 RMK AO2 PK WND 26030/0242 SLP992 P0000 60001 T10171050 51021",
      "metarObsTime": 1773715980
    },
    "KLNS": {
      "status": "OK",
      "delay": "—",
      "metarCat": "MVFR",
      "metarRaw": "METAR KLNS 170253Z 29021G35KT 5SM RA BR SCT017 SCT031 OVC050 03/02 A2945 RMK AO2 PK WND 28057/0215 WSHFT 0140 SLP972 P0008 60021 T00330017 53061",
      "metarObsTime": 1773715980
    },
    "KIPT": {
      "status": "OK",
      "delay": "—",
      "metarCat": "IFR",
      "metarRaw": "METAR KIPT 170254Z AUTO 26013G20KT 2SM -SN BR OVC013 01/00 A2945 RMK AO2 PK WND 26031/0210 RAE09SNB09 PRESRR SLP973 P0007 60044 T00060000 53062",
      "metarObsTime": 1773716040
    },
    "KPHL": {
      "status": "OK",
      "delay": "—",
      "metarCat": "MVFR",
      "metarRaw": "METAR KPHL 170254Z 19017G27KT 3SM -RA BR BKN011 BKN033 OVC044 17/14 A2926 RMK AO2 PK WND 15032/0215 RAB25 SLP909 P0001 60001 T01670144 58032 $",
      "metarObsTime": 1773716040
    },
    "KABE": {
      "status": "OK",
      "delay": "—",
      "metarCat": "IFR",
      "metarRaw": "SPECI KABE 170253Z 28020G33KT 2 1/2SM +RA SCT015 BKN024 OVC036 09/06 A2930 RMK AO2 PK WND 30033/0253 WSHFT 0238 PRESRR P0004 T00890061 $",
      "metarObsTime": 1773715980
    },
    "KAVP": {
      "status": "OK",
      "delay": "—",
      "metarCat": "IFR",
      "metarRaw": "METAR KAVP 170254Z 29006KT 1 1/2SM +RA BR SCT007 BKN013 OVC019 05/04 A2932 RMK AO2 PK WND 22030/0206 WSHFT 0141 SLP924 P0046 60046 T00500044 53023",
      "metarObsTime": 1773716040
    },
    "KHZL": {
      "status": "OK",
      "delay": "—",
      "metarCat": "IFR",
      "metarRaw": "METAR KHZL 170235Z AUTO 27008G18KT 3SM UP OVC007 03/02 RMK AO2 P0009",
      "metarObsTime": 1773714900
    }
  }
}