{
  "generatedAt": "2026-04-01T16:30:35.423Z",
  "airports": {
    "KPIT": {
      "status": "OK",
      "delay": "—",
      "metarCat": "LIFR",
      "metarRaw": "METAR KPIT 011551Z 36010KT 1SM R28R/P6000FT OVC004 12/11 A3012 RMK AO2 SFC VIS 8 SLP206 T01170106",
      "metarObsTime": 1775058660
    },
    "KAGC": {
      "status": "OK",
      "delay": "—",
      "metarCat": "IFR",
      "metarRaw": "METAR KAGC 011553Z 21004KT 10SM BKN007 OVC035 16/14 A3011 RMK AO2 CIG 005V012 SLP195 T01610144",
      "metarObsTime": 1775058780
    },
    "KLBE": {
      "status": "OK",
      "delay": "—",
      "metarCat": "IFR",
      "metarRaw": "METAR KLBE 011547Z 20008KT 8SM BKN009 OVC045 16/15 A3014",
      "metarObsTime": 1775058420
    },
    "KJST": {
      "status": "OK",
      "delay": "—",
      "metarCat": "MVFR",
      "metarRaw": "SPECI KJST 011608Z AUTO 25009KT 10SM BKN011 15/13 A3013 RMK AO2 T01500128",
      "metarObsTime": 1775059680
    },
    "KERI": {
      "status": "OK",
      "delay": "—",
      "metarCat": "IFR",
      "metarRaw": "METAR KERI 011551Z 04015G21KT 10SM OVC008 03/02 A3022 RMK AO2 CIG 007V011 SLP237 T00330022 $",
      "metarObsTime": 1775058660
    },
    "KDUJ": {
      "status": "OK",
      "delay": "—",
      "metarCat": "LIFR",
      "metarRaw": "SPECI KDUJ 011605Z AUTO 34006KT 10SM OVC004 13/12 A3010 RMK AO2 T01280117",
      "metarObsTime": 1775059500
    },
    "KBFD": {
      "status": "OK",
      "delay": "—",
      "metarCat": "LIFR",
      "metarRaw": "METAR KBFD 011553Z AUTO 7SM OVC004 08/08 A3013 RMK AO2 RAE12 SLP204 P0000 T00830078",
      "metarObsTime": 1775058780
    },
    "KBTP": {
      "status": "OK",
      "delay": "—",
      "metarCat": "LIFR",
      "metarRaw": "METAR KBTP 011556Z AUTO 32004KT 10SM OVC004 11/ A3014 RMK AO2 RAE05 SLP214 P0001 T0106 $",
      "metarObsTime": 1775058960
    },
    "KFKL": {
      "status": "OK",
      "delay": "—",
      "metarCat": "LIFR",
      "metarRaw": "METAR KFKL 011556Z AUTO 36004KT 10SM -RA OVC003 08/07 A3015 RMK AO2 CIG 002V006 SLP215 P0002 T00780072",
      "metarObsTime": 1775058960
    },
    "KIDI": {
      "status": "OK",
      "delay": "—",
      "metarCat": "MVFR",
      "metarRaw": "METAR KIDI 011615Z AUTO 22006KT 10SM SCT007 OVC011 16/15 A3012 RMK A01",
      "metarObsTime": 1775060100
    },
    "KMDT": {
      "status": "OK",
      "delay": "—",
      "metarCat": "VFR",
      "metarRaw": "METAR KMDT 011556Z 31007KT 10SM FEW040 FEW100 BKN180 22/13 A3008 RMK AO2 SLP185 T02220133 $",
      "metarObsTime": 1775058960
    },
    "KCXY": {
      "status": "OK",
      "delay": "—",
      "metarCat": "VFR",
      "metarRaw": "METAR KCXY 011556Z 25009KT 10SM CLR 22/13 A3009 RMK AO2 SLP187 T02220133",
      "metarObsTime": 1775058960
    },
    "KMUI": {
      "status": "OK",
      "delay": "—",
      "metarCat": "VFR",
      "metarRaw": "METAR KMUI 011555Z 24008KT 10SM SCT034 BKN041 BKN250 23/15 A3006 RMK AO2A SLP180 T02310154",
      "metarObsTime": 1775058900
    },
    "KUNV": {
      "status": "OK",
      "delay": "—",
      "metarCat": "MVFR",
      "metarRaw": "METAR KUNV 011553Z 28007KT 10SM BKN023 BKN041 OVC100 18/13 A3011",
      "metarObsTime": 1775058780
    },
    "KAOO": {
      "status": "OK",
      "delay": "—",
      "metarCat": "VFR",
      "metarRaw": "METAR KAOO 011553Z AUTO 21003KT 10SM SCT022 BKN090 BKN110 17/13 A3012 RMK AO2 RAB01E19 SLP193 P0000 T01720133",
      "metarObsTime": 1775058780
    },
    "KLNS": {
      "status": "OK",
      "delay": "—",
      "metarCat": "VFR",
      "metarRaw": "METAR KLNS 011553Z 28009KT 10SM SCT040 22/14 A3008 RMK AO2 SLP184 T02220144",
      "metarObsTime": 1775058780
    },
    "KIPT": {
      "status": "OK",
      "delay": "—",
      "metarCat": "MVFR",
      "metarRaw": "METAR KIPT 011554Z 36009KT 10SM BKN026 OVC035 17/13 A3007 RMK AO2 SLP181 T01720133 $",
      "metarObsTime": 1775058840
    },
    "KPHL": {
      "status": "OK",
      "delay": "—",
      "metarCat": "VFR",
      "metarRaw": "METAR KPHL 011554Z 29006KT 10SM FEW046 SCT140 BKN220 25/13 A3006 RMK AO2 SLP178 T02500133 $",
      "metarObsTime": 1775058840
    },
    "KABE": {
      "status": "OK",
      "delay": "—",
      "metarCat": "VFR",
      "metarRaw": "METAR KABE 011551Z 26008KT 230V300 10SM BKN085 23/13 A3005 RMK AO2 SLP171 T02280133 $",
      "metarObsTime": 1775058660
    },
    "KAVP": {
      "status": "OK",
      "delay": "—",
      "metarCat": "VFR",
      "metarRaw": "METAR KAVP 011554Z 34011KT 10SM FEW016 FEW028 OVC037 15/11 A3010 RMK AO2 PK WND 34026/1513 WSHFT 1510 SLP186 T01500111",
      "metarObsTime": 1775058840
    },
    "KHZL": {
      "status": "OK",
      "delay": "—",
      "metarCat": "VFR",
      "metarRaw": "METAR KHZL 011615Z AUTO 26004KT 10SM SCT024 OVC031 20/12 A3012 RMK AO2 LTG DSNT SW",
      "metarObsTime": 1775060100
    }
  }
}