{
  "generatedAt": "2026-03-16T18:10:15.020Z",
  "airports": {
    "KPIT": {
      "status": "OK",
      "delay": "—",
      "metarCat": "IFR",
      "metarRaw": "SPECI KPIT 161805Z 27014G23KT 3SM -DZ BR BKN009 OVC016 05/03 A2945 RMK AO2 P0000 T00500033 $",
      "metarObsTime": 1773684300
    },
    "KAGC": {
      "status": "OK",
      "delay": "—",
      "metarCat": "MVFR",
      "metarRaw": "METAR KAGC 161753Z 27011G26KT 10SM BKN014 OVC018 06/03 A2944 RMK AO2 PK WND 26030/1717 SLP973 60004 T00560028 10139 20056 53012",
      "metarObsTime": 1773683580
    },
    "KLBE": {
      "status": "OK",
      "delay": "—",
      "metarCat": "MVFR",
      "metarRaw": "SPECI KLBE 161800Z 24015G30KT 8SM -RA BKN017 OVC036 08/05 A2947",
      "metarObsTime": 1773684000
    },
    "KJST": {
      "status": "OK",
      "delay": "—",
      "metarCat": "VFR",
      "metarRaw": "METAR KJST 161754Z AUTO 22012G19KT 10SM SCT038 BKN055 16/10 A2936 RMK AO2 SLP938 60007 T01560100 10156 20111 56039",
      "metarObsTime": 1773683640
    },
    "KERI": {
      "status": "OK",
      "delay": "—",
      "metarCat": "MVFR",
      "metarRaw": "METAR KERI 161751Z 26017G29KT 4SM -RA BR SCT007 OVC016 02/00 A2943 RMK AO2 PK WND 27033/1711 SLP966 P0001 60014 T00170000 10144 20017 53009 $",
      "metarObsTime": 1773683460
    },
    "KDUJ": {
      "status": "OK",
      "delay": "—",
      "metarCat": "VFR",
      "metarRaw": "METAR KDUJ 161753Z AUTO 20010G24KT 170V230 10SM SCT027 OVC039 14/09 A2934 RMK AO2 SLP931 60002 T01440089 10144 20117 56029",
      "metarObsTime": 1773683580
    },
    "KBFD": {
      "status": "OK",
      "delay": "—",
      "metarCat": "MVFR",
      "metarRaw": "METAR KBFD 161753Z AUTO 20010G20KT 10SM BKN023 OVC032 13/09 A2934 RMK AO2 PK WND 22026/1736 SLP932 60002 T01330089 10133 20111 56019",
      "metarObsTime": 1773683580
    },
    "KBTP": {
      "status": "OK",
      "delay": "—",
      "metarCat": "—",
      "metarRaw": "—",
      "metarObsTime": null
    },
    "KFKL": {
      "status": "OK",
      "delay": "—",
      "metarCat": "IFR",
      "metarRaw": "SPECI KFKL 161803Z AUTO 27013G21KT 2SM -RA BR BKN007 OVC012 04/04 A2940 RMK AO2 CIG 004V008 P0000",
      "metarObsTime": 1773684180
    },
    "KIDI": {
      "status": "OK",
      "delay": "—",
      "metarCat": "VFR",
      "metarRaw": "METAR KIDI 161755Z AUTO 29018G25KT 10SM BKN032 BKN042 BKN065 14/10 A2938 RMK A01",
      "metarObsTime": 1773683700
    },
    "KMDT": {
      "status": "OK",
      "delay": "—",
      "metarCat": "VFR",
      "metarRaw": "METAR KMDT 161756Z 17012G23KT 10SM SCT037 BKN060 OVC200 18/14 A2945 RMK AO2 PK WND 17028/1659 RAE21 TSE01 SLP974 TS MOVD NE P0003 60017 T01780139 10183 20128 56032",
      "metarObsTime": 1773683760
    },
    "KCXY": {
      "status": "OK",
      "delay": "—",
      "metarCat": "VFR",
      "metarRaw": "METAR KCXY 161756Z 18013G21KT 10SM FEW027 SCT036 BKN049 19/16 A2945 RMK AO2 RAE10 SLP974 P0001 60030 T01890156 10194 20139 56017",
      "metarObsTime": 1773683760
    },
    "KMUI": {
      "status": "OK",
      "delay": "—",
      "metarCat": "MVFR",
      "metarRaw": "METAR KMUI 161755Z COR 17013KT 10SM VCSH BKN012 BKN017 BKN047 19/18 A2945 RMK AO2A LTG DSNT NE RAE39 SLP975 60017 T01870182 10193 20145 57032 COR 1756",
      "metarObsTime": 1773683700
    },
    "KUNV": {
      "status": "OK",
      "delay": "—",
      "metarCat": "VFR",
      "metarRaw": "METAR KUNV 161753Z 23008KT 10SM SCT030 BKN060 OVC110 17/13 A2935",
      "metarObsTime": 1773683580
    },
    "KAOO": {
      "status": "OK",
      "delay": "—",
      "metarCat": "VFR",
      "metarRaw": "METAR KAOO 161753Z AUTO 19010KT 10SM -RA BKN100 17/12 A2937 RMK AO2 PK WND 19028/1700 RAB41 SLP942 P0000 60003 T01670117 10178 20139 58042",
      "metarObsTime": 1773683580
    },
    "KLNS": {
      "status": "OK",
      "delay": "—",
      "metarCat": "MVFR",
      "metarRaw": "SPECI KLNS 161802Z 19017G28KT 3SM RA BR BKN014 BKN032 OVC050 17/16 A2949 RMK AO2 PK WND 18028/1800 P0002 T01720156",
      "metarObsTime": 1773684120
    },
    "KIPT": {
      "status": "OK",
      "delay": "—",
      "metarCat": "MVFR",
      "metarRaw": "METAR KIPT 161754Z 10017G30KT 10SM BKN017 OVC024 18/16 A2936 RMK AO2 PK WND 11030/1751 RAB1655E36 SLP943 P0008 60010 T01830156 10183 20111 58041",
      "metarObsTime": 1773683640
    },
    "KPHL": {
      "status": "OK",
      "delay": "—",
      "metarCat": "VFR",
      "metarRaw": "METAR KPHL 161754Z 17019G35KT 10SM -RA FEW019 SCT027 SCT050 OVC140 19/15 A2957 RMK AO2 PK WND 15035/1748 RAB35 SLP012 P0000 60003 T01890150 10200 20161 56034 $",
      "metarObsTime": 1773683640
    },
    "KABE": {
      "status": "OK",
      "delay": "—",
      "metarCat": "MVFR",
      "metarRaw": "METAR KABE 161751Z 18014G28KT 10SM BKN019 BKN026 OVC038 19/16 A2952 RMK AO2 PK WND 15028/1749 LTG DSNT W AND NW RAB07E20 SLP995 P0001 60012 T01890156 10194 20122 58033 $",
      "metarObsTime": 1773683460
    },
    "KAVP": {
      "status": "OK",
      "delay": "—",
      "metarCat": "MVFR",
      "metarRaw": "METAR KAVP 161754Z 18007G21KT 3SM -RA FEW027 BKN060 OVC100 18/15 A2946 RMK AO2 PK WND 19029/1707 SFC VIS 4 LTG DSNT S AND SW RAB33 SLP974 P0002 60003 T01780150 10200 20117 58028",
      "metarObsTime": 1773683640
    },
    "KHZL": {
      "status": "OK",
      "delay": "—",
      "metarCat": "IFR",
      "metarRaw": "METAR KHZL 161755Z AUTO 16009G19KT 1 1/2SM +TSRA BKN009 OVC016 16/14 A2952 RMK AO2 LTG DSNT ALQDS P0019",
      "metarObsTime": 1773683700
    }
  }
}