{
  "generatedAt": "2026-03-14T01:10:12.142Z",
  "airports": {
    "KPIT": {
      "status": "OK",
      "delay": "—",
      "metarCat": "VFR",
      "metarRaw": "METAR KPIT 140051Z 27026G45KT 10SM FEW120 SCT250 11/M14 A2971 RMK AO2 PK WND 28049/0033 SLP073 T01061139",
      "metarObsTime": 1773449460
    },
    "KAGC": {
      "status": "OK",
      "delay": "—",
      "metarCat": "VFR",
      "metarRaw": "METAR KAGC 140053Z 28016G26KT 10SM CLR 11/M14 A2971 RMK AO2 PK WND 27048/2358 PRESRR SLP071 T01061139",
      "metarObsTime": 1773449580
    },
    "KLBE": {
      "status": "OK",
      "delay": "—",
      "metarCat": "—",
      "metarRaw": "—",
      "metarObsTime": null
    },
    "KJST": {
      "status": "OK",
      "delay": "—",
      "metarCat": "VFR",
      "metarRaw": "METAR KJST 140054Z AUTO 27028G47KT 10SM FEW110 09/M18 A2967 RMK AO2 PK WND 29051/0032 SLP059 T00891178 $",
      "metarObsTime": 1773449640
    },
    "KERI": {
      "status": "OK",
      "delay": "—",
      "metarCat": "VFR",
      "metarRaw": "METAR KERI 140051Z 24020G36KT 10SM FEW060 OVC085 05/M03 A2964 RMK AO2 PK WND 27039/2353 SLP041 T00501028",
      "metarObsTime": 1773449460
    },
    "KDUJ": {
      "status": "OK",
      "delay": "—",
      "metarCat": "VFR",
      "metarRaw": "METAR KDUJ 140053Z AUTO 28008KT 10SM FEW075 02/M02 A2967 RMK AO2 SLP064 T00171017",
      "metarObsTime": 1773449580
    },
    "KBFD": {
      "status": "OK",
      "delay": "—",
      "metarCat": "IFR",
      "metarRaw": "SPECI KBFD 140104Z AUTO 26013G22KT 2SM -SN BR BKN011 BKN017 OVC047 00/M01 A2964 RMK AO2 P0000 T00001011",
      "metarObsTime": 1773450240
    },
    "KBTP": {
      "status": "OK",
      "delay": "—",
      "metarCat": "VFR",
      "metarRaw": "METAR KBTP 140056Z AUTO 28014G20KT 10SM CLR 08/M08 A2971 RMK AO2 PK WND 28027/2357 SLP075 T00781078 $",
      "metarObsTime": 1773449760
    },
    "KFKL": {
      "status": "OK",
      "delay": "—",
      "metarCat": "VFR",
      "metarRaw": "METAR KFKL 140056Z AUTO 26008G16KT 10SM BKN070 OVC085 A2969 RMK AO2 RAB15E28 SLPNO P0000 FZRANO $",
      "metarObsTime": 1773449760
    },
    "KIDI": {
      "status": "OK",
      "delay": "—",
      "metarCat": "VFR",
      "metarRaw": "METAR KIDI 140055Z AUTO 30011KT 10SM FEW027 FEW032 FEW043 07/M02 A2970 RMK A01",
      "metarObsTime": 1773449700
    },
    "KMDT": {
      "status": "OK",
      "delay": "—",
      "metarCat": "VFR",
      "metarRaw": "METAR KMDT 140056Z 13011G20KT 10SM OVC100 08/00 A2967 RMK AO2 SLP049 T00780000 $",
      "metarObsTime": 1773449760
    },
    "KCXY": {
      "status": "OK",
      "delay": "—",
      "metarCat": "VFR",
      "metarRaw": "METAR KCXY 140056Z 00000KT 10SM FEW070 OVC095 08/M01 A2969 RMK AO2 SLP056 T00781011",
      "metarObsTime": 1773449760
    },
    "KMUI": {
      "status": "OK",
      "delay": "—",
      "metarCat": "VFR",
      "metarRaw": "METAR KMUI 140055Z 16003KT 10SM FEW065 OVC100 07/00 A2968 RMK AO2A SLP057 T00730003",
      "metarObsTime": 1773449700
    },
    "KUNV": {
      "status": "OK",
      "delay": "—",
      "metarCat": "VFR",
      "metarRaw": "METAR KUNV 140053Z 32020G35KT 10SM SCT090 07/01 A2969",
      "metarObsTime": 1773449580
    },
    "KAOO": {
      "status": "OK",
      "delay": "—",
      "metarCat": "VFR",
      "metarRaw": "METAR KAOO 140053Z AUTO 27026G41KT 10SM SCT110 12/M13 A2966 RMK AO2 PK WND 28051/0023 RAB23E33 SLP052 P0000 T01171128",
      "metarObsTime": 1773449580
    },
    "KLNS": {
      "status": "OK",
      "delay": "—",
      "metarCat": "VFR",
      "metarRaw": "METAR KLNS 140053Z 15012G21KT 10SM FEW110 07/M01 A2969 RMK AO2 SLP058 T00671011",
      "metarObsTime": 1773449580
    },
    "KIPT": {
      "status": "OK",
      "delay": "—",
      "metarCat": "MVFR",
      "metarRaw": "METAR KIPT 140054Z VRB03KT 6SM RA BKN025 OVC034 05/02 A2971 RMK AO2 PK WND 15028/0028 WSHFT 2345 RAB16 SLP063 P0003 T00500017 $",
      "metarObsTime": 1773449640
    },
    "KPHL": {
      "status": "OK",
      "delay": "—",
      "metarCat": "VFR",
      "metarRaw": "METAR KPHL 140054Z 14009KT 10SM FEW250 06/M01 A2979 RMK AO2 SLP088 T00611011 $",
      "metarObsTime": 1773449640
    },
    "KABE": {
      "status": "OK",
      "delay": "—",
      "metarCat": "VFR",
      "metarRaw": "METAR KABE 140051Z 14010G18KT 10SM CLR 05/M04 A2973 RMK AO2 PRESFR SLP071 T00501039",
      "metarObsTime": 1773449460
    },
    "KAVP": {
      "status": "OK",
      "delay": "—",
      "metarCat": "VFR",
      "metarRaw": "METAR KAVP 140054Z 17009G28KT 130V220 10SM BKN060 BKN080 OVC100 05/M04 A2965 RMK AO2 PK WND 14035/0011 PRESRR SLP045 T00501039",
      "metarObsTime": 1773449640
    },
    "KHZL": {
      "status": "OK",
      "delay": "—",
      "metarCat": "VFR",
      "metarRaw": "METAR KHZL 140055Z AUTO 15008G25KT 100V180 10SM SCT036 BKN049 OVC085 04/M04 A2969 RMK AO2",
      "metarObsTime": 1773449700
    }
  }
}