{
  "generatedAt": "2026-04-17T04:00:55.841Z",
  "airports": {
    "KPIT": {
      "status": "OK",
      "delay": "—",
      "metarCat": "VFR",
      "metarRaw": "METAR KPIT 170351Z 23003KT 10SM SCT075 17/16 A2989 RMK AO2 SLP120 OCNL LTG DSNT N T01720156",
      "metarObsTime": 1776397860
    },
    "KAGC": {
      "status": "OK",
      "delay": "—",
      "metarCat": "VFR",
      "metarRaw": "METAR KAGC 170353Z 19006KT 10SM CLR 17/15 A2988 RMK AO2 SLP115 T01720150",
      "metarObsTime": 1776397980
    },
    "KLBE": {
      "status": "OK",
      "delay": "—",
      "metarCat": "VFR",
      "metarRaw": "METAR KLBE 170355Z AUTO 20006KT 10SM CLR 17/17 A2991 RMK AO2",
      "metarObsTime": 1776398100
    },
    "KJST": {
      "status": "OK",
      "delay": "—",
      "metarCat": "LIFR",
      "metarRaw": "METAR KJST 170354Z AUTO 21005KT 1/2SM FG SCT002 SCT024 BKN041 15/15 A2992 RMK AO2 RAE23 SLP120 P0000 T01500150",
      "metarObsTime": 1776398040
    },
    "KERI": {
      "status": "OK",
      "delay": "—",
      "metarCat": "VFR",
      "metarRaw": "METAR KERI 170351Z 23006KT 10SM FEW025 BKN050 BKN110 16/13 A2986 RMK AO2 SLP110 T01610128 $",
      "metarObsTime": 1776397860
    },
    "KDUJ": {
      "status": "OK",
      "delay": "—",
      "metarCat": "IFR",
      "metarRaw": "SPECI KDUJ 170356Z AUTO 18003KT 1 1/4SM BR FEW002 SCT090 13/13 A2989 RMK AO2 VIS 1/2V5 T01330133",
      "metarObsTime": 1776398160
    },
    "KBFD": {
      "status": "OK",
      "delay": "—",
      "metarCat": "MVFR",
      "metarRaw": "METAR KBFD 170353Z AUTO 00000KT 10SM BKN027 BKN035 12/12 A2989 RMK AO2 SLP112 T01170117",
      "metarObsTime": 1776397980
    },
    "KBTP": {
      "status": "OK",
      "delay": "—",
      "metarCat": "MVFR",
      "metarRaw": "METAR KBTP 170356Z AUTO 00000KT 4SM TSRA FEW004 SCT014 OVC055 16/ A2991 RMK AO2 TSB56RAB38 SLP126 T0156 402720150 PNO $",
      "metarObsTime": 1776398160
    },
    "KFKL": {
      "status": "OK",
      "delay": "—",
      "metarCat": "—",
      "metarRaw": "—",
      "metarObsTime": null
    },
    "KIDI": {
      "status": "OK",
      "delay": "—",
      "metarCat": "IFR",
      "metarRaw": "METAR KIDI 170355Z AUTO 18004KT 2SM BR BKN006 BKN029 OVC047 16/16 A2991 RMK A01 P0002",
      "metarObsTime": 1776398100
    },
    "KMDT": {
      "status": "OK",
      "delay": "—",
      "metarCat": "VFR",
      "metarRaw": "METAR KMDT 170356Z 30018G28KT 10SM OVC100 22/14 A2983 RMK AO2 PK WND 32038/0318 SLP098 VCSH SW-N T02170144",
      "metarObsTime": 1776398160
    },
    "KCXY": {
      "status": "OK",
      "delay": "—",
      "metarCat": "VFR",
      "metarRaw": "METAR KCXY 170356Z AUTO 31011G18KT 10SM OVC110 21/15 A2984 RMK AO2 PK WND 29036/0259 RAE29 SLP103 P0000 T02110150 $",
      "metarObsTime": 1776398160
    },
    "KMUI": {
      "status": "OK",
      "delay": "—",
      "metarCat": "VFR",
      "metarRaw": "SPECI KMUI 170330Z AUTO 28026G32KT 10SM -RA OVC110 23/16 A2981 RMK AO2 LTG DSNT W RAB30 SLP093",
      "metarObsTime": 1776396600
    },
    "KUNV": {
      "status": "OK",
      "delay": "—",
      "metarCat": "VFR",
      "metarRaw": "METAR KUNV 170355Z AUTO 23003KT 10SM SCT100 OVC120 16/16 A2988 RMK AO2 T01630158",
      "metarObsTime": 1776398100
    },
    "KAOO": {
      "status": "OK",
      "delay": "—",
      "metarCat": "VFR",
      "metarRaw": "METAR KAOO 170353Z AUTO 00000KT 10SM SCT055 BKN075 16/16 A2990 RMK AO2 RAB0258E51 SLP115 P0003 T01610156",
      "metarObsTime": 1776397980
    },
    "KLNS": {
      "status": "OK",
      "delay": "—",
      "metarCat": "VFR",
      "metarRaw": "METAR KLNS 170353Z AUTO 31018G32KT 10SM BKN110 23/13 A2982 RMK AO2 PK WND 31032/0347 SLP094 T02330133 $",
      "metarObsTime": 1776397980
    },
    "KIPT": {
      "status": "OK",
      "delay": "—",
      "metarCat": "VFR",
      "metarRaw": "METAR KIPT 170354Z AUTO 28006KT 10SM FEW065 BKN100 OVC110 19/16 A2983 RMK AO2 RAB03E40 SLP099 P0000 T01890156 $",
      "metarObsTime": 1776398040
    },
    "KPHL": {
      "status": "OK",
      "delay": "—",
      "metarCat": "VFR",
      "metarRaw": "METAR KPHL 170354Z 22010KT 10SM SCT100 BKN130 26/14 A2974 RMK AO2 SLP070 T02560139 $",
      "metarObsTime": 1776398040
    },
    "KABE": {
      "status": "OK",
      "delay": "—",
      "metarCat": "VFR",
      "metarRaw": "METAR KABE 170351Z 26005KT 10SM -RA FEW046 FEW075 OVC090 19/17 A2979 RMK AO2 LTG DSNT NE TSE14 SLP083 P0013 T01940167",
      "metarObsTime": 1776397860
    },
    "KAVP": {
      "status": "OK",
      "delay": "—",
      "metarCat": "VFR",
      "metarRaw": "METAR KAVP 170354Z AUTO 30005KT 10SM FEW044 BKN100 20/14 A2984 RMK AO2 SLP095 T02000139",
      "metarObsTime": 1776398040
    },
    "KHZL": {
      "status": "OK",
      "delay": "—",
      "metarCat": "VFR",
      "metarRaw": "METAR KHZL 170355Z AUTO 00000KT 10SM -VCTSRA SCT037 SCT050 OVC100 19/13 A2990 RMK AO2 LTG DSNT E",
      "metarObsTime": 1776398100
    }
  }
}