{
  "generatedAt": "2026-04-20T06:40:55.355Z",
  "airports": {
    "KPIT": {
      "status": "OK",
      "delay": "—",
      "metarCat": "MVFR",
      "metarRaw": "SPECI KPIT 200609Z 34009KT 10SM -RA BKN017 BKN045 OVC060 04/01 A3013 RMK AO2 RAB08 P0000 T00390006 $",
      "metarObsTime": 1776665340
    },
    "KAGC": {
      "status": "OK",
      "delay": "—",
      "metarCat": "VFR",
      "metarRaw": "METAR KAGC 200553Z 27009G17KT 10SM SCT050 SCT075 OVC100 04/M01 A3011 RMK AO2 SLP207 60000 T00441006 10078 20039 53002",
      "metarObsTime": 1776664380
    },
    "KLBE": {
      "status": "OK",
      "delay": "—",
      "metarCat": "VFR",
      "metarRaw": "METAR KLBE 200635Z AUTO 23008G14KT 10SM FEW024 FEW032 SCT042 04/01 A3013 RMK AO2",
      "metarObsTime": 1776666900
    },
    "KJST": {
      "status": "OK",
      "delay": "—",
      "metarCat": "MVFR",
      "metarRaw": "SPECI KJST 200632Z AUTO 28013G22KT 10SM BKN025 BKN047 OVC070 02/M03 A3005 RMK AO2 T00221028",
      "metarObsTime": 1776666720
    },
    "KERI": {
      "status": "OK",
      "delay": "—",
      "metarCat": "VFR",
      "metarRaw": "SPECI KERI 200616Z AUTO 36010G18KT 10SM SCT025 OVC070 02/M05 A3018 RMK AO2 T00171050 $",
      "metarObsTime": 1776665760
    },
    "KDUJ": {
      "status": "OK",
      "delay": "—",
      "metarCat": "IFR",
      "metarRaw": "SPECI KDUJ 200630Z AUTO 27006KT 6SM -SN BR BKN005 BKN011 OVC047 00/M01 A3008 RMK AO2 P0000 T00001006 $",
      "metarObsTime": 1776666600
    },
    "KBFD": {
      "status": "OK",
      "delay": "—",
      "metarCat": "VFR",
      "metarRaw": "SPECI KBFD 200631Z AUTO 30005KT 10SM SCT014 BKN039 OVC049 00/M02 A3005 RMK AO2 T00001022",
      "metarObsTime": 1776666660
    },
    "KBTP": {
      "status": "OK",
      "delay": "—",
      "metarCat": "VFR",
      "metarRaw": "SPECI KBTP 200635Z AUTO 34004KT 10SM -RA SCT011 BKN042 OVC080 01/01 A3014 RMK AO2 RAB04UPB18E28 P0000 FZRANO $",
      "metarObsTime": 1776666900
    },
    "KFKL": {
      "status": "OK",
      "delay": "—",
      "metarCat": "—",
      "metarRaw": "—",
      "metarObsTime": null
    },
    "KIDI": {
      "status": "OK",
      "delay": "—",
      "metarCat": "MVFR",
      "metarRaw": "METAR KIDI 200635Z AUTO 32008G14KT 10SM SCT013 BKN030 OVC075 03/01 A3011 RMK A01",
      "metarObsTime": 1776666900
    },
    "KMDT": {
      "status": "OK",
      "delay": "—",
      "metarCat": "VFR",
      "metarRaw": "METAR KMDT 200556Z 30006KT 10SM FEW070 06/M01 A3011 RMK AO2 SLP198 T00611006 10106 20061 50001",
      "metarObsTime": 1776664560
    },
    "KCXY": {
      "status": "OK",
      "delay": "—",
      "metarCat": "VFR",
      "metarRaw": "METAR KCXY 200556Z AUTO 24003KT 10SM FEW070 03/M01 A3011 RMK AO2 SLP201 T00331006 10100 20033 50001 $",
      "metarObsTime": 1776664560
    },
    "KMUI": {
      "status": "OK",
      "delay": "—",
      "metarCat": "VFR",
      "metarRaw": "METAR KMUI 200555Z AUTO 27004KT 10SM FEW026 FEW032 BKN070 OVC080 08/M01 A3008 RMK AO2 SLP190 T00811009 10107 20037 50003",
      "metarObsTime": 1776664500
    },
    "KUNV": {
      "status": "OK",
      "delay": "—",
      "metarCat": "MVFR",
      "metarRaw": "METAR KUNV 200635Z AUTO 28003KT 10SM BKN019 BKN075 03/02 A3009 RMK AO2 T00250016",
      "metarObsTime": 1776666900
    },
    "KAOO": {
      "status": "OK",
      "delay": "—",
      "metarCat": "VFR",
      "metarRaw": "METAR KAOO 200553Z AUTO 00000KT 10SM BKN065 02/M01 A3008 RMK AO2 SLP196 60000 T00221011 10067 20022 58004",
      "metarObsTime": 1776664380
    },
    "KLNS": {
      "status": "OK",
      "delay": "—",
      "metarCat": "VFR",
      "metarRaw": "METAR KLNS 200553Z AUTO 26004KT 10SM CLR 04/M02 A3011 RMK AO2 SLP197 T00441017 10094 20033 50001",
      "metarObsTime": 1776664380
    },
    "KIPT": {
      "status": "OK",
      "delay": "—",
      "metarCat": "VFR",
      "metarRaw": "METAR KIPT 200554Z AUTO 25005KT 10SM BKN043 OVC060 02/M01 A3010 RMK AO2 SLP194 T00171006 10072 20006 51010 $",
      "metarObsTime": 1776664440
    },
    "KPHL": {
      "status": "OK",
      "delay": "—",
      "metarCat": "VFR",
      "metarRaw": "METAR KPHL 200554Z 36003KT 10SM FEW110 07/M01 A3012 RMK AO2 SLP200 T00671011 10106 20056 50003 $",
      "metarObsTime": 1776664440
    },
    "KABE": {
      "status": "OK",
      "delay": "—",
      "metarCat": "VFR",
      "metarRaw": "METAR KABE 200551Z 00000KT 10SM CLR 02/01 A3010 RMK AO2 SLP195 T00170006 10072 20017 50003 $",
      "metarObsTime": 1776664260
    },
    "KAVP": {
      "status": "OK",
      "delay": "—",
      "metarCat": "VFR",
      "metarRaw": "METAR KAVP 200554Z 00000KT 10SM CLR M01/M02 A3007 RMK AO2 SLP187 T10061017 10056 21006 50001",
      "metarObsTime": 1776664440
    },
    "KHZL": {
      "status": "OK",
      "delay": "—",
      "metarCat": "VFR",
      "metarRaw": "METAR KHZL 200635Z AUTO 00000KT 10SM SCT065 OVC100 M01/M03 A3008 RMK AO2",
      "metarObsTime": 1776666900
    }
  }
}