{
  "generatedAt": "2026-05-08T21:46:07.184Z",
  "faaFlow": {
    "updatedAt": "2026-05-08T21:46:05.954Z",
    "source": "https://www.fly.faa.gov/adv/adv_spt",
    "terminal": [
      {
        "time": "—",
        "text": "AFTER",
        "code": "FLOW",
        "label": "FAA flow impact",
        "level": "yellow",
        "section": "Terminal Planned",
        "airports": []
      },
      {
        "time": "2200",
        "text": "MCO GROUND STOP POSSIBLE",
        "code": "GS",
        "label": "Ground stop possible",
        "level": "yellow",
        "section": "Terminal Planned",
        "airports": []
      }
    ],
    "enroute": [
      {
        "time": "—",
        "text": "UNTIL",
        "code": "FLOW",
        "label": "FAA flow impact",
        "level": "yellow",
        "section": "En Route Planned",
        "airports": []
      },
      {
        "time": "0200",
        "text": "ORD/MDW CDRS/SWAP/ARRIVAL ROUTES POSSIBLE",
        "code": "ROUTE",
        "label": "Route impact possible",
        "level": "blue",
        "section": "En Route Planned",
        "airports": []
      },
      {
        "time": "—",
        "text": "UNTIL",
        "code": "FLOW",
        "label": "FAA flow impact",
        "level": "yellow",
        "section": "En Route Planned",
        "airports": []
      },
      {
        "time": "0200",
        "text": "DFW/DAL ARRIVAL ROUTES POSSIBLE CDRS/SWAP/CAPPING/TUNNELING/HOTLINE/DIVERSION RECOVERY:",
        "code": "ROUTE",
        "label": "Route impact possible",
        "level": "blue",
        "section": "En Route Planned",
        "airports": []
      },
      {
        "time": "—",
        "text": "UNTIL",
        "code": "FLOW",
        "label": "FAA flow impact",
        "level": "yellow",
        "section": "En Route Planned",
        "airports": []
      },
      {
        "time": "0200",
        "text": "TEXAS HOTLINE",
        "code": "FLOW",
        "label": "FAA flow impact",
        "level": "yellow",
        "section": "En Route Planned",
        "airports": []
      },
      {
        "time": "—",
        "text": "UNTIL",
        "code": "FLOW",
        "label": "FAA flow impact",
        "level": "yellow",
        "section": "En Route Planned",
        "airports": []
      },
      {
        "time": "0200",
        "text": "MSY DIVERSION RECOVERY",
        "code": "FLOW",
        "label": "FAA flow impact",
        "level": "yellow",
        "section": "En Route Planned",
        "airports": []
      },
      {
        "time": "—",
        "text": "UNTIL",
        "code": "FLOW",
        "label": "FAA flow impact",
        "level": "yellow",
        "section": "En Route Planned",
        "airports": []
      },
      {
        "time": "0400",
        "text": "ZFW SWAP STATEMENT",
        "code": "ROUTE",
        "label": "Route impact possible",
        "level": "blue",
        "section": "En Route Planned",
        "airports": []
      },
      {
        "time": "—",
        "text": "UNTIL",
        "code": "FLOW",
        "label": "FAA flow impact",
        "level": "yellow",
        "section": "En Route Planned",
        "airports": []
      },
      {
        "time": "0400",
        "text": "DFW/DAL CDRS RUNWAY/EQUIPMENT/POSSIBLE SYSTEM IMPACT REPORTS(SIRs): SEA - RWY 16C/34C CLOSED UNTIL 05/13/",
        "code": "CLOSURE",
        "label": "Closure possible",
        "level": "yellow",
        "section": "En Route Planned",
        "airports": []
      },
      {
        "time": "2026",
        "text": "SAN - CONSTRUCTION PHASE 5.2 UNTIL 05/26/26",
        "code": "FLOW",
        "label": "FAA flow impact",
        "level": "yellow",
        "section": "En Route Planned",
        "airports": []
      }
    ],
    "airports": {
      "KPIT": null,
      "KAGC": null,
      "KLBE": null,
      "KJST": null,
      "KERI": null,
      "KDUJ": null,
      "KBFD": null,
      "KBTP": null,
      "KFKL": null,
      "KIDI": null,
      "KMDT": null,
      "KCXY": null,
      "KMUI": null,
      "KUNV": null,
      "KAOO": null,
      "KLNS": null,
      "KIPT": null,
      "KPHL": null,
      "KABE": null,
      "KAVP": null,
      "KHZL": null
    }
  },
  "airports": {
    "KPIT": {
      "status": "OK",
      "delay": "—",
      "metarCat": "VFR",
      "metarRaw": "METAR KPIT 082051Z VRB04KT 10SM -RA FEW032 BKN060 OVC090 13/07 A2985 RMK AO2 SLP119 P0001 60002 T01330072 58015",
      "metarObsTime": 1778273460,
      "faaFlow": null
    },
    "KAGC": {
      "status": "OK",
      "delay": "—",
      "metarCat": "VFR",
      "metarRaw": "METAR KAGC 082053Z 24005KT 10SM OVC095 13/06 A2986 RMK AO2 RAE19 SLP118 P0000 60000 T01330056 58013",
      "metarObsTime": 1778273580,
      "faaFlow": null
    },
    "KLBE": {
      "status": "OK",
      "delay": "—",
      "metarCat": "VFR",
      "metarRaw": "METAR KLBE 082047Z 24010G18KT 10SM SCT060 OVC080 14/07 A2989",
      "metarObsTime": 1778273220,
      "faaFlow": null
    },
    "KJST": {
      "status": "OK",
      "delay": "—",
      "metarCat": "VFR",
      "metarRaw": "METAR KJST 082054Z AUTO 25011G19KT 10SM -RA OVC042 11/03 A2988 RMK AO2 PK WND 24027/2019 RAB27 SLP125 P0000 60001 T01060033 56003",
      "metarObsTime": 1778273640,
      "faaFlow": null
    },
    "KERI": {
      "status": "OK",
      "delay": "—",
      "metarCat": "VFR",
      "metarRaw": "METAR KERI 082051Z 33003KT 10SM CLR 12/01 A2983 RMK AO2 SLP104 T01220006 56016",
      "metarObsTime": 1778273460,
      "faaFlow": null
    },
    "KDUJ": {
      "status": "OK",
      "delay": "—",
      "metarCat": "VFR",
      "metarRaw": "METAR KDUJ 082053Z AUTO 23009G16KT 10SM FEW047 BKN075 OVC090 09/07 A2984 RMK AO2 RAE01 SLP112 P0000 60005 T00940072 56008",
      "metarObsTime": 1778273580,
      "faaFlow": null
    },
    "KBFD": {
      "status": "OK",
      "delay": "—",
      "metarCat": "VFR",
      "metarRaw": "METAR KBFD 082053Z AUTO 30011G18KT 10SM SCT060 SCT080 13/02 A2980 RMK AO2 SLP098 T01280017 58017",
      "metarObsTime": 1778273580,
      "faaFlow": null
    },
    "KBTP": {
      "status": "OK",
      "delay": "—",
      "metarCat": "VFR",
      "metarRaw": "METAR KBTP 082056Z AUTO 21004KT 10SM -RA OVC060 11/08 A2987 RMK AO2 SLP125 P0000 60000 T01060083 58003 $",
      "metarObsTime": 1778273760,
      "faaFlow": null
    },
    "KFKL": {
      "status": "OK",
      "delay": "—",
      "metarCat": "VFR",
      "metarRaw": "SPECI KFKL 082123Z AUTO 24010G18KT 10SM -RA SCT029 BKN048 OVC055 11/07 A2984 RMK AO2 P0000",
      "metarObsTime": 1778275380,
      "faaFlow": null
    },
    "KIDI": {
      "status": "OK",
      "delay": "—",
      "metarCat": "VFR",
      "metarRaw": "METAR KIDI 082135Z AUTO 23006G11KT 10SM FEW050 BKN070 OVC090 12/07 A2987 RMK A01",
      "metarObsTime": 1778276100,
      "faaFlow": null
    },
    "KMDT": {
      "status": "OK",
      "delay": "—",
      "metarCat": "VFR",
      "metarRaw": "METAR KMDT 082056Z 27009KT 10SM OVC085 18/02 A2984 RMK AO2 SLP105 60000 T01830017 55014",
      "metarObsTime": 1778273760,
      "faaFlow": null
    },
    "KCXY": {
      "status": "OK",
      "delay": "—",
      "metarCat": "VFR",
      "metarRaw": "METAR KCXY 082056Z 26014G18KT 10SM OVC090 18/01 A2984 RMK AO2 SLP107 T01780006 56014",
      "metarObsTime": 1778273760,
      "faaFlow": null
    },
    "KMUI": {
      "status": "OK",
      "delay": "—",
      "metarCat": "VFR",
      "metarRaw": "METAR KMUI 082055Z 28003KT 10SM BKN075 OVC090 23/07 A2982 RMK AO2A SLP100 60000 T02270072 57016",
      "metarObsTime": 1778273700,
      "faaFlow": null
    },
    "KUNV": {
      "status": "OK",
      "delay": "—",
      "metarCat": "VFR",
      "metarRaw": "METAR KUNV 082053Z 26012G17KT 10SM -RA BKN060 11/07 A2987",
      "metarObsTime": 1778273580,
      "faaFlow": null
    },
    "KAOO": {
      "status": "OK",
      "delay": "—",
      "metarCat": "VFR",
      "metarRaw": "METAR KAOO 082053Z AUTO 25010KT 10SM OVC085 14/04 A2987 RMK AO2 RAE08 SLP118 P0000 60001 T01390039 58004",
      "metarObsTime": 1778273580,
      "faaFlow": null
    },
    "KLNS": {
      "status": "OK",
      "delay": "—",
      "metarCat": "VFR",
      "metarRaw": "METAR KLNS 082053Z 24016G24KT 10SM OVC085 18/02 A2984 RMK AO2 SLP104 T01780022 58013",
      "metarObsTime": 1778273580,
      "faaFlow": null
    },
    "KIPT": {
      "status": "OK",
      "delay": "—",
      "metarCat": "VFR",
      "metarRaw": "METAR KIPT 082054Z 21005KT 10SM FEW043 SCT090 SCT110 13/08 A2983 RMK AO2 RAB28E41 SLP102 P0001 60004 T01330078 56017",
      "metarObsTime": 1778273640,
      "faaFlow": null
    },
    "KPHL": {
      "status": "OK",
      "delay": "—",
      "metarCat": "VFR",
      "metarRaw": "METAR KPHL 082054Z 28016G22KT 10SM SCT085 BKN100 21/01 A2986 RMK AO2 PK WND 26030/1956 SLP110 T02110006 56015",
      "metarObsTime": 1778273640,
      "faaFlow": null
    },
    "KABE": {
      "status": "OK",
      "delay": "—",
      "metarCat": "VFR",
      "metarRaw": "METAR KABE 082051Z 24005KT 10SM BKN100 16/04 A2985 RMK AO2 SLP110 60000 T01610039 58005",
      "metarObsTime": 1778273460,
      "faaFlow": null
    },
    "KAVP": {
      "status": "OK",
      "delay": "—",
      "metarCat": "VFR",
      "metarRaw": "METAR KAVP 082054Z 00000KT 10SM FEW065 BKN090 BKN100 11/05 A2987 RMK AO2 RAE20 SLP117 P0002 60002 T01110050 58010",
      "metarObsTime": 1778273640,
      "faaFlow": null
    },
    "KHZL": {
      "status": "OK",
      "delay": "—",
      "metarCat": "VFR",
      "metarRaw": "METAR KHZL 082135Z AUTO 31003KT 10SM SCT075 OVC100 12/04 A2989 RMK AO2",
      "metarObsTime": 1778276100,
      "faaFlow": null
    }
  }
}