{
  "generatedAt": "2026-03-10T16:30:15.398Z",
  "airports": {
    "KPIT": {
      "status": "OK",
      "delay": "—",
      "metarCat": "VFR",
      "metarRaw": "SPECI KPIT 101604Z 21010KT 10SM SCT028 OVC038 19/11 A3001 RMK AO2 T01890111",
      "metarObsTime": 1773158640
    },
    "KAGC": {
      "status": "OK",
      "delay": "—",
      "metarCat": "VFR",
      "metarRaw": "SPECI KAGC 101621Z 24012G17KT 10SM OVC031 19/11 A3001 RMK AO2 T01940111",
      "metarObsTime": 1773159660
    },
    "KLBE": {
      "status": "OK",
      "delay": "—",
      "metarCat": "VFR",
      "metarRaw": "METAR KLBE 101555Z 21017KT 10SM BKN031 BKN045 21/13 A3005",
      "metarObsTime": 1773158100
    },
    "KJST": {
      "status": "OK",
      "delay": "—",
      "metarCat": "VFR",
      "metarRaw": "SPECI KJST 101624Z AUTO 23012G18KT 10SM OVC031 18/11 A3004 RMK AO2 T01830111",
      "metarObsTime": 1773159840
    },
    "KERI": {
      "status": "OK",
      "delay": "—",
      "metarCat": "MVFR",
      "metarRaw": "SPECI KERI 101617Z 21008KT 10SM OVC029 19/13 A2993 RMK AO2 T01940128",
      "metarObsTime": 1773159420
    },
    "KDUJ": {
      "status": "OK",
      "delay": "—",
      "metarCat": "MVFR",
      "metarRaw": "METAR KDUJ 101553Z AUTO 23010G18KT 10SM BKN020 OVC027 16/08 A3002 RMK AO2 SLP162 T01610078",
      "metarObsTime": 1773157980
    },
    "KBFD": {
      "status": "OK",
      "delay": "—",
      "metarCat": "VFR",
      "metarRaw": "METAR KBFD 101553Z AUTO 22010G19KT 10SM SCT020 16/09 A3000 RMK AO2 SLP154 T01610089",
      "metarObsTime": 1773157980
    },
    "KBTP": {
      "status": "OK",
      "delay": "—",
      "metarCat": "VFR",
      "metarRaw": "SPECI KBTP 101622Z AUTO 21008KT 10SM SCT024 SCT031 OVC043 19/13 A3001 RMK AO2 $",
      "metarObsTime": 1773159720
    },
    "KFKL": {
      "status": "OK",
      "delay": "—",
      "metarCat": "VFR",
      "metarRaw": "METAR KFKL 101556Z AUTO 21011KT 10SM SCT055 18/11 A3000 RMK AO2 SLP157 T01830111",
      "metarObsTime": 1773158160
    },
    "KIDI": {
      "status": "OK",
      "delay": "—",
      "metarCat": "MVFR",
      "metarRaw": "METAR KIDI 101615Z AUTO 22011KT 10SM OVC024 18/11 A3004 RMK A01",
      "metarObsTime": 1773159300
    },
    "KMDT": {
      "status": "OK",
      "delay": "—",
      "metarCat": "VFR",
      "metarRaw": "METAR KMDT 101556Z 17003KT 10SM FEW250 15/05 A3001 RMK AO2 SLP165 T01500050",
      "metarObsTime": 1773158160
    },
    "KCXY": {
      "status": "OK",
      "delay": "—",
      "metarCat": "VFR",
      "metarRaw": "METAR KCXY 101556Z 00000KT 10SM CLR 18/06 A3002 RMK AO2 SLP167 T01830056",
      "metarObsTime": 1773158160
    },
    "KMUI": {
      "status": "OK",
      "delay": "—",
      "metarCat": "VFR",
      "metarRaw": "METAR KMUI 101555Z 22004KT 10SM FEW050 SCT250 23/09 A3001 RMK AO2A SLP165 T02250086",
      "metarObsTime": 1773158100
    },
    "KUNV": {
      "status": "OK",
      "delay": "—",
      "metarCat": "VFR",
      "metarRaw": "METAR KUNV 101553Z 24015G21KT 10SM BKN045 21/11 A3001",
      "metarObsTime": 1773157980
    },
    "KAOO": {
      "status": "OK",
      "delay": "—",
      "metarCat": "—",
      "metarRaw": "—",
      "metarObsTime": null
    },
    "KLNS": {
      "status": "OK",
      "delay": "—",
      "metarCat": "VFR",
      "metarRaw": "METAR KLNS 101553Z VRB03KT 10SM CLR 20/09 A3003 RMK AO2 SLP167 T02000094",
      "metarObsTime": 1773157980
    },
    "KIPT": {
      "status": "OK",
      "delay": "—",
      "metarCat": "VFR",
      "metarRaw": "METAR KIPT 101554Z 15003KT 10SM CLR 14/04 A3000 RMK AO2 SLP160 T01390039 $",
      "metarObsTime": 1773158040
    },
    "KPHL": {
      "status": "OK",
      "delay": "—",
      "metarCat": "VFR",
      "metarRaw": "METAR KPHL 101554Z 21004KT 10SM FEW050 BKN280 21/10 A3005 RMK AO2 SLP175 T02110100 $",
      "metarObsTime": 1773158040
    },
    "KABE": {
      "status": "OK",
      "delay": "—",
      "metarCat": "—",
      "metarRaw": "METAR KABE 101551Z 20004KT 10SM 19/06 A3003 RMK AO2 SLP170 T01890061 $",
      "metarObsTime": 1773157860
    },
    "KAVP": {
      "status": "OK",
      "delay": "—",
      "metarCat": "VFR",
      "metarRaw": "METAR KAVP 101554Z 25007KT 10SM CLR 20/03 A3000 RMK AO2 SLP157 T02000033",
      "metarObsTime": 1773158040
    },
    "KHZL": {
      "status": "OK",
      "delay": "—",
      "metarCat": "VFR",
      "metarRaw": "METAR KHZL 101615Z AUTO 19003KT 10SM BKN039 23/05 A3005 RMK AO2",
      "metarObsTime": 1773159300
    }
  }
}