{
  "generatedAt": "2026-03-12T16:10:13.949Z",
  "airports": {
    "KPIT": {
      "status": "OK",
      "delay": "—",
      "metarCat": "VFR",
      "metarRaw": "METAR KPIT 121551Z 32014KT 10SM FEW030 BKN200 02/M07 A3003 RMK AO2 SLP183 T00171072 $",
      "metarObsTime": 1773330660
    },
    "KAGC": {
      "status": "OK",
      "delay": "—",
      "metarCat": "VFR",
      "metarRaw": "METAR KAGC 121553Z 33012G20KT 10SM SCT035 01/M06 A3001 RMK AO2 PK WND 30026/1516 SLP172 T00111061",
      "metarObsTime": 1773330780
    },
    "KLBE": {
      "status": "OK",
      "delay": "—",
      "metarCat": "VFR",
      "metarRaw": "METAR KLBE 121552Z 28013KT 10SM SCT034 BKN085 BKN100 02/M05 A3002",
      "metarObsTime": 1773330720
    },
    "KJST": {
      "status": "OK",
      "delay": "—",
      "metarCat": "MVFR",
      "metarRaw": "METAR KJST 121554Z AUTO 30013KT 10SM BKN018 OVC026 M02/M05 A2991 RMK AO2 PK WND 31029/1501 SLP140 T10221050",
      "metarObsTime": 1773330840
    },
    "KERI": {
      "status": "OK",
      "delay": "—",
      "metarCat": "VFR",
      "metarRaw": "METAR KERI 121551Z 28014G24KT 10SM SCT021 00/M06 A3007 RMK AO2 PK WND 27027/1522 SLP190 T00001056",
      "metarObsTime": 1773330660
    },
    "KDUJ": {
      "status": "OK",
      "delay": "—",
      "metarCat": "MVFR",
      "metarRaw": "METAR KDUJ 121553Z AUTO 30010G18KT 10SM OVC024 M01/M06 A2994 RMK AO2 SLP146 T10111061",
      "metarObsTime": 1773330780
    },
    "KBFD": {
      "status": "OK",
      "delay": "—",
      "metarCat": "MVFR",
      "metarRaw": "METAR KBFD 121553Z AUTO 29013G24KT 10SM OVC023 M03/M07 A2991 RMK AO2 SLP143 T10281072",
      "metarObsTime": 1773330780
    },
    "KBTP": {
      "status": "OK",
      "delay": "—",
      "metarCat": "VFR",
      "metarRaw": "METAR KBTP 121556Z AUTO 31013G19KT 10SM CLR 01/M04 A3002 RMK AO2 SLP182 T00111044 FZRANO $",
      "metarObsTime": 1773330960
    },
    "KFKL": {
      "status": "OK",
      "delay": "—",
      "metarCat": "VFR",
      "metarRaw": "SPECI KFKL 121603Z AUTO 33008G16KT 10SM SCT026 A3001 RMK AO2 FZRANO $",
      "metarObsTime": 1773331380
    },
    "KIDI": {
      "status": "OK",
      "delay": "—",
      "metarCat": "—",
      "metarRaw": "—",
      "metarObsTime": null
    },
    "KMDT": {
      "status": "OK",
      "delay": "—",
      "metarCat": "VFR",
      "metarRaw": "METAR KMDT 121556Z 31014G22KT 10SM FEW036 BKN050 OVC065 04/M03 A2990 RMK AO2 SLP127 T00391028 $",
      "metarObsTime": 1773330960
    },
    "KCXY": {
      "status": "OK",
      "delay": "—",
      "metarCat": "VFR",
      "metarRaw": "METAR KCXY 121556Z 32014G21KT 10SM BKN060 OVC080 04/M04 A2991 RMK AO2 SLP131 T00391044",
      "metarObsTime": 1773330960
    },
    "KMUI": {
      "status": "OK",
      "delay": "—",
      "metarCat": "VFR",
      "metarRaw": "METAR KMUI 121555Z 30007G24KT 10SM VCSH SCT036 OVC060 04/M03 A2987 RMK AO2A SLP119 T00371031",
      "metarObsTime": 1773330900
    },
    "KUNV": {
      "status": "OK",
      "delay": "—",
      "metarCat": "VFR",
      "metarRaw": "METAR KUNV 121553Z 30010G16 10SM OVC031 01/M06 A2993",
      "metarObsTime": 1773330780
    },
    "KAOO": {
      "status": "OK",
      "delay": "—",
      "metarCat": "MVFR",
      "metarRaw": "METAR KAOO 121553Z AUTO 32013KT 10SM OVC029 00/M06 A2994 RMK AO2 SLP145 T00001056",
      "metarObsTime": 1773330780
    },
    "KLNS": {
      "status": "OK",
      "delay": "—",
      "metarCat": "VFR",
      "metarRaw": "METAR KLNS 121553Z 32013G22KT 10SM FEW033 BKN050 OVC065 03/M02 A2987 RMK AO2 RAB00E09 SLP117 P0000 T00331017 $",
      "metarObsTime": 1773330780
    },
    "KIPT": {
      "status": "OK",
      "delay": "—",
      "metarCat": "VFR",
      "metarRaw": "METAR KIPT 121554Z 30015G23KT 10SM SCT044 BKN120 03/M06 A2990 RMK AO2 SLP126 T00331056 $",
      "metarObsTime": 1773330840
    },
    "KPHL": {
      "status": "OK",
      "delay": "—",
      "metarCat": "VFR",
      "metarRaw": "METAR KPHL 121554Z 33013G26KT 10SM -RA SCT020 BKN040 OVC070 06/02 A2985 RMK AO2 PK WND 32027/1525 PRESFR SLP107 P0000 T00610022 $",
      "metarObsTime": 1773330840
    },
    "KABE": {
      "status": "OK",
      "delay": "—",
      "metarCat": "VFR",
      "metarRaw": "METAR KABE 121551Z 30013G20KT 10SM BKN055 OVC070 04/M03 A2986 RMK AO2 PK WND 31032/1503 SLP114 T00441028 $",
      "metarObsTime": 1773330660
    },
    "KAVP": {
      "status": "OK",
      "delay": "—",
      "metarCat": "VFR",
      "metarRaw": "METAR KAVP 121554Z AUTO 33015G23KT 10SM BKN035 BKN075 OVC090 02/M05 A2985 RMK AO2 PK WND 33026/1508 SLP107 T00171050",
      "metarObsTime": 1773330840
    },
    "KHZL": {
      "status": "OK",
      "delay": "—",
      "metarCat": "VFR",
      "metarRaw": "METAR KHZL 121555Z AUTO 30005KT 10SM SCT031 SCT047 OVC060 01/M04 A2985 RMK AO2",
      "metarObsTime": 1773330900
    }
  }
}