{
  "generatedAt": "2026-03-07T13:20:11.627Z",
  "airports": {
    "KPIT": {
      "status": "OK",
      "delay": "—",
      "metarCat": "VFR",
      "metarRaw": "METAR KPIT 071251Z 20008KT 10SM BKN042 BKN075 BKN200 19/12 A2999 RMK AO2 SLP157 T01890117",
      "metarObsTime": 1772887860
    },
    "KAGC": {
      "status": "OK",
      "delay": "—",
      "metarCat": "VFR",
      "metarRaw": "METAR KAGC 071253Z 18008KT 10SM FEW055 SCT080 18/11 A3000 RMK AO2 SLP158 T01830111",
      "metarObsTime": 1772887980
    },
    "KLBE": {
      "status": "OK",
      "delay": "—",
      "metarCat": "VFR",
      "metarRaw": "METAR KLBE 071247Z 21010G19KT 10SM FEW040 SCT065 19/13 A3004",
      "metarObsTime": 1772887620
    },
    "KJST": {
      "status": "OK",
      "delay": "—",
      "metarCat": "VFR",
      "metarRaw": "METAR KJST 071254Z AUTO 19007KT 10SM FEW042 SCT075 12/09 A3007 RMK AO2 SLP183 T01220089",
      "metarObsTime": 1772888040
    },
    "KERI": {
      "status": "OK",
      "delay": "—",
      "metarCat": "VFR",
      "metarRaw": "METAR KERI 071251Z 20013G20KT 10SM BKN060 OVC075 18/13 A2988 RMK AO2 SLP116 T01780133 $",
      "metarObsTime": 1772887860
    },
    "KDUJ": {
      "status": "OK",
      "delay": "—",
      "metarCat": "VFR",
      "metarRaw": "METAR KDUJ 071253Z AUTO 12004KT 10SM SCT046 BKN060 OVC100 09/08 A3002 RMK AO2 SLP165 T00890078",
      "metarObsTime": 1772887980
    },
    "KBFD": {
      "status": "OK",
      "delay": "—",
      "metarCat": "VFR",
      "metarRaw": "METAR KBFD 071253Z AUTO 15008KT 9SM BKN039 BKN055 BKN100 08/08 A3002 RMK AO2 RAB27E39 SLP164 P0001 T00830078",
      "metarObsTime": 1772887980
    },
    "KBTP": {
      "status": "OK",
      "delay": "—",
      "metarCat": "VFR",
      "metarRaw": "METAR KBTP 071256Z AUTO 18007KT 10SM SCT042 BKN070 18/12 A3000 RMK AO2 SLP160 T01780122 $",
      "metarObsTime": 1772888160
    },
    "KFKL": {
      "status": "OK",
      "delay": "—",
      "metarCat": "VFR",
      "metarRaw": "METAR KFKL 071256Z AUTO 20007KT 10SM BKN041 OVC050 15/12 A2998 RMK AO2 SLP149 T01500122",
      "metarObsTime": 1772888160
    },
    "KIDI": {
      "status": "OK",
      "delay": "—",
      "metarCat": "VFR",
      "metarRaw": "METAR KIDI 071315Z AUTO 22007KT 10SM SCT037 BKN043 BKN050 17/12 A3003 RMK A01",
      "metarObsTime": 1772889300
    },
    "KMDT": {
      "status": "OK",
      "delay": "—",
      "metarCat": "LIFR",
      "metarRaw": "METAR KMDT 071256Z 16006KT 1SM R13/P6000FT BR OVC004 04/04 A3023 RMK AO2 SFC VIS 2 SLP239 T00440039",
      "metarObsTime": 1772888160
    },
    "KCXY": {
      "status": "OK",
      "delay": "—",
      "metarCat": "LIFR",
      "metarRaw": "METAR KCXY 071256Z 15005KT 3/4SM R08/P6000FT BR OVC005 04/04 A3023 RMK AO2 SLP240 T00440039",
      "metarObsTime": 1772888160
    },
    "KMUI": {
      "status": "OK",
      "delay": "—",
      "metarCat": "LIFR",
      "metarRaw": "METAR KMUI 071255Z AUTO 00000KT 1 1/4SM BR OVC002 04/04 A3021 RMK AO2 SLP236 T00420039",
      "metarObsTime": 1772888100
    },
    "KUNV": {
      "status": "OK",
      "delay": "—",
      "metarCat": "LIFR",
      "metarRaw": "METAR KUNV 071253Z 23005KT 1/2SM R24/P6000FT FG OVC003 06/06 A3013",
      "metarObsTime": 1772887980
    },
    "KAOO": {
      "status": "OK",
      "delay": "—",
      "metarCat": "LIFR",
      "metarRaw": "METAR KAOO 071253Z AUTO 19004KT 5SM BR OVC004 07/06 A3012 RMK AO2 SLP207 T00670061",
      "metarObsTime": 1772887980
    },
    "KLNS": {
      "status": "OK",
      "delay": "—",
      "metarCat": "LIFR",
      "metarRaw": "METAR KLNS 071253Z 17005KT 1 1/2SM BR OVC003 04/03 A3024 RMK AO2 SLP242 T00390033",
      "metarObsTime": 1772887980
    },
    "KIPT": {
      "status": "OK",
      "delay": "—",
      "metarCat": "IFR",
      "metarRaw": "SPECI KIPT 071301Z VRB06G18KT 2 1/2SM BR OVC007 05/04 A3016 RMK AO2 T00500039",
      "metarObsTime": 1772888460
    },
    "KPHL": {
      "status": "OK",
      "delay": "—",
      "metarCat": "LIFR",
      "metarRaw": "METAR KPHL 071254Z 00000KT 1 3/4SM BR OVC004 04/03 A3027 RMK AO2 DZE54 SLP249 CIG 003V005 P0000 T00440033 $",
      "metarObsTime": 1772888040
    },
    "KABE": {
      "status": "OK",
      "delay": "—",
      "metarCat": "LIFR",
      "metarRaw": "METAR KABE 071251Z 18003KT 3SM BR OVC004 03/02 A3024 RMK AO2 SLP244 T00280022",
      "metarObsTime": 1772887860
    },
    "KAVP": {
      "status": "OK",
      "delay": "—",
      "metarCat": "MVFR",
      "metarRaw": "METAR KAVP 071254Z VRB05KT 10SM OVC010 04/02 A3017 RMK AO2 SLP222 T00390017",
      "metarObsTime": 1772888040
    },
    "KHZL": {
      "status": "OK",
      "delay": "—",
      "metarCat": "LIFR",
      "metarRaw": "METAR KHZL 071315Z AUTO 15003KT 1/2SM -DZ OVC002 02/01 A3019 RMK AO2",
      "metarObsTime": 1772889300
    }
  }
}