{
  "generatedAt": "2026-04-04T02:50:36.705Z",
  "airports": {
    "KPIT": {
      "status": "OK",
      "delay": "—",
      "metarCat": "MVFR",
      "metarRaw": "SPECI KPIT 040206Z 31007KT 5SM -TSRA FEW009 BKN038CB OVC055 21/15 A3015 RMK AO2 OCNL LTGICCG OHD TS OHD MOV E P0000 T02060150 $",
      "metarObsTime": 1775268360
    },
    "KAGC": {
      "status": "OK",
      "delay": "—",
      "metarCat": "VFR",
      "metarRaw": "METAR KAGC 040153Z 23006KT 10SM CLR 21/14 A3014 RMK AO2 LTG DSNT NW SLP205 T02110144",
      "metarObsTime": 1775267580
    },
    "KLBE": {
      "status": "OK",
      "delay": "—",
      "metarCat": "VFR",
      "metarRaw": "METAR KLBE 040235Z AUTO 00000KT 10SM BKN050 BKN060 19/15 A3017 RMK AO2",
      "metarObsTime": 1775270100
    },
    "KJST": {
      "status": "OK",
      "delay": "—",
      "metarCat": "VFR",
      "metarRaw": "METAR KJST 040154Z AUTO 24006KT 10SM BKN042 19/13 A3018 RMK AO2 SLP213 T01890128",
      "metarObsTime": 1775267640
    },
    "KERI": {
      "status": "OK",
      "delay": "—",
      "metarCat": "VFR",
      "metarRaw": "METAR KERI 040151Z 31004KT 10SM CLR 12/08 A3017 RMK AO2 SLP217 T01170083",
      "metarObsTime": 1775267460
    },
    "KDUJ": {
      "status": "OK",
      "delay": "—",
      "metarCat": "VFR",
      "metarRaw": "METAR KDUJ 040153Z AUTO 23006KT 10SM BKN100 16/16 A3014 RMK AO2 SLP205 T01610156",
      "metarObsTime": 1775267580
    },
    "KBFD": {
      "status": "OK",
      "delay": "—",
      "metarCat": "VFR",
      "metarRaw": "METAR KBFD 040153Z AUTO 27005KT 10SM CLR 16/14 A3015 RMK AO2 SLP206 T01610144",
      "metarObsTime": 1775267580
    },
    "KBTP": {
      "status": "OK",
      "delay": "—",
      "metarCat": "VFR",
      "metarRaw": "METAR KBTP 040156Z AUTO 00000KT 10SM FEW041 BKN049 OVC085 17/ A3016 RMK AO2 LTG DSNT SW RAB28E39 SLP216 P0000 T0167 $",
      "metarObsTime": 1775267760
    },
    "KFKL": {
      "status": "OK",
      "delay": "—",
      "metarCat": "VFR",
      "metarRaw": "METAR KFKL 040156Z AUTO 28004KT 10SM -RA FEW040 OVC100 17/17 A3015 RMK AO2 SLP204 P0001 T01720167",
      "metarObsTime": 1775267760
    },
    "KIDI": {
      "status": "OK",
      "delay": "—",
      "metarCat": "VFR",
      "metarRaw": "METAR KIDI 040235Z AUTO 00000KT 10SM SCT047 BKN060 OVC070 17/15 A3017 RMK A01",
      "metarObsTime": 1775270100
    },
    "KMDT": {
      "status": "OK",
      "delay": "—",
      "metarCat": "VFR",
      "metarRaw": "METAR KMDT 040156Z 30004KT 7SM SCT120 SCT250 13/12 A3013 RMK AO2 SLP205 T01280117 $",
      "metarObsTime": 1775267760
    },
    "KCXY": {
      "status": "OK",
      "delay": "—",
      "metarCat": "VFR",
      "metarRaw": "METAR KCXY 040156Z AUTO 00000KT 9SM CLR 13/12 A3014 RMK AO2 SLP208 T01330122",
      "metarObsTime": 1775267760
    },
    "KMUI": {
      "status": "OK",
      "delay": "—",
      "metarCat": "VFR",
      "metarRaw": "METAR KMUI 040155Z 00000KT 7SM BKN250 13/12 A3012 RMK AO2A SLP204 T01260123",
      "metarObsTime": 1775267700
    },
    "KUNV": {
      "status": "OK",
      "delay": "—",
      "metarCat": "IFR",
      "metarRaw": "METAR KUNV 040235Z AUTO 20003KT 1 1/2SM BR OVC100 17/17 A3015 RMK AO2 VIS 1/2V5 T01670166",
      "metarObsTime": 1775270100
    },
    "KAOO": {
      "status": "OK",
      "delay": "—",
      "metarCat": "VFR",
      "metarRaw": "METAR KAOO 040153Z AUTO 22009KT 10SM SCT055 20/13 A3017 RMK AO2 SLP213 T02000128",
      "metarObsTime": 1775267580
    },
    "KLNS": {
      "status": "OK",
      "delay": "—",
      "metarCat": "VFR",
      "metarRaw": "METAR KLNS 040153Z 00000KT 7SM CLR 15/14 A3013 RMK AO2 SLP204 T01500139",
      "metarObsTime": 1775267580
    },
    "KIPT": {
      "status": "OK",
      "delay": "—",
      "metarCat": "VFR",
      "metarRaw": "METAR KIPT 040154Z 33003KT 10SM FEW047 BKN070 BKN085 14/12 A3013 RMK AO2 SLP204 T01390117",
      "metarObsTime": 1775267640
    },
    "KPHL": {
      "status": "OK",
      "delay": "—",
      "metarCat": "VFR",
      "metarRaw": "METAR KPHL 040154Z 00000KT 10SM SCT120 BKN250 16/14 A3014 RMK AO2 SLP205 T01610144 $",
      "metarObsTime": 1775267640
    },
    "KABE": {
      "status": "OK",
      "delay": "—",
      "metarCat": "VFR",
      "metarRaw": "METAR KABE 040151Z 22003KT 10SM CLR 12/11 A3014 RMK AO2 SLP208 T01220106 $",
      "metarObsTime": 1775267460
    },
    "KAVP": {
      "status": "OK",
      "delay": "—",
      "metarCat": "VFR",
      "metarRaw": "METAR KAVP 040154Z 23003KT 10SM BKN095 BKN120 16/12 A3013 RMK AO2 SLP201 T01610117",
      "metarObsTime": 1775267640
    },
    "KHZL": {
      "status": "OK",
      "delay": "—",
      "metarCat": "VFR",
      "metarRaw": "METAR KHZL 040235Z AUTO 00000KT 10SM SCT055 OVC100 16/12 A3018 RMK AO2",
      "metarObsTime": 1775270100
    }
  }
}