{
  "generatedAt": "2026-05-04T18:41:03.505Z",
  "faaFlow": {
    "updatedAt": "2026-05-04T18:41:02.569Z",
    "source": "https://www.fly.faa.gov/adv/adv_spt",
    "terminal": [
      {
        "time": "—",
        "text": "AFTER",
        "code": "FLOW",
        "label": "FAA flow impact",
        "level": "yellow",
        "section": "Terminal Planned",
        "airports": []
      },
      {
        "time": "1800",
        "text": "MIA/FLL/PBI GROUND STOP/DELAY PROGRAM POSSIBLE",
        "code": "GS",
        "label": "Ground stop possible",
        "level": "yellow",
        "section": "Terminal Planned",
        "airports": []
      },
      {
        "time": "—",
        "text": "AFTER",
        "code": "FLOW",
        "label": "FAA flow impact",
        "level": "yellow",
        "section": "Terminal Planned",
        "airports": []
      },
      {
        "time": "2000",
        "text": "DEN GROUND STOP/DELAY PROGRAM POSSIBLE",
        "code": "GS",
        "label": "Ground stop possible",
        "level": "yellow",
        "section": "Terminal Planned",
        "airports": []
      },
      {
        "time": "—",
        "text": "AFTER",
        "code": "FLOW",
        "label": "FAA flow impact",
        "level": "yellow",
        "section": "Terminal Planned",
        "airports": []
      },
      {
        "time": "2300",
        "text": "ORD/MDW GROUND STOP POSSIBLE",
        "code": "GS",
        "label": "Ground stop possible",
        "level": "yellow",
        "section": "Terminal Planned",
        "airports": []
      },
      {
        "time": "—",
        "text": "AFTER",
        "code": "FLOW",
        "label": "FAA flow impact",
        "level": "yellow",
        "section": "Terminal Planned",
        "airports": []
      },
      {
        "time": "2300",
        "text": "SFO GROUND STOP/DELAY PROGRAM POSSIBLE",
        "code": "GS",
        "label": "Ground stop possible",
        "level": "yellow",
        "section": "Terminal Planned",
        "airports": []
      }
    ],
    "enroute": [
      {
        "time": "—",
        "text": "AFTER",
        "code": "FLOW",
        "label": "FAA flow impact",
        "level": "yellow",
        "section": "En Route Planned",
        "airports": []
      },
      {
        "time": "1800",
        "text": "MIA/FLL/PBI CDRS/SWAP POSSIBLE",
        "code": "ROUTE",
        "label": "Route impact possible",
        "level": "blue",
        "section": "En Route Planned",
        "airports": []
      },
      {
        "time": "—",
        "text": "AFTER",
        "code": "FLOW",
        "label": "FAA flow impact",
        "level": "yellow",
        "section": "En Route Planned",
        "airports": []
      },
      {
        "time": "2000",
        "text": "SIERRA ROUTES POSSIBLE",
        "code": "ROUTE",
        "label": "Route impact possible",
        "level": "blue",
        "section": "En Route Planned",
        "airports": []
      },
      {
        "time": "—",
        "text": "AFTER",
        "code": "FLOW",
        "label": "FAA flow impact",
        "level": "yellow",
        "section": "En Route Planned",
        "airports": []
      },
      {
        "time": "2000",
        "text": "DEN CDRS/SWAP/ARRIVAL ROUTES POSSIBLE",
        "code": "ROUTE",
        "label": "Route impact possible",
        "level": "blue",
        "section": "En Route Planned",
        "airports": []
      },
      {
        "time": "—",
        "text": "AFTER",
        "code": "FLOW",
        "label": "FAA flow impact",
        "level": "yellow",
        "section": "En Route Planned",
        "airports": []
      },
      {
        "time": "2200",
        "text": "ORD/MDW CDRS/SWAP/ARRIVAL ROUTES POSSIBLE CDRS/SWAP/CAPPING/TUNNELING/HOTLINE/DIVERSION RECOVERY: NONE RUNWAY/EQUIPMENT/POSSIBLE SYSTEM IMPACT REPORTS(SIRs): JFK - TAXIWAY B CONSTRUCTION UNTIL 05/04/26",
        "code": "ROUTE",
        "label": "Route impact possible",
        "level": "blue",
        "section": "En Route Planned",
        "airports": []
      },
      {
        "time": "2026",
        "text": "SAN - CONSTRUCTION PHASE 5.2 UNTIL 05/26/26",
        "code": "FLOW",
        "label": "FAA flow impact",
        "level": "yellow",
        "section": "En Route Planned",
        "airports": []
      }
    ],
    "airports": {
      "KPIT": null,
      "KAGC": null,
      "KLBE": null,
      "KJST": null,
      "KERI": null,
      "KDUJ": null,
      "KBFD": null,
      "KBTP": null,
      "KFKL": null,
      "KIDI": null,
      "KMDT": null,
      "KCXY": null,
      "KMUI": null,
      "KUNV": null,
      "KAOO": null,
      "KLNS": null,
      "KIPT": null,
      "KPHL": null,
      "KABE": null,
      "KAVP": null,
      "KHZL": null
    }
  },
  "airports": {
    "KPIT": {
      "status": "OK",
      "delay": "—",
      "metarCat": "VFR",
      "metarRaw": "METAR KPIT 041751Z 18014G22KT 10SM SCT065 SCT120 SCT250 20/06 A2978 RMK AO2 SLP090 T02000061 10200 20117 58020 $",
      "metarObsTime": 1777917060,
      "faaFlow": null
    },
    "KAGC": {
      "status": "OK",
      "delay": "—",
      "metarCat": "VFR",
      "metarRaw": "METAR KAGC 041753Z 21010G22KT 10SM SCT070 BKN080 21/07 A2979 RMK AO2 SLP089 T02060072 10206 20106 58019",
      "metarObsTime": 1777917180,
      "faaFlow": null
    },
    "KLBE": {
      "status": "OK",
      "delay": "—",
      "metarCat": "—",
      "metarRaw": "—",
      "metarObsTime": null,
      "faaFlow": null
    },
    "KJST": {
      "status": "OK",
      "delay": "—",
      "metarCat": "VFR",
      "metarRaw": "METAR KJST 041754Z AUTO 20011G21KT 10SM SCT065 18/04 A2982 RMK AO2 SLP098 T01780039 10189 20083 58014",
      "metarObsTime": 1777917240,
      "faaFlow": null
    },
    "KERI": {
      "status": "OK",
      "delay": "—",
      "metarCat": "VFR",
      "metarRaw": "METAR KERI 041751Z 22018G27KT 10SM CLR 22/06 A2969 RMK AO2 PK WND 21027/1750 SLP051 T02220056 10222 20128 58019",
      "metarObsTime": 1777917060,
      "faaFlow": null
    },
    "KDUJ": {
      "status": "OK",
      "delay": "—",
      "metarCat": "VFR",
      "metarRaw": "METAR KDUJ 041753Z AUTO 22013G25KT 10SM FEW060 19/04 A2978 RMK AO2 PK WND 23029/1738 SLP082 T01940044 10194 20089 58015",
      "metarObsTime": 1777917180,
      "faaFlow": null
    },
    "KBFD": {
      "status": "OK",
      "delay": "—",
      "metarCat": "VFR",
      "metarRaw": "METAR KBFD 041753Z AUTO 22009G22KT 10SM FEW070 18/02 A2976 RMK AO2 SLP073 T01830017 10183 20072 58014",
      "metarObsTime": 1777917180,
      "faaFlow": null
    },
    "KBTP": {
      "status": "OK",
      "delay": "—",
      "metarCat": "VFR",
      "metarRaw": "METAR KBTP 041756Z AUTO 17011G18KT 10SM FEW070 21/08 A2978 RMK AO2 SLP089 T02060078 10206 20111 58019 $",
      "metarObsTime": 1777917360,
      "faaFlow": null
    },
    "KFKL": {
      "status": "OK",
      "delay": "—",
      "metarCat": "VFR",
      "metarRaw": "METAR KFKL 041756Z AUTO 23015G22KT 200V270 10SM CLR 20/06 A2976 RMK AO2 SLP076 T02000056 10200 20100 58015",
      "metarObsTime": 1777917360,
      "faaFlow": null
    },
    "KIDI": {
      "status": "OK",
      "delay": "—",
      "metarCat": "VFR",
      "metarRaw": "METAR KIDI 041835Z AUTO 22015G20KT 10SM FEW055 FEW075 21/08 A2979 RMK A01",
      "metarObsTime": 1777919700,
      "faaFlow": null
    },
    "KMDT": {
      "status": "OK",
      "delay": "—",
      "metarCat": "VFR",
      "metarRaw": "METAR KMDT 041756Z 21010G15KT 180V250 10SM FEW070 21/04 A2984 RMK AO2 SLP104 T02110039 10211 20111 58021 $",
      "metarObsTime": 1777917360,
      "faaFlow": null
    },
    "KCXY": {
      "status": "OK",
      "delay": "—",
      "metarCat": "VFR",
      "metarRaw": "METAR KCXY 041756Z 19014G20KT 10SM SCT085 22/05 A2984 RMK AO2 SLP105 T02220050 10222 20089 58022 $",
      "metarObsTime": 1777917360,
      "faaFlow": null
    },
    "KMUI": {
      "status": "OK",
      "delay": "—",
      "metarCat": "VFR",
      "metarRaw": "METAR KMUI 041755Z 22008KT 10SM FEW065 27/08 A2982 RMK AO2A SLP100 T02680082 10281 20096 57024",
      "metarObsTime": 1777917300,
      "faaFlow": null
    },
    "KUNV": {
      "status": "OK",
      "delay": "—",
      "metarCat": "VFR",
      "metarRaw": "METAR KUNV 041753Z 23012G21KT 10SM SCT070 21/05 A2980",
      "metarObsTime": 1777917180,
      "faaFlow": null
    },
    "KAOO": {
      "status": "OK",
      "delay": "—",
      "metarCat": "VFR",
      "metarRaw": "METAR KAOO 041753Z AUTO 24016G25KT 10SM SCT075 SCT090 22/04 A2982 RMK AO2 PK WND 23026/1734 SLP097 T02220039 10222 20100 58019",
      "metarObsTime": 1777917180,
      "faaFlow": null
    },
    "KLNS": {
      "status": "OK",
      "delay": "—",
      "metarCat": "VFR",
      "metarRaw": "METAR KLNS 041753Z 23010G20KT 10SM CLR 21/04 A2985 RMK AO2 PK WND 25027/1730 SLP109 T02110039 10211 20078 58023",
      "metarObsTime": 1777917180,
      "faaFlow": null
    },
    "KIPT": {
      "status": "OK",
      "delay": "—",
      "metarCat": "VFR",
      "metarRaw": "METAR KIPT 041754Z 26012G21KT 10SM BKN080 23/04 A2977 RMK AO2 SLP080 T02280044 10228 20044 56029",
      "metarObsTime": 1777917240,
      "faaFlow": null
    },
    "KPHL": {
      "status": "OK",
      "delay": "—",
      "metarCat": "VFR",
      "metarRaw": "METAR KPHL 041754Z 24015KT 10SM FEW075 22/01 A2989 RMK AO2 PK WND 24028/1741 SLP121 T02220011 10228 20128 58021 $",
      "metarObsTime": 1777917240,
      "faaFlow": null
    },
    "KABE": {
      "status": "OK",
      "delay": "—",
      "metarCat": "VFR",
      "metarRaw": "METAR KABE 041751Z 26015G23KT 10SM CLR 21/04 A2985 RMK AO2 SLP107 T02060044 10206 20094 58022 $",
      "metarObsTime": 1777917060,
      "faaFlow": null
    },
    "KAVP": {
      "status": "OK",
      "delay": "—",
      "metarCat": "VFR",
      "metarRaw": "SPECI KAVP 041826Z 25014G28KT 10SM FEW070 21/03 A2980 RMK AO2 PK WND 27028/1817 T02060028",
      "metarObsTime": 1777919160,
      "faaFlow": null
    },
    "KHZL": {
      "status": "OK",
      "delay": "—",
      "metarCat": "VFR",
      "metarRaw": "METAR KHZL 041835Z AUTO 22005KT 10SM OVC070 19/00 A2985 RMK AO2",
      "metarObsTime": 1777919700,
      "faaFlow": null
    }
  }
}