{
  "generatedAt": "2026-03-05T06:29:30.508Z",
  "airports": {
    "KPIT": {
      "status": "OK",
      "delay": "—",
      "metarCat": "LIFR",
      "metarRaw": "METAR KPIT 050551Z 11003KT 1/2SM R28R/2800V5500FT -RA FG VV002 11/10 A3008 RMK AO2 SLP197 P0006 60008 T01060100 10111 20100 58014 $",
      "metarObsTime": 1772689860
    },
    "KAGC": {
      "status": "OK",
      "delay": "—",
      "metarCat": "LIFR",
      "metarRaw": "METAR KAGC 050553Z 12003KT 1/4SM R28/1400V4000FT -RA FG BKN008 BKN028 OVC080 11/11 A3007 RMK AO2 LTG DSNT SW SLP190 P0004 60004 T01060106 10111 20106 58018",
      "metarObsTime": 1772689980
    },
    "KLBE": {
      "status": "OK",
      "delay": "—",
      "metarCat": "LIFR",
      "metarRaw": "METAR KLBE 050615Z AUTO 00000KT 3/4SM -RA BR OVC012 11/11 A3009 RMK AO2",
      "metarObsTime": 1772691300
    },
    "KJST": {
      "status": "OK",
      "delay": "—",
      "metarCat": "LIFR",
      "metarRaw": "SPECI KJST 050616Z AUTO 09005KT 3/4SM RA BR OVC005 08/08 A3008 RMK AO2 PRESFR P0005 T00830083",
      "metarObsTime": 1772691360
    },
    "KERI": {
      "status": "OK",
      "delay": "—",
      "metarCat": "MVFR",
      "metarRaw": "METAR KERI 050551Z AUTO 00000KT 6SM BR BKN011 OVC021 04/03 A3011 RMK AO2 SLP203 T00440033 10044 21006 58007",
      "metarObsTime": 1772689860
    },
    "KDUJ": {
      "status": "OK",
      "delay": "—",
      "metarCat": "LIFR",
      "metarRaw": "SPECI KDUJ 050618Z AUTO 09005KT 1/4SM -RA FG VV002 05/05 A3011 RMK AO2 RAB14 P0001 T00500050",
      "metarObsTime": 1772691480
    },
    "KBFD": {
      "status": "OK",
      "delay": "—",
      "metarCat": "LIFR",
      "metarRaw": "SPECI KBFD 050607Z AUTO 00000KT 3/4SM BR VV003 04/04 A3013 RMK AO2 T00390039",
      "metarObsTime": 1772690820
    },
    "KBTP": {
      "status": "OK",
      "delay": "—",
      "metarCat": "LIFR",
      "metarRaw": "METAR KBTP 050556Z AUTO 08004KT 4SM -RA BR OVC003 09/09 A3010 RMK AO2 CIG 002V006 SLP202 P0007 60009 T00940094 10094 20094 58016 $",
      "metarObsTime": 1772690160
    },
    "KFKL": {
      "status": "OK",
      "delay": "—",
      "metarCat": "LIFR",
      "metarRaw": "SPECI KFKL 050621Z AUTO 09006KT 1/2SM -RA FG OVC002 08/08 A3010 RMK AO2 P0002",
      "metarObsTime": 1772691660
    },
    "KIDI": {
      "status": "OK",
      "delay": "—",
      "metarCat": "MVFR",
      "metarRaw": "METAR KIDI 050615Z AUTO 09006KT 3SM BR OVC012 08/08 A3011 RMK A01",
      "metarObsTime": 1772691300
    },
    "KMDT": {
      "status": "OK",
      "delay": "—",
      "metarCat": "LIFR",
      "metarRaw": "METAR KMDT 050556Z 00000KT 1/4SM R13/1200V1400FT FG VV002 04/04 A3022 RMK AO2 TWR VIS 1 SLP238 T00390039 10056 20039 55005",
      "metarObsTime": 1772690160
    },
    "KCXY": {
      "status": "OK",
      "delay": "—",
      "metarCat": "LIFR",
      "metarRaw": "METAR KCXY 050556Z AUTO 00000KT 1/4SM R08/1800V2000FT FG VV002 06/05 A3023 RMK AO2 SLP241 T00560050 10061 20050 55003",
      "metarObsTime": 1772690160
    },
    "KMUI": {
      "status": "OK",
      "delay": "—",
      "metarCat": "LIFR",
      "metarRaw": "SPECI KMUI 050627Z AUTO 00000KT 4SM BR OVC004 06/06 A3020 RMK AO2 SLP232",
      "metarObsTime": 1772692020
    },
    "KUNV": {
      "status": "OK",
      "delay": "—",
      "metarCat": "LIFR",
      "metarRaw": "METAR KUNV 050615Z AUTO 00000KT 1/4SM FG OVC002 04/04 A3018 RMK AO2 T00350035",
      "metarObsTime": 1772691300
    },
    "KAOO": {
      "status": "OK",
      "delay": "—",
      "metarCat": "LIFR",
      "metarRaw": "SPECI KAOO 050625Z AUTO 00000KT 1/4SM -RA FG VV003 04/04 A3016 RMK AO2 RAB04 P0001 T00440044",
      "metarObsTime": 1772691900
    },
    "KLNS": {
      "status": "OK",
      "delay": "—",
      "metarCat": "LIFR",
      "metarRaw": "METAR KLNS 050553Z AUTO 00000KT 1/4SM FG VV002 06/06 A3022 RMK AO2 SLP236 T00560056 10067 20056 55006",
      "metarObsTime": 1772689980
    },
    "KIPT": {
      "status": "OK",
      "delay": "—",
      "metarCat": "LIFR",
      "metarRaw": "SPECI KIPT 050625Z AUTO 00000KT 2SM BR OVC003 04/03 A3021 RMK AO2 T00390033 $",
      "metarObsTime": 1772691900
    },
    "KPHL": {
      "status": "OK",
      "delay": "—",
      "metarCat": "MVFR",
      "metarRaw": "METAR KPHL 050554Z 00000KT 4SM OVC013 08/06 A3024 RMK AO2 SLP240 60000 T00780061 10089 20078 55006 $",
      "metarObsTime": 1772690040
    },
    "KABE": {
      "status": "OK",
      "delay": "—",
      "metarCat": "IFR",
      "metarRaw": "METAR KABE 050551Z 00000KT 3SM BR OVC008 06/05 A3022 RMK AO2 RAB0454E03 SLP237 P0000 60000 T00560050 10067 20056 55009",
      "metarObsTime": 1772689860
    },
    "KAVP": {
      "status": "OK",
      "delay": "—",
      "metarCat": "MVFR",
      "metarRaw": "SPECI KAVP 050614Z AUTO 00000KT 10SM SCT017 BKN029 OVC034 06/04 A3019 RMK AO2 RAB0555E04 P0000 T00560039",
      "metarObsTime": 1772691240
    },
    "KHZL": {
      "status": "OK",
      "delay": "—",
      "metarCat": "LIFR",
      "metarRaw": "METAR KHZL 050615Z AUTO 00000KT 2 1/2SM BR OVC003 05/04 A3022 RMK AO2",
      "metarObsTime": 1772691300
    }
  }
}