{
  "generatedAt": "2026-04-22T16:20:59.784Z",
  "airports": {
    "KPIT": {
      "status": "OK",
      "delay": "—",
      "metarCat": "VFR",
      "metarRaw": "METAR KPIT 221551Z 25008KT 10SM FEW060 FEW250 21/09 A2999 RMK AO2 SLP157 T02060094",
      "metarObsTime": 1776873060
    },
    "KAGC": {
      "status": "OK",
      "delay": "—",
      "metarCat": "VFR",
      "metarRaw": "METAR KAGC 221553Z 28009G17KT 10SM CLR 19/10 A2999 RMK AO2 SLP156 T01940100",
      "metarObsTime": 1776873180
    },
    "KLBE": {
      "status": "OK",
      "delay": "—",
      "metarCat": "VFR",
      "metarRaw": "METAR KLBE 221547Z 21015KT 10SM SCT049 19/11 A3002",
      "metarObsTime": 1776872820
    },
    "KJST": {
      "status": "OK",
      "delay": "—",
      "metarCat": "VFR",
      "metarRaw": "METAR KJST 221554Z AUTO 25008G15KT 10SM OVC041 15/07 A3000 RMK AO2 SLP157 T01500067",
      "metarObsTime": 1776873240
    },
    "KERI": {
      "status": "OK",
      "delay": "—",
      "metarCat": "VFR",
      "metarRaw": "METAR KERI 221551Z 29009KT 10SM CLR 16/10 A2997 RMK AO2 SLP148 T01560100",
      "metarObsTime": 1776873060
    },
    "KDUJ": {
      "status": "OK",
      "delay": "—",
      "metarCat": "VFR",
      "metarRaw": "METAR KDUJ 221553Z AUTO 23011G18KT 10SM SCT031 18/10 A2996 RMK AO2 SLP143 T01780100",
      "metarObsTime": 1776873180
    },
    "KBFD": {
      "status": "OK",
      "delay": "—",
      "metarCat": "VFR",
      "metarRaw": "METAR KBFD 221553Z AUTO 25008G15KT 10SM SCT039 BKN047 17/08 A2996 RMK AO2 SLP140 T01670078 $",
      "metarObsTime": 1776873180
    },
    "KBTP": {
      "status": "OK",
      "delay": "—",
      "metarCat": "VFR",
      "metarRaw": "METAR KBTP 221556Z AUTO 27012G15KT 10SM SCT043 20/11 A2999 RMK AO2 SLP157 T02000111 $",
      "metarObsTime": 1776873360
    },
    "KFKL": {
      "status": "OK",
      "delay": "—",
      "metarCat": "—",
      "metarRaw": "—",
      "metarObsTime": null
    },
    "KIDI": {
      "status": "OK",
      "delay": "—",
      "metarCat": "—",
      "metarRaw": "—",
      "metarObsTime": null
    },
    "KMDT": {
      "status": "OK",
      "delay": "—",
      "metarCat": "VFR",
      "metarRaw": "METAR KMDT 221556Z 16003KT 10SM FEW070 SCT250 12/07 A3002 RMK AO2 SLP166 T01220067",
      "metarObsTime": 1776873360
    },
    "KCXY": {
      "status": "OK",
      "delay": "—",
      "metarCat": "VFR",
      "metarRaw": "METAR KCXY 221556Z 09006KT 10SM CLR 12/08 A3002 RMK AO2 SLP169 T01220078",
      "metarObsTime": 1776873360
    },
    "KMUI": {
      "status": "OK",
      "delay": "—",
      "metarCat": "VFR",
      "metarRaw": "METAR KMUI 221555Z 00000KT 10SM SCT014 BKN065 13/09 A3001 RMK AO2A SLP166 T01250091",
      "metarObsTime": 1776873300
    },
    "KUNV": {
      "status": "OK",
      "delay": "—",
      "metarCat": "VFR",
      "metarRaw": "METAR KUNV 221553Z 24005KT 10SM SCT050 19/09 A2996",
      "metarObsTime": 1776873180
    },
    "KAOO": {
      "status": "OK",
      "delay": "—",
      "metarCat": "VFR",
      "metarRaw": "METAR KAOO 221553Z AUTO 25010KT 10SM OVC050 18/08 A2998 RMK AO2 SLP151 T01830078",
      "metarObsTime": 1776873180
    },
    "KLNS": {
      "status": "OK",
      "delay": "—",
      "metarCat": "VFR",
      "metarRaw": "METAR KLNS 221553Z VRB05KT 10SM FEW020 OVC065 11/08 A3003 RMK AO2 SLP171 T01110078",
      "metarObsTime": 1776873180
    },
    "KIPT": {
      "status": "OK",
      "delay": "—",
      "metarCat": "VFR",
      "metarRaw": "METAR KIPT 221554Z 06004KT 10SM BKN080 15/06 A2998 RMK AO2 SLP152 T01500056 $",
      "metarObsTime": 1776873240
    },
    "KPHL": {
      "status": "OK",
      "delay": "—",
      "metarCat": "VFR",
      "metarRaw": "METAR KPHL 221554Z 15004KT 10SM -RA FEW016 SCT070 OVC085 13/08 A3005 RMK AO2 SLP175 P0002 T01280083 $",
      "metarObsTime": 1776873240
    },
    "KABE": {
      "status": "OK",
      "delay": "—",
      "metarCat": "MVFR",
      "metarRaw": "METAR KABE 221551Z 12004KT 10SM BKN010 OVC075 09/07 A3006 RMK AO2 RAE02 SLP179 P0000 T00940067",
      "metarObsTime": 1776873060
    },
    "KAVP": {
      "status": "OK",
      "delay": "—",
      "metarCat": "VFR",
      "metarRaw": "METAR KAVP 221554Z 23007KT 10SM OVC055 12/05 A3001 RMK AO2 SLP161 T01170050",
      "metarObsTime": 1776873240
    },
    "KHZL": {
      "status": "OK",
      "delay": "—",
      "metarCat": "VFR",
      "metarRaw": "METAR KHZL 221615Z AUTO 18003KT 10SM SCT017 OVC055 12/05 A3003 RMK AO2",
      "metarObsTime": 1776874500
    }
  }
}