{
  "generatedAt": "2026-04-15T06:00:49.421Z",
  "airports": {
    "KPIT": {
      "status": "OK",
      "delay": "—",
      "metarCat": "VFR",
      "metarRaw": "METAR KPIT 150551Z VRB04KT 10SM FEW050 SCT070 BKN150 19/14 A2991 RMK AO2 RAE07 SLP126 P0000 60000 T01940144 10206 20178 55017 $",
      "metarObsTime": 1776232260
    },
    "KAGC": {
      "status": "OK",
      "delay": "—",
      "metarCat": "VFR",
      "metarRaw": "METAR KAGC 150553Z 20006KT 10SM CLR 18/16 A2991 RMK AO2 SLP123 60000 T01830161 10200 20172 58020",
      "metarObsTime": 1776232380
    },
    "KLBE": {
      "status": "OK",
      "delay": "—",
      "metarCat": "VFR",
      "metarRaw": "METAR KLBE 150555Z AUTO 21006KT 10SM CLR 18/17 A2995 RMK AO2",
      "metarObsTime": 1776232500
    },
    "KJST": {
      "status": "OK",
      "delay": "—",
      "metarCat": "VFR",
      "metarRaw": "METAR KJST 150554Z AUTO 20006KT 10SM CLR 18/14 A2996 RMK AO2 SLP133 T01780144 10183 20139 58019",
      "metarObsTime": 1776232440
    },
    "KERI": {
      "status": "OK",
      "delay": "—",
      "metarCat": "VFR",
      "metarRaw": "METAR KERI 150551Z AUTO 16011KT 10SM CLR 19/16 A2983 RMK AO2 SLP097 T01890156 10194 20144 58013 $",
      "metarObsTime": 1776232260
    },
    "KDUJ": {
      "status": "OK",
      "delay": "—",
      "metarCat": "MVFR",
      "metarRaw": "METAR KDUJ 150553Z AUTO 03004KT 4SM BR FEW038 14/14 A2994 RMK AO2 LTG DSNT NE RAE11 TSE0459 SLP130 P0001 60007 T01440144 10183 20144 58009",
      "metarObsTime": 1776232380
    },
    "KBFD": {
      "status": "OK",
      "delay": "—",
      "metarCat": "VFR",
      "metarRaw": "METAR KBFD 150553Z AUTO 14004KT 9SM SCT038 BKN045 BKN060 13/13 A2995 RMK AO2 LTG DSNT S SLP132 T01280128 10156 20111 56007",
      "metarObsTime": 1776232380
    },
    "KBTP": {
      "status": "OK",
      "delay": "—",
      "metarCat": "VFR",
      "metarRaw": "METAR KBTP 150556Z AUTO 00000KT 10SM CLR 16/ A2993 RMK AO2 SLP136 6//// T0161 10189 20161 55012 PNO $",
      "metarObsTime": 1776232560
    },
    "KFKL": {
      "status": "OK",
      "delay": "—",
      "metarCat": "VFR",
      "metarRaw": "METAR KFKL 150556Z AUTO 16006KT 10SM CLR 17/16 A2991 RMK AO2 PRESFR SLP123 60000 T01670161 10189 20161 58012",
      "metarObsTime": 1776232560
    },
    "KIDI": {
      "status": "OK",
      "delay": "—",
      "metarCat": "VFR",
      "metarRaw": "METAR KIDI 150555Z AUTO 23008KT 10SM CLR 17/16 A2995 RMK A01",
      "metarObsTime": 1776232500
    },
    "KMDT": {
      "status": "OK",
      "delay": "—",
      "metarCat": "VFR",
      "metarRaw": "METAR KMDT 150556Z 00000KT 10SM SCT060 BKN075 BKN095 17/16 A2993 RMK AO2 SLP135 60004 T01670161 10233 20161 58005",
      "metarObsTime": 1776232560
    },
    "KCXY": {
      "status": "OK",
      "delay": "—",
      "metarCat": "VFR",
      "metarRaw": "METAR KCXY 150556Z AUTO 25003KT 10SM BKN060 BKN080 17/16 A2994 RMK AO2 SLP137 60006 T01720161 10239 20167 58005",
      "metarObsTime": 1776232560
    },
    "KMUI": {
      "status": "OK",
      "delay": "—",
      "metarCat": "VFR",
      "metarRaw": "METAR KMUI 150455Z AUTO 00000KT 10SM CLR 18/17 A2992 RMK AO2 LTG DSNT SE SLP132 T01750172 403110119",
      "metarObsTime": 1776228900
    },
    "KUNV": {
      "status": "OK",
      "delay": "—",
      "metarCat": "VFR",
      "metarRaw": "METAR KUNV 150555Z AUTO 00000KT 10SM BKN046 BKN050 OVC095 16/16 A2996 RMK AO2 LTG DSNT N T01630161 10217 20155",
      "metarObsTime": 1776232500
    },
    "KAOO": {
      "status": "OK",
      "delay": "—",
      "metarCat": "VFR",
      "metarRaw": "METAR KAOO 150553Z AUTO 20005KT 10SM CLR 15/14 A2995 RMK AO2 SLP134 60000 T01500139 10172 20139 58013",
      "metarObsTime": 1776232380
    },
    "KLNS": {
      "status": "OK",
      "delay": "—",
      "metarCat": "VFR",
      "metarRaw": "METAR KLNS 150553Z AUTO 06004KT 10SM CLR 15/14 A2994 RMK AO2 SLP136 60000 T01500144 10228 20150 58006",
      "metarObsTime": 1776232380
    },
    "KIPT": {
      "status": "OK",
      "delay": "—",
      "metarCat": "LIFR",
      "metarRaw": "METAR KIPT 150554Z AUTO 00000KT 1/2SM FG VV002 15/15 A2992 RMK AO2 SLP130 60006 T01500150 10261 20150 58003 $",
      "metarObsTime": 1776232440
    },
    "KPHL": {
      "status": "OK",
      "delay": "—",
      "metarCat": "VFR",
      "metarRaw": "METAR KPHL 150554Z COR 25005KT 10SM BKN120 BKN180 19/17 A2993 RMK AO2 RAE13 SLP135 P0000 60010 T01890167 10278 20189 56007 $",
      "metarObsTime": 1776232440
    },
    "KABE": {
      "status": "OK",
      "delay": "—",
      "metarCat": "VFR",
      "metarRaw": "METAR KABE 150551Z 25003KT 10SM CLR 19/15 A2993 RMK AO2 SLP131 T01890150 10261 20183 50000 $",
      "metarObsTime": 1776232260
    },
    "KAVP": {
      "status": "OK",
      "delay": "—",
      "metarCat": "VFR",
      "metarRaw": "METAR KAVP 150554Z AUTO 00000KT 10SM CLR 17/14 A2996 RMK AO2 SLP137 60017 T01670144 10250 20161 53003",
      "metarObsTime": 1776232440
    },
    "KHZL": {
      "status": "OK",
      "delay": "—",
      "metarCat": "IFR",
      "metarRaw": "METAR KHZL 150555Z AUTO 00000KT 1 1/2SM BR VV007 14/13 A3000 RMK AO2 VIS 1/2V5",
      "metarObsTime": 1776232500
    }
  }
}