{
  "generatedAt": "2026-03-29T16:10:25.297Z",
  "airports": {
    "KPIT": {
      "status": "OK",
      "delay": "—",
      "metarCat": "VFR",
      "metarRaw": "METAR KPIT 291551Z 19005KT 10SM SCT100 SCT150 BKN250 11/M06 A3039 RMK AO2 SLP305 T01061061",
      "metarObsTime": 1774799460
    },
    "KAGC": {
      "status": "OK",
      "delay": "—",
      "metarCat": "VFR",
      "metarRaw": "METAR KAGC 291553Z 20010KT 10SM OVC110 10/M06 A3039 RMK AO2 SLP302 T01001061",
      "metarObsTime": 1774799580
    },
    "KLBE": {
      "status": "OK",
      "delay": "—",
      "metarCat": "VFR",
      "metarRaw": "METAR KLBE 291547Z 21010G19KT 10SM SCT075 12/M06 A3042",
      "metarObsTime": 1774799220
    },
    "KJST": {
      "status": "OK",
      "delay": "—",
      "metarCat": "VFR",
      "metarRaw": "METAR KJST 291554Z AUTO 24010KT 10SM CLR 09/M08 A3038 RMK AO2 SLP303 T00941078",
      "metarObsTime": 1774799640
    },
    "KERI": {
      "status": "OK",
      "delay": "—",
      "metarCat": "VFR",
      "metarRaw": "METAR KERI 291551Z 26006KT 10SM CLR 11/M08 A3037 RMK AO2 SLP289 T01111078 $",
      "metarObsTime": 1774799460
    },
    "KDUJ": {
      "status": "OK",
      "delay": "—",
      "metarCat": "VFR",
      "metarRaw": "METAR KDUJ 291553Z AUTO 22008KT 10SM BKN110 08/M09 A3037 RMK AO2 SLP302 T00781094",
      "metarObsTime": 1774799580
    },
    "KBFD": {
      "status": "OK",
      "delay": "—",
      "metarCat": "VFR",
      "metarRaw": "METAR KBFD 291553Z AUTO 10SM CLR 07/M09 A3036 RMK AO2 SLP300 T00671094",
      "metarObsTime": 1774799580
    },
    "KBTP": {
      "status": "OK",
      "delay": "—",
      "metarCat": "VFR",
      "metarRaw": "METAR KBTP 291556Z AUTO 22007KT 10SM FEW110 12/M07 A3038 RMK AO2 SLP303 T01221067 $",
      "metarObsTime": 1774799760
    },
    "KFKL": {
      "status": "OK",
      "delay": "—",
      "metarCat": "VFR",
      "metarRaw": "METAR KFKL 291556Z AUTO 26007KT 10SM FEW110 09/M08 A3037 RMK AO2 SLP299 T00891078",
      "metarObsTime": 1774799760
    },
    "KIDI": {
      "status": "OK",
      "delay": "—",
      "metarCat": "VFR",
      "metarRaw": "METAR KIDI 291555Z AUTO 21008G14KT 170V230 10SM OVC110 12/M05 A3039 RMK A01",
      "metarObsTime": 1774799700
    },
    "KMDT": {
      "status": "OK",
      "delay": "—",
      "metarCat": "VFR",
      "metarRaw": "METAR KMDT 291556Z 20014G25KT 10SM BKN130 BKN250 11/M05 A3049 RMK AO2 PK WND 20030/1539 SLP327 T01111050",
      "metarObsTime": 1774799760
    },
    "KCXY": {
      "status": "OK",
      "delay": "—",
      "metarCat": "VFR",
      "metarRaw": "METAR KCXY 291556Z 20010G20KT 10SM CLR 12/M05 A3049 RMK AO2 SLP328 T01171050",
      "metarObsTime": 1774799760
    },
    "KMUI": {
      "status": "OK",
      "delay": "—",
      "metarCat": "—",
      "metarRaw": "—",
      "metarObsTime": null
    },
    "KUNV": {
      "status": "OK",
      "delay": "—",
      "metarCat": "VFR",
      "metarRaw": "METAR KUNV 291553Z 20006KT 10SM OVC120 08/M07 A3043",
      "metarObsTime": 1774799580
    },
    "KAOO": {
      "status": "OK",
      "delay": "—",
      "metarCat": "VFR",
      "metarRaw": "METAR KAOO 291553Z AUTO 21011KT 10SM CLR 10/M06 A3042 RMK AO2 SLP312 T01001061 $",
      "metarObsTime": 1774799580
    },
    "KLNS": {
      "status": "OK",
      "delay": "—",
      "metarCat": "VFR",
      "metarRaw": "METAR KLNS 291553Z 23014G21KT 10SM CLR 11/M06 A3051 RMK AO2 SLP335 T01111061",
      "metarObsTime": 1774799580
    },
    "KIPT": {
      "status": "OK",
      "delay": "—",
      "metarCat": "VFR",
      "metarRaw": "METAR KIPT 291554Z 11008KT 10SM CLR 08/M06 A3047 RMK AO2 SLP321 T00781061 $",
      "metarObsTime": 1774799640
    },
    "KPHL": {
      "status": "OK",
      "delay": "—",
      "metarCat": "VFR",
      "metarRaw": "METAR KPHL 291554Z 23016G23KT 10SM BKN130 BKN260 BKN330 12/M07 A3058 RMK AO2 SLP353 T01171072 $",
      "metarObsTime": 1774799640
    },
    "KABE": {
      "status": "OK",
      "delay": "—",
      "metarCat": "VFR",
      "metarRaw": "METAR KABE 291551Z 19010G19KT 10SM CLR 09/M07 A3052 RMK AO2 SLP339 T00941072 $",
      "metarObsTime": 1774799460
    },
    "KAVP": {
      "status": "OK",
      "delay": "—",
      "metarCat": "VFR",
      "metarRaw": "METAR KAVP 291554Z 24011G20KT 10SM FEW110 08/M07 A3046 RMK AO2 SLP319 T00831072",
      "metarObsTime": 1774799640
    },
    "KHZL": {
      "status": "OK",
      "delay": "—",
      "metarCat": "VFR",
      "metarRaw": "METAR KHZL 291555Z AUTO 19005KT 10SM SCT110 07/M10 A3049 RMK AO2",
      "metarObsTime": 1774799700
    }
  }
}