{
  "generatedAt": "2026-03-09T18:40:18.724Z",
  "airports": {
    "KPIT": {
      "status": "OK",
      "delay": "—",
      "metarCat": "VFR",
      "metarRaw": "METAR KPIT 091751Z 22009G19KT 10SM FEW250 18/M01 A2998 RMK AO2 SLP158 T01781011 10178 20039 58013",
      "metarObsTime": 1773078660
    },
    "KAGC": {
      "status": "OK",
      "delay": "—",
      "metarCat": "VFR",
      "metarRaw": "METAR KAGC 091753Z 24014G22KT 10SM CLR 19/M01 A2998 RMK AO2 SLP157 T01891011 10189 20044 56014",
      "metarObsTime": 1773078780
    },
    "KLBE": {
      "status": "OK",
      "delay": "—",
      "metarCat": "VFR",
      "metarRaw": "METAR KLBE 091750Z 22018G27KT 10SM CLR 19/04 A3001",
      "metarObsTime": 1773078600
    },
    "KJST": {
      "status": "OK",
      "delay": "—",
      "metarCat": "VFR",
      "metarRaw": "METAR KJST 091754Z AUTO 23009G18KT 190V250 10SM CLR 17/01 A2999 RMK AO2 SLP157 T01670006 10167 20078 56012",
      "metarObsTime": 1773078840
    },
    "KERI": {
      "status": "OK",
      "delay": "—",
      "metarCat": "VFR",
      "metarRaw": "METAR KERI 091751Z 19021G31KT 10SM CLR 19/M01 A2986 RMK AO2 PK WND 21031/1746 SLP111 T01941006 10194 20094 58013",
      "metarObsTime": 1773078660
    },
    "KDUJ": {
      "status": "OK",
      "delay": "—",
      "metarCat": "VFR",
      "metarRaw": "METAR KDUJ 091753Z AUTO 22016G28KT 10SM CLR 17/M03 A2996 RMK AO2 PK WND 25028/1747 SLP144 T01671028 10172 20044 56015",
      "metarObsTime": 1773078780
    },
    "KBFD": {
      "status": "OK",
      "delay": "—",
      "metarCat": "VFR",
      "metarRaw": "METAR KBFD 091753Z AUTO 23010G23KT 10SM CLR 16/M06 A2992 RMK AO2 SLP132 T01611061 10161 20050 58013 $",
      "metarObsTime": 1773078780
    },
    "KBTP": {
      "status": "OK",
      "delay": "—",
      "metarCat": "VFR",
      "metarRaw": "METAR KBTP 091756Z AUTO 24012G17KT 10SM CLR 19/00 A2998 RMK AO2 SLP158 T01890000 10189 20061 58012 $",
      "metarObsTime": 1773078960
    },
    "KFKL": {
      "status": "OK",
      "delay": "—",
      "metarCat": "VFR",
      "metarRaw": "METAR KFKL 091756Z AUTO 23009G24KT 10SM CLR 17/M01 A2996 RMK AO2 SLP148 T01671011 10172 20039 56009",
      "metarObsTime": 1773078960
    },
    "KIDI": {
      "status": "OK",
      "delay": "—",
      "metarCat": "VFR",
      "metarRaw": "METAR KIDI 091755Z AUTO 26016G23KT 10SM CLR 19/03 A2999 RMK A01",
      "metarObsTime": 1773078900
    },
    "KMDT": {
      "status": "OK",
      "delay": "—",
      "metarCat": "VFR",
      "metarRaw": "METAR KMDT 091756Z 25012G22KT 10SM FEW050 19/03 A2998 RMK AO2 SLP155 T01940033 10194 20011 57030",
      "metarObsTime": 1773078960
    },
    "KCXY": {
      "status": "OK",
      "delay": "—",
      "metarCat": "VFR",
      "metarRaw": "METAR KCXY 091756Z 26013G19KT 10SM CLR 22/04 A2999 RMK AO2 SLP156 T02170044 10222 20011 58031",
      "metarObsTime": 1773078960
    },
    "KMUI": {
      "status": "OK",
      "delay": "—",
      "metarCat": "VFR",
      "metarRaw": "METAR KMUI 091755Z 20004KT 10SM FEW055 21/05 A2997 RMK AO2A SLP152 T02100053 10230 20002 57028",
      "metarObsTime": 1773078900
    },
    "KUNV": {
      "status": "OK",
      "delay": "—",
      "metarCat": "VFR",
      "metarRaw": "METAR KUNV 091753Z 22011G18KT 10SM CLR 20/01 A2998",
      "metarObsTime": 1773078780
    },
    "KAOO": {
      "status": "OK",
      "delay": "—",
      "metarCat": "VFR",
      "metarRaw": "METAR KAOO 091753Z AUTO 21015KT 10SM CLR 19/01 A3000 RMK AO2 SLP157 T01890011 10194 20067 58017",
      "metarObsTime": 1773078780
    },
    "KLNS": {
      "status": "OK",
      "delay": "—",
      "metarCat": "VFR",
      "metarRaw": "METAR KLNS 091753Z 25012G17KT 10SM CLR 22/06 A3000 RMK AO2 SLP157 T02170056 10217 20000 58027",
      "metarObsTime": 1773078780
    },
    "KIPT": {
      "status": "OK",
      "delay": "—",
      "metarCat": "VFR",
      "metarRaw": "METAR KIPT 091754Z 00000KT 10SM CLR 19/02 A2996 RMK AO2 SLP144 T01890022 10189 21011 58027 $",
      "metarObsTime": 1773078840
    },
    "KPHL": {
      "status": "OK",
      "delay": "—",
      "metarCat": "VFR",
      "metarRaw": "METAR KPHL 091754Z 25011KT 10SM CLR 22/03 A3002 RMK AO2 SLP166 T02220028 10222 20061 58023 $",
      "metarObsTime": 1773078840
    },
    "KABE": {
      "status": "OK",
      "delay": "—",
      "metarCat": "VFR",
      "metarRaw": "METAR KABE 091751Z 23010G19KT 10SM CLR 21/04 A3000 RMK AO2 PK WND 25026/1659 SLP161 T02060044 10206 20006 58022",
      "metarObsTime": 1773078660
    },
    "KAVP": {
      "status": "OK",
      "delay": "—",
      "metarCat": "VFR",
      "metarRaw": "METAR KAVP 091754Z 23009G19KT 10SM CLR 19/00 A2998 RMK AO2 PK WND 26027/1655 SLP148 T01890000 10189 20022 58016",
      "metarObsTime": 1773078840
    },
    "KHZL": {
      "status": "OK",
      "delay": "—",
      "metarCat": "VFR",
      "metarRaw": "METAR KHZL 091835Z AUTO 21008KT 180V260 10SM CLR 20/M03 A3001 RMK AO2",
      "metarObsTime": 1773081300
    }
  }
}