{
  "generatedAt": "2026-04-07T15:00:44.650Z",
  "airports": {
    "KPIT": {
      "status": "OK",
      "delay": "—",
      "metarCat": "VFR",
      "metarRaw": "METAR KPIT 071451Z 33012G25KT 10SM FEW038 01/M11 A3041 RMK AO2 SLP315 T00061106 51030",
      "metarObsTime": 1775573460
    },
    "KAGC": {
      "status": "OK",
      "delay": "—",
      "metarCat": "VFR",
      "metarRaw": "METAR KAGC 071453Z 35013G21KT 10SM CLR 01/M09 A3039 RMK AO2 SLP307 T00061094 51032",
      "metarObsTime": 1775573580
    },
    "KLBE": {
      "status": "OK",
      "delay": "—",
      "metarCat": "VFR",
      "metarRaw": "METAR KLBE 071447Z 28010G20KT 20SM SCT040 01/M08 A3040",
      "metarObsTime": 1775573220
    },
    "KJST": {
      "status": "OK",
      "delay": "—",
      "metarCat": "VFR",
      "metarRaw": "METAR KJST 071454Z AUTO 29017G25KT 10SM CLR M01/M08 A3028 RMK AO2 PK WND 29028/1437 SLP277 T10111083 51027",
      "metarObsTime": 1775573640
    },
    "KERI": {
      "status": "OK",
      "delay": "—",
      "metarCat": "MVFR",
      "metarRaw": "METAR KERI 071451Z 29010G19KT 8SM -SN BKN027 OVC035 M03/M09 A3047 RMK AO2 SNE1355B45 SLP327 P0000 60000 T10281089 51032 $",
      "metarObsTime": 1775573460
    },
    "KDUJ": {
      "status": "OK",
      "delay": "—",
      "metarCat": "VFR",
      "metarRaw": "METAR KDUJ 071453Z AUTO 33015G23KT 10SM CLR M02/M12 A3032 RMK AO2 PK WND 30027/1429 SLP286 T10221117 51035",
      "metarObsTime": 1775573580
    },
    "KBFD": {
      "status": "OK",
      "delay": "—",
      "metarCat": "MVFR",
      "metarRaw": "METAR KBFD 071453Z AUTO 31016G28KT 9SM -SN BKN029 OVC034 M04/M10 A3030 RMK AO2 PK WND 30028/1359 SNB1357 SLP282 P0000 60000 T10441100 53028",
      "metarObsTime": 1775573580
    },
    "KBTP": {
      "status": "OK",
      "delay": "—",
      "metarCat": "VFR",
      "metarRaw": "METAR KBTP 071456Z AUTO 30015G19KT 10SM FEW036 01/M08 A3042 RMK AO2 SLP317 T00061083 51029 FZRANO $",
      "metarObsTime": 1775573760
    },
    "KFKL": {
      "status": "OK",
      "delay": "—",
      "metarCat": "MVFR",
      "metarRaw": "METAR KFKL 071456Z AUTO 29011G17KT 9SM -SN OVC030 M03/M08 A3041 RMK AO2 SLP315 P0000 60000 T10281083 51030 FZRANO",
      "metarObsTime": 1775573760
    },
    "KIDI": {
      "status": "OK",
      "delay": "—",
      "metarCat": "VFR",
      "metarRaw": "METAR KIDI 071455Z AUTO 32008G20KT 10SM BKN036 00/M07 A3038 RMK A01",
      "metarObsTime": 1775573700
    },
    "KMDT": {
      "status": "OK",
      "delay": "—",
      "metarCat": "VFR",
      "metarRaw": "METAR KMDT 071456Z 30020G29KT 10SM FEW055 FEW250 09/M04 A3025 RMK AO2 PK WND 30029/1449 SLP247 T00891039 51022",
      "metarObsTime": 1775573760
    },
    "KCXY": {
      "status": "OK",
      "delay": "—",
      "metarCat": "VFR",
      "metarRaw": "METAR KCXY 071456Z 28013G24KT 10SM CLR 08/M06 A3027 RMK AO2 PK WND 28029/1404 SLP251 60000 T00831056 51025 $",
      "metarObsTime": 1775573760
    },
    "KMUI": {
      "status": "OK",
      "delay": "—",
      "metarCat": "VFR",
      "metarRaw": "METAR KMUI 071355Z 30022G29KT 10SM SCT041 08/M07 A3020 RMK AO2A SLP232 T00791066",
      "metarObsTime": 1775570100
    },
    "KUNV": {
      "status": "OK",
      "delay": "—",
      "metarCat": "VFR",
      "metarRaw": "METAR KUNV 071453Z 29013G21KT 10SM SCT044 02/M10 A3032",
      "metarObsTime": 1775573580
    },
    "KAOO": {
      "status": "OK",
      "delay": "—",
      "metarCat": "VFR",
      "metarRaw": "METAR KAOO 071453Z AUTO 33010G20KT 290V360 10SM FEW037 02/M07 A3031 RMK AO2 SLP278 T00221072 53033 $",
      "metarObsTime": 1775573580
    },
    "KLNS": {
      "status": "OK",
      "delay": "—",
      "metarCat": "VFR",
      "metarRaw": "METAR KLNS 071453Z COR 30018G29KT 10SM FEW046 08/M04 A3024 RMK AO2 PK WND 29029/1416 SLP241 T00831044 51023",
      "metarObsTime": 1775573580
    },
    "KIPT": {
      "status": "OK",
      "delay": "—",
      "metarCat": "VFR",
      "metarRaw": "METAR KIPT 071454Z 27014G24KT 10SM FEW050 04/M08 A3029 RMK AO2 PK WND 26028/1403 SLP260 T00441083 53040",
      "metarObsTime": 1775573640
    },
    "KPHL": {
      "status": "OK",
      "delay": "—",
      "metarCat": "VFR",
      "metarRaw": "METAR KPHL 071454Z 28019G29KT 10SM SCT060 BKN300 11/M04 A3022 RMK AO2 PK WND 26030/1420 SLP233 T01111039 53017",
      "metarObsTime": 1775573640
    },
    "KABE": {
      "status": "OK",
      "delay": "—",
      "metarCat": "VFR",
      "metarRaw": "METAR KABE 071451Z AUTO 29014G21KT 10SM SCT060 09/M06 A3020 RMK AO2 PK WND 30027/1427 SLP229 T00891056 53021 $",
      "metarObsTime": 1775573460
    },
    "KAVP": {
      "status": "OK",
      "delay": "—",
      "metarCat": "VFR",
      "metarRaw": "METAR KAVP 071454Z 33018G22KT 10SM FEW039 BKN050 BKN065 05/M04 A3020 RMK AO2 WSHFT 1344 SLP231 T00501044 53023",
      "metarObsTime": 1775573640
    },
    "KHZL": {
      "status": "OK",
      "delay": "—",
      "metarCat": "VFR",
      "metarRaw": "METAR KHZL 071455Z AUTO 28007G16KT 240V330 10SM CLR 05/M07 A3021 RMK AO2",
      "metarObsTime": 1775573700
    }
  }
}