{
  "generatedAt": "2026-04-19T16:01:00.408Z",
  "airports": {
    "KPIT": {
      "status": "OK",
      "delay": "—",
      "metarCat": "VFR",
      "metarRaw": "METAR KPIT 191551Z 28020G27KT 10SM SCT040 09/M04 A3004 RMK AO2 PK WND 28028/1459 SLP183 T00891039 $",
      "metarObsTime": 1776613860
    },
    "KAGC": {
      "status": "OK",
      "delay": "—",
      "metarCat": "VFR",
      "metarRaw": "METAR KAGC 191553Z 29012G26KT 260V320 10SM SCT050 08/M04 A3003 RMK AO2 PK WND 28028/1456 SLP177 T00831044",
      "metarObsTime": 1776613980
    },
    "KLBE": {
      "status": "OK",
      "delay": "—",
      "metarCat": "VFR",
      "metarRaw": "METAR KLBE 191547Z 27019G24KT 10SM SCT040 BKN048 BKN055 08/M00 A3004",
      "metarObsTime": 1776613620
    },
    "KJST": {
      "status": "OK",
      "delay": "—",
      "metarCat": "MVFR",
      "metarRaw": "METAR KJST 191554Z AUTO 27007G18KT 10SM OVC021 04/01 A2996 RMK AO2 SLP155 T00390006",
      "metarObsTime": 1776614040
    },
    "KERI": {
      "status": "OK",
      "delay": "—",
      "metarCat": "VFR",
      "metarRaw": "METAR KERI 191551Z 27016G29KT 10SM CLR 06/M04 A3006 RMK AO2 PK WND 27029/1546 SLP182 T00611044 $",
      "metarObsTime": 1776613860
    },
    "KDUJ": {
      "status": "OK",
      "delay": "—",
      "metarCat": "VFR",
      "metarRaw": "METAR KDUJ 191553Z AUTO 30015G24KT 10SM FEW021 SCT042 BKN055 06/00 A2996 RMK AO2 SLP150 T00610000",
      "metarObsTime": 1776613980
    },
    "KBFD": {
      "status": "OK",
      "delay": "—",
      "metarCat": "VFR",
      "metarRaw": "METAR KBFD 191553Z AUTO 30017G21KT 10SM FEW029 SCT046 OVC055 04/M01 A2994 RMK AO2 PK WND 31027/1512 RAB12E14UPB26E31SNB14E26 SLP146 P0001 T00391011",
      "metarObsTime": 1776613980
    },
    "KBTP": {
      "status": "OK",
      "delay": "—",
      "metarCat": "VFR",
      "metarRaw": "METAR KBTP 191556Z AUTO 26013G22KT 10SM BKN047 BKN060 08/M03 A3003 RMK AO2 SLP180 T00831028 $",
      "metarObsTime": 1776614160
    },
    "KFKL": {
      "status": "OK",
      "delay": "—",
      "metarCat": "—",
      "metarRaw": "—",
      "metarObsTime": null
    },
    "KIDI": {
      "status": "OK",
      "delay": "—",
      "metarCat": "VFR",
      "metarRaw": "METAR KIDI 191555Z AUTO 32013G23KT 10SM FEW031 SCT036 BKN045 07/01 A3000 RMK A01",
      "metarObsTime": 1776614100
    },
    "KMDT": {
      "status": "OK",
      "delay": "—",
      "metarCat": "VFR",
      "metarRaw": "METAR KMDT 191556Z 31013G22KT 10SM FEW025 FEW060 BKN100 OVC250 09/03 A2995 RMK AO2 RAE31 SLP144 P0001 T00940033",
      "metarObsTime": 1776614160
    },
    "KCXY": {
      "status": "OK",
      "delay": "—",
      "metarCat": "VFR",
      "metarRaw": "METAR KCXY 191556Z 31016G23KT 10SM FEW065 OVC100 09/02 A2997 RMK AO2 SLP148 T00890017 $",
      "metarObsTime": 1776614160
    },
    "KMUI": {
      "status": "OK",
      "delay": "—",
      "metarCat": "MVFR",
      "metarRaw": "SPECI KMUI 191524Z AUTO 28006KT 10SM BKN021 OVC028 09/06 A2992 RMK AO2 RAE1455RAB00E14DZB14E15RAB15E24 BKN V OVC SLP135",
      "metarObsTime": 1776612240
    },
    "KUNV": {
      "status": "OK",
      "delay": "—",
      "metarCat": "VFR",
      "metarRaw": "METAR KUNV 191553Z 32007KT 10SM -DZ OVC035 06/00 A2998",
      "metarObsTime": 1776613980
    },
    "KAOO": {
      "status": "OK",
      "delay": "—",
      "metarCat": "VFR",
      "metarRaw": "METAR KAOO 191553Z AUTO 29011G16KT 10SM FEW026 BKN048 OVC055 06/01 A2999 RMK AO2 SLP157 T00610011",
      "metarObsTime": 1776613980
    },
    "KLNS": {
      "status": "OK",
      "delay": "—",
      "metarCat": "VFR",
      "metarRaw": "METAR KLNS 191553Z 31005KT 10SM OVC080 08/04 A2994 RMK AO2 RAE18 SLP138 P0001 T00780044",
      "metarObsTime": 1776613980
    },
    "KIPT": {
      "status": "OK",
      "delay": "—",
      "metarCat": "VFR",
      "metarRaw": "METAR KIPT 191554Z 01008KT 10SM FEW018 SCT025 BKN033 06/03 A2996 RMK AO2 RAE02 SLP146 P0000 T00610033 $",
      "metarObsTime": 1776614040
    },
    "KPHL": {
      "status": "OK",
      "delay": "—",
      "metarCat": "MVFR",
      "metarRaw": "METAR KPHL 191554Z 33016G29KT 10SM -RA SCT023 BKN030 OVC055 10/06 A2994 RMK AO2 PK WND 33031/1513 RAE10B49 SLP139 P0000 T01000056 $",
      "metarObsTime": 1776614040
    },
    "KABE": {
      "status": "OK",
      "delay": "—",
      "metarCat": "VFR",
      "metarRaw": "METAR KABE 191551Z 33009KT 10SM -RA BKN043 BKN050 OVC060 07/04 A2991 RMK AO2 SLP131 P0004 T00670039 $",
      "metarObsTime": 1776613860
    },
    "KAVP": {
      "status": "OK",
      "delay": "—",
      "metarCat": "IFR",
      "metarRaw": "METAR KAVP 191554Z 01005KT 8SM -RA BKN009 BKN018 OVC023 03/01 A2994 RMK AO2 SLP141 P0002 T00280011",
      "metarObsTime": 1776614040
    },
    "KHZL": {
      "status": "OK",
      "delay": "—",
      "metarCat": "LIFR",
      "metarRaw": "METAR KHZL 191555Z AUTO 33008KT 4SM -SN OVC003 02/00 A2994 RMK AO2 P0001",
      "metarObsTime": 1776614100
    }
  }
}