{
  "generatedAt": "2026-03-06T03:10:15.482Z",
  "airports": {
    "KPIT": {
      "status": "OK",
      "delay": "—",
      "metarCat": "MVFR",
      "metarRaw": "METAR KPIT 060251Z 22004KT 10SM FEW013 SCT021 BKN029 14/13 A3010 RMK AO2 SLP198 T01440128 51016",
      "metarObsTime": 1772765460
    },
    "KAGC": {
      "status": "OK",
      "delay": "—",
      "metarCat": "MVFR",
      "metarRaw": "SPECI KAGC 060302Z 21007KT 10SM FEW020 BKN029 14/13 A3010 RMK AO2 T01440128",
      "metarObsTime": 1772766120
    },
    "KLBE": {
      "status": "OK",
      "delay": "—",
      "metarCat": "MVFR",
      "metarRaw": "METAR KLBE 060153Z 21010KT 10SM SCT019 BKN025 OVC031 15/15 A3012",
      "metarObsTime": 1772761980
    },
    "KJST": {
      "status": "OK",
      "delay": "—",
      "metarCat": "VFR",
      "metarRaw": "SPECI KJST 060306Z AUTO 28010G18KT 10SM FEW013 SCT021 BKN034 13/11 A3010 RMK AO2 T01280111",
      "metarObsTime": 1772766360
    },
    "KERI": {
      "status": "OK",
      "delay": "—",
      "metarCat": "LIFR",
      "metarRaw": "METAR KERI 060251Z 35004KT 1 3/4SM BR OVC002 01/01 A3010 RMK AO2 SLP200 60002 T00110006 53020",
      "metarObsTime": 1772765460
    },
    "KDUJ": {
      "status": "OK",
      "delay": "—",
      "metarCat": "IFR",
      "metarRaw": "METAR KDUJ 060253Z AUTO 25010KT 10SM BKN005 OVC010 12/12 A3007 RMK AO2 RAB16E37 CIG 004V009 SLP185 P0001 60002 T01220122 53014",
      "metarObsTime": 1772765580
    },
    "KBFD": {
      "status": "OK",
      "delay": "—",
      "metarCat": "LIFR",
      "metarRaw": "SPECI KBFD 060301Z AUTO 20004KT 3/4SM BR VV002 08/08 A3006 RMK AO2 T00830083",
      "metarObsTime": 1772766060
    },
    "KBTP": {
      "status": "OK",
      "delay": "—",
      "metarCat": "MVFR",
      "metarRaw": "SPECI KBTP 060304Z AUTO 23004KT 10SM FEW012 BKN022 OVC046 13/13 A3011 RMK AO2 $",
      "metarObsTime": 1772766240
    },
    "KFKL": {
      "status": "OK",
      "delay": "—",
      "metarCat": "LIFR",
      "metarRaw": "METAR KFKL 060256Z AUTO 25006KT 5SM -RA BR OVC003 12/12 A3008 RMK AO2 RAB23 SLP191 P0000 60003 T01220122 51018",
      "metarObsTime": 1772765760
    },
    "KIDI": {
      "status": "OK",
      "delay": "—",
      "metarCat": "MVFR",
      "metarRaw": "METAR KIDI 060255Z AUTO 24007KT 10SM BKN012 OVC022 14/13 A3010 RMK A01",
      "metarObsTime": 1772765700
    },
    "KMDT": {
      "status": "OK",
      "delay": "—",
      "metarCat": "IFR",
      "metarRaw": "SPECI KMDT 060259Z 15011KT 1 3/4SM -RA BR SCT009 BKN025 OVC041 06/05 A3016 RMK AO2 P0001 T00560050",
      "metarObsTime": 1772765940
    },
    "KCXY": {
      "status": "OK",
      "delay": "—",
      "metarCat": "VFR",
      "metarRaw": "METAR KCXY 060256Z AUTO 08006KT 6SM -RA BR FEW008 OVC034 08/07 A3017 RMK AO2 SLP221 P0017 60061 T00780072 53009",
      "metarObsTime": 1772765760
    },
    "KMUI": {
      "status": "OK",
      "delay": "—",
      "metarCat": "IFR",
      "metarRaw": "METAR KMUI 060256Z 05005KT 5SM -RA BR OVC005 07/06 A3017 RMK AO2A LTG DSNT SE SLP222 60093 T00660062 53015",
      "metarObsTime": 1772765760
    },
    "KUNV": {
      "status": "OK",
      "delay": "—",
      "metarCat": "MVFR",
      "metarRaw": "METAR KUNV 060253Z 29004KT 7SM -DZ BKN010 OVC018 07/07 A3012",
      "metarObsTime": 1772765580
    },
    "KAOO": {
      "status": "OK",
      "delay": "—",
      "metarCat": "MVFR",
      "metarRaw": "METAR KAOO 060253Z AUTO 00000KT 5SM BR FEW026 OVC043 08/08 A3011 RMK AO2 SLP203 60010 T00830078 53005",
      "metarObsTime": 1772765580
    },
    "KLNS": {
      "status": "OK",
      "delay": "—",
      "metarCat": "IFR",
      "metarRaw": "METAR KLNS 060253Z 14004KT 2SM +RA BR BKN009 BKN032 OVC070 07/06 A3020 RMK AO2 LTG DSNT E TSB14E29 SLP227 TS SE MOV E LTG DSNT E AND SEW P0043 60055 T00670061 53016",
      "metarObsTime": 1772765580
    },
    "KIPT": {
      "status": "OK",
      "delay": "—",
      "metarCat": "MVFR",
      "metarRaw": "METAR KIPT 060254Z VRB06KT 5SM BR FEW012 OVC024 08/07 A3013 RMK AO2 RAE00B19E48 SLP206 P0002 60005 T00780072 51017 $",
      "metarObsTime": 1772765640
    },
    "KPHL": {
      "status": "OK",
      "delay": "—",
      "metarCat": "LIFR",
      "metarRaw": "SPECI KPHL 060306Z 05010KT 3/4SM -RA BR OVC002 06/05 A3018 RMK AO2 DZE05RAB05 P0000 T00610050 RVRNO $",
      "metarObsTime": 1772766360
    },
    "KABE": {
      "status": "OK",
      "delay": "—",
      "metarCat": "MVFR",
      "metarRaw": "METAR KABE 060251Z 06008KT 5SM +RA BR FEW006 OVC012 05/04 A3021 RMK AO2 SLP234 P0029 60055 T00500044 53006",
      "metarObsTime": 1772765460
    },
    "KAVP": {
      "status": "OK",
      "delay": "—",
      "metarCat": "MVFR",
      "metarRaw": "METAR KAVP 060254Z VRB03KT 7SM -RA BKN016 OVC026 05/04 A3018 RMK AO2 SLP224 P0007 60019 T00500039 53009",
      "metarObsTime": 1772765640
    },
    "KHZL": {
      "status": "OK",
      "delay": "—",
      "metarCat": "IFR",
      "metarRaw": "METAR KHZL 060255Z AUTO 10005KT 3SM UP BKN006 OVC010 04/03 A3018 RMK AO2 P0018",
      "metarObsTime": 1772765700
    }
  }
}