{
  "generatedAt": "2026-04-02T05:40:30.639Z",
  "airports": {
    "KPIT": {
      "status": "OK",
      "delay": "—",
      "metarCat": "LIFR",
      "metarRaw": "SPECI KPIT 020511Z 00000KT 10SM BKN004 OVC018 09/08 A3014 RMK AO2 T00940083 $",
      "metarObsTime": 1775106660
    },
    "KAGC": {
      "status": "OK",
      "delay": "—",
      "metarCat": "MVFR",
      "metarRaw": "METAR KAGC 020453Z 13005KT 10SM OVC019 11/10 A3012 RMK AO2 RAE05 SLP204 P0000 T01060100 402000094",
      "metarObsTime": 1775105580
    },
    "KLBE": {
      "status": "OK",
      "delay": "—",
      "metarCat": "VFR",
      "metarRaw": "METAR KLBE 020535Z AUTO 00000KT 10SM FEW011 BKN080 OVC095 12/12 A3015 RMK AO2",
      "metarObsTime": 1775108100
    },
    "KJST": {
      "status": "OK",
      "delay": "—",
      "metarCat": "LIFR",
      "metarRaw": "METAR KJST 020454Z AUTO 08007KT 4SM -RA BR OVC002 10/09 A3015 RMK AO2 RAB48 SLP209 P0000 T01000094 402110100",
      "metarObsTime": 1775105640
    },
    "KERI": {
      "status": "OK",
      "delay": "—",
      "metarCat": "IFR",
      "metarRaw": "METAR KERI 020451Z AUTO 05011KT 10SM OVC006 03/02 A3023 RMK AO2 SLP242 T00330022 401670017 $",
      "metarObsTime": 1775105460
    },
    "KDUJ": {
      "status": "OK",
      "delay": "—",
      "metarCat": "IFR",
      "metarRaw": "SPECI KDUJ 020524Z AUTO 09010KT 10SM BKN006 OVC060 06/06 A3016 RMK AO2 RAE09 P0000 T00610056",
      "metarObsTime": 1775107440
    },
    "KBFD": {
      "status": "OK",
      "delay": "—",
      "metarCat": "IFR",
      "metarRaw": "METAR KBFD 020453Z AUTO 09008KT 10SM BKN005 OVC025 03/02 A3019 RMK AO2 RAE32 SLP233 P0000 T00280022 401390028",
      "metarObsTime": 1775105580
    },
    "KBTP": {
      "status": "OK",
      "delay": "—",
      "metarCat": "LIFR",
      "metarRaw": "SPECI KBTP 020535Z AUTO 01003KT 10SM OVC004 09/ A3016 RMK AO2 $",
      "metarObsTime": 1775108100
    },
    "KFKL": {
      "status": "OK",
      "delay": "—",
      "metarCat": "IFR",
      "metarRaw": "SPECI KFKL 020536Z AUTO 06006KT 10SM OVC005 07/06 A3017 RMK AO2",
      "metarObsTime": 1775108160
    },
    "KIDI": {
      "status": "OK",
      "delay": "—",
      "metarCat": "MVFR",
      "metarRaw": "METAR KIDI 020535Z AUTO 09008KT 10SM OVC024 11/10 A3016 RMK A01",
      "metarObsTime": 1775108100
    },
    "KMDT": {
      "status": "OK",
      "delay": "—",
      "metarCat": "MVFR",
      "metarRaw": "METAR KMDT 020456Z 02006KT 10SM OVC019 13/09 A3019 RMK AO2 SLP223 T01330094 402560133 $",
      "metarObsTime": 1775105760
    },
    "KCXY": {
      "status": "OK",
      "delay": "—",
      "metarCat": "MVFR",
      "metarRaw": "METAR KCXY 020456Z AUTO VRB05KT 10SM OVC019 14/09 A3020 RMK AO2 SLP228 T01390089 402560139",
      "metarObsTime": 1775105760
    },
    "KMUI": {
      "status": "OK",
      "delay": "—",
      "metarCat": "MVFR",
      "metarRaw": "SPECI KMUI 020527Z AUTO 03009KT 9SM -RA FEW005 OVC016 13/11 A3019 RMK AO2 LTG DSNT NW RAE0455RAB17 SLP225",
      "metarObsTime": 1775107620
    },
    "KUNV": {
      "status": "OK",
      "delay": "—",
      "metarCat": "LIFR",
      "metarRaw": "METAR KUNV 020535Z AUTO 04010KT 10SM -DZ OVC004 06/06 A3023 RMK AO2 T00550055",
      "metarObsTime": 1775108100
    },
    "KAOO": {
      "status": "OK",
      "delay": "—",
      "metarCat": "MVFR",
      "metarRaw": "SPECI KAOO 020514Z AUTO 04007KT 10SM OVC010 08/07 A3020 RMK AO2 T00830072",
      "metarObsTime": 1775106840
    },
    "KLNS": {
      "status": "OK",
      "delay": "—",
      "metarCat": "MVFR",
      "metarRaw": "SPECI KLNS 020501Z AUTO 06012G20KT 10SM OVC013 13/12 A3017 RMK AO2 T01330117",
      "metarObsTime": 1775106060
    },
    "KIPT": {
      "status": "OK",
      "delay": "—",
      "metarCat": "MVFR",
      "metarRaw": "METAR KIPT 020454Z AUTO 36003KT 5SM -RA BR FEW010 SCT041 OVC050 06/05 A3027 RMK AO2 SLP250 P0017 T00610050 402060056 $",
      "metarObsTime": 1775105640
    },
    "KPHL": {
      "status": "OK",
      "delay": "—",
      "metarCat": "MVFR",
      "metarRaw": "METAR KPHL 020454Z 09013G21KT 5SM -RA OVC015 15/12 A3021 RMK AO2 RAB28 SLP230 P0001 T01500122 402890150 $",
      "metarObsTime": 1775105640
    },
    "KABE": {
      "status": "OK",
      "delay": "—",
      "metarCat": "MVFR",
      "metarRaw": "SPECI KABE 020528Z 06015G20KT 10SM BKN027 OVC036 10/07 A3024 RMK AO2 T01000072 $",
      "metarObsTime": 1775107680
    },
    "KAVP": {
      "status": "OK",
      "delay": "—",
      "metarCat": "MVFR",
      "metarRaw": "SPECI KAVP 020527Z AUTO 04007KT 8SM -RA SCT009 BKN021 OVC038 07/06 A3027 RMK AO2 P0002 T00670056",
      "metarObsTime": 1775107620
    },
    "KHZL": {
      "status": "OK",
      "delay": "—",
      "metarCat": "IFR",
      "metarRaw": "METAR KHZL 020535Z AUTO 00000KT 10SM -RA BKN009 OVC026 07/05 A3029 RMK AO2",
      "metarObsTime": 1775108100
    }
  }
}