{
  "generatedAt": "2026-03-19T14:20:20.023Z",
  "airports": {
    "KPIT": {
      "status": "OK",
      "delay": "—",
      "metarCat": "VFR",
      "metarRaw": "METAR KPIT 191351Z 20006KT 10SM OVC044 04/M03 A3014 RMK AO2 SLP224 T00441028",
      "metarObsTime": 1773928260
    },
    "KAGC": {
      "status": "OK",
      "delay": "—",
      "metarCat": "VFR",
      "metarRaw": "METAR KAGC 191353Z 21007KT 10SM OVC043 04/M03 A3015 RMK AO2 SLP223 T00441028",
      "metarObsTime": 1773928380
    },
    "KLBE": {
      "status": "OK",
      "delay": "—",
      "metarCat": "VFR",
      "metarRaw": "METAR KLBE 191350Z 20009KT 10SM OVC042 05/M02 A3017",
      "metarObsTime": 1773928200
    },
    "KJST": {
      "status": "OK",
      "delay": "—",
      "metarCat": "VFR",
      "metarRaw": "METAR KJST 191354Z AUTO 23007KT 10SM OVC032 03/M04 A3011 RMK AO2 RAB03E26 SLP219 P0000 T00281039",
      "metarObsTime": 1773928440
    },
    "KERI": {
      "status": "OK",
      "delay": "—",
      "metarCat": "VFR",
      "metarRaw": "METAR KERI 191351Z 20006KT 10SM OVC036 04/M03 A3013 RMK AO2 SLP208 T00391033",
      "metarObsTime": 1773928260
    },
    "KDUJ": {
      "status": "OK",
      "delay": "—",
      "metarCat": "MVFR",
      "metarRaw": "METAR KDUJ 191353Z AUTO 23006KT 10SM OVC027 02/M05 A3012 RMK AO2 SLP215 T00171050",
      "metarObsTime": 1773928380
    },
    "KBFD": {
      "status": "OK",
      "delay": "—",
      "metarCat": "MVFR",
      "metarRaw": "METAR KBFD 191353Z AUTO 26004KT 8SM OVC013 M01/M04 A3010 RMK AO2 SLP214 T10111039",
      "metarObsTime": 1773928380
    },
    "KBTP": {
      "status": "OK",
      "delay": "—",
      "metarCat": "VFR",
      "metarRaw": "METAR KBTP 191356Z AUTO 20006KT 10SM OVC040 04/M03 A3014 RMK AO2 SLP225 T00391028 $",
      "metarObsTime": 1773928560
    },
    "KFKL": {
      "status": "OK",
      "delay": "—",
      "metarCat": "MVFR",
      "metarRaw": "METAR KFKL 191356Z AUTO 21005KT 10SM OVC029 02/M03 A3012 RMK AO2 SLP218 T00171033 FZRANO",
      "metarObsTime": 1773928560
    },
    "KIDI": {
      "status": "OK",
      "delay": "—",
      "metarCat": "VFR",
      "metarRaw": "METAR KIDI 191415Z AUTO 23007KT 10SM OVC038 04/M02 A3015 RMK A01",
      "metarObsTime": 1773929700
    },
    "KMDT": {
      "status": "OK",
      "delay": "—",
      "metarCat": "VFR",
      "metarRaw": "METAR KMDT 191356Z 12005KT 10SM FEW048 OVC060 02/M03 A3026 RMK AO2 SLP253 T00221028",
      "metarObsTime": 1773928560
    },
    "KCXY": {
      "status": "OK",
      "delay": "—",
      "metarCat": "VFR",
      "metarRaw": "METAR KCXY 191356Z VRB03KT 10SM SCT047 OVC055 02/M04 A3027 RMK AO2 SLP255 T00221039",
      "metarObsTime": 1773928560
    },
    "KMUI": {
      "status": "OK",
      "delay": "—",
      "metarCat": "VFR",
      "metarRaw": "METAR KMUI 191355Z 00000KT 10SM OVC045 02/M03 A3025 RMK AO2A SLP252 T00171026",
      "metarObsTime": 1773928500
    },
    "KUNV": {
      "status": "OK",
      "delay": "—",
      "metarCat": "VFR",
      "metarRaw": "METAR KUNV 191353Z 22004KT 10SM OVC039 02/M08 A3017",
      "metarObsTime": 1773928380
    },
    "KAOO": {
      "status": "OK",
      "delay": "—",
      "metarCat": "VFR",
      "metarRaw": "METAR KAOO 191353Z AUTO 19003KT 10SM OVC037 02/M07 A3017 RMK AO2 SLP232 T00171072",
      "metarObsTime": 1773928380
    },
    "KLNS": {
      "status": "OK",
      "delay": "—",
      "metarCat": "VFR",
      "metarRaw": "METAR KLNS 191353Z 16004KT 10SM OVC050 02/M04 A3027 RMK AO2 SLP255 T00171039",
      "metarObsTime": 1773928380
    },
    "KIPT": {
      "status": "OK",
      "delay": "—",
      "metarCat": "VFR",
      "metarRaw": "METAR KIPT 191354Z 12007KT 080V190 10SM OVC044 01/M06 A3022 RMK AO2 SLP237 T00111061",
      "metarObsTime": 1773928440
    },
    "KPHL": {
      "status": "OK",
      "delay": "—",
      "metarCat": "VFR",
      "metarRaw": "METAR KPHL 191354Z 18007KT 10SM BKN070 OVC100 03/M04 A3032 RMK AO2 SLP267 T00331039",
      "metarObsTime": 1773928440
    },
    "KABE": {
      "status": "OK",
      "delay": "—",
      "metarCat": "VFR",
      "metarRaw": "METAR KABE 191351Z 18007KT 10SM OVC060 01/M05 A3028 RMK AO2 SLP258 T00111050",
      "metarObsTime": 1773928260
    },
    "KAVP": {
      "status": "OK",
      "delay": "—",
      "metarCat": "VFR",
      "metarRaw": "METAR KAVP 191354Z AUTO VRB05KT 10SM OVC060 00/M07 A3021 RMK AO2 SLP237 T00001067",
      "metarObsTime": 1773928440
    },
    "KHZL": {
      "status": "OK",
      "delay": "—",
      "metarCat": "VFR",
      "metarRaw": "METAR KHZL 191415Z AUTO 17003KT 10SM OVC040 00/M06 RMK AO2",
      "metarObsTime": 1773929700
    }
  }
}