{
  "generatedAt": "2026-04-28T17:21:10.334Z",
  "faaFlow": {
    "updatedAt": "2026-04-28T17:21:09.494Z",
    "source": "https://www.fly.faa.gov/adv/adv_spt",
    "terminal": [
      {
        "time": "—",
        "text": "AFTER",
        "code": "FLOW",
        "label": "FAA flow impact",
        "level": "yellow",
        "section": "Terminal Planned",
        "airports": []
      },
      {
        "time": "2000",
        "text": "BNA GROUND STOP POSSIBLE",
        "code": "GS",
        "label": "Ground stop possible",
        "level": "yellow",
        "section": "Terminal Planned",
        "airports": []
      },
      {
        "time": "—",
        "text": "AFTER",
        "code": "FLOW",
        "label": "FAA flow impact",
        "level": "yellow",
        "section": "Terminal Planned",
        "airports": []
      },
      {
        "time": "2200",
        "text": "JFK GROUND DELAY PROGRAM POSSIBLE",
        "code": "GDP",
        "label": "Ground delay possible",
        "level": "yellow",
        "section": "Terminal Planned",
        "airports": []
      },
      {
        "time": "—",
        "text": "AFTER",
        "code": "FLOW",
        "label": "FAA flow impact",
        "level": "yellow",
        "section": "Terminal Planned",
        "airports": []
      },
      {
        "time": "0200",
        "text": "MEM GROUND STOP/DELAY PROGRAM POSSIBLE",
        "code": "GS",
        "label": "Ground stop possible",
        "level": "yellow",
        "section": "Terminal Planned",
        "airports": []
      }
    ],
    "enroute": [],
    "airports": {
      "KPIT": null,
      "KAGC": null,
      "KLBE": null,
      "KJST": null,
      "KERI": null,
      "KDUJ": null,
      "KBFD": null,
      "KBTP": null,
      "KFKL": null,
      "KIDI": null,
      "KMDT": null,
      "KCXY": null,
      "KMUI": null,
      "KUNV": null,
      "KAOO": null,
      "KLNS": null,
      "KIPT": null,
      "KPHL": null,
      "KABE": null,
      "KAVP": null,
      "KHZL": null
    }
  },
  "airports": {
    "KPIT": {
      "status": "OK",
      "delay": "—",
      "metarCat": "MVFR",
      "metarRaw": "METAR KPIT 281651Z 24007KT 10SM OVC012 16/12 A2994 RMK AO2 DZE22 SLP143 P0000 T01560122",
      "metarObsTime": 1777395060,
      "faaFlow": null
    },
    "KAGC": {
      "status": "OK",
      "delay": "—",
      "metarCat": "MVFR",
      "metarRaw": "METAR KAGC 281653Z 21006KT 9SM OVC013 15/12 A2995 RMK AO2 SLP142 T01500122",
      "metarObsTime": 1777395180,
      "faaFlow": null
    },
    "KLBE": {
      "status": "OK",
      "delay": "—",
      "metarCat": "MVFR",
      "metarRaw": "METAR KLBE 281647Z 21010G20KT 10SM OVC020 17/13 A2998",
      "metarObsTime": 1777394820,
      "faaFlow": null
    },
    "KJST": {
      "status": "OK",
      "delay": "—",
      "metarCat": "IFR",
      "metarRaw": "METAR KJST 281654Z AUTO 17007KT 2 1/2SM -RA BR OVC005 09/08 A2999 RMK AO2 RAB1557 SLP159 P0001 T00940083",
      "metarObsTime": 1777395240,
      "faaFlow": null
    },
    "KERI": {
      "status": "OK",
      "delay": "—",
      "metarCat": "MVFR",
      "metarRaw": "METAR KERI 281651Z 18018G22KT 10SM OVC025 17/11 A2987 RMK AO2 SLP113 T01720111",
      "metarObsTime": 1777395060,
      "faaFlow": null
    },
    "KDUJ": {
      "status": "OK",
      "delay": "—",
      "metarCat": "MVFR",
      "metarRaw": "METAR KDUJ 281653Z AUTO 13009G16KT 8SM OVC010 10/08 A2997 RMK AO2 CIG 009V013 SLP149 T01000078",
      "metarObsTime": 1777395180,
      "faaFlow": null
    },
    "KBFD": {
      "status": "OK",
      "delay": "—",
      "metarCat": "IFR",
      "metarRaw": "METAR KBFD 281653Z AUTO 14012G23KT 10SM OVC008 09/07 A2997 RMK AO2 RAB15E27 SLPNO P0000 T00890072",
      "metarObsTime": 1777395180,
      "faaFlow": null
    },
    "KBTP": {
      "status": "OK",
      "delay": "—",
      "metarCat": "MVFR",
      "metarRaw": "METAR KBTP 281656Z AUTO 18004KT 10SM OVC012 14/13 A2996 RMK AO2 SLP149 T01390133 $",
      "metarObsTime": 1777395360,
      "faaFlow": null
    },
    "KFKL": {
      "status": "OK",
      "delay": "—",
      "metarCat": "—",
      "metarRaw": "—",
      "metarObsTime": null,
      "faaFlow": null
    },
    "KIDI": {
      "status": "OK",
      "delay": "—",
      "metarCat": "MVFR",
      "metarRaw": "METAR KIDI 281715Z AUTO 14008KT 10SM OVC019 12/11 A2998 RMK A01",
      "metarObsTime": 1777396500,
      "faaFlow": null
    },
    "KMDT": {
      "status": "OK",
      "delay": "—",
      "metarCat": "VFR",
      "metarRaw": "METAR KMDT 281656Z VRB04KT 10SM -RA BKN045 OVC060 12/07 A3012 RMK AO2 RAB14 SLP200 P0000 T01170072",
      "metarObsTime": 1777395360,
      "faaFlow": null
    },
    "KCXY": {
      "status": "OK",
      "delay": "—",
      "metarCat": "VFR",
      "metarRaw": "METAR KCXY 281656Z 13008KT 7SM BKN043 OVC050 12/07 A3012 RMK AO2 RAB08E34 SLP200 P0001 T01170072",
      "metarObsTime": 1777395360,
      "faaFlow": null
    },
    "KMUI": {
      "status": "OK",
      "delay": "—",
      "metarCat": "VFR",
      "metarRaw": "METAR KMUI 281655Z 22007KT 10SM VCSH BKN045 OVC060 15/10 A3010 RMK AO2A RAB36E53 SLP196 T01530096",
      "metarObsTime": 1777395300,
      "faaFlow": null
    },
    "KUNV": {
      "status": "OK",
      "delay": "—",
      "metarCat": "MVFR",
      "metarRaw": "SPECI KUNV 281618Z 18005KT 4SM -RA BR OVC017 10/07 A3006",
      "metarObsTime": 1777393080,
      "faaFlow": null
    },
    "KAOO": {
      "status": "OK",
      "delay": "—",
      "metarCat": "MVFR",
      "metarRaw": "METAR KAOO 281653Z AUTO 16010KT 3SM -RA BR OVC014 09/08 A3003 RMK AO2 RAB31 SLP173 P0000 T00940078",
      "metarObsTime": 1777395180,
      "faaFlow": null
    },
    "KLNS": {
      "status": "OK",
      "delay": "—",
      "metarCat": "VFR",
      "metarRaw": "METAR KLNS 281653Z 19009KT 10SM OVC060 14/07 A3012 RMK AO2 SLP200 T01390067",
      "metarObsTime": 1777395180,
      "faaFlow": null
    },
    "KIPT": {
      "status": "OK",
      "delay": "—",
      "metarCat": "VFR",
      "metarRaw": "METAR KIPT 281654Z 12006KT 10SM SCT070 OVC080 14/06 A3007 RMK AO2 SLP182 T01390056 $",
      "metarObsTime": 1777395240,
      "faaFlow": null
    },
    "KPHL": {
      "status": "OK",
      "delay": "—",
      "metarCat": "VFR",
      "metarRaw": "METAR KPHL 281654Z 20009KT 10SM FEW070 BKN150 OVC250 17/03 A3015 RMK AO2 SLP209 VIRGA T01720028 $",
      "metarObsTime": 1777395240,
      "faaFlow": null
    },
    "KABE": {
      "status": "OK",
      "delay": "—",
      "metarCat": "VFR",
      "metarRaw": "METAR KABE 281651Z 19008KT 10SM SCT085 SCT100 15/02 A3014 RMK AO2 RAB36E49 SLP205 P0000 T01500017",
      "metarObsTime": 1777395060,
      "faaFlow": null
    },
    "KAVP": {
      "status": "OK",
      "delay": "—",
      "metarCat": "VFR",
      "metarRaw": "METAR KAVP 281654Z 23009G16KT 10SM FEW060 OVC085 15/01 A3011 RMK AO2 SLP195 T01500011",
      "metarObsTime": 1777395240,
      "faaFlow": null
    },
    "KHZL": {
      "status": "OK",
      "delay": "—",
      "metarCat": "VFR",
      "metarRaw": "METAR KHZL 281715Z AUTO 17006KT 10SM BKN090 12/02 A3014 RMK AO2",
      "metarObsTime": 1777396500,
      "faaFlow": null
    }
  }
}