{
  "generatedAt": "2026-03-17T10:40:14.102Z",
  "airports": {
    "KPIT": {
      "status": "OK",
      "delay": "—",
      "metarCat": "VFR",
      "metarRaw": "METAR KPIT 170951Z 25008KT 10SM -SN FEW009 SCT028 OVC048 M06/M09 A2982 RMK AO2 SLP120 P0000 T10561094 $",
      "metarObsTime": 1773741060
    },
    "KAGC": {
      "status": "OK",
      "delay": "—",
      "metarCat": "IFR",
      "metarRaw": "SPECI KAGC 171035Z AUTO 26008KT 2 1/2SM -SN BKN028 BKN040 OVC049 M06/M08 A2983 RMK AO2 SNB15 P0000 T10561083 $",
      "metarObsTime": 1773743700
    },
    "KLBE": {
      "status": "OK",
      "delay": "—",
      "metarCat": "VFR",
      "metarRaw": "METAR KLBE 171035Z AUTO 23007KT 10SM -SN SCT029 OVC034 M05/M09 A2986 RMK AO2",
      "metarObsTime": 1773743700
    },
    "KJST": {
      "status": "OK",
      "delay": "—",
      "metarCat": "IFR",
      "metarRaw": "SPECI KJST 171037Z AUTO 27019G32KT 2 1/2SM -SN FEW018 BKN023 OVC046 M08/M11 A2970 RMK AO2 PK WND 29034/1009 VIS 1 1/4V4 P0000 T10831111",
      "metarObsTime": 1773743820
    },
    "KERI": {
      "status": "OK",
      "delay": "—",
      "metarCat": "VFR",
      "metarRaw": "METAR KERI 170951Z 25019G32KT 220V300 6SM HZ OVC034 M05/12 A2974 RMK PK WIND260/40",
      "metarObsTime": 1773741060
    },
    "KDUJ": {
      "status": "OK",
      "delay": "—",
      "metarCat": "IFR",
      "metarRaw": "SPECI KDUJ 171012Z AUTO 25014KT 1 1/4SM -SN BR BKN017 BKN022 OVC033 M08/M11 A2971 RMK AO2 P0000 T10831106 TSNO",
      "metarObsTime": 1773742320
    },
    "KBFD": {
      "status": "OK",
      "delay": "—",
      "metarCat": "MVFR",
      "metarRaw": "SPECI KBFD 171031Z AUTO 25013G29KT 3SM -SN SCT024 OVC032 M09/M13 A2965 RMK AO2 PK WND 26029/1024 P0000 T10891128",
      "metarObsTime": 1773743460
    },
    "KBTP": {
      "status": "OK",
      "delay": "—",
      "metarCat": "—",
      "metarRaw": "—",
      "metarObsTime": null
    },
    "KFKL": {
      "status": "OK",
      "delay": "—",
      "metarCat": "MVFR",
      "metarRaw": "METAR KFKL 170956Z AUTO 26014G23KT 6SM -SN SCT023 BKN029 OVC036 M07/M10 A2974 RMK AO2 SLP092 P0000 T10721100 FZRANO",
      "metarObsTime": 1773741360
    },
    "KIDI": {
      "status": "OK",
      "delay": "—",
      "metarCat": "VFR",
      "metarRaw": "METAR KIDI 171035Z AUTO 27014G23KT 10SM FEW034 OVC044 M06/M10 A2981 RMK A01",
      "metarObsTime": 1773743700
    },
    "KMDT": {
      "status": "OK",
      "delay": "—",
      "metarCat": "VFR",
      "metarRaw": "METAR KMDT 170956Z 28018G31KT 10SM SCT060 M01/M08 A2977 RMK AO2 PK WND 25032/0859 SLP082 T10061083",
      "metarObsTime": 1773741360
    },
    "KCXY": {
      "status": "OK",
      "delay": "—",
      "metarCat": "VFR",
      "metarRaw": "METAR KCXY 170956Z AUTO 27011G22KT 10SM CLR M02/M10 A2977 RMK AO2 PK WND 28029/0913 SLP085 T10171100",
      "metarObsTime": 1773741360
    },
    "KMUI": {
      "status": "OK",
      "delay": "—",
      "metarCat": "VFR",
      "metarRaw": "SPECI KMUI 170959Z AUTO 25011KT 9SM FEW036 BKN049 M01/M06 A2973 RMK AO2 SNE59 SLP072",
      "metarObsTime": 1773741540
    },
    "KUNV": {
      "status": "OK",
      "delay": "—",
      "metarCat": "VFR",
      "metarRaw": "METAR KUNV 170953Z 26013G26KT 10SM BKN032 M06/M11 A2972",
      "metarObsTime": 1773741180
    },
    "KAOO": {
      "status": "OK",
      "delay": "—",
      "metarCat": "VFR",
      "metarRaw": "METAR KAOO 170953Z AUTO 28012KT 9SM -SN BKN033 OVC040 M06/M11 A2974 RMK AO2 PK WND 28037/0856 SNB22 SLP086 P0000 T10611106",
      "metarObsTime": 1773741180
    },
    "KLNS": {
      "status": "OK",
      "delay": "—",
      "metarCat": "VFR",
      "metarRaw": "METAR KLNS 170953Z COR 27022G30KT 10SM CLR M02/M08 A2975 RMK AO2 PK WND 27030/0936 SLP075 T10171083",
      "metarObsTime": 1773741180
    },
    "KIPT": {
      "status": "OK",
      "delay": "—",
      "metarCat": "VFR",
      "metarRaw": "METAR KIPT 170954Z AUTO 26017G27KT 10SM SCT055 M03/M07 A2970 RMK AO2 PK WND 27028/0936 SLP058 T10331072",
      "metarObsTime": 1773741240
    },
    "KPHL": {
      "status": "OK",
      "delay": "—",
      "metarCat": "VFR",
      "metarRaw": "METAR KPHL 170954Z 27018KT 10SM SCT048 02/M07 A2976 RMK AO2 PK WND 25033/0858 SLP078 T00221067 $",
      "metarObsTime": 1773741240
    },
    "KABE": {
      "status": "OK",
      "delay": "—",
      "metarCat": "VFR",
      "metarRaw": "METAR KABE 170951Z 27016G31KT 10SM BKN055 M01/M08 A2970 RMK AO2 PK WND 27031/0942 SNE0856 SLP057 P0000 T10061083 $",
      "metarObsTime": 1773741060
    },
    "KAVP": {
      "status": "OK",
      "delay": "—",
      "metarCat": "VFR",
      "metarRaw": "METAR KAVP 170954Z 25018G24KT 10SM FEW048 SCT055 M03/M08 A2964 RMK AO2 PK WND 25026/0927 SNB0858E19 SLP037 P0000 T10281078",
      "metarObsTime": 1773741240
    },
    "KHZL": {
      "status": "OK",
      "delay": "—",
      "metarCat": "VFR",
      "metarRaw": "METAR KHZL 171035Z AUTO 26008G16KT 230V300 10SM SCT032 M04/M10 RMK AO2",
      "metarObsTime": 1773743700
    }
  }
}