{
  "generatedAt": "2026-04-01T04:40:31.105Z",
  "airports": {
    "KPIT": {
      "status": "OK",
      "delay": "—",
      "metarCat": "VFR",
      "metarRaw": "SPECI KPIT 010434Z 24005KT 7SM -RA FEW009 SCT025 OVC055 16/14 A2998 RMK AO2 TSE18 OCNL LTG DSNT SE P0013 T01610144 $",
      "metarObsTime": 1775018040
    },
    "KAGC": {
      "status": "OK",
      "delay": "—",
      "metarCat": "MVFR",
      "metarRaw": "SPECI KAGC 010435Z 28004KT 4SM -RA BR BKN055 BKN070 OVC080 16/14 A3000 RMK AO2 PK WND 33031/0403 RAB0359 TSB0358E26 P0025 T01610144",
      "metarObsTime": 1775018100
    },
    "KLBE": {
      "status": "OK",
      "delay": "—",
      "metarCat": "MVFR",
      "metarRaw": "METAR KLBE 010435Z AUTO 31015KT 4SM RA BR FEW010 SCT022 BKN039 17/15 A3005 RMK AO2 LTG DSNT N AND NW",
      "metarObsTime": 1775018100
    },
    "KJST": {
      "status": "OK",
      "delay": "—",
      "metarCat": "VFR",
      "metarRaw": "METAR KJST 010354Z AUTO 01009G18KT 10SM BKN060 OVC075 17/11 A2997 RMK AO2 SLP140 T01670106",
      "metarObsTime": 1775015640
    },
    "KERI": {
      "status": "OK",
      "delay": "—",
      "metarCat": "VFR",
      "metarRaw": "METAR KERI 010351Z AUTO 18009KT 10SM OVC039 16/14 A2986 RMK AO2 SLP110 T01610139 $",
      "metarObsTime": 1775015460
    },
    "KDUJ": {
      "status": "OK",
      "delay": "—",
      "metarCat": "MVFR",
      "metarRaw": "SPECI KDUJ 010437Z AUTO 23016G21KT 4SM RA BR FEW004 BKN050 OVC075 13/13 A2996 RMK AO2 LTG DSNT S P0013 T01330128 $",
      "metarObsTime": 1775018220
    },
    "KBFD": {
      "status": "OK",
      "delay": "—",
      "metarCat": "IFR",
      "metarRaw": "SPECI KBFD 010428Z AUTO 24006KT 10SM BKN007 BKN012 BKN019 13/13 A2992 RMK AO2 RAB18E28 P0000 T01330128",
      "metarObsTime": 1775017680
    },
    "KBTP": {
      "status": "OK",
      "delay": "—",
      "metarCat": "VFR",
      "metarRaw": "SPECI KBTP 010419Z AUTO 26005KT 10SM RA SCT050 BKN070 OVC095 14/ A2999 RMK AO2 LTG DSNT E-S TSE13 $",
      "metarObsTime": 1775017140
    },
    "KFKL": {
      "status": "OK",
      "delay": "—",
      "metarCat": "IFR",
      "metarRaw": "SPECI KFKL 010423Z AUTO 20009KT 10SM RA BKN005 BKN013 OVC055 14/14 A2993 RMK AO2 CIG 003V009 P0008",
      "metarObsTime": 1775017380
    },
    "KIDI": {
      "status": "OK",
      "delay": "—",
      "metarCat": "IFR",
      "metarRaw": "METAR KIDI 010435Z AUTO 30009G21KT 2SM BR SCT004 BKN015 OVC060 15/14 A3002 RMK A01",
      "metarObsTime": 1775018100
    },
    "KMDT": {
      "status": "OK",
      "delay": "—",
      "metarCat": "VFR",
      "metarRaw": "METAR KMDT 010356Z 22012G19KT 10SM FEW100 SCT250 23/12 A2989 RMK AO2 PK WND 23026/0324 SLP122 T02280122",
      "metarObsTime": 1775015760
    },
    "KCXY": {
      "status": "OK",
      "delay": "—",
      "metarCat": "VFR",
      "metarRaw": "METAR KCXY 010356Z AUTO 22011G20KT 10SM CLR 23/12 A2990 RMK AO2 PK WND 20029/0334 SLP122 T02330122",
      "metarObsTime": 1775015760
    },
    "KMUI": {
      "status": "OK",
      "delay": "—",
      "metarCat": "VFR",
      "metarRaw": "METAR KMUI 010355Z AUTO 24005KT 10SM SCT210 20/14 A2988 RMK AO2 SLP118 T01960137",
      "metarObsTime": 1775015700
    },
    "KUNV": {
      "status": "OK",
      "delay": "—",
      "metarCat": "VFR",
      "metarRaw": "METAR KUNV 010435Z AUTO 23004KT 10SM SCT055 OVC075 16/13 A2996 RMK AO2 T01630125",
      "metarObsTime": 1775018100
    },
    "KAOO": {
      "status": "OK",
      "delay": "—",
      "metarCat": "VFR",
      "metarRaw": "METAR KAOO 010353Z AUTO 34008KT 300V360 10SM FEW070 OVC095 21/09 A2995 RMK AO2 RAB37E49 SLP135 P0000 T02060094",
      "metarObsTime": 1775015580
    },
    "KLNS": {
      "status": "OK",
      "delay": "—",
      "metarCat": "VFR",
      "metarRaw": "METAR KLNS 010353Z AUTO 22008KT 10SM CLR 22/12 A2991 RMK AO2 SLP125 T02170117",
      "metarObsTime": 1775015580
    },
    "KIPT": {
      "status": "OK",
      "delay": "—",
      "metarCat": "MVFR",
      "metarRaw": "METAR KIPT 010354Z AUTO 29008KT 5SM RA FEW055 BKN080 OVC100 18/15 A2992 RMK AO2 SLP128 P0005 T01780150",
      "metarObsTime": 1775015640
    },
    "KPHL": {
      "status": "OK",
      "delay": "—",
      "metarCat": "VFR",
      "metarRaw": "METAR KPHL 010354Z 21012G24KT 10SM SCT250 OVC300 23/13 A2993 RMK AO2 SLP134 T02280128 $",
      "metarObsTime": 1775015640
    },
    "KABE": {
      "status": "OK",
      "delay": "—",
      "metarCat": "VFR",
      "metarRaw": "METAR KABE 010351Z 22011KT 10SM CLR 21/12 A2988 RMK AO2 SLP116 T02110117 $",
      "metarObsTime": 1775015460
    },
    "KAVP": {
      "status": "OK",
      "delay": "—",
      "metarCat": "VFR",
      "metarRaw": "METAR KAVP 010354Z 25012G21KT 10SM FEW065 SCT080 BKN100 23/11 A2986 RMK AO2 LTG DSNT NE SLP104 T02280111",
      "metarObsTime": 1775015640
    },
    "KHZL": {
      "status": "OK",
      "delay": "—",
      "metarCat": "VFR",
      "metarRaw": "METAR KHZL 010435Z AUTO 20005KT 10SM SCT070 BKN095 21/10 A2993 RMK AO2",
      "metarObsTime": 1775018100
    }
  }
}