{
  "generatedAt": "2026-03-16T09:00:20.104Z",
  "airports": {
    "KPIT": {
      "status": "OK",
      "delay": "—",
      "metarCat": "VFR",
      "metarRaw": "METAR KPIT 160851Z 14018G22KT 10SM FEW050 FEW250 14/09 A2940 RMK AO2 SLP959 T01390089 58049 VISNO SE $",
      "metarObsTime": 1773651060
    },
    "KAGC": {
      "status": "OK",
      "delay": "—",
      "metarCat": "VFR",
      "metarRaw": "METAR KAGC 160853Z 13012G24KT 10SM FEW085 14/10 A2944 RMK AO2 PRESFR SLP967 T01390100 58041",
      "metarObsTime": 1773651180
    },
    "KLBE": {
      "status": "OK",
      "delay": "—",
      "metarCat": "VFR",
      "metarRaw": "METAR KLBE 160855Z AUTO 15009G19KT 100V160 10SM CLR 16/12 A2951 RMK AO2",
      "metarObsTime": 1773651300
    },
    "KJST": {
      "status": "OK",
      "delay": "—",
      "metarCat": "LIFR",
      "metarRaw": "METAR KJST 160854Z AUTO 16014G23KT 6SM BR OVC003 10/09 A2959 RMK AO2 PK WND 17027/0826 RAB36E46 SLP026 P0000 60000 T01000094 58024",
      "metarObsTime": 1773651240
    },
    "KERI": {
      "status": "OK",
      "delay": "—",
      "metarCat": "—",
      "metarRaw": "—",
      "metarObsTime": null
    },
    "KDUJ": {
      "status": "OK",
      "delay": "—",
      "metarCat": "IFR",
      "metarRaw": "METAR KDUJ 160853Z AUTO 14011G21KT 10SM OVC008 10/08 A2954 RMK AO2 SLP002 T01000083 58035 $",
      "metarObsTime": 1773651180
    },
    "KBFD": {
      "status": "OK",
      "delay": "—",
      "metarCat": "IFR",
      "metarRaw": "METAR KBFD 160853Z AUTO 14014G26KT 10SM OVC007 08/08 A2953 RMK AO2 PK WND 14027/0841 RAE0758 PRESFR SLP000 P0000 60000 T00830078 58036",
      "metarObsTime": 1773651180
    },
    "KBTP": {
      "status": "OK",
      "delay": "—",
      "metarCat": "—",
      "metarRaw": "—",
      "metarObsTime": null
    },
    "KFKL": {
      "status": "OK",
      "delay": "—",
      "metarCat": "VFR",
      "metarRaw": "METAR KFKL 160856Z AUTO 16016G28KT 10SM SCT019 BKN060 BKN075 13/09 A2943 RMK AO2 PK WND 14028/0849 SLPNO T01280094 58042",
      "metarObsTime": 1773651360
    },
    "KIDI": {
      "status": "OK",
      "delay": "—",
      "metarCat": "MVFR",
      "metarRaw": "METAR KIDI 160855Z AUTO 16012G22KT 10SM BKN020 BKN025 OVC043 13/10 A2953 RMK A01",
      "metarObsTime": 1773651300
    },
    "KMDT": {
      "status": "OK",
      "delay": "—",
      "metarCat": "IFR",
      "metarRaw": "SPECI KMDT 160821Z 12009KT 10SM OVC009 12/12 A2973 RMK AO2 T01220117 $",
      "metarObsTime": 1773649260
    },
    "KCXY": {
      "status": "OK",
      "delay": "—",
      "metarCat": "IFR",
      "metarRaw": "METAR KCXY 160756Z AUTO 10010KT 10SM OVC008 12/11 A2975 RMK AO2 SLP076 T01170111",
      "metarObsTime": 1773647760
    },
    "KMUI": {
      "status": "OK",
      "delay": "—",
      "metarCat": "LIFR",
      "metarRaw": "METAR KMUI 160855Z AUTO 04006KT 4SM BR OVC002 09/09 A2972 RMK AO2 RAB20E21DZB21E33 SLP068 P0000 60006 T00890086 57043 $",
      "metarObsTime": 1773651300
    },
    "KUNV": {
      "status": "OK",
      "delay": "—",
      "metarCat": "MVFR",
      "metarRaw": "METAR KUNV 160835Z AUTO 18004KT 10SM OVC012 10/10 A2965 RMK AO2 T01000098",
      "metarObsTime": 1773650100
    },
    "KAOO": {
      "status": "OK",
      "delay": "—",
      "metarCat": "IFR",
      "metarRaw": "METAR KAOO 160853Z AUTO 17015KT 10SM OVC005 12/11 A2961 RMK AO2 SLP029 60002 T01170111 58030",
      "metarObsTime": 1773651180
    },
    "KLNS": {
      "status": "OK",
      "delay": "—",
      "metarCat": "LIFR",
      "metarRaw": "METAR KLNS 160853Z AUTO 14009KT 3SM -RA BR OVC004 13/12 A2974 RMK AO2 RAB35 SLP073 P0000 60005 T01280122 56039",
      "metarObsTime": 1773651180
    },
    "KIPT": {
      "status": "OK",
      "delay": "—",
      "metarCat": "IFR",
      "metarRaw": "METAR KIPT 160854Z AUTO 10010G21KT 2 1/2SM BR FEW010 OVC018 10/09 A2969 RMK AO2 PK WND 10026/0759 RAB07E45 SLP055 P0002 60008 T01000094 56025 $",
      "metarObsTime": 1773651240
    },
    "KPHL": {
      "status": "OK",
      "delay": "—",
      "metarCat": "IFR",
      "metarRaw": "METAR KPHL 160854Z 18014G25KT 5SM BR OVC008 16/14 A2981 RMK AO2 PK WND 18027/0836 RAE46 SLP093 P0006 60019 T01610144 56044 $",
      "metarObsTime": 1773651240
    },
    "KABE": {
      "status": "OK",
      "delay": "—",
      "metarCat": "IFR",
      "metarRaw": "METAR KABE 160851Z 12007KT 6SM BR OVC007 09/08 A2980 RMK AO2 RAE45 SLP092 P0005 60013 T00890083 56049 $",
      "metarObsTime": 1773651060
    },
    "KAVP": {
      "status": "OK",
      "delay": "—",
      "metarCat": "VFR",
      "metarRaw": "METAR KAVP 160854Z 15007G15KT 080V210 10SM SCT018 BKN035 OVC080 11/09 A2975 RMK AO2 PK WND 17028/0810 RAE15B36E52 SLP074 P0001 60001 T01110089 56045",
      "metarObsTime": 1773651240
    },
    "KHZL": {
      "status": "OK",
      "delay": "—",
      "metarCat": "LIFR",
      "metarRaw": "METAR KHZL 160855Z AUTO 14006KT 3SM -DZ OVC003 08/07 A2979 RMK AO2 LTG DSNT S",
      "metarObsTime": 1773651300
    }
  }
}