{
  "generatedAt": "2026-04-26T00:40:59.677Z",
  "airports": {
    "KPIT": {
      "status": "OK",
      "delay": "—",
      "metarCat": "MVFR",
      "metarRaw": "METAR KPIT 252351Z 31009KT 10SM OVC014 12/08 A2990 RMK AO2 SLP132 60000 T01170083 10167 20117 51020",
      "metarObsTime": 1777161060
    },
    "KAGC": {
      "status": "OK",
      "delay": "—",
      "metarCat": "MVFR",
      "metarRaw": "SPECI KAGC 260030Z 33006KT 10SM OVC014 12/08 A2990 RMK AO2 T01170083",
      "metarObsTime": 1777163400
    },
    "KLBE": {
      "status": "OK",
      "delay": "—",
      "metarCat": "MVFR",
      "metarRaw": "METAR KLBE 252347Z 32005KT 10SM OVC015 14/11 A2988",
      "metarObsTime": 1777160820
    },
    "KJST": {
      "status": "OK",
      "delay": "—",
      "metarCat": "LIFR",
      "metarRaw": "SPECI KJST 260027Z AUTO 30009KT 1 1/4SM -RA BR OVC002 10/10 A2986 RMK AO2 RAB06 P0001 T01000100",
      "metarObsTime": 1777163220
    },
    "KERI": {
      "status": "OK",
      "delay": "—",
      "metarCat": "IFR",
      "metarRaw": "SPECI KERI 260022Z 01006KT 2 1/2SM BR OVC005 05/04 A2998 RMK AO2 T00500044",
      "metarObsTime": 1777162920
    },
    "KDUJ": {
      "status": "OK",
      "delay": "—",
      "metarCat": "LIFR",
      "metarRaw": "SPECI KDUJ 260022Z AUTO 33008KT 2 1/2SM BR BKN003 OVC008 09/08 A2988 RMK AO2 P0001 T00890078",
      "metarObsTime": 1777162920
    },
    "KBFD": {
      "status": "OK",
      "delay": "—",
      "metarCat": "LIFR",
      "metarRaw": "SPECI KBFD 260016Z AUTO 34005KT 2 1/2SM BR OVC003 06/06 A2990 RMK AO2 RAE10 P0000 T00610061 $",
      "metarObsTime": 1777162560
    },
    "KBTP": {
      "status": "OK",
      "delay": "—",
      "metarCat": "MVFR",
      "metarRaw": "METAR KBTP 252356Z AUTO 33009KT 10SM OVC012 09/09 A2992 RMK AO2 SLP137 T00940089 10144 20094 53019 $",
      "metarObsTime": 1777161360
    },
    "KFKL": {
      "status": "OK",
      "delay": "—",
      "metarCat": "—",
      "metarRaw": "—",
      "metarObsTime": null
    },
    "KIDI": {
      "status": "OK",
      "delay": "—",
      "metarCat": "MVFR",
      "metarRaw": "METAR KIDI 260035Z AUTO 32006KT 10SM OVC012 11/10 A2990 RMK A01",
      "metarObsTime": 1777163700
    },
    "KMDT": {
      "status": "OK",
      "delay": "—",
      "metarCat": "MVFR",
      "metarRaw": "SPECI KMDT 260022Z 09007KT 6SM RA BR BKN010 OVC026 08/07 A2996 RMK AO2 RAB17 P0000 T00780067",
      "metarObsTime": 1777162920
    },
    "KCXY": {
      "status": "OK",
      "delay": "—",
      "metarCat": "MVFR",
      "metarRaw": "SPECI KCXY 260034Z 09009KT 4SM -RA BR SCT009 BKN015 OVC028 08/07 A2996 RMK AO2 RAB04 P0004 T00780067",
      "metarObsTime": 1777163640
    },
    "KMUI": {
      "status": "OK",
      "delay": "—",
      "metarCat": "IFR",
      "metarRaw": "SPECI KMUI 260019Z AUTO 07008KT 10SM OVC006 09/09 A2996 RMK AO2 SLP150",
      "metarObsTime": 1777162740
    },
    "KUNV": {
      "status": "OK",
      "delay": "—",
      "metarCat": "IFR",
      "metarRaw": "METAR KUNV 252353Z 10007KT 3SM -RA BR OVC009 08/08 A2989",
      "metarObsTime": 1777161180
    },
    "KAOO": {
      "status": "OK",
      "delay": "—",
      "metarCat": "IFR",
      "metarRaw": "SPECI KAOO 260034Z AUTO VRB03KT 3SM BR OVC005 10/09 A2989 RMK AO2 T01000089",
      "metarObsTime": 1777163640
    },
    "KLNS": {
      "status": "OK",
      "delay": "—",
      "metarCat": "MVFR",
      "metarRaw": "SPECI KLNS 260021Z 08006KT 8SM -RA FEW006 BKN023 OVC030 07/07 A2996 RMK AO2 P0001 T00720067",
      "metarObsTime": 1777162860
    },
    "KIPT": {
      "status": "OK",
      "delay": "—",
      "metarCat": "MVFR",
      "metarRaw": "METAR KIPT 252354Z 09010KT 8SM OVC016 07/06 A2995 RMK AO2 SLP143 60025 T00670061 10089 20067 53021 $",
      "metarObsTime": 1777161240
    },
    "KPHL": {
      "status": "OK",
      "delay": "—",
      "metarCat": "MVFR",
      "metarRaw": "METAR KPHL 252354Z 09007G17KT 6SM -RA BR BKN014 BKN019 OVC024 08/06 A2998 RMK AO2 SLP153 P0003 60032 T00830061 10117 20078 53003 $",
      "metarObsTime": 1777161240
    },
    "KABE": {
      "status": "OK",
      "delay": "—",
      "metarCat": "MVFR",
      "metarRaw": "METAR KABE 252351Z AUTO 08007KT 5SM -RA BR FEW006 FEW013 OVC030 06/04 A3000 RMK AO2 SLP160 P0009 60059 T00560044 10067 20056 51015 $",
      "metarObsTime": 1777161060
    },
    "KAVP": {
      "status": "OK",
      "delay": "—",
      "metarCat": "MVFR",
      "metarRaw": "SPECI KAVP 260038Z 04005KT 4SM -RA BR FEW022 OVC032 05/04 A3001 RMK AO2 P0003 T00500039 $",
      "metarObsTime": 1777163880
    },
    "KHZL": {
      "status": "OK",
      "delay": "—",
      "metarCat": "IFR",
      "metarRaw": "METAR KHZL 260035Z AUTO 12006KT 4SM -RA BKN006 OVC011 03/02 A3000 RMK AO2 P0005",
      "metarObsTime": 1777163700
    }
  }
}