{
  "generatedAt": "2026-03-07T09:20:10.589Z",
  "airports": {
    "KPIT": {
      "status": "OK",
      "delay": "—",
      "metarCat": "VFR",
      "metarRaw": "METAR KPIT 070851Z 18005KT 10SM FEW100 SCT180 17/12 A3001 RMK AO2 SLP164 T01720122 58017",
      "metarObsTime": 1772873460
    },
    "KAGC": {
      "status": "OK",
      "delay": "—",
      "metarCat": "VFR",
      "metarRaw": "METAR KAGC 070853Z 18010KT 10SM SCT100 17/12 A3002 RMK AO2 SLP164 T01720117 58016",
      "metarObsTime": 1772873580
    },
    "KLBE": {
      "status": "OK",
      "delay": "—",
      "metarCat": "VFR",
      "metarRaw": "METAR KLBE 070915Z AUTO 19007KT 10SM FEW085 FEW110 18/12 A3005 RMK AO2",
      "metarObsTime": 1772874900
    },
    "KJST": {
      "status": "OK",
      "delay": "—",
      "metarCat": "VFR",
      "metarRaw": "METAR KJST 070854Z AUTO 18011KT 10SM CLR 08/07 A3010 RMK AO2 SLP193 T00780072 58022",
      "metarObsTime": 1772873640
    },
    "KERI": {
      "status": "OK",
      "delay": "—",
      "metarCat": "VFR",
      "metarRaw": "METAR KERI 070851Z AUTO 19009KT 10SM CLR 15/13 A2993 RMK AO2 RAE0753 SLP136 P0000 60015 T01500133 58006 $",
      "metarObsTime": 1772873460
    },
    "KDUJ": {
      "status": "OK",
      "delay": "—",
      "metarCat": "VFR",
      "metarRaw": "METAR KDUJ 070853Z AUTO 12010KT 7SM SCT003 BKN060 BKN100 09/08 A3004 RMK AO2 SLP171 T00890083 58020",
      "metarObsTime": 1772873580
    },
    "KBFD": {
      "status": "OK",
      "delay": "—",
      "metarCat": "LIFR",
      "metarRaw": "METAR KBFD 070853Z AUTO 16007G20KT 8SM OVC003 08/08 A3003 RMK AO2 CIG 003V007 SLP164 T00830078 58022",
      "metarObsTime": 1772873580
    },
    "KBTP": {
      "status": "OK",
      "delay": "—",
      "metarCat": "VFR",
      "metarRaw": "METAR KBTP 070856Z AUTO 20006KT 10SM FEW070 BKN090 17/13 A3002 RMK AO2 SLP166 T01720133 58017 $",
      "metarObsTime": 1772873760
    },
    "KFKL": {
      "status": "OK",
      "delay": "—",
      "metarCat": "VFR",
      "metarRaw": "METAR KFKL 070856Z AUTO 18004KT 10SM FEW024 BKN055 OVC070 16/13 A3003 RMK AO2 SLP165 T01560128 55010",
      "metarObsTime": 1772873760
    },
    "KIDI": {
      "status": "OK",
      "delay": "—",
      "metarCat": "VFR",
      "metarRaw": "METAR KIDI 070915Z AUTO VRB04KT 10SM FEW046 SCT055 BKN070 14/10 A3005 RMK A01",
      "metarObsTime": 1772874900
    },
    "KMDT": {
      "status": "OK",
      "delay": "—",
      "metarCat": "IFR",
      "metarRaw": "METAR KMDT 070856Z 13005KT 2SM BR OVC005 04/04 A3026 RMK AO2 SFC VIS 3 RAB16E25 CIG 004V009 SLP250 P0000 60001 T00440039 58022",
      "metarObsTime": 1772873760
    },
    "KCXY": {
      "status": "OK",
      "delay": "—",
      "metarCat": "LIFR",
      "metarRaw": "METAR KCXY 070856Z AUTO 10006KT 2 1/2SM BR OVC004 05/04 A3026 RMK AO2 SLP252 T00500044 58021",
      "metarObsTime": 1772873760
    },
    "KMUI": {
      "status": "OK",
      "delay": "—",
      "metarCat": "LIFR",
      "metarRaw": "METAR KMUI 070855Z AUTO 13005KT 2 1/4SM BR OVC002 04/04 A3025 RMK AO2 SLP250 T00430040 57022",
      "metarObsTime": 1772873700
    },
    "KUNV": {
      "status": "OK",
      "delay": "—",
      "metarCat": "LIFR",
      "metarRaw": "METAR KUNV 070915Z AUTO 21007KT 2 1/2SM BR OVC003 06/06 A3017 RMK AO2 T00550055",
      "metarObsTime": 1772874900
    },
    "KAOO": {
      "status": "OK",
      "delay": "—",
      "metarCat": "LIFR",
      "metarRaw": "METAR KAOO 070853Z AUTO 18007KT 1 1/2SM BR OVC002 06/06 A3017 RMK AO2 SLP218 T00610061 58022",
      "metarObsTime": 1772873580
    },
    "KLNS": {
      "status": "OK",
      "delay": "—",
      "metarCat": "LIFR",
      "metarRaw": "SPECI KLNS 070901Z AUTO 12006KT 1 3/4SM BR OVC002 03/03 A3027 RMK AO2 T00330033",
      "metarObsTime": 1772874060
    },
    "KIPT": {
      "status": "OK",
      "delay": "—",
      "metarCat": "IFR",
      "metarRaw": "METAR KIPT 070854Z AUTO 07006KT 4SM BR OVC006 05/04 A3021 RMK AO2 SLP231 T00500039 58026",
      "metarObsTime": 1772873640
    },
    "KPHL": {
      "status": "OK",
      "delay": "—",
      "metarCat": "LIFR",
      "metarRaw": "SPECI KPHL 070857Z 09004KT 2SM BR BKN004 OVC008 04/03 A3032 RMK AO2 T00390028 $",
      "metarObsTime": 1772873820
    },
    "KABE": {
      "status": "OK",
      "delay": "—",
      "metarCat": "LIFR",
      "metarRaw": "METAR KABE 070851Z AUTO 12003KT 5SM BR OVC003 03/02 A3029 RMK AO2 SLP260 T00280022 55020",
      "metarObsTime": 1772873460
    },
    "KAVP": {
      "status": "OK",
      "delay": "—",
      "metarCat": "MVFR",
      "metarRaw": "METAR KAVP 070854Z AUTO 23004KT 10SM OVC013 03/02 A3023 RMK AO2 SLP240 T00330017 56021",
      "metarObsTime": 1772873640
    },
    "KHZL": {
      "status": "OK",
      "delay": "—",
      "metarCat": "LIFR",
      "metarRaw": "METAR KHZL 070915Z AUTO 14004KT 3/4SM BR OVC002 02/01 A3023 RMK AO2",
      "metarObsTime": 1772874900
    }
  }
}