{
  "generatedAt": "2026-03-21T05:10:15.241Z",
  "airports": {
    "KPIT": {
      "status": "OK",
      "delay": "—",
      "metarCat": "VFR",
      "metarRaw": "METAR KPIT 210451Z 36010KT 10SM FEW025 10/07 A2980 RMK AO2 SLP097 T01000072 401720028 $",
      "metarObsTime": 1774068660
    },
    "KAGC": {
      "status": "OK",
      "delay": "—",
      "metarCat": "VFR",
      "metarRaw": "METAR KAGC 210453Z 35011G17KT 8SM CLR 11/09 A2978 RMK AO2 SLP086 T01060094 401610056",
      "metarObsTime": 1774068780
    },
    "KLBE": {
      "status": "OK",
      "delay": "—",
      "metarCat": "MVFR",
      "metarRaw": "METAR KLBE 210455Z AUTO 00000KT 4SM BR FEW046 10/10 A2978 RMK AO2 LTG DSNT S",
      "metarObsTime": 1774068900
    },
    "KJST": {
      "status": "OK",
      "delay": "—",
      "metarCat": "VFR",
      "metarRaw": "METAR KJST 210454Z AUTO 27005KT 10SM BKN035 11/08 A2976 RMK AO2 SLP077 T01060083 401500044",
      "metarObsTime": 1774068840
    },
    "KERI": {
      "status": "OK",
      "delay": "—",
      "metarCat": "IFR",
      "metarRaw": "METAR KERI 210451Z AUTO 03007KT 2SM BR OVC008 04/03 A2988 RMK AO2 CIG 005V011 SLP122 T00440033 401561011",
      "metarObsTime": 1774068660
    },
    "KDUJ": {
      "status": "OK",
      "delay": "—",
      "metarCat": "IFR",
      "metarRaw": "METAR KDUJ 210453Z AUTO 35010KT 5SM BR BKN007 OVC040 07/06 A2978 RMK AO2 SLP085 T00720061 401330006",
      "metarObsTime": 1774068780
    },
    "KBFD": {
      "status": "OK",
      "delay": "—",
      "metarCat": "IFR",
      "metarRaw": "METAR KBFD 210453Z AUTO 34008KT 4SM BR OVC006 06/05 A2979 RMK AO2 SLP093 T00560050 400831044",
      "metarObsTime": 1774068780
    },
    "KBTP": {
      "status": "OK",
      "delay": "—",
      "metarCat": "VFR",
      "metarRaw": "METAR KBTP 210456Z AUTO 35005KT 9SM CLR 09/09 A2982 RMK AO2 SLP103 T00890089 $",
      "metarObsTime": 1774068960
    },
    "KFKL": {
      "status": "OK",
      "delay": "—",
      "metarCat": "MVFR",
      "metarRaw": "METAR KFKL 210456Z AUTO 00000KT 4SM BR SCT007 OVC013 07/07 A2983 RMK AO2 SLP105 T00720067 401220011",
      "metarObsTime": 1774068960
    },
    "KIDI": {
      "status": "OK",
      "delay": "—",
      "metarCat": "VFR",
      "metarRaw": "METAR KIDI 210455Z AUTO 34005KT 10SM FEW035 FEW042 SCT049 08/08 A2979 RMK A01",
      "metarObsTime": 1774068900
    },
    "KMDT": {
      "status": "OK",
      "delay": "—",
      "metarCat": "MVFR",
      "metarRaw": "METAR KMDT 210456Z 00000KT 5SM R13/2400V5500FT BR SCT080 08/08 A2975 RMK AO2 SLP075 T00830083 401941006",
      "metarObsTime": 1774068960
    },
    "KCXY": {
      "status": "OK",
      "delay": "—",
      "metarCat": "VFR",
      "metarRaw": "METAR KCXY 210456Z AUTO 00000KT 10SM BKN050 BKN080 11/10 A2976 RMK AO2 SLP077 T01110100 402110006",
      "metarObsTime": 1774068960
    },
    "KMUI": {
      "status": "OK",
      "delay": "—",
      "metarCat": "LIFR",
      "metarRaw": "METAR KMUI 210455Z AUTO 00000KT 1/4SM FG VV000 09/08 A2974 RMK AO2 SLP074 T00860083 402201007 RVRNO",
      "metarObsTime": 1774068900
    },
    "KUNV": {
      "status": "OK",
      "delay": "—",
      "metarCat": "LIFR",
      "metarRaw": "METAR KUNV 210455Z AUTO 00000KT 1/2SM FG SCT001 OVC025 09/09 A2976 RMK AO2 LTG DSNT SW T00850085",
      "metarObsTime": 1774068900
    },
    "KAOO": {
      "status": "OK",
      "delay": "—",
      "metarCat": "VFR",
      "metarRaw": "METAR KAOO 210453Z AUTO 23004KT 10SM CLR 11/07 A2975 RMK AO2 SLP074 T01110072 401780017",
      "metarObsTime": 1774068780
    },
    "KLNS": {
      "status": "OK",
      "delay": "—",
      "metarCat": "LIFR",
      "metarRaw": "METAR KLNS 210453Z AUTO 02004KT 1/2SM FG OVC050 09/09 A2975 RMK AO2 SLP074 T00940094 402000000",
      "metarObsTime": 1774068780
    },
    "KIPT": {
      "status": "OK",
      "delay": "—",
      "metarCat": "LIFR",
      "metarRaw": "METAR KIPT 210454Z AUTO 00000KT 1/4SM FG BKN006 OVC034 06/06 A2975 RMK AO2 SLP077 T00610061 401221022 $",
      "metarObsTime": 1774068840
    },
    "KPHL": {
      "status": "OK",
      "delay": "—",
      "metarCat": "VFR",
      "metarRaw": "METAR KPHL 210454Z 24006KT 10SM BKN060 BKN080 OVC100 12/10 A2976 RMK AO2 RAB00E24B42E51 SLP077 P0000 T01170100 401940033 $",
      "metarObsTime": 1774068840
    },
    "KABE": {
      "status": "OK",
      "delay": "—",
      "metarCat": "MVFR",
      "metarRaw": "METAR KABE 210451Z 19003KT 4SM BR OVC041 09/09 A2975 RMK AO2 SLP075 T00940094 401891011 $",
      "metarObsTime": 1774068660
    },
    "KAVP": {
      "status": "OK",
      "delay": "—",
      "metarCat": "MVFR",
      "metarRaw": "METAR KAVP 210454Z 23003KT 5SM BR BKN028 BKN033 OVC043 10/09 A2975 RMK AO2 SLP072 T01000094 401501006",
      "metarObsTime": 1774068840
    },
    "KHZL": {
      "status": "OK",
      "delay": "—",
      "metarCat": "IFR",
      "metarRaw": "METAR KHZL 210455Z AUTO 00000KT 1 1/4SM BR OVC029 09/08 A2978 RMK AO2",
      "metarObsTime": 1774068900
    }
  }
}