{
  "generatedAt": "2026-03-09T13:30:19.210Z",
  "airports": {
    "KPIT": {
      "status": "OK",
      "delay": "—",
      "metarCat": "VFR",
      "metarRaw": "METAR KPIT 091251Z 19005KT 10SM FEW040 FEW150 07/01 A3001 RMK AO2 SLP173 T00720011",
      "metarObsTime": 1773060660
    },
    "KAGC": {
      "status": "OK",
      "delay": "—",
      "metarCat": "VFR",
      "metarRaw": "METAR KAGC 091253Z AUTO 18008KT 9SM CLR 07/01 A3002 RMK AO2 SLP173 T00670006",
      "metarObsTime": 1773060780
    },
    "KLBE": {
      "status": "OK",
      "delay": "—",
      "metarCat": "VFR",
      "metarRaw": "METAR KLBE 091253Z 21008KT 10SM CLR 08/05 A3006",
      "metarObsTime": 1773060780
    },
    "KJST": {
      "status": "OK",
      "delay": "—",
      "metarCat": "MVFR",
      "metarRaw": "SPECI KJST 091308Z AUTO 23010KT 10SM BKN023 09/02 A3003 RMK AO2 T00940022",
      "metarObsTime": 1773061680
    },
    "KERI": {
      "status": "OK",
      "delay": "—",
      "metarCat": "VFR",
      "metarRaw": "METAR KERI 091251Z 19012KT 10SM CLR 11/M01 A2991 RMK AO2 SLP129 T01061006",
      "metarObsTime": 1773060660
    },
    "KDUJ": {
      "status": "OK",
      "delay": "—",
      "metarCat": "VFR",
      "metarRaw": "METAR KDUJ 091253Z AUTO 23007KT 10SM CLR 07/M01 A2998 RMK AO2 SLP160 T00721006",
      "metarObsTime": 1773060780
    },
    "KBFD": {
      "status": "OK",
      "delay": "—",
      "metarCat": "VFR",
      "metarRaw": "METAR KBFD 091253Z AUTO VRB05KT 10SM CLR 07/M02 A2995 RMK AO2 SLP148 T00721017 $",
      "metarObsTime": 1773060780
    },
    "KBTP": {
      "status": "OK",
      "delay": "—",
      "metarCat": "VFR",
      "metarRaw": "METAR KBTP 091256Z AUTO 20005KT 10SM CLR 08/01 A3002 RMK AO2 SLP173 T00830011 $",
      "metarObsTime": 1773060960
    },
    "KFKL": {
      "status": "OK",
      "delay": "—",
      "metarCat": "VFR",
      "metarRaw": "METAR KFKL 091256Z AUTO 22010KT 10SM CLR 07/01 A2998 RMK AO2 SLP159 T00720006",
      "metarObsTime": 1773060960
    },
    "KIDI": {
      "status": "OK",
      "delay": "—",
      "metarCat": "VFR",
      "metarRaw": "METAR KIDI 091315Z AUTO 23009KT 10SM CLR 09/01 A3004 RMK A01",
      "metarObsTime": 1773062100
    },
    "KMDT": {
      "status": "OK",
      "delay": "—",
      "metarCat": "VFR",
      "metarRaw": "METAR KMDT 091256Z 10007KT 10SM FEW250 05/03 A3007 RMK AO2 SLP183 T00500033",
      "metarObsTime": 1773060960
    },
    "KCXY": {
      "status": "OK",
      "delay": "—",
      "metarCat": "VFR",
      "metarRaw": "METAR KCXY 091256Z 09003KT 10SM CLR 05/02 A3007 RMK AO2 SLP185 T00500017",
      "metarObsTime": 1773060960
    },
    "KMUI": {
      "status": "OK",
      "delay": "—",
      "metarCat": "VFR",
      "metarRaw": "METAR KMUI 091255Z 00000KT 10SM CLR 04/02 A3004 RMK AO2A SLP177 T00410024",
      "metarObsTime": 1773060900
    },
    "KUNV": {
      "status": "OK",
      "delay": "—",
      "metarCat": "VFR",
      "metarRaw": "METAR KUNV 091253Z 20003KT 10SM CLR 07/M01 A3003",
      "metarObsTime": 1773060780
    },
    "KAOO": {
      "status": "OK",
      "delay": "—",
      "metarCat": "VFR",
      "metarRaw": "METAR KAOO 091253Z AUTO 21008KT 10SM CLR 09/01 A3004 RMK AO2 SLP177 T00940011",
      "metarObsTime": 1773060780
    },
    "KLNS": {
      "status": "OK",
      "delay": "—",
      "metarCat": "VFR",
      "metarRaw": "METAR KLNS 091253Z 00000KT 9SM CLR 06/04 A3007 RMK AO2 SLP184 T00560039",
      "metarObsTime": 1773060780
    },
    "KIPT": {
      "status": "OK",
      "delay": "—",
      "metarCat": "VFR",
      "metarRaw": "METAR KIPT 091254Z 00000KT 10SM CLR 02/M01 A3004 RMK AO2 SLP178 T00171006 $",
      "metarObsTime": 1773060840
    },
    "KPHL": {
      "status": "OK",
      "delay": "—",
      "metarCat": "VFR",
      "metarRaw": "METAR KPHL 091254Z 26004KT 10SM FEW050 10/07 A3008 RMK AO2 SLP186 T01000067 $",
      "metarObsTime": 1773060840
    },
    "KABE": {
      "status": "OK",
      "delay": "—",
      "metarCat": "VFR",
      "metarRaw": "METAR KABE 091251Z 00000KT 10SM CLR 04/02 A3005 RMK AO2 SLP177 T00440017",
      "metarObsTime": 1773060660
    },
    "KAVP": {
      "status": "OK",
      "delay": "—",
      "metarCat": "VFR",
      "metarRaw": "SPECI KAVP 091307Z 00000KT 10SM CLR 08/M01 A3003 RMK AO2 T00781011",
      "metarObsTime": 1773061620
    },
    "KHZL": {
      "status": "OK",
      "delay": "—",
      "metarCat": "VFR",
      "metarRaw": "METAR KHZL 091315Z AUTO 00000KT 10SM CLR 07/00 A3007 RMK AO2",
      "metarObsTime": 1773062100
    }
  }
}