{
  "generatedAt": "2026-03-22T22:10:21.295Z",
  "airports": {
    "KPIT": {
      "status": "OK",
      "delay": "—",
      "metarCat": "MVFR",
      "metarRaw": "METAR KPIT 222151Z 36020KT 4SM R28R/3500VP6000FT TSRA BKN042CB OVC090 18/13 A2963 RMK AO2 PK WND 33029/2056 WSHFT 2052 SLP036 OCNL LTGICCG OHD TS OHD MOV SE P0003 T01780133",
      "metarObsTime": 1774216260
    },
    "KAGC": {
      "status": "OK",
      "delay": "—",
      "metarCat": "VFR",
      "metarRaw": "SPECI KAGC 222200Z 34013G24KT 6SM -RA FEW070 BKN090 OVC100 18/15 A2962 RMK AO2 LTG DSNT E AND W AND NW TSE2154 P0001 T01830150",
      "metarObsTime": 1774216800
    },
    "KLBE": {
      "status": "OK",
      "delay": "—",
      "metarCat": "VFR",
      "metarRaw": "METAR KLBE 222147Z 24018G30KT 8SM BKN080 28/09 A2959 RMK LGT DSNT ALQDS",
      "metarObsTime": 1774216020
    },
    "KJST": {
      "status": "OK",
      "delay": "—",
      "metarCat": "VFR",
      "metarRaw": "SPECI KJST 222205Z AUTO 25017G31KT 10SM VCTS BKN085 OVC110 24/06 A2964 RMK AO2 PK WND 28031/2205 LTG DSNT W-NE PRESRR T02440061",
      "metarObsTime": 1774217100
    },
    "KERI": {
      "status": "OK",
      "delay": "—",
      "metarCat": "MVFR",
      "metarRaw": "METAR KERI 222151Z 05015KT 3SM -RA BR SCT008 BKN037 OVC080 05/04 A2978 RMK AO2 SLP087 P0001 T00500039",
      "metarObsTime": 1774216260
    },
    "KDUJ": {
      "status": "OK",
      "delay": "—",
      "metarCat": "IFR",
      "metarRaw": "SPECI KDUJ 222206Z AUTO 34006G19KT 2 1/2SM +TSRA BR SCT034 BKN065 OVC085 13/12 A2967 RMK AO2 LTG DSNT ALQDS TSB03 P0005 T01330117",
      "metarObsTime": 1774217160
    },
    "KBFD": {
      "status": "OK",
      "delay": "—",
      "metarCat": "VFR",
      "metarRaw": "METAR KBFD 222153Z AUTO 34013KT 7SM -RA FEW033 SCT050 BKN070 11/09 A2970 RMK AO2 LTG DSNT SW RAE25B44 SLP056 P0001 T01110094 $",
      "metarObsTime": 1774216380
    },
    "KBTP": {
      "status": "OK",
      "delay": "—",
      "metarCat": "VFR",
      "metarRaw": "METAR KBTP 222156Z AUTO 33015G20KT 10SM SCT100 19/12 A2966 RMK AO2 LTG DSNT SW TSB00E24 SLP045 T01890117 $",
      "metarObsTime": 1774216560
    },
    "KFKL": {
      "status": "OK",
      "delay": "—",
      "metarCat": "MVFR",
      "metarRaw": "METAR KFKL 222156Z AUTO 35010G18KT 10SM -RA BKN012 BKN048 BKN090 12/10 A2970 RMK AO2 LTG DSNT E AND SE AND W TSE01B20E46 SLP058 P0008 T01170100",
      "metarObsTime": 1774216560
    },
    "KIDI": {
      "status": "OK",
      "delay": "—",
      "metarCat": "MVFR",
      "metarRaw": "METAR KIDI 222155Z AUTO 26010G20KT 4SM HZ FEW003 SCT032 BKN070 18/15 A2964 RMK A01 P0013",
      "metarObsTime": 1774216500
    },
    "KMDT": {
      "status": "OK",
      "delay": "—",
      "metarCat": "VFR",
      "metarRaw": "METAR KMDT 222156Z 23008KT 180V250 10SM BKN150 26/08 A2954 RMK AO2 PK WND 22029/2108 LTG DSNT NE SLP003 T02610078",
      "metarObsTime": 1774216560
    },
    "KCXY": {
      "status": "OK",
      "delay": "—",
      "metarCat": "VFR",
      "metarRaw": "METAR KCXY 222156Z 21012G24KT 10SM CLR 26/08 A2954 RMK AO2 PK WND 18027/2110 LTG DSNT NE SLP004 T02610083",
      "metarObsTime": 1774216560
    },
    "KMUI": {
      "status": "OK",
      "delay": "—",
      "metarCat": "VFR",
      "metarRaw": "SPECI KMUI 222156Z AUTO 22006KT 10SM BKN100 OVC130 27/08 A2956 RMK AO2 TSE56 SLP011",
      "metarObsTime": 1774216560
    },
    "KUNV": {
      "status": "OK",
      "delay": "—",
      "metarCat": "VFR",
      "metarRaw": "METAR KUNV 222153Z 06007G17KT 10SM -TSRA SCT047 OVC090 18/13 A2962 RMK OCNL LTG NW-NE TS N MOV E",
      "metarObsTime": 1774216380
    },
    "KAOO": {
      "status": "OK",
      "delay": "—",
      "metarCat": "VFR",
      "metarRaw": "METAR KAOO 222153Z AUTO 23014G21KT 10SM SCT100 BKN110 26/07 A2957 RMK AO2 PK WND 22029/2104 LTG DSNT NW SLP010 T02560067",
      "metarObsTime": 1774216380
    },
    "KLNS": {
      "status": "OK",
      "delay": "—",
      "metarCat": "VFR",
      "metarRaw": "METAR KLNS 222153Z 17011G21KT 10SM CLR 23/10 A2958 RMK AO2 LTG DSNT NW SLP015 T02280100",
      "metarObsTime": 1774216380
    },
    "KIPT": {
      "status": "OK",
      "delay": "—",
      "metarCat": "IFR",
      "metarRaw": "METAR KIPT 222154Z 00000KT 2 1/2SM RA BR FEW060 BKN080 OVC120 15/13 A2963 RMK AO2 RAE02B52 SLP036 P0000 T01500128 $",
      "metarObsTime": 1774216440
    },
    "KPHL": {
      "status": "OK",
      "delay": "—",
      "metarCat": "VFR",
      "metarRaw": "METAR KPHL 222154Z 18010KT 10SM SCT095 BKN210 23/12 A2962 RMK AO2 SLP029 T02330122 $",
      "metarObsTime": 1774216440
    },
    "KABE": {
      "status": "OK",
      "delay": "—",
      "metarCat": "VFR",
      "metarRaw": "METAR KABE 222151Z 00000KT 10SM SCT110 21/09 A2963 RMK AO2 SLP032 T02110094 $",
      "metarObsTime": 1774216260
    },
    "KAVP": {
      "status": "OK",
      "delay": "—",
      "metarCat": "VFR",
      "metarRaw": "METAR KAVP 222154Z 07005KT 10SM FEW023 BKN090 OVC120 13/11 A2966 RMK AO2 RAE45 SLP043 P0006 T01280106",
      "metarObsTime": 1774216440
    },
    "KHZL": {
      "status": "OK",
      "delay": "—",
      "metarCat": "IFR",
      "metarRaw": "METAR KHZL 222155Z AUTO 11004KT 2SM RA SCT025 BKN050 OVC055 13/11 A2967 RMK AO2 P0007",
      "metarObsTime": 1774216500
    }
  }
}