{
  "generatedAt": "2026-03-11T16:50:17.016Z",
  "airports": {
    "KPIT": {
      "status": "OK",
      "delay": "—",
      "metarCat": "MVFR",
      "metarRaw": "SPECI KPIT 111608Z 22017G29KT 6SM -RA BR BKN018 BKN034 OVC075 18/17 A2975 RMK AO2 PK WND 21029/1605 TSE07 OCNL LTG DSNT NE-E P0006 T01830167 $",
      "metarObsTime": 1773245280
    },
    "KAGC": {
      "status": "OK",
      "delay": "—",
      "metarCat": "IFR",
      "metarRaw": "SPECI KAGC 111618Z 24011G25KT 2SM R28/4500VP6000FT -RA BR BKN024 OVC035 19/17 A2977 RMK AO2 LTG DSNT NE AND E TSE1559 P0008 T01890167",
      "metarObsTime": 1773245880
    },
    "KLBE": {
      "status": "OK",
      "delay": "—",
      "metarCat": "VFR",
      "metarRaw": "METAR KLBE 111647Z 21015G30KT 10SM BKN040 OVC060 22/17 A2978",
      "metarObsTime": 1773247620
    },
    "KJST": {
      "status": "OK",
      "delay": "—",
      "metarCat": "MVFR",
      "metarRaw": "SPECI KJST 111630Z AUTO 21015G26KT 10SM FEW012 BKN030 OVC046 18/16 A2981 RMK AO2 PK WND 20029/1618 LTG DSNT NW T01830156",
      "metarObsTime": 1773246600
    },
    "KERI": {
      "status": "OK",
      "delay": "—",
      "metarCat": "IFR",
      "metarRaw": "SPECI KERI 111647Z 19019G26KT 1 1/2SM R06/2400VP6000FT -RA BR FEW010 BKN029 OVC043 18/16 A2956 RMK AO2 PK WND 20026/1646 P0005",
      "metarObsTime": 1773247620
    },
    "KDUJ": {
      "status": "OK",
      "delay": "—",
      "metarCat": "MVFR",
      "metarRaw": "SPECI KDUJ 111641Z AUTO 23020G39KT 5SM -RA BR SCT014 BKN040 OVC090 17/16 A2974 RMK AO2 PK WND 22039/1640 LTG DSNT E AND SE RAB1556 P0018 T01720156",
      "metarObsTime": 1773247260
    },
    "KBFD": {
      "status": "OK",
      "delay": "—",
      "metarCat": "MVFR",
      "metarRaw": "METAR KBFD 111553Z AUTO 20008G20KT 10SM OVC010 16/14 A2971 RMK AO2 RAB1458E15B38E48 CIG 007V013 SLP053 P0000 T01610144",
      "metarObsTime": 1773244380
    },
    "KBTP": {
      "status": "OK",
      "delay": "—",
      "metarCat": "MVFR",
      "metarRaw": "METAR KBTP 111556Z AUTO 22014G21KT 4SM RA BKN011 BKN018 OVC026 18/ A2975 RMK AO2 LTG DSNT E-S RAB03 SLP077 P0016 T0178 $",
      "metarObsTime": 1773244560
    },
    "KFKL": {
      "status": "OK",
      "delay": "—",
      "metarCat": "MVFR",
      "metarRaw": "METAR KFKL 111556Z AUTO 20016G22KT 10SM OVC013 A2969 RMK AO2 LTG DSNT SE RAB25E51 SLPNO P0002 FZRANO $",
      "metarObsTime": 1773244560
    },
    "KIDI": {
      "status": "OK",
      "delay": "—",
      "metarCat": "—",
      "metarRaw": "—",
      "metarObsTime": null
    },
    "KMDT": {
      "status": "OK",
      "delay": "—",
      "metarCat": "VFR",
      "metarRaw": "METAR KMDT 111556Z 11003KT 10SM -RA FEW060 OVC100 16/12 A2987 RMK AO2 RAB39 SLP116 P0000 T01560117",
      "metarObsTime": 1773244560
    },
    "KCXY": {
      "status": "OK",
      "delay": "—",
      "metarCat": "MVFR",
      "metarRaw": "METAR KCXY 111556Z 00000KT 3SM -RA FEW049 SCT090 OVC110 16/12 A2988 RMK AO2 RAB50 SLP119 P0001 T01560117",
      "metarObsTime": 1773244560
    },
    "KMUI": {
      "status": "OK",
      "delay": "—",
      "metarCat": "VFR",
      "metarRaw": "METAR KMUI 111556Z 24003KT 10SM -RA BKN065 BKN090 OVC130 17/13 A2987 RMK AO2A SLP117 T01660131",
      "metarObsTime": 1773244560
    },
    "KUNV": {
      "status": "OK",
      "delay": "—",
      "metarCat": "MVFR",
      "metarRaw": "SPECI KUNV 111605Z 21012G18KT 5SM RA BR SCT015 BKN050 OVC090 18/15 A2980 RMK LTG DSNT W",
      "metarObsTime": 1773245100
    },
    "KAOO": {
      "status": "OK",
      "delay": "—",
      "metarCat": "VFR",
      "metarRaw": "METAR KAOO 111553Z AUTO 20012KT 10SM -RA SCT036 BKN047 OVC090 18/16 A2983 RMK AO2 SLP100 P0007 T01780156",
      "metarObsTime": 1773244380
    },
    "KLNS": {
      "status": "OK",
      "delay": "—",
      "metarCat": "VFR",
      "metarRaw": "METAR KLNS 111553Z 19006KT 10SM SCT095 BKN120 21/12 A2988 RMK AO2 SLP116 T02060117",
      "metarObsTime": 1773244380
    },
    "KIPT": {
      "status": "OK",
      "delay": "—",
      "metarCat": "VFR",
      "metarRaw": "METAR KIPT 111554Z 09010KT 10SM FEW110 18/11 A2979 RMK AO2 RAB08E17 SLP088 P0000 T01830106 $",
      "metarObsTime": 1773244440
    },
    "KPHL": {
      "status": "OK",
      "delay": "—",
      "metarCat": "VFR",
      "metarRaw": "METAR KPHL 111554Z 24007KT 10SM FEW055 SCT100 BKN230 BKN280 23/13 A2991 RMK AO2 SLP127 T02280128 $",
      "metarObsTime": 1773244440
    },
    "KABE": {
      "status": "OK",
      "delay": "—",
      "metarCat": "VFR",
      "metarRaw": "METAR KABE 111551Z 17008KT 10SM BKN110 20/11 A2985 RMK AO2 RAB14E29 SLP108 P0000 T02000106 $",
      "metarObsTime": 1773244260
    },
    "KAVP": {
      "status": "OK",
      "delay": "—",
      "metarCat": "VFR",
      "metarRaw": "METAR KAVP 111554Z 22011G20KT 10SM CLR 23/11 A2981 RMK AO2 SLP089 T02330111",
      "metarObsTime": 1773244440
    },
    "KHZL": {
      "status": "OK",
      "delay": "—",
      "metarCat": "VFR",
      "metarRaw": "METAR KHZL 111635Z AUTO 18005KT 7SM -RA SCT034 BKN075 OVC090 19/11 A2990 RMK AO2",
      "metarObsTime": 1773246900
    }
  }
}