{
  "generatedAt": "2026-03-20T23:30:20.670Z",
  "airports": {
    "KPIT": {
      "status": "OK",
      "delay": "—",
      "metarCat": "VFR",
      "metarRaw": "METAR KPIT 202251Z 25007KT 9SM FEW055 BKN085 OVC120 16/08 A2973 RMK AO2 RAE40 SLP077 P0000 T01610078 $",
      "metarObsTime": 1774047060
    },
    "KAGC": {
      "status": "OK",
      "delay": "—",
      "metarCat": "VFR",
      "metarRaw": "METAR KAGC 202253Z 22010G19KT 10SM OVC085 16/07 A2972 RMK AO2 RAB2154E16 SLP070 P0000 T01610072",
      "metarObsTime": 1774047180
    },
    "KLBE": {
      "status": "OK",
      "delay": "—",
      "metarCat": "VFR",
      "metarRaw": "METAR KLBE 202250Z 22012KT 10SM FEW040 SCT090 OVC110 15/09 A2975",
      "metarObsTime": 1774047000
    },
    "KJST": {
      "status": "OK",
      "delay": "—",
      "metarCat": "VFR",
      "metarRaw": "METAR KJST 202254Z AUTO 21008KT 10SM OVC065 11/08 A2975 RMK AO2 RAE11 SLP081 P0000 T01110078",
      "metarObsTime": 1774047240
    },
    "KERI": {
      "status": "OK",
      "delay": "—",
      "metarCat": "VFR",
      "metarRaw": "METAR KERI 202251Z 29006KT 6SM HZ BKN048 OVC060 08/06 A2975 RMK AO2 SLP077 T00830056",
      "metarObsTime": 1774047060
    },
    "KDUJ": {
      "status": "OK",
      "delay": "—",
      "metarCat": "VFR",
      "metarRaw": "METAR KDUJ 202253Z AUTO 22006KT 10SM BKN048 OVC065 09/08 A2973 RMK AO2 RAE34 SLP074 P0000 T00940083",
      "metarObsTime": 1774047180
    },
    "KBFD": {
      "status": "OK",
      "delay": "—",
      "metarCat": "VFR",
      "metarRaw": "SPECI KBFD 202304Z AUTO VRB04KT 7SM SCT009 OVC031 08/08 A2973 RMK AO2 T00830078",
      "metarObsTime": 1774047840
    },
    "KBTP": {
      "status": "OK",
      "delay": "—",
      "metarCat": "VFR",
      "metarRaw": "METAR KBTP 202256Z AUTO 23004KT 10SM -RA BKN060 OVC070 14/09 A2975 RMK AO2 SLP082 P0001 T01390094 $",
      "metarObsTime": 1774047360
    },
    "KFKL": {
      "status": "OK",
      "delay": "—",
      "metarCat": "VFR",
      "metarRaw": "METAR KFKL 202256Z AUTO 23004KT 10SM OVC046 11/09 A2974 RMK AO2 SLP077 T01110094",
      "metarObsTime": 1774047360
    },
    "KIDI": {
      "status": "OK",
      "delay": "—",
      "metarCat": "VFR",
      "metarRaw": "METAR KIDI 202315Z AUTO 20005KT 10SM FEW050 SCT065 OVC070 11/10 A2976 RMK A01",
      "metarObsTime": 1774048500
    },
    "KMDT": {
      "status": "OK",
      "delay": "—",
      "metarCat": "MVFR",
      "metarRaw": "SPECI KMDT 202302Z 28004KT 3SM -RA BKN050 OVC060 13/09 A2978 RMK AO2 P0002 T01330094",
      "metarObsTime": 1774047720
    },
    "KCXY": {
      "status": "OK",
      "delay": "—",
      "metarCat": "MVFR",
      "metarRaw": "METAR KCXY 202256Z 23004KT 3SM -RA BR OVC055 13/11 A2978 RMK AO2 SLP088 P0006 T01280106",
      "metarObsTime": 1774047360
    },
    "KMUI": {
      "status": "OK",
      "delay": "—",
      "metarCat": "IFR",
      "metarRaw": "SPECI KMUI 202319Z 00000KT 4SM -RA BR BKN005 BKN015 OVC050 12/12 A2977 RMK AO2A SLP087",
      "metarObsTime": 1774048740
    },
    "KUNV": {
      "status": "OK",
      "delay": "—",
      "metarCat": "VFR",
      "metarRaw": "METAR KUNV 202253Z 23006KT 7SM -RA OVC060 11/11 A2975",
      "metarObsTime": 1774047180
    },
    "KAOO": {
      "status": "OK",
      "delay": "—",
      "metarCat": "VFR",
      "metarRaw": "METAR KAOO 202253Z AUTO 23008KT 10SM BKN070 OVC090 13/08 A2976 RMK AO2 SLP080 T01280083",
      "metarObsTime": 1774047180
    },
    "KLNS": {
      "status": "OK",
      "delay": "—",
      "metarCat": "VFR",
      "metarRaw": "METAR KLNS 202253Z 20005KT 6SM -RA OVC060 12/08 A2980 RMK AO2 SLP093 P0005 T01170083",
      "metarObsTime": 1774047180
    },
    "KIPT": {
      "status": "OK",
      "delay": "—",
      "metarCat": "MVFR",
      "metarRaw": "SPECI KIPT 202321Z 00000KT 3SM -RA BR SCT027 BKN031 OVC060 07/07 A2975 RMK AO2 RAE2258B13 P0000 T00720067 $",
      "metarObsTime": 1774048860
    },
    "KPHL": {
      "status": "OK",
      "delay": "—",
      "metarCat": "VFR",
      "metarRaw": "METAR KPHL 202254Z 19009KT 10SM -RA FEW055 BKN075 OVC250 16/04 A2979 RMK AO2 RAE2156B21 SLP089 P0000 T01610044 $",
      "metarObsTime": 1774047240
    },
    "KABE": {
      "status": "OK",
      "delay": "—",
      "metarCat": "—",
      "metarRaw": "METAR KABE 202251Z A2978 RMK AO2 RAB2153RAEMMB27RAEMM SLPNO P0000 $",
      "metarObsTime": 1774047060
    },
    "KAVP": {
      "status": "OK",
      "delay": "—",
      "metarCat": "IFR",
      "metarRaw": "SPECI KAVP 202312Z 21004KT 2SM RA BR FEW014 BKN036 OVC050 09/09 A2975 RMK AO2 SFC VIS 2 1/2 P0009 T00940089",
      "metarObsTime": 1774048320
    },
    "KHZL": {
      "status": "OK",
      "delay": "—",
      "metarCat": "MVFR",
      "metarRaw": "METAR KHZL 202315Z AUTO 22003KT 5SM RA BKN010 BKN031 OVC045 10/08 A2979 RMK AO2 P0004",
      "metarObsTime": 1774048500
    }
  }
}