{
  "generatedAt": "2026-04-19T10:20:51.033Z",
  "airports": {
    "KPIT": {
      "status": "OK",
      "delay": "—",
      "metarCat": "MVFR",
      "metarRaw": "METAR KPIT 190951Z 31009KT 10SM FEW009 BKN030 OVC050 06/03 A2999 RMK AO2 RAE48 SLP165 P0002 T00610033 $",
      "metarObsTime": 1776592260
    },
    "KAGC": {
      "status": "OK",
      "delay": "—",
      "metarCat": "VFR",
      "metarRaw": "SPECI KAGC 191011Z VRB04KT 10SM FEW016 SCT023 OVC032 05/03 A2999 RMK AO2 RAE05 P0000 T00500033",
      "metarObsTime": 1776593460
    },
    "KLBE": {
      "status": "OK",
      "delay": "—",
      "metarCat": "MVFR",
      "metarRaw": "METAR KLBE 191015Z AUTO 29008KT 5SM -RA BR FEW010 BKN017 OVC030 06/05 A3001 RMK AO2",
      "metarObsTime": 1776593700
    },
    "KJST": {
      "status": "OK",
      "delay": "—",
      "metarCat": "IFR",
      "metarRaw": "METAR KJST 190954Z AUTO 31012G20KT 8SM -RA OVC008 04/03 A2992 RMK AO2 RAB10 CIG 004V011 SLP129 P0001 T00390028",
      "metarObsTime": 1776592440
    },
    "KERI": {
      "status": "OK",
      "delay": "—",
      "metarCat": "VFR",
      "metarRaw": "METAR KERI 190951Z 29005KT 10SM OVC046 06/M01 A2998 RMK AO2 RAB33E43 SLP154 P0000 T00611011 $",
      "metarObsTime": 1776592260
    },
    "KDUJ": {
      "status": "OK",
      "delay": "—",
      "metarCat": "MVFR",
      "metarRaw": "SPECI KDUJ 191002Z AUTO 30010KT 10SM SCT014 BKN030 OVC070 03/02 A2994 RMK AO2 T00280017",
      "metarObsTime": 1776592920
    },
    "KBFD": {
      "status": "OK",
      "delay": "—",
      "metarCat": "IFR",
      "metarRaw": "METAR KBFD 190953Z AUTO 31008KT 5SM -RA BR BKN008 OVC012 02/01 A2992 RMK AO2 SLP127 P0003 T00170006",
      "metarObsTime": 1776592380
    },
    "KBTP": {
      "status": "OK",
      "delay": "—",
      "metarCat": "VFR",
      "metarRaw": "METAR KBTP 190956Z AUTO 28004KT 10SM -RA FEW029 BKN070 OVC100 06/05 A2999 RMK AO2 SLP164 P0000 T00560050 $",
      "metarObsTime": 1776592560
    },
    "KFKL": {
      "status": "OK",
      "delay": "—",
      "metarCat": "—",
      "metarRaw": "—",
      "metarObsTime": null
    },
    "KIDI": {
      "status": "OK",
      "delay": "—",
      "metarCat": "MVFR",
      "metarRaw": "METAR KIDI 191015Z AUTO 31010G18KT 10SM FEW016 OVC023 05/04 A2997 RMK A01",
      "metarObsTime": 1776593700
    },
    "KMDT": {
      "status": "OK",
      "delay": "—",
      "metarCat": "MVFR",
      "metarRaw": "SPECI KMDT 191010Z 33019G33KT 10SM -RA SCT019 BKN027 OVC036 11/09 A2982 RMK AO2 PK WND 35033/1006 P0000 T01110089",
      "metarObsTime": 1776593400
    },
    "KCXY": {
      "status": "OK",
      "delay": "—",
      "metarCat": "MVFR",
      "metarRaw": "METAR KCXY 190956Z AUTO 30015G25KT 10SM BKN016 OVC024 11/09 A2984 RMK AO2 RAE55 SLP104 P0006 T01110089 $",
      "metarObsTime": 1776592560
    },
    "KMUI": {
      "status": "OK",
      "delay": "—",
      "metarCat": "IFR",
      "metarRaw": "METAR KMUI 190955Z AUTO 32013G26KT 10SM -RA BKN006 BKN013 OVC029 13/12 A2981 RMK AO2 PK WND 31026/48 CIG 005V012 BKN006 V SCT SLP096 P0007 T01320121",
      "metarObsTime": 1776592500
    },
    "KUNV": {
      "status": "OK",
      "delay": "—",
      "metarCat": "VFR",
      "metarRaw": "METAR KUNV 190953Z 30010G18KT 10SM -RA SCT028 SCT038 OVC060 08/04 A2992",
      "metarObsTime": 1776592380
    },
    "KAOO": {
      "status": "OK",
      "delay": "—",
      "metarCat": "VFR",
      "metarRaw": "METAR KAOO 190953Z AUTO 33014G18KT 10SM OVC060 07/03 A2992 RMK AO2 RAE53 SLP129 P0000 T00720028",
      "metarObsTime": 1776592380
    },
    "KLNS": {
      "status": "OK",
      "delay": "—",
      "metarCat": "IFR",
      "metarRaw": "METAR KLNS 190953Z 32003KT 5SM -RA BR OVC008 12/12 A2978 RMK AO2 PRESRR SLP082 P0003 T01220117",
      "metarObsTime": 1776592380
    },
    "KIPT": {
      "status": "OK",
      "delay": "—",
      "metarCat": "MVFR",
      "metarRaw": "METAR KIPT 190954Z AUTO 28015KT 5SM -RA BR FEW018 BKN039 OVC048 09/07 A2988 RMK AO2 PK WND 30027/0937 RAE12B33 SLP116 P0002 T00890067 $",
      "metarObsTime": 1776592440
    },
    "KPHL": {
      "status": "OK",
      "delay": "—",
      "metarCat": "IFR",
      "metarRaw": "METAR KPHL 190954Z 08004KT 10SM OVC006 12/10 A2976 RMK AO2 SLP078 T01170100 $",
      "metarObsTime": 1776592440
    },
    "KABE": {
      "status": "OK",
      "delay": "—",
      "metarCat": "IFR",
      "metarRaw": "METAR KABE 190951Z 00000KT 3SM +RA BR BKN006 OVC015 11/09 A2976 RMK AO2 RAE0858B20 SLP076 P0003 T01060094 $",
      "metarObsTime": 1776592260
    },
    "KAVP": {
      "status": "OK",
      "delay": "—",
      "metarCat": "MVFR",
      "metarRaw": "SPECI KAVP 191007Z AUTO 35014G22KT 7SM -RA FEW005 BKN015 OVC021 12/11 A2978 RMK AO2 P0002 T01170106",
      "metarObsTime": 1776593220
    },
    "KHZL": {
      "status": "OK",
      "delay": "—",
      "metarCat": "LIFR",
      "metarRaw": "METAR KHZL 191015Z AUTO 29006KT 230V330 4SM RA OVC004 11/10 A2982 RMK AO2 P0002",
      "metarObsTime": 1776593700
    }
  }
}