{
  "generatedAt": "2026-04-01T11:10:32.449Z",
  "airports": {
    "KPIT": {
      "status": "OK",
      "delay": "—",
      "metarCat": "VFR",
      "metarRaw": "METAR KPIT 011051Z 20007KT 10SM -RA FEW007 BKN075 OVC110 14/13 A3003 RMK AO2 SLP169 P0014 T01390133 $",
      "metarObsTime": 1775040660
    },
    "KAGC": {
      "status": "OK",
      "delay": "—",
      "metarCat": "LIFR",
      "metarRaw": "SPECI KAGC 011100Z 20011KT 8SM -RA BKN003 BKN055 OVC090 14/13 A3004 RMK AO2 P0000 T01390133",
      "metarObsTime": 1775041200
    },
    "KLBE": {
      "status": "OK",
      "delay": "—",
      "metarCat": "MVFR",
      "metarRaw": "METAR KLBE 011047Z 20010KT 4SM -RA BR BKN030 OVC080 15/14 A3008",
      "metarObsTime": 1775040420
    },
    "KJST": {
      "status": "OK",
      "delay": "—",
      "metarCat": "VFR",
      "metarRaw": "METAR KJST 011054Z AUTO 22011KT 10SM -RA OVC075 13/12 A3006 RMK AO2 SLP171 P0007 T01280117",
      "metarObsTime": 1775040840
    },
    "KERI": {
      "status": "OK",
      "delay": "—",
      "metarCat": "IFR",
      "metarRaw": "METAR KERI 011051Z 27005KT 2SM BR BKN005 OVC013 05/05 A3009 RMK AO2 CIG 002V008 SLP190 T00500050 $",
      "metarObsTime": 1775040660
    },
    "KDUJ": {
      "status": "OK",
      "delay": "—",
      "metarCat": "IFR",
      "metarRaw": "METAR KDUJ 011053Z AUTO 23008KT 10SM OVC006 13/12 A3001 RMK AO2 SLP156 T01330122 $",
      "metarObsTime": 1775040780
    },
    "KBFD": {
      "status": "OK",
      "delay": "—",
      "metarCat": "IFR",
      "metarRaw": "SPECI KBFD 011055Z AUTO 31009KT 8SM BKN006 BKN011 OVC015 12/11 A3000 RMK AO2 T01170111",
      "metarObsTime": 1775040900
    },
    "KBTP": {
      "status": "OK",
      "delay": "—",
      "metarCat": "MVFR",
      "metarRaw": "METAR KBTP 011056Z AUTO 00000KT 10SM -RA SCT008 BKN019 OVC095 13/ A3005 RMK AO2 SLP175 P0000 T0133 $",
      "metarObsTime": 1775040960
    },
    "KFKL": {
      "status": "OK",
      "delay": "—",
      "metarCat": "LIFR",
      "metarRaw": "METAR KFKL 011056Z AUTO 35003KT 10SM OVC003 11/10 A3004 RMK AO2 RAE12 SLP171 P0000 T01060100",
      "metarObsTime": 1775040960
    },
    "KIDI": {
      "status": "OK",
      "delay": "—",
      "metarCat": "IFR",
      "metarRaw": "METAR KIDI 011055Z AUTO 24007KT 9SM OVC005 14/14 A3006 RMK A01 P0002",
      "metarObsTime": 1775040900
    },
    "KMDT": {
      "status": "OK",
      "delay": "—",
      "metarCat": "VFR",
      "metarRaw": "METAR KMDT 011056Z 32008KT 10SM FEW055 BKN120 19/13 A2998 RMK AO2 SLP153 T01890128",
      "metarObsTime": 1775040960
    },
    "KCXY": {
      "status": "OK",
      "delay": "—",
      "metarCat": "VFR",
      "metarRaw": "METAR KCXY 011056Z 28006KT 10SM OVC100 19/13 A2999 RMK AO2 SLP155 T01890128",
      "metarObsTime": 1775040960
    },
    "KMUI": {
      "status": "OK",
      "delay": "—",
      "metarCat": "VFR",
      "metarRaw": "METAR KMUI 011055Z 29007KT 10SM BKN110 BKN200 20/15 A2997 RMK AO2A SLP149 T01960148",
      "metarObsTime": 1775040900
    },
    "KUNV": {
      "status": "OK",
      "delay": "—",
      "metarCat": "MVFR",
      "metarRaw": "METAR KUNV 011053Z 18004KT 10SM -DZ BKN019 15/14 A3003",
      "metarObsTime": 1775040780
    },
    "KAOO": {
      "status": "OK",
      "delay": "—",
      "metarCat": "VFR",
      "metarRaw": "METAR KAOO 011053Z AUTO 21011KT 10SM -RA BKN090 OVC110 14/13 A3003 RMK AO2 SLP164 P0003 T01390128",
      "metarObsTime": 1775040780
    },
    "KLNS": {
      "status": "OK",
      "delay": "—",
      "metarCat": "VFR",
      "metarRaw": "METAR KLNS 011053Z 20003KT 10SM CLR 16/12 A2999 RMK AO2 SLP153 T01610117",
      "metarObsTime": 1775040780
    },
    "KIPT": {
      "status": "OK",
      "delay": "—",
      "metarCat": "MVFR",
      "metarRaw": "METAR KIPT 011054Z 00000KT 4SM BR OVC027 14/13 A2998 RMK AO2 SLP150 T01390133 $",
      "metarObsTime": 1775040840
    },
    "KPHL": {
      "status": "OK",
      "delay": "—",
      "metarCat": "VFR",
      "metarRaw": "METAR KPHL 011054Z 26007KT 10SM FEW100 BKN160 BKN250 18/13 A2998 RMK AO2 SLP152 T01830128 $",
      "metarObsTime": 1775040840
    },
    "KABE": {
      "status": "OK",
      "delay": "—",
      "metarCat": "VFR",
      "metarRaw": "METAR KABE 011051Z 25006KT 10SM CLR 17/12 A2997 RMK AO2 SLP146 T01720117 $",
      "metarObsTime": 1775040660
    },
    "KAVP": {
      "status": "OK",
      "delay": "—",
      "metarCat": "VFR",
      "metarRaw": "METAR KAVP 011054Z AUTO 23005KT 10SM SCT075 BKN110 15/14 A2997 RMK AO2 RAB0959E11 SLP143 P0000 T01500139",
      "metarObsTime": 1775040840
    },
    "KHZL": {
      "status": "OK",
      "delay": "—",
      "metarCat": "VFR",
      "metarRaw": "METAR KHZL 011055Z AUTO 00000KT 10SM CLR 15/12 A3002 RMK AO2",
      "metarObsTime": 1775040900
    }
  }
}