{
  "generatedAt": "2026-03-23T10:10:20.992Z",
  "airports": {
    "KPIT": {
      "status": "OK",
      "delay": "—",
      "metarCat": "LIFR",
      "metarRaw": "METAR KPIT 230951Z 32014G24KT 2 1/2SM -RA BR OVC003 04/04 A2981 RMK AO2 RAB47 SLP104 P0000 T00440044",
      "metarObsTime": 1774259460
    },
    "KAGC": {
      "status": "OK",
      "delay": "—",
      "metarCat": "LIFR",
      "metarRaw": "METAR KAGC 230953Z 33016G24KT 1/2SM R28/3500VP6000FT FG VV002 06/05 A2978 RMK AO2 SLP088 T00560050",
      "metarObsTime": 1774259580
    },
    "KLBE": {
      "status": "OK",
      "delay": "—",
      "metarCat": "LIFR",
      "metarRaw": "METAR KLBE 230955Z AUTO 29009KT 1 3/4SM BR OVC002 10/10 A2976 RMK AO2",
      "metarObsTime": 1774259700
    },
    "KJST": {
      "status": "OK",
      "delay": "—",
      "metarCat": "IFR",
      "metarRaw": "SPECI KJST 231005Z AUTO 29014KT 10SM BKN005 OVC015 09/09 A2970 RMK AO2 CIG 003V009 T00940089",
      "metarObsTime": 1774260300
    },
    "KERI": {
      "status": "OK",
      "delay": "—",
      "metarCat": "MVFR",
      "metarRaw": "METAR KERI 230951Z AUTO 02014G22KT 9SM OVC011 01/M02 A2994 RMK AO2 CIG 008V014 SLP145 T00061017",
      "metarObsTime": 1774259460
    },
    "KDUJ": {
      "status": "OK",
      "delay": "—",
      "metarCat": "LIFR",
      "metarRaw": "SPECI KDUJ 231005Z AUTO 35008KT 2 1/2SM BR OVC002 04/04 A2974 RMK AO2 T00440039",
      "metarObsTime": 1774260300
    },
    "KBFD": {
      "status": "OK",
      "delay": "—",
      "metarCat": "LIFR",
      "metarRaw": "METAR KBFD 230953Z AUTO 03008KT 4SM BR OVC003 M01/M02 A2978 RMK AO2 SLP093 T10111017 $",
      "metarObsTime": 1774259580
    },
    "KBTP": {
      "status": "OK",
      "delay": "—",
      "metarCat": "LIFR",
      "metarRaw": "METAR KBTP 230956Z AUTO 31012G17KT 4SM HZ OVC003 03/ A2983 RMK AO2 SLP108 T0033 $",
      "metarObsTime": 1774259760
    },
    "KFKL": {
      "status": "OK",
      "delay": "—",
      "metarCat": "LIFR",
      "metarRaw": "METAR KFKL 230956Z AUTO VRB06KT 1 1/2SM UP BR OVC002 02/02 A2983 RMK AO2 RAB16E44UPB44 SLP108 P0000 T00220022 FZRANO",
      "metarObsTime": 1774259760
    },
    "KIDI": {
      "status": "OK",
      "delay": "—",
      "metarCat": "LIFR",
      "metarRaw": "METAR KIDI 230955Z AUTO 32011KT 1/2SM FG OVC003 08/08 A2975 RMK A01",
      "metarObsTime": 1774259700
    },
    "KMDT": {
      "status": "OK",
      "delay": "—",
      "metarCat": "IFR",
      "metarRaw": "METAR KMDT 230956Z 35003KT 9SM -RA OVC007 12/11 A2967 RMK AO2 SLP048 P0007 T01170111 $",
      "metarObsTime": 1774259760
    },
    "KCXY": {
      "status": "OK",
      "delay": "—",
      "metarCat": "LIFR",
      "metarRaw": "METAR KCXY 230956Z AUTO 33004KT 7SM -RA OVC004 11/11 A2968 RMK AO2 RAE29B44 SLP050 P0004 T01110106",
      "metarObsTime": 1774259760
    },
    "KMUI": {
      "status": "OK",
      "delay": "—",
      "metarCat": "IFR",
      "metarRaw": "SPECI KMUI 231003Z AUTO 06003KT 10SM OVC009 11/10 A2967 RMK AO2 SLP048",
      "metarObsTime": 1774260180
    },
    "KUNV": {
      "status": "OK",
      "delay": "—",
      "metarCat": "IFR",
      "metarRaw": "METAR KUNV 230953Z 04010KT 7SM OVC008 04/04 A2974",
      "metarObsTime": 1774259580
    },
    "KAOO": {
      "status": "OK",
      "delay": "—",
      "metarCat": "MVFR",
      "metarRaw": "METAR KAOO 230953Z AUTO VRB05KT 10SM SCT021 OVC030 11/10 A2969 RMK AO2 SLP047 T01110100",
      "metarObsTime": 1774259580
    },
    "KLNS": {
      "status": "OK",
      "delay": "—",
      "metarCat": "IFR",
      "metarRaw": "METAR KLNS 230953Z 00000KT 2 1/2SM RA BR FEW009 BKN050 OVC070 11/11 A2967 RMK AO2 SLP045 P0018 T01110111",
      "metarObsTime": 1774259580
    },
    "KIPT": {
      "status": "OK",
      "delay": "—",
      "metarCat": "MVFR",
      "metarRaw": "METAR KIPT 230954Z AUTO 31004KT 10SM OVC022 03/02 A2978 RMK AO2 SLP087 T00330017 $",
      "metarObsTime": 1774259640
    },
    "KPHL": {
      "status": "OK",
      "delay": "—",
      "metarCat": "IFR",
      "metarRaw": "SPECI KPHL 231004Z 07005KT 6SM -RA BR BKN009 OVC070 12/11 A2968 RMK AO2 P0000 T01220106 $",
      "metarObsTime": 1774260240
    },
    "KABE": {
      "status": "OK",
      "delay": "—",
      "metarCat": "IFR",
      "metarRaw": "SPECI KABE 231002Z 36009KT 7SM RA BKN007 OVC011 09/08 A2971 RMK AO2 PRESRR P0003 T00890078 $",
      "metarObsTime": 1774260120
    },
    "KAVP": {
      "status": "OK",
      "delay": "—",
      "metarCat": "MVFR",
      "metarRaw": "METAR KAVP 230954Z 02005KT 10SM OVC011 03/02 A2974 RMK AO2 RAE17 SLP073 P0001 T00330022",
      "metarObsTime": 1774259640
    },
    "KHZL": {
      "status": "OK",
      "delay": "—",
      "metarCat": "LIFR",
      "metarRaw": "METAR KHZL 230955Z AUTO 34004KT 10SM OVC003 03/02 A2975 RMK AO2",
      "metarObsTime": 1774259700
    }
  }
}