{
  "generatedAt": "2026-03-14T14:40:19.332Z",
  "airports": {
    "KPIT": {
      "status": "OK",
      "delay": "—",
      "metarCat": "VFR",
      "metarRaw": "METAR KPIT 141351Z 29011KT 10SM FEW032 FEW150 SCT250 01/M06 A3014 RMK AO2 SLP222 T00111061",
      "metarObsTime": 1773496260
    },
    "KAGC": {
      "status": "OK",
      "delay": "—",
      "metarCat": "VFR",
      "metarRaw": "METAR KAGC 141353Z VRB05G14KT 10SM CLR 01/M07 A3013 RMK AO2 SLP216 T00111067",
      "metarObsTime": 1773496380
    },
    "KLBE": {
      "status": "OK",
      "delay": "—",
      "metarCat": "VFR",
      "metarRaw": "METAR KLBE 141347Z 26013G26KT 10SM CLR 03/M06 A3016",
      "metarObsTime": 1773496020
    },
    "KJST": {
      "status": "OK",
      "delay": "—",
      "metarCat": "VFR",
      "metarRaw": "METAR KJST 141354Z AUTO 29020G31KT 10SM FEW029 M01/M08 A3005 RMK AO2 PK WND 30031/1346 SLP192 T10061078",
      "metarObsTime": 1773496440
    },
    "KERI": {
      "status": "OK",
      "delay": "—",
      "metarCat": "VFR",
      "metarRaw": "METAR KERI 141351Z 29012G25KT 10SM BKN036 00/M07 A3014 RMK AO2 PK WND 29028/1314 SLP215 T00001072 $",
      "metarObsTime": 1773496260
    },
    "KDUJ": {
      "status": "OK",
      "delay": "—",
      "metarCat": "MVFR",
      "metarRaw": "METAR KDUJ 141353Z AUTO 27018G28KT 10SM OVC030 M02/M09 A3006 RMK AO2 PK WND 26032/1313 SLP196 T10171089",
      "metarObsTime": 1773496380
    },
    "KBFD": {
      "status": "OK",
      "delay": "—",
      "metarCat": "MVFR",
      "metarRaw": "SPECI KBFD 141409Z AUTO 27012G20KT 4SM -SN BKN022 OVC028 M04/M07 A3001 RMK AO2 P0000 T10391072",
      "metarObsTime": 1773497340
    },
    "KBTP": {
      "status": "OK",
      "delay": "—",
      "metarCat": "VFR",
      "metarRaw": "METAR KBTP 141356Z AUTO 29012KT 10SM SCT030 01/M07 A3015 RMK AO2 SLP224 T00061067 FZRANO $",
      "metarObsTime": 1773496560
    },
    "KFKL": {
      "status": "OK",
      "delay": "—",
      "metarCat": "MVFR",
      "metarRaw": "METAR KFKL 141356Z AUTO 30006KT 10SM -SN OVC023 A3012 RMK AO2 SNB55 SLPNO P0000 FZRANO $",
      "metarObsTime": 1773496560
    },
    "KIDI": {
      "status": "OK",
      "delay": "—",
      "metarCat": "VFR",
      "metarRaw": "METAR KIDI 141435Z AUTO 29014G19KT 260V320 10SM SCT033 02/M06 A3014 RMK A01",
      "metarObsTime": 1773498900
    },
    "KMDT": {
      "status": "OK",
      "delay": "—",
      "metarCat": "VFR",
      "metarRaw": "METAR KMDT 141356Z 30021G31KT 10SM CLR 07/M07 A3004 RMK AO2 PK WND 29036/1334 SLP173 T00721072 $",
      "metarObsTime": 1773496560
    },
    "KCXY": {
      "status": "OK",
      "delay": "—",
      "metarCat": "VFR",
      "metarRaw": "METAR KCXY 141356Z 30019G29KT 10SM CLR 07/M09 A3005 RMK AO2 PK WND 32036/1327 RAB28E53 SLP180 P0000 T00721089",
      "metarObsTime": 1773496560
    },
    "KMUI": {
      "status": "OK",
      "delay": "—",
      "metarCat": "—",
      "metarRaw": "—",
      "metarObsTime": null
    },
    "KUNV": {
      "status": "OK",
      "delay": "—",
      "metarCat": "VFR",
      "metarRaw": "METAR KUNV 141353Z 29019G30KT 10SM SCT042 BKN048 02/M08 A3006",
      "metarObsTime": 1773496380
    },
    "KAOO": {
      "status": "OK",
      "delay": "—",
      "metarCat": "VFR",
      "metarRaw": "METAR KAOO 141353Z AUTO 30013G26KT 10SM CLR 03/M08 A3007 RMK AO2 PK WND 28033/1306 SLP190 T00281078",
      "metarObsTime": 1773496380
    },
    "KLNS": {
      "status": "OK",
      "delay": "—",
      "metarCat": "VFR",
      "metarRaw": "METAR KLNS 141353Z 30022G33KT 10SM CLR 07/M07 A3001 RMK AO2 PK WND 30033/1353 SLP162 T00721072",
      "metarObsTime": 1773496380
    },
    "KIPT": {
      "status": "OK",
      "delay": "—",
      "metarCat": "VFR",
      "metarRaw": "METAR KIPT 141354Z 29021G29KT 10SM SCT050 04/M07 A3000 RMK AO2 PK WND 26036/1309 SLP163 T00391072",
      "metarObsTime": 1773496440
    },
    "KPHL": {
      "status": "OK",
      "delay": "—",
      "metarCat": "VFR",
      "metarRaw": "METAR KPHL 141354Z 28022G36KT 10SM SCT250 11/M08 A2999 RMK AO2 PK WND 27036/1351 SLP156 T01061078 $",
      "metarObsTime": 1773496440
    },
    "KABE": {
      "status": "OK",
      "delay": "—",
      "metarCat": "VFR",
      "metarRaw": "METAR KABE 141351Z 29017G33KT 10SM CLR 07/M07 A2995 RMK AO2 PK WND 26033/1348 SLP144 T00671072 $",
      "metarObsTime": 1773496260
    },
    "KAVP": {
      "status": "OK",
      "delay": "—",
      "metarCat": "VFR",
      "metarRaw": "METAR KAVP 141354Z 27013G24KT 10SM BKN049 OVC055 02/M07 A2993 RMK AO2 PK WND 25030/1320 SLP141 T00221067",
      "metarObsTime": 1773496440
    },
    "KHZL": {
      "status": "OK",
      "delay": "—",
      "metarCat": "VFR",
      "metarRaw": "METAR KHZL 141435Z AUTO 27006G21KT 10SM SCT041 02/M07 A2998 RMK AO2",
      "metarObsTime": 1773498900
    }
  }
}