{
  "generatedAt": "2026-04-22T04:31:01.463Z",
  "airports": {
    "KPIT": {
      "status": "OK",
      "delay": "—",
      "metarCat": "VFR",
      "metarRaw": "METAR KPIT 220351Z 21008KT 10SM FEW060 OVC130 18/03 A2999 RMK AO2 SLP159 T01780033",
      "metarObsTime": 1776829860
    },
    "KAGC": {
      "status": "OK",
      "delay": "—",
      "metarCat": "VFR",
      "metarRaw": "METAR KAGC 220353Z 20008KT 10SM CLR 17/03 A2999 RMK AO2 SLP160 T01670028",
      "metarObsTime": 1776829980
    },
    "KLBE": {
      "status": "OK",
      "delay": "—",
      "metarCat": "VFR",
      "metarRaw": "METAR KLBE 220415Z AUTO 20010KT 10SM CLR 16/05 A3002 RMK AO2",
      "metarObsTime": 1776831300
    },
    "KJST": {
      "status": "OK",
      "delay": "—",
      "metarCat": "VFR",
      "metarRaw": "METAR KJST 220354Z AUTO 18007KT 10SM CLR 11/M03 A3004 RMK AO2 SLP178 T01111033",
      "metarObsTime": 1776830040
    },
    "KERI": {
      "status": "OK",
      "delay": "—",
      "metarCat": "VFR",
      "metarRaw": "METAR KERI 220351Z AUTO 15005KT 10SM OVC085 14/08 A2993 RMK AO2 RAB01E47 SLP138 P0000 T01390078",
      "metarObsTime": 1776829860
    },
    "KDUJ": {
      "status": "OK",
      "delay": "—",
      "metarCat": "VFR",
      "metarRaw": "METAR KDUJ 220353Z AUTO 00000KT 10SM BKN070 OVC090 12/M03 A3001 RMK AO2 SLP164 T01221028",
      "metarObsTime": 1776829980
    },
    "KBFD": {
      "status": "OK",
      "delay": "—",
      "metarCat": "VFR",
      "metarRaw": "METAR KBFD 220353Z AUTO 00000KT 10SM -RA OVC060 09/01 A3003 RMK AO2 RAB22 SLP173 P0000 T00940011",
      "metarObsTime": 1776829980
    },
    "KBTP": {
      "status": "OK",
      "delay": "—",
      "metarCat": "VFR",
      "metarRaw": "METAR KBTP 220356Z AUTO 20007KT 10SM FEW120 17/04 A2998 RMK AO2 SLP159 T01670039 401941039 $",
      "metarObsTime": 1776830160
    },
    "KFKL": {
      "status": "OK",
      "delay": "—",
      "metarCat": "—",
      "metarRaw": "—",
      "metarObsTime": null
    },
    "KIDI": {
      "status": "OK",
      "delay": "—",
      "metarCat": "—",
      "metarRaw": "—",
      "metarObsTime": null
    },
    "KMDT": {
      "status": "OK",
      "delay": "—",
      "metarCat": "VFR",
      "metarRaw": "METAR KMDT 220356Z 16010KT 10SM FEW080 11/03 A3014 RMK AO2 SLP207 T01110028",
      "metarObsTime": 1776830160
    },
    "KCXY": {
      "status": "OK",
      "delay": "—",
      "metarCat": "VFR",
      "metarRaw": "METAR KCXY 220356Z AUTO 13009KT 10SM CLR 10/01 A3014 RMK AO2 SLP208 T01000011",
      "metarObsTime": 1776830160
    },
    "KMUI": {
      "status": "OK",
      "delay": "—",
      "metarCat": "VFR",
      "metarRaw": "METAR KMUI 220355Z AUTO 00000KT 10SM BKN160 OVC190 09/03 A3013 RMK AO2 SLP208 T00860030",
      "metarObsTime": 1776830100
    },
    "KUNV": {
      "status": "OK",
      "delay": "—",
      "metarCat": "VFR",
      "metarRaw": "METAR KUNV 220415Z AUTO 21004KT 10SM CLR 11/M02 A3005 RMK AO2 T01051023",
      "metarObsTime": 1776831300
    },
    "KAOO": {
      "status": "OK",
      "delay": "—",
      "metarCat": "VFR",
      "metarRaw": "METAR KAOO 220353Z AUTO 21004KT 10SM CLR 10/M02 A3007 RMK AO2 SLP187 T01001022",
      "metarObsTime": 1776829980
    },
    "KLNS": {
      "status": "OK",
      "delay": "—",
      "metarCat": "—",
      "metarRaw": "—",
      "metarObsTime": null
    },
    "KIPT": {
      "status": "OK",
      "delay": "—",
      "metarCat": "VFR",
      "metarRaw": "METAR KIPT 220354Z AUTO 10009G18KT 060V120 10SM FEW075 BKN090 OVC110 11/M02 A3009 RMK AO2 PK WND 16026/0318 SLP191 T01111022 $",
      "metarObsTime": 1776830040
    },
    "KPHL": {
      "status": "OK",
      "delay": "—",
      "metarCat": "VFR",
      "metarRaw": "METAR KPHL 220354Z 16008KT 10SM BKN170 OVC220 09/02 A3024 RMK AO2 SLP238 T00890022 $",
      "metarObsTime": 1776830040
    },
    "KABE": {
      "status": "OK",
      "delay": "—",
      "metarCat": "VFR",
      "metarRaw": "METAR KABE 220351Z 18006KT 10SM CLR 09/M03 A3019 RMK AO2 RAB01E10 SLP226 P0000 T00941028",
      "metarObsTime": 1776829860
    },
    "KAVP": {
      "status": "OK",
      "delay": "—",
      "metarCat": "VFR",
      "metarRaw": "METAR KAVP 220354Z 00000KT 10SM BKN085 BKN110 09/M03 A3013 RMK AO2 RAB09E25 SLP205 P0000 T00941033",
      "metarObsTime": 1776830040
    },
    "KHZL": {
      "status": "OK",
      "delay": "—",
      "metarCat": "VFR",
      "metarRaw": "METAR KHZL 220415Z AUTO 13006KT 10SM SCT085 OVC095 07/M02 A3016 RMK AO2",
      "metarObsTime": 1776831300
    }
  }
}