{
  "generatedAt": "2026-03-27T02:30:23.998Z",
  "airports": {
    "KPIT": {
      "status": "OK",
      "delay": "—",
      "metarCat": "MVFR",
      "metarRaw": "METAR KPIT 270151Z 34014KT 5SM -TSRA BR FEW005 BKN033CB OVC100 16/15 A2974 RMK AO2 PK WND 36041/0113 WSHFT 0104 RAB0058 TSB0053 SLP075 FRQ LTGICCG ALQDS TS ALQDS MOV E P0064 T01560150",
      "metarObsTime": 1774576260
    },
    "KAGC": {
      "status": "OK",
      "delay": "—",
      "metarCat": "IFR",
      "metarRaw": "SPECI KAGC 270224Z 35010G20KT 2 1/2SM TSRA BR BKN005 OVC046 16/16 A2974 RMK AO2 LTG DSNT ALQDS P0020 T01610156",
      "metarObsTime": 1774578240
    },
    "KLBE": {
      "status": "OK",
      "delay": "—",
      "metarCat": "IFR",
      "metarRaw": "METAR KLBE 270215Z AUTO 29015KT 1 1/4SM +TSRA BR SCT003 BKN015 OVC041 18/17 A2976 RMK AO2 LTG DSNT ALQDS",
      "metarObsTime": 1774577700
    },
    "KJST": {
      "status": "OK",
      "delay": "—",
      "metarCat": "IFR",
      "metarRaw": "SPECI KJST 270216Z AUTO 32012G34KT 1SM +TSRA BR FEW005 BKN023 OVC060 15/14 A2975 RMK AO2 PK WND 34034/0207 WSHFT 0156 LTG DSNT ALQDS TSB02 P0036 T01500144",
      "metarObsTime": 1774577760
    },
    "KERI": {
      "status": "OK",
      "delay": "—",
      "metarCat": "MVFR",
      "metarRaw": "SPECI KERI 270158Z 06005KT 5SM -RA BR FEW015 OVC095 08/08 A2981 RMK AO2 P0000 T00830078",
      "metarObsTime": 1774576680
    },
    "KDUJ": {
      "status": "OK",
      "delay": "—",
      "metarCat": "IFR",
      "metarRaw": "SPECI KDUJ 270219Z AUTO 35013G22KT 9SM -RA BKN008 BKN047 OVC075 12/11 A2977 RMK AO2 RAB14 CIG 006V012 PRESRR P0001 T01170106",
      "metarObsTime": 1774577940
    },
    "KBFD": {
      "status": "OK",
      "delay": "—",
      "metarCat": "VFR",
      "metarRaw": "METAR KBFD 270153Z AUTO 32006KT 10SM FEW007 BKN039 OVC085 09/08 A2979 RMK AO2 RAE25 PRESRR SLP084 P0003 T00890083",
      "metarObsTime": 1774576380
    },
    "KBTP": {
      "status": "OK",
      "delay": "—",
      "metarCat": "MVFR",
      "metarRaw": "SPECI KBTP 270223Z AUTO 35013G21KT 8SM TSRA BKN013 OVC030 12/12 A2985 RMK AO2 LTG DSNT N AND S TSE0157B18 PRESRR P0002 $",
      "metarObsTime": 1774578180
    },
    "KFKL": {
      "status": "OK",
      "delay": "—",
      "metarCat": "VFR",
      "metarRaw": "METAR KFKL 270156Z AUTO 03010KT 7SM +RA SCT007 BKN031 OVC043 09/09 A2980 RMK AO2 LTG DSNT SW TSB22E37 SLP092 P0014 T00940089",
      "metarObsTime": 1774576560
    },
    "KIDI": {
      "status": "OK",
      "delay": "—",
      "metarCat": "IFR",
      "metarRaw": "METAR KIDI 270215Z AUTO 34010G16KT 10SM BKN008 BKN021 OVC046 17/16 A2974 RMK A01",
      "metarObsTime": 1774577700
    },
    "KMDT": {
      "status": "OK",
      "delay": "—",
      "metarCat": "VFR",
      "metarRaw": "METAR KMDT 270156Z COR VRB/03 10SM BKN085 BKN150 23/11 A2962 RMK AO2 SLP030 T02280106",
      "metarObsTime": 1774576560
    },
    "KCXY": {
      "status": "OK",
      "delay": "—",
      "metarCat": "VFR",
      "metarRaw": "METAR KCXY 270156Z AUTO 21014G24KT 10SM BKN080 23/11 A2962 RMK AO2 SLP029 T02330111",
      "metarObsTime": 1774576560
    },
    "KMUI": {
      "status": "OK",
      "delay": "—",
      "metarCat": "VFR",
      "metarRaw": "METAR KMUI 270155Z 22008KT 10SM FEW080 SCT100 SCT140 BKN180 23/12 A2960 RMK AO2A SLP025 T02260119",
      "metarObsTime": 1774576500
    },
    "KUNV": {
      "status": "OK",
      "delay": "—",
      "metarCat": "MVFR",
      "metarRaw": "METAR KUNV 270215Z AUTO 29005G18KT 5SM VCTSRA SCT029 BKN044 OVC090 17/17 A2971 RMK AO2 LTG DSNT E AND SW P0007 T01700166",
      "metarObsTime": 1774577700
    },
    "KAOO": {
      "status": "OK",
      "delay": "—",
      "metarCat": "VFR",
      "metarRaw": "SPECI KAOO 270218Z AUTO 23012KT 9SM VCTS -RA FEW060 BKN090 OVC110 20/12 A2969 RMK AO2 LTG DSNT W-NE RAB13 P0000 T02000122",
      "metarObsTime": 1774577880
    },
    "KLNS": {
      "status": "OK",
      "delay": "—",
      "metarCat": "VFR",
      "metarRaw": "METAR KLNS 270153Z 21010G16KT 10SM CLR 21/11 A2963 RMK AO2 SLP032 T02110106",
      "metarObsTime": 1774576380
    },
    "KIPT": {
      "status": "OK",
      "delay": "—",
      "metarCat": "MVFR",
      "metarRaw": "SPECI KIPT 270222Z 35018G29KT 5SM -RA FEW008 BKN014 OVC022 15/12 A2971 RMK AO2 PK WND 35027/0217 LTG DSNT SW PRESRR P0019 T01500122 $",
      "metarObsTime": 1774578120
    },
    "KPHL": {
      "status": "OK",
      "delay": "—",
      "metarCat": "VFR",
      "metarRaw": "METAR KPHL 270154Z 21016G27KT 10SM SCT230 BKN280 22/11 A2969 RMK AO2 PK WND 20027/0146 SLP053 T02170111",
      "metarObsTime": 1774576440
    },
    "KABE": {
      "status": "OK",
      "delay": "—",
      "metarCat": "VFR",
      "metarRaw": "METAR KABE 270151Z 26010G17KT 9SM RA SCT070 BKN090 OVC100 19/12 A2967 RMK AO2 LTG DSNT NW RAB0059 SLP048 P0001 T01890122 $",
      "metarObsTime": 1774576260
    },
    "KAVP": {
      "status": "OK",
      "delay": "—",
      "metarCat": "VFR",
      "metarRaw": "METAR KAVP 270154Z 23010G22KT 6SM RA FEW043 BKN095 OVC120 17/14 A2967 RMK AO2 PK WND 24041/0107 LTG DSNT S RAE08B41 SLP042 P0001 T01670139",
      "metarObsTime": 1774576440
    },
    "KHZL": {
      "status": "OK",
      "delay": "—",
      "metarCat": "IFR",
      "metarRaw": "METAR KHZL 270215Z AUTO 00000KT 2 1/2SM RA SCT006 BKN032 OVC050 15/13 A2972 RMK AO2 P0017",
      "metarObsTime": 1774577700
    }
  }
}