{
  "generatedAt": "2026-04-06T18:20:39.350Z",
  "airports": {
    "KPIT": {
      "status": "OK",
      "delay": "—",
      "metarCat": "VFR",
      "metarRaw": "METAR KPIT 061751Z 27012G24KT 10SM BKN039 BKN055 09/00 A3007 RMK AO2 SLP195 60000 T00940000 10100 20022 56018",
      "metarObsTime": 1775497860
    },
    "KAGC": {
      "status": "OK",
      "delay": "—",
      "metarCat": "VFR",
      "metarRaw": "METAR KAGC 061750Z AUTO 28017G24KT 10SM BKN043 OVC050 11/00 A3007 RMK ILS 28 ATIS INFORMATION INDIA",
      "metarObsTime": 1775497800
    },
    "KLBE": {
      "status": "OK",
      "delay": "—",
      "metarCat": "VFR",
      "metarRaw": "METAR KLBE 061747Z 26023G26KT 10SM BKN047 BKN055 BKN065 10/01 A3009",
      "metarObsTime": 1775497620
    },
    "KJST": {
      "status": "OK",
      "delay": "—",
      "metarCat": "—",
      "metarRaw": "—",
      "metarObsTime": null
    },
    "KERI": {
      "status": "OK",
      "delay": "—",
      "metarCat": "MVFR",
      "metarRaw": "METAR KERI 061751Z 22009KT 10SM OVC028 06/M01 A3008 RMK AO2 SLP193 60001 T00561006 10061 20022 56008 $",
      "metarObsTime": 1775497860
    },
    "KDUJ": {
      "status": "OK",
      "delay": "—",
      "metarCat": "MVFR",
      "metarRaw": "SPECI KDUJ 061804Z AUTO 28009KT 10SM BKN027 OVC034 03/M03 A3005 RMK AO2 SNE1756 P0000 T00331028",
      "metarObsTime": 1775498640
    },
    "KBFD": {
      "status": "OK",
      "delay": "—",
      "metarCat": "MVFR",
      "metarRaw": "METAR KBFD 061753Z AUTO 26008KT 3SM -SN SCT014 BKN020 OVC033 02/M02 A3003 RMK AO2 SNB1654 SLP188 P0000 60000 T00171017 10017 21011 58005",
      "metarObsTime": 1775497980
    },
    "KBTP": {
      "status": "OK",
      "delay": "—",
      "metarCat": "VFR",
      "metarRaw": "METAR KBTP 061756Z AUTO 27012G17KT 10SM BKN033 BKN040 BKN060 08/01 A3008 RMK AO2 SLP198 60002 T00830006 10089 20017 56021 $",
      "metarObsTime": 1775498160
    },
    "KFKL": {
      "status": "OK",
      "delay": "—",
      "metarCat": "MVFR",
      "metarRaw": "METAR KFKL 061756Z AUTO 22008KT 10SM OVC017 04/00 A3007 RMK AO2 UPE1658 SLP196 P0000 60000 T00390000 10039 20006 56012",
      "metarObsTime": 1775498160
    },
    "KIDI": {
      "status": "OK",
      "delay": "—",
      "metarCat": "VFR",
      "metarRaw": "METAR KIDI 061815Z AUTO 29010KT 10SM OVC041 08/M01 A3007 RMK A01",
      "metarObsTime": 1775499300
    },
    "KMDT": {
      "status": "OK",
      "delay": "—",
      "metarCat": "VFR",
      "metarRaw": "METAR KMDT 061756Z 29012G19KT 10SM BKN065 BKN080 13/M01 A3005 RMK AO2 SLP178 T01281011 10128 20061 58016",
      "metarObsTime": 1775498160
    },
    "KCXY": {
      "status": "OK",
      "delay": "—",
      "metarCat": "VFR",
      "metarRaw": "METAR KCXY 061756Z 29008G17KT 10SM BKN075 OVC090 12/M04 A3006 RMK AO2 SLP182 T01171039 10128 20061 58016",
      "metarObsTime": 1775498160
    },
    "KMUI": {
      "status": "OK",
      "delay": "—",
      "metarCat": "—",
      "metarRaw": "—",
      "metarObsTime": null
    },
    "KUNV": {
      "status": "OK",
      "delay": "—",
      "metarCat": "VFR",
      "metarRaw": "METAR KUNV 061753Z 29010G15KT 10SM SCT045 BKN060 07/M03 A3006",
      "metarObsTime": 1775497980
    },
    "KAOO": {
      "status": "OK",
      "delay": "—",
      "metarCat": "VFR",
      "metarRaw": "METAR KAOO 061753Z AUTO 26012KT 10SM BKN050 08/M03 A3005 RMK AO2 SLP185 T00831033 58010 $",
      "metarObsTime": 1775497980
    },
    "KLNS": {
      "status": "OK",
      "delay": "—",
      "metarCat": "VFR",
      "metarRaw": "SPECI KLNS 061800Z 27011G17KT 10SM BKN070 11/M02 A3007 RMK AO2 WSHFT 1740 T01111017",
      "metarObsTime": 1775498400
    },
    "KIPT": {
      "status": "OK",
      "delay": "—",
      "metarCat": "VFR",
      "metarRaw": "METAR KIPT 061754Z 24014KT 10SM FEW050 OVC060 10/M04 A3003 RMK AO2 SLP173 T01001039 10111 20039 56011",
      "metarObsTime": 1775498040
    },
    "KPHL": {
      "status": "OK",
      "delay": "—",
      "metarCat": "VFR",
      "metarRaw": "METAR KPHL 061754Z COR 10SM FEW060 FEW080 27008G15 13/M04 A3007 RMK AO2 SLP182 T01331044 10139 20072 58013 $",
      "metarObsTime": 1775498040
    },
    "KABE": {
      "status": "OK",
      "delay": "—",
      "metarCat": "VFR",
      "metarRaw": "METAR KABE 061751Z 27008G15KT 10SM SCT070 11/M04 A3004 RMK AO2 SLP174 T01111044 10117 20050 58013 $",
      "metarObsTime": 1775497860
    },
    "KAVP": {
      "status": "OK",
      "delay": "—",
      "metarCat": "VFR",
      "metarRaw": "METAR KAVP 061754Z 34007G17KT 10SM OVC065 08/M06 A3002 RMK AO2 SLP170 T00781056 10083 20022 58014",
      "metarObsTime": 1775498040
    },
    "KHZL": {
      "status": "OK",
      "delay": "—",
      "metarCat": "VFR",
      "metarRaw": "METAR KHZL 061815Z AUTO 26009G14KT 240V320 10SM SCT049 OVC060 08/M06 A3004 RMK AO2",
      "metarObsTime": 1775499300
    }
  }
}