{
  "generatedAt": "2026-04-05T08:20:35.811Z",
  "airports": {
    "KPIT": {
      "status": "OK",
      "delay": "—",
      "metarCat": "VFR",
      "metarRaw": "SPECI KPIT 050810Z 28009KT 7SM -RA FEW009 BKN032 OVC050 10/09 A2987 RMK AO2 P0002 T01000089 $",
      "metarObsTime": 1775376600
    },
    "KAGC": {
      "status": "OK",
      "delay": "—",
      "metarCat": "MVFR",
      "metarRaw": "METAR KAGC 050753Z 30010G21KT 7SM -RA BKN018 OVC023 11/09 A2987 RMK AO2 PK WND 32028/0717 SLP113 P0004 T01060094",
      "metarObsTime": 1775375580
    },
    "KLBE": {
      "status": "OK",
      "delay": "—",
      "metarCat": "IFR",
      "metarRaw": "METAR KLBE 050815Z AUTO 29018G27KT 2 1/2SM RA BR BKN010 BKN018 OVC024 14/14 A2987 RMK AO2",
      "metarObsTime": 1775376900
    },
    "KJST": {
      "status": "OK",
      "delay": "—",
      "metarCat": "MVFR",
      "metarRaw": "SPECI KJST 050803Z AUTO 23012G24KT 10SM -RA BKN018 OVC070 16/14 A2984 RMK AO2 P0000 T01610139",
      "metarObsTime": 1775376180
    },
    "KERI": {
      "status": "OK",
      "delay": "—",
      "metarCat": "MVFR",
      "metarRaw": "METAR KERI 050751Z AUTO 25014G22KT 10SM -RA OVC023 08/06 A2985 RMK AO2 SLP107 P0004 T00780061",
      "metarObsTime": 1775375460
    },
    "KDUJ": {
      "status": "OK",
      "delay": "—",
      "metarCat": "MVFR",
      "metarRaw": "SPECI KDUJ 050808Z AUTO 29013G28KT 8SM -RA SCT007 BKN013 OVC019 12/11 A2982 RMK AO2 PK WND 27028/0759 P0002 T01220111",
      "metarObsTime": 1775376480
    },
    "KBFD": {
      "status": "OK",
      "delay": "—",
      "metarCat": "MVFR",
      "metarRaw": "SPECI KBFD 050800Z AUTO 26008G17KT 5SM -RA BR OVC010 11/10 A2980 RMK AO2 P0001 T01110100",
      "metarObsTime": 1775376000
    },
    "KBTP": {
      "status": "OK",
      "delay": "—",
      "metarCat": "MVFR",
      "metarRaw": "SPECI KBTP 050809Z AUTO 26012KT 8SM -RA SCT009 BKN012 OVC038 10/ A2989 RMK AO2 P0001 $",
      "metarObsTime": 1775376540
    },
    "KFKL": {
      "status": "OK",
      "delay": "—",
      "metarCat": "IFR",
      "metarRaw": "METAR KFKL 050756Z AUTO 25008KT 10SM -RA OVC007 09/08 A2986 RMK AO2 CIG 005V010 SLP106 P0007 T00890078",
      "metarObsTime": 1775375760
    },
    "KIDI": {
      "status": "OK",
      "delay": "—",
      "metarCat": "MVFR",
      "metarRaw": "METAR KIDI 050815Z AUTO 29013G22KT 3SM BR FEW004 SCT008 BKN011 14/14 A2984 RMK A01",
      "metarObsTime": 1775376900
    },
    "KMDT": {
      "status": "OK",
      "delay": "—",
      "metarCat": "LIFR",
      "metarRaw": "METAR KMDT 050756Z 12010KT 3SM BR OVC003 09/09 A2990 RMK AO2 SLP126 T00940089 $",
      "metarObsTime": 1775375760
    },
    "KCXY": {
      "status": "OK",
      "delay": "—",
      "metarCat": "LIFR",
      "metarRaw": "METAR KCXY 050756Z AUTO 11007KT 2SM BR OVC003 09/09 A2991 RMK AO2 SLP127 T00940089 $",
      "metarObsTime": 1775375760
    },
    "KMUI": {
      "status": "OK",
      "delay": "—",
      "metarCat": "LIFR",
      "metarRaw": "METAR KMUI 050655Z AUTO 07010KT 5SM BR OVC003 08/08 A2994 RMK AO2 SLP140 T00800077",
      "metarObsTime": 1775372100
    },
    "KUNV": {
      "status": "OK",
      "delay": "—",
      "metarCat": "—",
      "metarRaw": "METAR KUNV 050719Z AUTO 04004KT 15/14 A2983 RMK AO2",
      "metarObsTime": 1775373540
    },
    "KAOO": {
      "status": "OK",
      "delay": "—",
      "metarCat": "VFR",
      "metarRaw": "METAR KAOO 050753Z AUTO 24012G22KT 10SM BKN050 BKN065 OVC100 20/13 A2983 RMK AO2 SLP091 T02000128",
      "metarObsTime": 1775375580
    },
    "KLNS": {
      "status": "OK",
      "delay": "—",
      "metarCat": "LIFR",
      "metarRaw": "SPECI KLNS 050811Z AUTO 09008KT 2 1/2SM BR OVC002 08/08 A2991 RMK AO2 T00830078",
      "metarObsTime": 1775376660
    },
    "KIPT": {
      "status": "OK",
      "delay": "—",
      "metarCat": "MVFR",
      "metarRaw": "METAR KIPT 050754Z AUTO 07008G19KT 10SM OVC011 11/09 A2985 RMK AO2 SLP107 T01110089",
      "metarObsTime": 1775375640
    },
    "KPHL": {
      "status": "OK",
      "delay": "—",
      "metarCat": "LIFR",
      "metarRaw": "SPECI KPHL 050810Z 07006KT 1 1/2SM BR OVC003 09/08 A2995 RMK AO2 T00940083 $",
      "metarObsTime": 1775376600
    },
    "KABE": {
      "status": "OK",
      "delay": "—",
      "metarCat": "LIFR",
      "metarRaw": "METAR KABE 050751Z 08008KT 4SM BR OVC004 06/05 A2997 RMK AO2 SLP149 T00560050 $",
      "metarObsTime": 1775375460
    },
    "KAVP": {
      "status": "OK",
      "delay": "—",
      "metarCat": "MVFR",
      "metarRaw": "METAR KAVP 050754Z AUTO 09005KT 10SM OVC011 08/06 A2990 RMK AO2 SLP121 T00830061",
      "metarObsTime": 1775375640
    },
    "KHZL": {
      "status": "OK",
      "delay": "—",
      "metarCat": "LIFR",
      "metarRaw": "METAR KHZL 050702Z AUTO 16008KT 120V220 1SM -DZ OVC002 05/04 A2995 RMK AO2",
      "metarObsTime": 1775372520
    }
  }
}