{
  "generatedAt": "2026-03-19T15:00:23.345Z",
  "airports": {
    "KPIT": {
      "status": "OK",
      "delay": "—",
      "metarCat": "VFR",
      "metarRaw": "METAR KPIT 191451Z 21006KT 10SM OVC044 06/M02 A3014 RMK AO2 SLP224 T00561017 51005",
      "metarObsTime": 1773931860
    },
    "KAGC": {
      "status": "OK",
      "delay": "—",
      "metarCat": "VFR",
      "metarRaw": "METAR KAGC 191453Z 21009KT 10SM OVC044 06/M02 A3014 RMK AO2 SLP221 T00561022 50004",
      "metarObsTime": 1773931980
    },
    "KLBE": {
      "status": "OK",
      "delay": "—",
      "metarCat": "VFR",
      "metarRaw": "METAR KLBE 191350Z 20009KT 10SM OVC042 05/M02 A3017",
      "metarObsTime": 1773928200
    },
    "KJST": {
      "status": "OK",
      "delay": "—",
      "metarCat": "VFR",
      "metarRaw": "METAR KJST 191354Z AUTO 23007KT 10SM OVC032 03/M04 A3011 RMK AO2 RAB03E26 SLP219 P0000 T00281039",
      "metarObsTime": 1773928440
    },
    "KERI": {
      "status": "OK",
      "delay": "—",
      "metarCat": "VFR",
      "metarRaw": "METAR KERI 191451Z 20006KT 10SM BKN038 OVC100 07/M03 A3012 RMK AO2 SLP205 T00671028 50003",
      "metarObsTime": 1773931860
    },
    "KDUJ": {
      "status": "OK",
      "delay": "—",
      "metarCat": "VFR",
      "metarRaw": "METAR KDUJ 191453Z AUTO 23006KT 10SM OVC031 02/M04 A3012 RMK AO2 SLP216 T00221039 52006",
      "metarObsTime": 1773931980
    },
    "KBFD": {
      "status": "OK",
      "delay": "—",
      "metarCat": "MVFR",
      "metarRaw": "METAR KBFD 191453Z AUTO 20005KT 10SM FEW011 BKN021 OVC034 00/M04 A3009 RMK AO2 SLP212 T00001039 50002",
      "metarObsTime": 1773931980
    },
    "KBTP": {
      "status": "OK",
      "delay": "—",
      "metarCat": "VFR",
      "metarRaw": "METAR KBTP 191356Z AUTO 20006KT 10SM OVC040 04/M03 A3014 RMK AO2 SLP225 T00391028 $",
      "metarObsTime": 1773928560
    },
    "KFKL": {
      "status": "OK",
      "delay": "—",
      "metarCat": "VFR",
      "metarRaw": "SPECI KFKL 191424Z AUTO 21006KT 10SM OVC031 02/M03 A3013 RMK AO2 FZRANO",
      "metarObsTime": 1773930240
    },
    "KIDI": {
      "status": "OK",
      "delay": "—",
      "metarCat": "VFR",
      "metarRaw": "METAR KIDI 191435Z AUTO 21005KT 10SM OVC037 04/M02 A3016 RMK A01",
      "metarObsTime": 1773930900
    },
    "KMDT": {
      "status": "OK",
      "delay": "—",
      "metarCat": "VFR",
      "metarRaw": "METAR KMDT 191356Z 12005KT 10SM FEW048 OVC060 02/M03 A3026 RMK AO2 SLP253 T00221028",
      "metarObsTime": 1773928560
    },
    "KCXY": {
      "status": "OK",
      "delay": "—",
      "metarCat": "VFR",
      "metarRaw": "METAR KCXY 191356Z VRB03KT 10SM SCT047 OVC055 02/M04 A3027 RMK AO2 SLP255 T00221039",
      "metarObsTime": 1773928560
    },
    "KMUI": {
      "status": "OK",
      "delay": "—",
      "metarCat": "VFR",
      "metarRaw": "METAR KMUI 191355Z 00000KT 10SM OVC045 02/M03 A3025 RMK AO2A SLP252 T00171026",
      "metarObsTime": 1773928500
    },
    "KUNV": {
      "status": "OK",
      "delay": "—",
      "metarCat": "VFR",
      "metarRaw": "METAR KUNV 191453Z 23005KT 10SM SCT042 OVC048 03/M07 A3018",
      "metarObsTime": 1773931980
    },
    "KAOO": {
      "status": "OK",
      "delay": "—",
      "metarCat": "VFR",
      "metarRaw": "METAR KAOO 191453Z AUTO 18004KT 10SM OVC040 03/M06 A3017 RMK AO2 SLP230 T00281056 50005",
      "metarObsTime": 1773931980
    },
    "KLNS": {
      "status": "OK",
      "delay": "—",
      "metarCat": "VFR",
      "metarRaw": "METAR KLNS 191453Z VRB04KT 10SM BKN049 OVC060 03/M03 A3027 RMK AO2 SLP255 T00281028 51005",
      "metarObsTime": 1773931980
    },
    "KIPT": {
      "status": "OK",
      "delay": "—",
      "metarCat": "VFR",
      "metarRaw": "METAR KIPT 191354Z 12007KT 080V190 10SM OVC044 01/M06 A3022 RMK AO2 SLP237 T00111061",
      "metarObsTime": 1773928440
    },
    "KPHL": {
      "status": "OK",
      "delay": "—",
      "metarCat": "VFR",
      "metarRaw": "METAR KPHL 191354Z 18007KT 10SM BKN070 OVC100 03/M04 A3032 RMK AO2 SLP267 T00331039",
      "metarObsTime": 1773928440
    },
    "KABE": {
      "status": "OK",
      "delay": "—",
      "metarCat": "VFR",
      "metarRaw": "METAR KABE 191451Z 20007KT 10SM OVC055 02/M05 A3028 RMK AO2 SLP258 T00171050 51003",
      "metarObsTime": 1773931860
    },
    "KAVP": {
      "status": "OK",
      "delay": "—",
      "metarCat": "VFR",
      "metarRaw": "METAR KAVP 191354Z AUTO VRB05KT 10SM OVC060 00/M07 A3021 RMK AO2 SLP237 T00001067",
      "metarObsTime": 1773928440
    },
    "KHZL": {
      "status": "OK",
      "delay": "—",
      "metarCat": "VFR",
      "metarRaw": "METAR KHZL 191435Z AUTO 16004KT 10SM OVC038 00/M06 RMK AO2",
      "metarObsTime": 1773930900
    }
  }
}