{
  "generatedAt": "2026-03-16T01:40:13.789Z",
  "airports": {
    "KPIT": {
      "status": "OK",
      "delay": "—",
      "metarCat": "VFR",
      "metarRaw": "METAR KPIT 160051Z 15018G26KT 10SM SCT150 OVC230 18/07 A2972 RMK AO2 SLP071 T01780072 CHINO SE VISNO SE $",
      "metarObsTime": 1773622260
    },
    "KAGC": {
      "status": "OK",
      "delay": "—",
      "metarCat": "VFR",
      "metarRaw": "METAR KAGC 160053Z 14017G25KT 10SM CLR 13/05 A2976 RMK AO2 PK WND 17037/0020 SLP082 T01280050",
      "metarObsTime": 1773622380
    },
    "KLBE": {
      "status": "OK",
      "delay": "—",
      "metarCat": "VFR",
      "metarRaw": "METAR KLBE 160047Z 14019G35KT 10SM CLR 12/04 A2982",
      "metarObsTime": 1773622020
    },
    "KJST": {
      "status": "OK",
      "delay": "—",
      "metarCat": "MVFR",
      "metarRaw": "SPECI KJST 160113Z AUTO 15018G30KT 10SM BKN020 07/02 A2987 RMK AO2 PK WND 15036/0101 T00670022",
      "metarObsTime": 1773623580
    },
    "KERI": {
      "status": "OK",
      "delay": "—",
      "metarCat": "VFR",
      "metarRaw": "METAR KERI 160051Z AUTO 16028G52KT 10SM CLR 13/02 A2954 RMK AO2 PK WND 15052/0043 SLP004 T01330022 $",
      "metarObsTime": 1773622260
    },
    "KDUJ": {
      "status": "OK",
      "delay": "—",
      "metarCat": "VFR",
      "metarRaw": "METAR KDUJ 160053Z AUTO 14012G24KT 120V180 10SM CLR 07/01 A2985 RMK AO2 PK WND 12030/0015 SLP117 T00720011 $",
      "metarObsTime": 1773622380
    },
    "KBFD": {
      "status": "OK",
      "delay": "—",
      "metarCat": "MVFR",
      "metarRaw": "SPECI KBFD 160129Z AUTO 15016G31KT 10SM BKN022 06/02 A2981 RMK AO2 PK WND 16035/0112 T00610022",
      "metarObsTime": 1773624540
    },
    "KBTP": {
      "status": "OK",
      "delay": "—",
      "metarCat": "—",
      "metarRaw": "—",
      "metarObsTime": null
    },
    "KFKL": {
      "status": "OK",
      "delay": "—",
      "metarCat": "VFR",
      "metarRaw": "METAR KFKL 160056Z AUTO 14018G30KT 10SM CLR 10/03 A2973 RMK AO2 PK WND 13030/0050 SLPNO T01000028",
      "metarObsTime": 1773622560
    },
    "KIDI": {
      "status": "OK",
      "delay": "—",
      "metarCat": "VFR",
      "metarRaw": "METAR KIDI 160135Z AUTO 15015G22KT 130V190 10SM FEW029 SCT033 BKN055 10/04 A2983 RMK A01",
      "metarObsTime": 1773624900
    },
    "KMDT": {
      "status": "OK",
      "delay": "—",
      "metarCat": "MVFR",
      "metarRaw": "METAR KMDT 160056Z 11012KT 10SM -RA OVC024 08/03 A3009 RMK AO2 SLP193 P0000 T00830028 $",
      "metarObsTime": 1773622560
    },
    "KCXY": {
      "status": "OK",
      "delay": "—",
      "metarCat": "MVFR",
      "metarRaw": "METAR KCXY 160056Z 10011KT 10SM OVC024 08/02 A3009 RMK AO2 SLP194 T00780022",
      "metarObsTime": 1773622560
    },
    "KMUI": {
      "status": "OK",
      "delay": "—",
      "metarCat": "MVFR",
      "metarRaw": "SPECI KMUI 160111Z AUTO 05006KT 10SM FEW008 FEW016 OVC023 08/06 A3009 RMK AO2 LTG DSNT SE RAE11 PRESFR SLP195 $",
      "metarObsTime": 1773623460
    },
    "KUNV": {
      "status": "OK",
      "delay": "—",
      "metarCat": "MVFR",
      "metarRaw": "METAR KUNV 160053Z 16012G22KT 10SM OVC022 08/02 A3000",
      "metarObsTime": 1773622380
    },
    "KAOO": {
      "status": "OK",
      "delay": "—",
      "metarCat": "MVFR",
      "metarRaw": "METAR KAOO 160053Z AUTO 15016G28KT 10SM OVC022 09/03 A2997 RMK AO2 PK WND 13030/0041 SLP155 T00890028",
      "metarObsTime": 1773622380
    },
    "KLNS": {
      "status": "OK",
      "delay": "—",
      "metarCat": "MVFR",
      "metarRaw": "SPECI KLNS 160115Z 12012KT 10SM BKN027 OVC036 08/03 A3011 RMK AO2 T00780033",
      "metarObsTime": 1773623700
    },
    "KIPT": {
      "status": "OK",
      "delay": "—",
      "metarCat": "MVFR",
      "metarRaw": "METAR KIPT 160054Z 10017G27KT 10SM OVC027 07/01 A3006 RMK AO2 PK WND 11033/0009 SLP184 T00670006 $",
      "metarObsTime": 1773622440
    },
    "KPHL": {
      "status": "OK",
      "delay": "—",
      "metarCat": "VFR",
      "metarRaw": "METAR KPHL 160054Z 10014G20KT 10SM BKN039 OVC060 10/05 A3018 RMK AO2 SLP218 T01000050 $",
      "metarObsTime": 1773622440
    },
    "KABE": {
      "status": "OK",
      "delay": "—",
      "metarCat": "MVFR",
      "metarRaw": "METAR KABE 160051Z 09009KT 10SM OVC022 04/01 A3020 RMK AO2 SLP232 T00440006 $",
      "metarObsTime": 1773622260
    },
    "KAVP": {
      "status": "OK",
      "delay": "—",
      "metarCat": "VFR",
      "metarRaw": "METAR KAVP 160054Z 14012G28KT 100V170 10SM FEW019 BKN080 OVC100 04/01 A3011 RMK AO2 PK WND 15035/2359 SLP201 T00440006",
      "metarObsTime": 1773622440
    },
    "KHZL": {
      "status": "OK",
      "delay": "—",
      "metarCat": "IFR",
      "metarRaw": "METAR KHZL 160135Z AUTO 13010G19KT 100V160 7SM -DZ OVC007 02/00 A3010 RMK AO2",
      "metarObsTime": 1773624900
    }
  }
}