{
  "generatedAt": "2026-03-25T02:30:22.779Z",
  "airports": {
    "KPIT": {
      "status": "OK",
      "delay": "—",
      "metarCat": "VFR",
      "metarRaw": "METAR KPIT 250151Z 00000KT 10SM SCT060 OVC170 05/M07 A3030 RMK AO2 SLP281 T00501067",
      "metarObsTime": 1774403460
    },
    "KAGC": {
      "status": "OK",
      "delay": "—",
      "metarCat": "VFR",
      "metarRaw": "METAR KAGC 250153Z 00000KT 10SM CLR 07/M09 A3030 RMK AO2 SLP277 T00671094",
      "metarObsTime": 1774403580
    },
    "KLBE": {
      "status": "OK",
      "delay": "—",
      "metarCat": "VFR",
      "metarRaw": "METAR KLBE 250215Z AUTO 00000KT 10SM CLR 04/M05 A3033 RMK AO2",
      "metarObsTime": 1774404900
    },
    "KJST": {
      "status": "OK",
      "delay": "—",
      "metarCat": "VFR",
      "metarRaw": "METAR KJST 250154Z AUTO 30004KT 10SM OVC110 03/M09 A3028 RMK AO2 SLP279 T00281089",
      "metarObsTime": 1774403640
    },
    "KERI": {
      "status": "OK",
      "delay": "—",
      "metarCat": "VFR",
      "metarRaw": "METAR KERI 250151Z 00000KT 10SM CLR M01/M06 A3035 RMK AO2 SLP286 T10111056",
      "metarObsTime": 1774403460
    },
    "KDUJ": {
      "status": "OK",
      "delay": "—",
      "metarCat": "VFR",
      "metarRaw": "METAR KDUJ 250153Z AUTO 00000KT 10SM BKN095 02/M09 A3028 RMK AO2 SLP273 T00221094",
      "metarObsTime": 1774403580
    },
    "KBFD": {
      "status": "OK",
      "delay": "—",
      "metarCat": "VFR",
      "metarRaw": "METAR KBFD 250153Z AUTO 00000KT 10SM CLR M01/M06 A3027 RMK AO2 SLP276 T10111061",
      "metarObsTime": 1774403580
    },
    "KBTP": {
      "status": "OK",
      "delay": "—",
      "metarCat": "VFR",
      "metarRaw": "METAR KBTP 250156Z AUTO 00000KT 10SM FEW100 03/M06 A3032 RMK AO2 SLP284 T00331061 $",
      "metarObsTime": 1774403760
    },
    "KFKL": {
      "status": "OK",
      "delay": "—",
      "metarCat": "VFR",
      "metarRaw": "METAR KFKL 250156Z AUTO 00000KT 10SM CLR 03/M09 A3031 RMK AO2 SLP281 T00281094",
      "metarObsTime": 1774403760
    },
    "KIDI": {
      "status": "OK",
      "delay": "—",
      "metarCat": "VFR",
      "metarRaw": "METAR KIDI 250215Z AUTO 00000KT 10SM FEW075 BKN095 BKN120 03/M04 A3031 RMK A01",
      "metarObsTime": 1774404900
    },
    "KMDT": {
      "status": "OK",
      "delay": "—",
      "metarCat": "VFR",
      "metarRaw": "METAR KMDT 250156Z 21007KT 10SM SCT250 07/M04 A3033 RMK AO2 SLP275 T00721039",
      "metarObsTime": 1774403760
    },
    "KCXY": {
      "status": "OK",
      "delay": "—",
      "metarCat": "VFR",
      "metarRaw": "METAR KCXY 250156Z AUTO 27003KT 10SM CLR 06/M07 A3034 RMK AO2 SLP277 T00611067",
      "metarObsTime": 1774403760
    },
    "KMUI": {
      "status": "OK",
      "delay": "—",
      "metarCat": "VFR",
      "metarRaw": "METAR KMUI 250155Z 00000KT 10SM FEW180 OVC250 05/M02 A3032 RMK AO2A SLP274 T00471017",
      "metarObsTime": 1774403700
    },
    "KUNV": {
      "status": "OK",
      "delay": "—",
      "metarCat": "VFR",
      "metarRaw": "METAR KUNV 250215Z AUTO 27004KT 10SM OVC110 06/M08 A3031 RMK AO2 T00551085",
      "metarObsTime": 1774404900
    },
    "KAOO": {
      "status": "OK",
      "delay": "—",
      "metarCat": "VFR",
      "metarRaw": "METAR KAOO 250153Z AUTO 00000KT 10SM SCT110 04/M07 A3031 RMK AO2 SLP281 T00391072",
      "metarObsTime": 1774403580
    },
    "KLNS": {
      "status": "OK",
      "delay": "—",
      "metarCat": "VFR",
      "metarRaw": "METAR KLNS 250153Z 21006KT 10SM CLR 06/M04 A3035 RMK AO2 SLP280 T00561039",
      "metarObsTime": 1774403580
    },
    "KIPT": {
      "status": "OK",
      "delay": "—",
      "metarCat": "VFR",
      "metarRaw": "METAR KIPT 250154Z 00000KT 10SM CLR 03/M03 A3031 RMK AO2 SLP270 T00331033 $",
      "metarObsTime": 1774403640
    },
    "KPHL": {
      "status": "OK",
      "delay": "—",
      "metarCat": "VFR",
      "metarRaw": "METAR KPHL 250154Z 21008KT 10SM BKN250 06/M02 A3039 RMK AO2 SLP290 T00561022 $",
      "metarObsTime": 1774403640
    },
    "KABE": {
      "status": "OK",
      "delay": "—",
      "metarCat": "VFR",
      "metarRaw": "METAR KABE 250151Z 21005KT 10SM CLR 06/M06 A3033 RMK AO2 SLPNO T00561056",
      "metarObsTime": 1774403460
    },
    "KAVP": {
      "status": "OK",
      "delay": "—",
      "metarCat": "VFR",
      "metarRaw": "METAR KAVP 250154Z 22003KT 10SM CLR 04/M08 A3029 RMK AO2 SLP264 T00391083",
      "metarObsTime": 1774403640
    },
    "KHZL": {
      "status": "OK",
      "delay": "—",
      "metarCat": "VFR",
      "metarRaw": "METAR KHZL 250215Z AUTO 00000KT 10SM CLR 02/M07 A3032 RMK AO2",
      "metarObsTime": 1774404900
    }
  }
}