{
  "generatedAt": "2026-04-12T16:50:48.263Z",
  "airports": {
    "KPIT": {
      "status": "OK",
      "delay": "—",
      "metarCat": "VFR",
      "metarRaw": "METAR KPIT 121551Z 19007KT 10SM BKN150 BKN250 19/04 A3026 RMK AO2 SLP255 T01940039 $",
      "metarObsTime": 1776009060
    },
    "KAGC": {
      "status": "OK",
      "delay": "—",
      "metarCat": "VFR",
      "metarRaw": "METAR KAGC 121553Z 20009KT 10SM CLR 20/04 A3027 RMK AO2 SLP253 T02000044",
      "metarObsTime": 1776009180
    },
    "KLBE": {
      "status": "OK",
      "delay": "—",
      "metarCat": "—",
      "metarRaw": "—",
      "metarObsTime": null
    },
    "KJST": {
      "status": "OK",
      "delay": "—",
      "metarCat": "VFR",
      "metarRaw": "METAR KJST 121554Z AUTO 19011G19KT 10SM CLR 16/02 A3031 RMK AO2 SLP267 T01610022",
      "metarObsTime": 1776009240
    },
    "KERI": {
      "status": "OK",
      "delay": "—",
      "metarCat": "VFR",
      "metarRaw": "METAR KERI 121551Z 17013KT 10SM BKN070 OVC085 17/02 A3020 RMK AO2 RAB1458E08 SLP231 P0000 T01670022 $",
      "metarObsTime": 1776009060
    },
    "KDUJ": {
      "status": "OK",
      "delay": "—",
      "metarCat": "VFR",
      "metarRaw": "METAR KDUJ 121553Z AUTO 17008G15KT 130V210 10SM CLR 15/01 A3029 RMK AO2 SLP260 T01500011",
      "metarObsTime": 1776009180
    },
    "KBFD": {
      "status": "OK",
      "delay": "—",
      "metarCat": "VFR",
      "metarRaw": "METAR KBFD 121553Z AUTO 19010G21KT 10SM BKN110 13/M01 A3027 RMK AO2 SLP260 T01281011",
      "metarObsTime": 1776009180
    },
    "KBTP": {
      "status": "OK",
      "delay": "—",
      "metarCat": "VFR",
      "metarRaw": "METAR KBTP 121556Z AUTO 19009G15KT 10SM CLR 19/04 A3027 RMK AO2 SLP258 T01940039 $",
      "metarObsTime": 1776009360
    },
    "KFKL": {
      "status": "OK",
      "delay": "—",
      "metarCat": "VFR",
      "metarRaw": "METAR KFKL 121556Z AUTO 16006KT 10SM CLR 16/02 A3027 RMK AO2 SLP254 T01560022",
      "metarObsTime": 1776009360
    },
    "KIDI": {
      "status": "OK",
      "delay": "—",
      "metarCat": "VFR",
      "metarRaw": "METAR KIDI 121635Z AUTO 22009KT 10SM CLR 21/04 A3027 RMK A01",
      "metarObsTime": 1776011700
    },
    "KMDT": {
      "status": "OK",
      "delay": "—",
      "metarCat": "VFR",
      "metarRaw": "METAR KMDT 121556Z 13008KT 10SM FEW250 15/03 A3043 RMK AO2 SLP304 T01500033",
      "metarObsTime": 1776009360
    },
    "KCXY": {
      "status": "OK",
      "delay": "—",
      "metarCat": "VFR",
      "metarRaw": "METAR KCXY 121556Z 10011KT 10SM CLR 14/02 A3043 RMK AO2 SLP306 T01440022 $",
      "metarObsTime": 1776009360
    },
    "KMUI": {
      "status": "OK",
      "delay": "—",
      "metarCat": "VFR",
      "metarRaw": "METAR KMUI 121555Z AUTO 14010KT 10SM CLR 15/03 A3042 RMK AO2 SLP305 T01530025",
      "metarObsTime": 1776009300
    },
    "KUNV": {
      "status": "OK",
      "delay": "—",
      "metarCat": "VFR",
      "metarRaw": "METAR KUNV 121553Z 21012KT 10SM CLR 14/01 A3037",
      "metarObsTime": 1776009180
    },
    "KAOO": {
      "status": "OK",
      "delay": "—",
      "metarCat": "VFR",
      "metarRaw": "METAR KAOO 121553Z AUTO 17013G20KT 10SM CLR 17/04 A3035 RMK AO2 PK WND 17026/1531 SLP279 T01670044",
      "metarObsTime": 1776009180
    },
    "KLNS": {
      "status": "OK",
      "delay": "—",
      "metarCat": "VFR",
      "metarRaw": "METAR KLNS 121553Z 16012KT 10SM CLR 14/03 A3044 RMK AO2 SLP310 T01440033",
      "metarObsTime": 1776009180
    },
    "KIPT": {
      "status": "OK",
      "delay": "—",
      "metarCat": "VFR",
      "metarRaw": "METAR KIPT 121554Z 11007G16KT 10SM CLR 13/M01 A3039 RMK AO2 SLP293 T01331006 $",
      "metarObsTime": 1776009240
    },
    "KPHL": {
      "status": "OK",
      "delay": "—",
      "metarCat": "VFR",
      "metarRaw": "METAR KPHL 121554Z 14010KT 10SM FEW350 15/01 A3049 RMK AO2 SLP325 T01500006 $",
      "metarObsTime": 1776009240
    },
    "KABE": {
      "status": "OK",
      "delay": "—",
      "metarCat": "VFR",
      "metarRaw": "METAR KABE 121551Z AUTO 18007KT 10SM CLR 13/M01 A3046 RMK AO2 SLP317 T01281011 $",
      "metarObsTime": 1776009060
    },
    "KAVP": {
      "status": "OK",
      "delay": "—",
      "metarCat": "VFR",
      "metarRaw": "METAR KAVP 121554Z 22010G17KT 10SM CLR 13/M02 A3041 RMK AO2 SLP298 T01331022",
      "metarObsTime": 1776009240
    },
    "KHZL": {
      "status": "OK",
      "delay": "—",
      "metarCat": "VFR",
      "metarRaw": "METAR KHZL 121635Z AUTO 14007KT 100V170 10SM CLR 13/M01 A3043 RMK AO2",
      "metarObsTime": 1776011700
    }
  }
}