{
  "generatedAt": "2026-03-05T20:10:12.518Z",
  "airports": {
    "KPIT": {
      "status": "OK",
      "delay": "—",
      "metarCat": "MVFR",
      "metarRaw": "METAR KPIT 051951Z 20009KT 10SM BKN014 OVC021 17/14 A2999 RMK AO2 SLP160 T01670139",
      "metarObsTime": 1772740260
    },
    "KAGC": {
      "status": "OK",
      "delay": "—",
      "metarCat": "VFR",
      "metarRaw": "METAR KAGC 051953Z 18012G18KT 8SM FEW011 BKN031 BKN060 16/14 A3000 RMK AO2 SLP162 T01610144",
      "metarObsTime": 1772740380
    },
    "KLBE": {
      "status": "OK",
      "delay": "—",
      "metarCat": "VFR",
      "metarRaw": "METAR KLBE 051947Z 20009KT 8SM -DZ SCT034 BKN049 BKN090 17/15 A3004",
      "metarObsTime": 1772740020
    },
    "KJST": {
      "status": "OK",
      "delay": "—",
      "metarCat": "IFR",
      "metarRaw": "METAR KJST 051954Z AUTO 21007KT 2 1/2SM RA BR FEW010 BKN016 OVC021 14/13 A3004 RMK AO2 RAB00E16B25 SLP176 P0004 T01390128",
      "metarObsTime": 1772740440
    },
    "KERI": {
      "status": "OK",
      "delay": "—",
      "metarCat": "IFR",
      "metarRaw": "METAR KERI 051951Z 05004KT 1 1/2SM RA BR FEW003 OVC070 04/04 A2998 RMK AO2 SLP158 P0010 T00390039",
      "metarObsTime": 1772740260
    },
    "KDUJ": {
      "status": "OK",
      "delay": "—",
      "metarCat": "LIFR",
      "metarRaw": "METAR KDUJ 051953Z AUTO 09006KT 1/4SM -RA FG VV002 09/09 A3000 RMK AO2 RAE26B39 SLP166 P0003 T00890089",
      "metarObsTime": 1772740380
    },
    "KBFD": {
      "status": "OK",
      "delay": "—",
      "metarCat": "IFR",
      "metarRaw": "METAR KBFD 051953Z AUTO 12005KT 6SM -RA BR BKN007 BKN023 OVC029 07/07 A3004 RMK AO2 SLP180 P0013 T00670067",
      "metarObsTime": 1772740380
    },
    "KBTP": {
      "status": "OK",
      "delay": "—",
      "metarCat": "IFR",
      "metarRaw": "METAR KBTP 051956Z AUTO 18006KT 10SM -RA OVC008 15/ A2999 RMK AO2 RAE12B37 CIG 006V011 SLP164 P0000 T0150 $",
      "metarObsTime": 1772740560
    },
    "KFKL": {
      "status": "OK",
      "delay": "—",
      "metarCat": "LIFR",
      "metarRaw": "SPECI KFKL 052008Z AUTO 09006KT 1/4SM -RA FG BKN003 OVC008 11/11 A2998 RMK AO2 P0000",
      "metarObsTime": 1772741280
    },
    "KIDI": {
      "status": "OK",
      "delay": "—",
      "metarCat": "MVFR",
      "metarRaw": "METAR KIDI 051955Z AUTO 19005KT 10SM FEW008 OVC015 15/15 A3003 RMK A01 P0001",
      "metarObsTime": 1772740500
    },
    "KMDT": {
      "status": "OK",
      "delay": "—",
      "metarCat": "LIFR",
      "metarRaw": "SPECI KMDT 052002Z 17003KT 3/4SM R13/P6000FT BR OVC007 08/08 A3013 RMK AO2 TWR VIS 2 1/2 T00780078",
      "metarObsTime": 1772740920
    },
    "KCXY": {
      "status": "OK",
      "delay": "—",
      "metarCat": "IFR",
      "metarRaw": "METAR KCXY 051956Z 12005KT 2SM BR BKN008 OVC021 09/08 A3014 RMK AO2 RAE17 CIG 006V011 SLP208 P0001 T00890078",
      "metarObsTime": 1772740560
    },
    "KMUI": {
      "status": "OK",
      "delay": "—",
      "metarCat": "IFR",
      "metarRaw": "METAR KMUI 051955Z 08003KT 5SM BR OVC005 09/09 A3012 RMK AO2A SLP205 T00880085",
      "metarObsTime": 1772740500
    },
    "KUNV": {
      "status": "OK",
      "delay": "—",
      "metarCat": "LIFR",
      "metarRaw": "METAR KUNV 051953Z 33004KT 2SM +RA OVC004 07/07 A3011",
      "metarObsTime": 1772740380
    },
    "KAOO": {
      "status": "OK",
      "delay": "—",
      "metarCat": "MVFR",
      "metarRaw": "METAR KAOO 051953Z AUTO 32003KT 7SM -RA SCT007 BKN022 OVC080 11/09 A3007 RMK AO2 RAB45 SLP189 P0000 T01060089",
      "metarObsTime": 1772740380
    },
    "KLNS": {
      "status": "OK",
      "delay": "—",
      "metarCat": "LIFR",
      "metarRaw": "METAR KLNS 051953Z 11005KT 2 1/2SM BR OVC004 09/08 A3014 RMK AO2 RAE18 SLP208 P0000 T00890083",
      "metarObsTime": 1772740380
    },
    "KIPT": {
      "status": "OK",
      "delay": "—",
      "metarCat": "MVFR",
      "metarRaw": "METAR KIPT 051954Z 09006KT 5SM BR OVC010 08/07 A3009 RMK AO2 RAB02E15 CIG 009V014 SLP192 P0000 T00830072 $",
      "metarObsTime": 1772740440
    },
    "KPHL": {
      "status": "OK",
      "delay": "—",
      "metarCat": "IFR",
      "metarRaw": "METAR KPHL 051954Z 05007KT 5SM BR OVC006 09/07 A3018 RMK AO2 SLP217 T00890067 $",
      "metarObsTime": 1772740440
    },
    "KABE": {
      "status": "OK",
      "delay": "—",
      "metarCat": "IFR",
      "metarRaw": "METAR KABE 051951Z 10008KT 2 1/2SM OVC006 07/06 A3018 RMK AO2 SFC VIS 10 RAE13 SLP222 P0001 T00720061",
      "metarObsTime": 1772740260
    },
    "KAVP": {
      "status": "OK",
      "delay": "—",
      "metarCat": "IFR",
      "metarRaw": "SPECI KAVP 052005Z VRB03KT 10SM -RA OVC009 08/07 A3012 RMK AO2 CIG 006V012 P0000 T00780067",
      "metarObsTime": 1772741100
    },
    "KHZL": {
      "status": "OK",
      "delay": "—",
      "metarCat": "LIFR",
      "metarRaw": "METAR KHZL 051955Z AUTO 14004KT 10SM OVC002 07/06 A3015 RMK AO2",
      "metarObsTime": 1772740500
    }
  }
}