{
  "generatedAt": "2026-05-16T18:42:38.878Z",
  "faaFlow": {
    "updatedAt": "2026-05-16T18:42:38.809Z",
    "source": "https://www.fly.faa.gov/adv/adv_spt",
    "terminal": [
      {
        "time": "—",
        "text": "AFTER",
        "code": "FLOW",
        "label": "FAA flow impact",
        "level": "yellow",
        "section": "Terminal Planned",
        "airports": []
      },
      {
        "time": "2000",
        "text": "DEN GROUND STOP/DELAY PROGRAM POSSIBLE",
        "code": "GS",
        "label": "Ground stop possible",
        "level": "yellow",
        "section": "Terminal Planned",
        "airports": []
      }
    ],
    "enroute": [
      {
        "time": "—",
        "text": "UNTIL",
        "code": "FLOW",
        "label": "FAA flow impact",
        "level": "yellow",
        "section": "En Route Planned",
        "airports": []
      },
      {
        "time": "0200",
        "text": "MIA/FLL/PBI CDRS/SWAP POSSIBLE",
        "code": "ROUTE",
        "label": "Route impact possible",
        "level": "blue",
        "section": "En Route Planned",
        "airports": []
      },
      {
        "time": "—",
        "text": "UNTIL",
        "code": "FLOW",
        "label": "FAA flow impact",
        "level": "yellow",
        "section": "En Route Planned",
        "airports": []
      },
      {
        "time": "0300",
        "text": "DEN SWAP/CDRS/ARRIVAL ROUTES POSSIBLE CDRS/SWAP/CAPPING/TUNNELING/HOTLINE/DIVERSION RECOVERY:",
        "code": "ROUTE",
        "label": "Route impact possible",
        "level": "blue",
        "section": "En Route Planned",
        "airports": []
      },
      {
        "time": "—",
        "text": "UNTIL",
        "code": "FLOW",
        "label": "FAA flow impact",
        "level": "yellow",
        "section": "En Route Planned",
        "airports": []
      },
      {
        "time": "2300",
        "text": "ORD_MDW CDRS",
        "code": "ROUTE",
        "label": "Route impact possible",
        "level": "blue",
        "section": "En Route Planned",
        "airports": []
      },
      {
        "time": "—",
        "text": "UNTIL",
        "code": "FLOW",
        "label": "FAA flow impact",
        "level": "yellow",
        "section": "En Route Planned",
        "airports": []
      },
      {
        "time": "2300",
        "text": "ZAU SWAP STATEMENT",
        "code": "ROUTE",
        "label": "Route impact possible",
        "level": "blue",
        "section": "En Route Planned",
        "airports": []
      },
      {
        "time": "—",
        "text": "UNTIL",
        "code": "FLOW",
        "label": "FAA flow impact",
        "level": "yellow",
        "section": "En Route Planned",
        "airports": []
      },
      {
        "time": "0000",
        "text": "ZDC SWAP STATEMENT",
        "code": "ROUTE",
        "label": "Route impact possible",
        "level": "blue",
        "section": "En Route Planned",
        "airports": []
      },
      {
        "time": "—",
        "text": "UNTIL",
        "code": "FLOW",
        "label": "FAA flow impact",
        "level": "yellow",
        "section": "En Route Planned",
        "airports": []
      },
      {
        "time": "0300",
        "text": "ZDV SWAP STATEMENT",
        "code": "ROUTE",
        "label": "Route impact possible",
        "level": "blue",
        "section": "En Route Planned",
        "airports": []
      },
      {
        "time": "—",
        "text": "UNTIL",
        "code": "FLOW",
        "label": "FAA flow impact",
        "level": "yellow",
        "section": "En Route Planned",
        "airports": []
      },
      {
        "time": "0400",
        "text": "ZNY SWAP STATEMENT RUNWAY/EQUIPMENT/POSSIBLE SYSTEM IMPACT REPORTS(SIRs): PDX - RWYs 10R/28L & 03/21 CLOSED UNTIL 05/22/26",
        "code": "CLOSURE",
        "label": "Closure possible",
        "level": "yellow",
        "section": "En Route Planned",
        "airports": []
      },
      {
        "time": "—",
        "text": "UNTIL",
        "code": "FLOW",
        "label": "FAA flow impact",
        "level": "yellow",
        "section": "En Route Planned",
        "airports": []
      },
      {
        "time": "0000",
        "text": "ORD/MDW SWAP/ARRIVAL ROUTES POSSIBLE SPACEX STARLINK 17-37, VANDENBERG SFB, CA PRIMARY: 05/23/26",
        "code": "ROUTE",
        "label": "Route impact possible",
        "level": "blue",
        "section": "En Route Planned",
        "airports": []
      }
    ],
    "airports": {
      "KPIT": null,
      "KAGC": null,
      "KLBE": null,
      "KJST": null,
      "KERI": null,
      "KDUJ": null,
      "KBFD": null,
      "KBTP": null,
      "KFKL": null,
      "KIDI": null,
      "KMDT": null,
      "KCXY": null,
      "KMUI": null,
      "KUNV": null,
      "KAOO": null,
      "KLNS": null,
      "KIPT": null,
      "KPHL": null,
      "KABE": null,
      "KAVP": null,
      "KHZL": null
    }
  },
  "airports": {
    "KPIT": {
      "status": "OK",
      "delay": "—",
      "metarCat": "VFR",
      "metarRaw": "METAR KPIT 161751Z 23010G18KT 10SM -RA FEW025 BKN050 OVC075 21/12 A3001 RMK AO2 RAB15 SLP167 P0000 60000 T02060117 10222 20122 53001",
      "metarObsTime": 1778953860,
      "faaFlow": null
    },
    "KAGC": {
      "status": "OK",
      "delay": "—",
      "metarCat": "VFR",
      "metarRaw": "METAR KAGC 161753Z 22010KT 10SM BKN050 OVC060 21/12 A3001 RMK AO2 RAB18E51 SLP164 P0000 60000 T02060117 10217 20111 55002",
      "metarObsTime": 1778953980,
      "faaFlow": null
    },
    "KLBE": {
      "status": "OK",
      "delay": "—",
      "metarCat": "VFR",
      "metarRaw": "METAR KLBE 161745Z 22012KT 10SM BKN044 OVC100 22/11 A3004",
      "metarObsTime": 1778953500,
      "faaFlow": null
    },
    "KJST": {
      "status": "OK",
      "delay": "—",
      "metarCat": "VFR",
      "metarRaw": "METAR KJST 161754Z AUTO 19010G17KT 10SM BKN050 OVC065 21/08 A3004 RMK AO2 SLP166 T02060078 10211 20122 58012",
      "metarObsTime": 1778954040,
      "faaFlow": null
    },
    "KERI": {
      "status": "OK",
      "delay": "—",
      "metarCat": "VFR",
      "metarRaw": "SPECI KERI 161819Z 19006KT 10SM -RA FEW032 BKN055 OVC100 18/13 A2991 RMK AO2 LTG DSNT NE RAB1754 TSB1758E13 P0001 T01780133",
      "metarObsTime": 1778955540,
      "faaFlow": null
    },
    "KDUJ": {
      "status": "OK",
      "delay": "—",
      "metarCat": "VFR",
      "metarRaw": "METAR KDUJ 161753Z AUTO 22011G23KT 10SM BKN042 BKN050 OVC075 22/08 A2998 RMK AO2 SLP146 T02170083 10222 20117 56020",
      "metarObsTime": 1778953980,
      "faaFlow": null
    },
    "KBFD": {
      "status": "OK",
      "delay": "—",
      "metarCat": "VFR",
      "metarRaw": "METAR KBFD 161753Z AUTO 21007G25KT 10SM OVC047 21/08 A2997 RMK AO2 SLP146 T02110078 10222 20122 56020",
      "metarObsTime": 1778953980,
      "faaFlow": null
    },
    "KBTP": {
      "status": "OK",
      "delay": "—",
      "metarCat": "VFR",
      "metarRaw": "METAR KBTP 161756Z AUTO 21003KT 10SM FEW038 SCT060 OVC080 19/13 A3001 RMK AO2 RAB20E33 SLP165 P0000 60000 T01940133 10211 20128 55005 $",
      "metarObsTime": 1778954160,
      "faaFlow": null
    },
    "KFKL": {
      "status": "OK",
      "delay": "—",
      "metarCat": "MVFR",
      "metarRaw": "SPECI KFKL 161835Z AUTO 22014G20KT 10SM -RA OVC028 19/12 A2997 RMK AO2 RAB10 P0000",
      "metarObsTime": 1778956500,
      "faaFlow": null
    },
    "KIDI": {
      "status": "OK",
      "delay": "—",
      "metarCat": "VFR",
      "metarRaw": "METAR KIDI 161815Z AUTO 22010KT 10SM OVC045 21/09 A3002 RMK A01",
      "metarObsTime": 1778955300,
      "faaFlow": null
    },
    "KMDT": {
      "status": "OK",
      "delay": "—",
      "metarCat": "VFR",
      "metarRaw": "METAR KMDT 161756Z 26006G15KT 10SM FEW250 26/06 A3000 RMK AO2 SLP159 T02560056 10256 20144 56023",
      "metarObsTime": 1778954160,
      "faaFlow": null
    },
    "KCXY": {
      "status": "OK",
      "delay": "—",
      "metarCat": "VFR",
      "metarRaw": "METAR KCXY 161756Z 22008KT 10SM CLR 26/08 A3001 RMK AO2 SLP160 T02610083 10261 20144 56021",
      "metarObsTime": 1778954160,
      "faaFlow": null
    },
    "KMUI": {
      "status": "OK",
      "delay": "—",
      "metarCat": "VFR",
      "metarRaw": "METAR KMUI 161755Z AUTO 25008KT 10SM CLR 28/10 A2999 RMK AO2 SLP156 T02770104 10283 20160 57024 $",
      "metarObsTime": 1778954100,
      "faaFlow": null
    },
    "KUNV": {
      "status": "OK",
      "delay": "—",
      "metarCat": "VFR",
      "metarRaw": "METAR KUNV 161753Z 23009G14KT 10SM SCT055 24/08 A3000",
      "metarObsTime": 1778953980,
      "faaFlow": null
    },
    "KAOO": {
      "status": "OK",
      "delay": "—",
      "metarCat": "VFR",
      "metarRaw": "METAR KAOO 161753Z AUTO 20010KT 10SM OVC055 24/08 A3002 RMK AO2 SLP162 T02440083 10250 20122 58016",
      "metarObsTime": 1778953980,
      "faaFlow": null
    },
    "KLNS": {
      "status": "OK",
      "delay": "—",
      "metarCat": "VFR",
      "metarRaw": "METAR KLNS 161753Z 25006G16KT 10SM CLR 26/08 A3002 RMK AO2 SLP164 T02610083 10261 20117 56024",
      "metarObsTime": 1778953980,
      "faaFlow": null
    },
    "KIPT": {
      "status": "OK",
      "delay": "—",
      "metarCat": "VFR",
      "metarRaw": "METAR KIPT 161754Z 16010G17KT 10SM CLR 25/08 A2996 RMK AO2 SLP145 T02500078 10250 20094 56032",
      "metarObsTime": 1778954040,
      "faaFlow": null
    },
    "KPHL": {
      "status": "OK",
      "delay": "—",
      "metarCat": "VFR",
      "metarRaw": "METAR KPHL 161754Z 22011G26KT 10SM FEW320 27/08 A3003 RMK AO2 PK WND 21026/1751 SLP167 T02720078 10278 20156 58027 $",
      "metarObsTime": 1778954040,
      "faaFlow": null
    },
    "KABE": {
      "status": "OK",
      "delay": "—",
      "metarCat": "VFR",
      "metarRaw": "METAR KABE 161751Z 20011G17KT 10SM CLR 26/08 A3001 RMK AO2 SLP161 T02560083 10261 20117 56029",
      "metarObsTime": 1778953860,
      "faaFlow": null
    },
    "KAVP": {
      "status": "OK",
      "delay": "—",
      "metarCat": "VFR",
      "metarRaw": "SPECI KAVP 161828Z 23012G19KT 10SM CLR 25/09 A2997 RMK AO2 T02500089",
      "metarObsTime": 1778956080,
      "faaFlow": null
    },
    "KHZL": {
      "status": "OK",
      "delay": "—",
      "metarCat": "VFR",
      "metarRaw": "METAR KHZL 161835Z AUTO 25007KT 190V300 10SM SCT060 25/06 A3004 RMK AO2",
      "metarObsTime": 1778956500,
      "faaFlow": null
    }
  }
}