{
  "generatedAt": "2026-06-30T19:13:32.376Z",
  "faaFlow": {
    "updatedAt": "2026-06-30T19:13:32.172Z",
    "source": "https://www.fly.faa.gov/adv/adv_spt",
    "terminal": [
      {
        "time": "—",
        "text": "AFTER",
        "code": "FLOW",
        "label": "FAA flow impact",
        "level": "yellow",
        "section": "Terminal Planned",
        "airports": []
      },
      {
        "time": "1900",
        "text": "ATL GROUND STOP POSSIBLE",
        "code": "GS",
        "label": "Ground stop possible",
        "level": "yellow",
        "section": "Terminal Planned",
        "airports": []
      },
      {
        "time": "—",
        "text": "UNTIL",
        "code": "FLOW",
        "label": "FAA flow impact",
        "level": "yellow",
        "section": "Terminal Planned",
        "airports": []
      },
      {
        "time": "0000",
        "text": "MIA/FLL/PBI GROUND STOP POSSIBLE",
        "code": "GS",
        "label": "Ground stop possible",
        "level": "yellow",
        "section": "Terminal Planned",
        "airports": []
      },
      {
        "time": "—",
        "text": "UNTIL",
        "code": "FLOW",
        "label": "FAA flow impact",
        "level": "yellow",
        "section": "Terminal Planned",
        "airports": []
      },
      {
        "time": "0000",
        "text": "MCO/TPA GROUND STOP POSSIBLE",
        "code": "GS",
        "label": "Ground stop possible",
        "level": "yellow",
        "section": "Terminal Planned",
        "airports": []
      }
    ],
    "enroute": [
      {
        "time": "—",
        "text": "AFTER",
        "code": "FLOW",
        "label": "FAA flow impact",
        "level": "yellow",
        "section": "En Route Planned",
        "airports": []
      },
      {
        "time": "2000",
        "text": "PHX ARRIVAL ROUTES POSSIBLE",
        "code": "ROUTE",
        "label": "Route impact possible",
        "level": "blue",
        "section": "En Route Planned",
        "airports": []
      },
      {
        "time": "—",
        "text": "AFTER",
        "code": "FLOW",
        "label": "FAA flow impact",
        "level": "yellow",
        "section": "En Route Planned",
        "airports": []
      },
      {
        "time": "2000",
        "text": "DEN ARRIVAL ROUTES POSSIBLE",
        "code": "ROUTE",
        "label": "Route impact possible",
        "level": "blue",
        "section": "En Route Planned",
        "airports": []
      },
      {
        "time": "—",
        "text": "AFTER",
        "code": "FLOW",
        "label": "FAA flow impact",
        "level": "yellow",
        "section": "En Route Planned",
        "airports": []
      },
      {
        "time": "2000",
        "text": "DFW/DAL CDRS/SWAP/ARRIVAL ROUTES POSSIBLE",
        "code": "ROUTE",
        "label": "Route impact possible",
        "level": "blue",
        "section": "En Route Planned",
        "airports": []
      },
      {
        "time": "—",
        "text": "UNTIL",
        "code": "FLOW",
        "label": "FAA flow impact",
        "level": "yellow",
        "section": "En Route Planned",
        "airports": []
      },
      {
        "time": "0000",
        "text": "MCO/TPA CDRS/SWAP/REGIONAL ROUTES POSSIBLE",
        "code": "ROUTE",
        "label": "Route impact possible",
        "level": "blue",
        "section": "En Route Planned",
        "airports": []
      },
      {
        "time": "—",
        "text": "UNTIL",
        "code": "FLOW",
        "label": "FAA flow impact",
        "level": "yellow",
        "section": "En Route Planned",
        "airports": []
      },
      {
        "time": "0000",
        "text": "MIA/FLL/PBI CDRS/SWAP POSSIBLE",
        "code": "ROUTE",
        "label": "Route impact possible",
        "level": "blue",
        "section": "En Route Planned",
        "airports": []
      },
      {
        "time": "—",
        "text": "UNTIL",
        "code": "FLOW",
        "label": "FAA flow impact",
        "level": "yellow",
        "section": "En Route Planned",
        "airports": []
      },
      {
        "time": "0000",
        "text": "ATL/CLT CDRS/SWAP POSSIBLE",
        "code": "ROUTE",
        "label": "Route impact possible",
        "level": "blue",
        "section": "En Route Planned",
        "airports": []
      },
      {
        "time": "—",
        "text": "UNTIL",
        "code": "FLOW",
        "label": "FAA flow impact",
        "level": "yellow",
        "section": "En Route Planned",
        "airports": []
      },
      {
        "time": "0200",
        "text": "WEST HIGH AVOIDANCE ROUTE PROBABLE CDRS/SWAP/CAPPING/TUNNELING/HOTLINE/DIVERSION RECOVERY:",
        "code": "ROUTE",
        "label": "Route impact possible",
        "level": "orange",
        "section": "En Route Planned",
        "airports": []
      },
      {
        "time": "—",
        "text": "UNTIL",
        "code": "FLOW",
        "label": "FAA flow impact",
        "level": "yellow",
        "section": "En Route Planned",
        "airports": []
      },
      {
        "time": "2200",
        "text": "ZMP SWAP STATEMENT",
        "code": "ROUTE",
        "label": "Route impact possible",
        "level": "blue",
        "section": "En Route Planned",
        "airports": []
      },
      {
        "time": "—",
        "text": "UNTIL",
        "code": "FLOW",
        "label": "FAA flow impact",
        "level": "yellow",
        "section": "En Route Planned",
        "airports": []
      },
      {
        "time": "0300",
        "text": "ZBW SWAP STATEMENT RUNWAY/EQUIPMENT/POSSIBLE SYSTEM IMPACT REPORTS(SIRs): DTW - RWY 22L/04R REHABILITATION UNTIL 06/30/26",
        "code": "ROUTE",
        "label": "Route impact possible",
        "level": "blue",
        "section": "En Route Planned",
        "airports": []
      }
    ],
    "airports": {
      "KPIT": null,
      "KAGC": null,
      "KLBE": null,
      "KJST": null,
      "KERI": null,
      "KDUJ": null,
      "KBFD": null,
      "KBTP": null,
      "KFKL": null,
      "KIDI": null,
      "KMDT": null,
      "KCXY": null,
      "KMUI": null,
      "KUNV": null,
      "KAOO": null,
      "KLNS": null,
      "KIPT": null,
      "KPHL": null,
      "KABE": null,
      "KAVP": null,
      "KHZL": null
    }
  },
  "airports": {
    "KPIT": {
      "status": "OK",
      "delay": "—",
      "metarCat": "VFR",
      "metarRaw": "METAR KPIT 301851Z 24009KT 10SM SCT040 SCT060 BKN250 32/22 A3005 RMK AO2 SLP173 T03220222",
      "metarObsTime": 1782845460,
      "faaFlow": null
    },
    "KAGC": {
      "status": "OK",
      "delay": "—",
      "metarCat": "VFR",
      "metarRaw": "METAR KAGC 301853Z 23010G18KT 190V250 10SM FEW045 32/22 A3006 RMK AO2 SLP172 T03170217",
      "metarObsTime": 1782845580,
      "faaFlow": null
    },
    "KLBE": {
      "status": "OK",
      "delay": "—",
      "metarCat": "VFR",
      "metarRaw": "METAR KLBE 301847Z 22012G16KT 10SM FEW035 SCT055 32/25 A3008",
      "metarObsTime": 1782845220,
      "faaFlow": null
    },
    "KJST": {
      "status": "OK",
      "delay": "—",
      "metarCat": "VFR",
      "metarRaw": "METAR KJST 301854Z AUTO 21008KT 10SM SCT034 SCT044 28/21 A3013 RMK AO2 SLP186 T02830211",
      "metarObsTime": 1782845640,
      "faaFlow": null
    },
    "KERI": {
      "status": "OK",
      "delay": "—",
      "metarCat": "VFR",
      "metarRaw": "METAR KERI 301851Z 27009KT 10SM FEW047 29/23 A2999 RMK AO2 SLP151 T02940233 $",
      "metarObsTime": 1782845460,
      "faaFlow": null
    },
    "KDUJ": {
      "status": "OK",
      "delay": "—",
      "metarCat": "VFR",
      "metarRaw": "METAR KDUJ 301853Z AUTO 21008KT 10SM BKN033 BKN065 29/23 A3009 RMK AO2 SLP174 T02890228",
      "metarObsTime": 1782845580,
      "faaFlow": null
    },
    "KBFD": {
      "status": "OK",
      "delay": "—",
      "metarCat": "VFR",
      "metarRaw": "METAR KBFD 301853Z AUTO 24007G18KT 7SM FEW038 29/21 A3010 RMK AO2 SLP173 T02940206",
      "metarObsTime": 1782845580,
      "faaFlow": null
    },
    "KBTP": {
      "status": "OK",
      "delay": "—",
      "metarCat": "—",
      "metarRaw": "—",
      "metarObsTime": null,
      "faaFlow": null
    },
    "KFKL": {
      "status": "OK",
      "delay": "—",
      "metarCat": "VFR",
      "metarRaw": "METAR KFKL 301856Z AUTO 24013KT 10SM SCT042 BKN050 32/22 A3007 RMK AO2 SLP168 T03170222",
      "metarObsTime": 1782845760,
      "faaFlow": null
    },
    "KIDI": {
      "status": "OK",
      "delay": "—",
      "metarCat": "VFR",
      "metarRaw": "METAR KIDI 301855Z AUTO 25012G18KT 10SM FEW036 SCT042 SCT048 32/24 A3008 RMK A01",
      "metarObsTime": 1782845700,
      "faaFlow": null
    },
    "KMDT": {
      "status": "OK",
      "delay": "—",
      "metarCat": "VFR",
      "metarRaw": "METAR KMDT 301856Z 20012G18KT 10SM SCT040 BKN180 33/19 A3005 RMK AO2 SLP174 T03280194",
      "metarObsTime": 1782845760,
      "faaFlow": null
    },
    "KCXY": {
      "status": "OK",
      "delay": "—",
      "metarCat": "VFR",
      "metarRaw": "METAR KCXY 301856Z 22010G16KT 10SM FEW050 33/19 A3006 RMK AO2 SLP176 T03280194",
      "metarObsTime": 1782845760,
      "faaFlow": null
    },
    "KMUI": {
      "status": "OK",
      "delay": "—",
      "metarCat": "VFR",
      "metarRaw": "METAR KMUI 301855Z 21012KT 10SM BKN055 BKN250 33/18 A3004 RMK AO2A SLP172 T03290182",
      "metarObsTime": 1782845700,
      "faaFlow": null
    },
    "KUNV": {
      "status": "OK",
      "delay": "—",
      "metarCat": "VFR",
      "metarRaw": "METAR KUNV 301853Z 24007KT 10SM SCT039 SCT060 BKN075 31/23 A3008",
      "metarObsTime": 1782845580,
      "faaFlow": null
    },
    "KAOO": {
      "status": "OK",
      "delay": "—",
      "metarCat": "VFR",
      "metarRaw": "METAR KAOO 301853Z AUTO 19006KT 10SM SCT039 SCT047 BKN060 29/22 A3010 RMK AO2 SLP182 T02940222",
      "metarObsTime": 1782845580,
      "faaFlow": null
    },
    "KLNS": {
      "status": "OK",
      "delay": "—",
      "metarCat": "VFR",
      "metarRaw": "METAR KLNS 301853Z 21009G17KT 10SM FEW050 32/17 A3007 RMK AO2 SLP180 T03220167",
      "metarObsTime": 1782845580,
      "faaFlow": null
    },
    "KIPT": {
      "status": "OK",
      "delay": "—",
      "metarCat": "VFR",
      "metarRaw": "METAR KIPT 301854Z 16006G16KT 10SM FEW044 SCT065 32/22 A3002 RMK AO2 SLP160 T03220217 $",
      "metarObsTime": 1782845640,
      "faaFlow": null
    },
    "KPHL": {
      "status": "OK",
      "delay": "—",
      "metarCat": "VFR",
      "metarRaw": "METAR KPHL 301854Z 22013KT 10SM FEW055 FEW130 SCT210 BKN320 32/17 A3009 RMK AO2 SLP188 T03220167 $",
      "metarObsTime": 1782845640,
      "faaFlow": null
    },
    "KABE": {
      "status": "OK",
      "delay": "—",
      "metarCat": "VFR",
      "metarRaw": "METAR KABE 301851Z 20011G20KT 10SM -RA FEW075 FEW100 SCT120 29/18 A3005 RMK AO2 RAB49 SLP172 P0000 T02890178",
      "metarObsTime": 1782845460,
      "faaFlow": null
    },
    "KAVP": {
      "status": "OK",
      "delay": "—",
      "metarCat": "VFR",
      "metarRaw": "METAR KAVP 301854Z 23007G15KT 190V250 10SM FEW044 30/20 A3006 RMK AO2 SLP169 T03000200",
      "metarObsTime": 1782845640,
      "faaFlow": null
    },
    "KHZL": {
      "status": "OK",
      "delay": "—",
      "metarCat": "VFR",
      "metarRaw": "METAR KHZL 301855Z AUTO 20006KT 10SM CLR 29/18 A3015 RMK AO2",
      "metarObsTime": 1782845700,
      "faaFlow": null
    }
  }
}