{
  "generatedAt": "2026-04-26T01:01:02.663Z",
  "faaFlow": {
    "updatedAt": "2026-04-26T01:01:02.004Z",
    "source": "https://www.fly.faa.gov/adv/adv_spt",
    "terminal": [],
    "enroute": [],
    "airports": {
      "KPIT": null,
      "KAGC": null,
      "KLBE": null,
      "KJST": null,
      "KERI": null,
      "KDUJ": null,
      "KBFD": null,
      "KBTP": null,
      "KFKL": null,
      "KIDI": null,
      "KMDT": null,
      "KCXY": null,
      "KMUI": null,
      "KUNV": null,
      "KAOO": null,
      "KLNS": null,
      "KIPT": null,
      "KPHL": null,
      "KABE": null,
      "KAVP": null,
      "KHZL": null
    }
  },
  "airports": {
    "KPIT": {
      "status": "OK",
      "delay": "—",
      "metarCat": "MVFR",
      "metarRaw": "METAR KPIT 260051Z 34013G20KT 10SM OVC013 11/08 A2993 RMK AO2 SLP141 T01060078",
      "metarObsTime": 1777164660,
      "faaFlow": null
    },
    "KAGC": {
      "status": "OK",
      "delay": "—",
      "metarCat": "MVFR",
      "metarRaw": "METAR KAGC 260053Z 35008KT 10SM OVC014 11/08 A2991 RMK AO2 SLP131 T01110083",
      "metarObsTime": 1777164780,
      "faaFlow": null
    },
    "KLBE": {
      "status": "OK",
      "delay": "—",
      "metarCat": "MVFR",
      "metarRaw": "METAR KLBE 260047Z 00000KT 10SM OVC018 13/11 A2992",
      "metarObsTime": 1777164420,
      "faaFlow": null
    },
    "KJST": {
      "status": "OK",
      "delay": "—",
      "metarCat": "LIFR",
      "metarRaw": "METAR KJST 260054Z AUTO 30010KT 2SM -RA BR OVC002 10/10 A2988 RMK AO2 RAB06 SLP118 P0001 T01000100",
      "metarObsTime": 1777164840,
      "faaFlow": null
    },
    "KERI": {
      "status": "OK",
      "delay": "—",
      "metarCat": "LIFR",
      "metarRaw": "METAR KERI 260051Z 01006KT 2 1/2SM BR OVC004 05/04 A2999 RMK AO2 SLP160 T00500044",
      "metarObsTime": 1777164660,
      "faaFlow": null
    },
    "KDUJ": {
      "status": "OK",
      "delay": "—",
      "metarCat": "LIFR",
      "metarRaw": "METAR KDUJ 260053Z AUTO 32007KT 2 1/2SM BR BKN004 OVC010 08/08 A2990 RMK AO2 CIG 002V006 SLP127 P0001 T00830078",
      "metarObsTime": 1777164780,
      "faaFlow": null
    },
    "KBFD": {
      "status": "OK",
      "delay": "—",
      "metarCat": "LIFR",
      "metarRaw": "METAR KBFD 260053Z AUTO 34006KT 2 1/2SM BR OVC003 07/06 A2991 RMK AO2 RAE10 SLP135 P0000 T00670061 $",
      "metarObsTime": 1777164780,
      "faaFlow": null
    },
    "KBTP": {
      "status": "OK",
      "delay": "—",
      "metarCat": "MVFR",
      "metarRaw": "METAR KBTP 260056Z AUTO 33010G14KT 10SM OVC010 08/07 A2995 RMK AO2 SLP150 T00780072 $",
      "metarObsTime": 1777164960,
      "faaFlow": null
    },
    "KFKL": {
      "status": "OK",
      "delay": "—",
      "metarCat": "—",
      "metarRaw": "—",
      "metarObsTime": null,
      "faaFlow": null
    },
    "KIDI": {
      "status": "OK",
      "delay": "—",
      "metarCat": "MVFR",
      "metarRaw": "METAR KIDI 260055Z AUTO 31009KT 10SM OVC012 11/09 A2991 RMK A01",
      "metarObsTime": 1777164900,
      "faaFlow": null
    },
    "KMDT": {
      "status": "OK",
      "delay": "—",
      "metarCat": "MVFR",
      "metarRaw": "METAR KMDT 260056Z 12010KT 3SM -RA BR SCT010 OVC030 08/07 A2996 RMK AO2 RAB17 SLP149 P0004 T00780067",
      "metarObsTime": 1777164960,
      "faaFlow": null
    },
    "KCXY": {
      "status": "OK",
      "delay": "—",
      "metarCat": "MVFR",
      "metarRaw": "METAR KCXY 260056Z 09007KT 4SM -RA BR SCT006 BKN011 OVC035 08/07 A2997 RMK AO2 RAB04 SLP151 P0005 T00780067",
      "metarObsTime": 1777164960,
      "faaFlow": null
    },
    "KMUI": {
      "status": "OK",
      "delay": "—",
      "metarCat": "IFR",
      "metarRaw": "SPECI KMUI 260037Z AUTO 07007KT 10SM -RA OVC007 09/09 A2996 RMK AO2 RAB37 SLP149",
      "metarObsTime": 1777163820,
      "faaFlow": null
    },
    "KUNV": {
      "status": "OK",
      "delay": "—",
      "metarCat": "IFR",
      "metarRaw": "METAR KUNV 260053Z 10007KT 4SM -RA BR OVC009 07/07 A2993",
      "metarObsTime": 1777164780,
      "faaFlow": null
    },
    "KAOO": {
      "status": "OK",
      "delay": "—",
      "metarCat": "IFR",
      "metarRaw": "METAR KAOO 260053Z AUTO 09005KT 7SM OVC005 09/09 A2989 RMK AO2 SLP125 T00940089",
      "metarObsTime": 1777164780,
      "faaFlow": null
    },
    "KLNS": {
      "status": "OK",
      "delay": "—",
      "metarCat": "IFR",
      "metarRaw": "METAR KLNS 260053Z 08008KT 8SM -RA FEW004 BKN007 OVC019 07/06 A2998 RMK AO2 SLP151 P0002 T00720061",
      "metarObsTime": 1777164780,
      "faaFlow": null
    },
    "KIPT": {
      "status": "OK",
      "delay": "—",
      "metarCat": "MVFR",
      "metarRaw": "METAR KIPT 260054Z 08009KT 5SM BR BKN012 BKN017 OVC023 06/06 A2998 RMK AO2 RAB10E24 SLP154 P0000 T00610056 $",
      "metarObsTime": 1777164840,
      "faaFlow": null
    },
    "KPHL": {
      "status": "OK",
      "delay": "—",
      "metarCat": "MVFR",
      "metarRaw": "METAR KPHL 260054Z 06008G19KT 5SM -RA BR BKN014 BKN019 OVC024 08/06 A2999 RMK AO2 SLP156 P0008 T00780056 $",
      "metarObsTime": 1777164840,
      "faaFlow": null
    },
    "KABE": {
      "status": "OK",
      "delay": "—",
      "metarCat": "IFR",
      "metarRaw": "METAR KABE 260051Z AUTO 08007KT 7SM -RA FEW006 BKN009 OVC035 05/04 A3003 RMK AO2 SLP170 P0005 T00500044 $",
      "metarObsTime": 1777164660,
      "faaFlow": null
    },
    "KAVP": {
      "status": "OK",
      "delay": "—",
      "metarCat": "MVFR",
      "metarRaw": "METAR KAVP 260054Z 04005KT 4SM -RA BR FEW014 SCT020 OVC033 05/04 A3001 RMK AO2 SLP166 P0003 T00500039 $",
      "metarObsTime": 1777164840,
      "faaFlow": null
    },
    "KHZL": {
      "status": "OK",
      "delay": "—",
      "metarCat": "IFR",
      "metarRaw": "METAR KHZL 260055Z AUTO 10005KT 4SM RA OVC006 03/02 A3001 RMK AO2 P0007",
      "metarObsTime": 1777164900,
      "faaFlow": null
    }
  }
}