{
  "generatedAt": "2026-04-10T11:20:48.239Z",
  "airports": {
    "KPIT": {
      "status": "OK",
      "delay": "—",
      "metarCat": "VFR",
      "metarRaw": "METAR KPIT 101051Z 21005KT 10SM FEW250 14/02 A3023 RMK AO2 SLP241 T01440017",
      "metarObsTime": 1775818260
    },
    "KAGC": {
      "status": "OK",
      "delay": "—",
      "metarCat": "VFR",
      "metarRaw": "METAR KAGC 101053Z 19009KT 10SM CLR 12/02 A3024 RMK AO2 SLP241 T01220022",
      "metarObsTime": 1775818380
    },
    "KLBE": {
      "status": "OK",
      "delay": "—",
      "metarCat": "VFR",
      "metarRaw": "METAR KLBE 101053Z 21008KT 10SM CLR 12/03 A3027",
      "metarObsTime": 1775818380
    },
    "KJST": {
      "status": "OK",
      "delay": "—",
      "metarCat": "VFR",
      "metarRaw": "METAR KJST 101054Z AUTO 20005KT 10SM CLR 11/M01 A3027 RMK AO2 SLP251 T01061006",
      "metarObsTime": 1775818440
    },
    "KERI": {
      "status": "OK",
      "delay": "—",
      "metarCat": "VFR",
      "metarRaw": "METAR KERI 101051Z 17010KT 10SM SCT100 14/07 A3013 RMK AO2 SLP203 T01390067 $",
      "metarObsTime": 1775818260
    },
    "KDUJ": {
      "status": "OK",
      "delay": "—",
      "metarCat": "VFR",
      "metarRaw": "METAR KDUJ 101053Z AUTO 17004KT 10SM CLR 09/M01 A3023 RMK AO2 SLP235 T00891006",
      "metarObsTime": 1775818380
    },
    "KBFD": {
      "status": "OK",
      "delay": "—",
      "metarCat": "VFR",
      "metarRaw": "METAR KBFD 101053Z AUTO 17004KT 10SM CLR 08/M01 A3022 RMK AO2 SLP232 T00831006",
      "metarObsTime": 1775818380
    },
    "KBTP": {
      "status": "OK",
      "delay": "—",
      "metarCat": "VFR",
      "metarRaw": "METAR KBTP 101056Z AUTO 17006KT 10SM CLR 12/04 A3024 RMK AO2 SLP242 T01220039 $",
      "metarObsTime": 1775818560
    },
    "KFKL": {
      "status": "OK",
      "delay": "—",
      "metarCat": "VFR",
      "metarRaw": "METAR KFKL 101056Z AUTO 18007KT 10SM CLR 09/04 A3021 RMK AO2 SLP235 T00890044",
      "metarObsTime": 1775818560
    },
    "KIDI": {
      "status": "OK",
      "delay": "—",
      "metarCat": "VFR",
      "metarRaw": "METAR KIDI 101115Z AUTO 23004KT 10SM CLR 08/02 A3026 RMK A01",
      "metarObsTime": 1775819700
    },
    "KMDT": {
      "status": "OK",
      "delay": "—",
      "metarCat": "MVFR",
      "metarRaw": "METAR KMDT 101056Z 00000KT 8SM BKN011 OVC017 06/04 A3037 RMK AO2 SLP285 T00610044",
      "metarObsTime": 1775818560
    },
    "KCXY": {
      "status": "OK",
      "delay": "—",
      "metarCat": "MVFR",
      "metarRaw": "METAR KCXY 101056Z 11005KT 8SM OVC012 07/05 A3037 RMK AO2 SLP286 T00670050 $",
      "metarObsTime": 1775818560
    },
    "KMUI": {
      "status": "OK",
      "delay": "—",
      "metarCat": "IFR",
      "metarRaw": "METAR KMUI 101055Z 00000KT 5SM OVC007 07/07 A3036 RMK AO2A SLP285 T00720069",
      "metarObsTime": 1775818500
    },
    "KUNV": {
      "status": "OK",
      "delay": "—",
      "metarCat": "VFR",
      "metarRaw": "METAR KUNV 101053Z 26006KT 10SM CLR 07/M02 A3029",
      "metarObsTime": 1775818380
    },
    "KAOO": {
      "status": "OK",
      "delay": "—",
      "metarCat": "VFR",
      "metarRaw": "METAR KAOO 101053Z AUTO 00000KT 10SM CLR 07/M03 A3029 RMK AO2 SLP261 T00721033 $",
      "metarObsTime": 1775818380
    },
    "KLNS": {
      "status": "OK",
      "delay": "—",
      "metarCat": "IFR",
      "metarRaw": "METAR KLNS 101053Z 17003KT 10SM OVC007 06/05 A3038 RMK AO2 SLP288 T00610050",
      "metarObsTime": 1775818380
    },
    "KIPT": {
      "status": "OK",
      "delay": "—",
      "metarCat": "VFR",
      "metarRaw": "METAR KIPT 101054Z 09006KT 10SM CLR 06/02 A3031 RMK AO2 SLP266 T00610022",
      "metarObsTime": 1775818440
    },
    "KPHL": {
      "status": "OK",
      "delay": "—",
      "metarCat": "IFR",
      "metarRaw": "METAR KPHL 101054Z 19004KT 10SM OVC009 07/04 A3040 RMK AO2 SLP294 T00720044 $",
      "metarObsTime": 1775818440
    },
    "KABE": {
      "status": "OK",
      "delay": "—",
      "metarCat": "IFR",
      "metarRaw": "METAR KABE 101051Z 21006KT 10SM OVC007 06/04 A3037 RMK AO2 SLP287 T00560044 $",
      "metarObsTime": 1775818260
    },
    "KAVP": {
      "status": "OK",
      "delay": "—",
      "metarCat": "VFR",
      "metarRaw": "METAR KAVP 101054Z 00000KT 10SM CLR 04/01 A3032 RMK AO2 SLP269 T00440006",
      "metarObsTime": 1775818440
    },
    "KHZL": {
      "status": "OK",
      "delay": "—",
      "metarCat": "LIFR",
      "metarRaw": "METAR KHZL 101115Z AUTO 00000KT 4SM BR BKN004 03/02 A3035 RMK AO2",
      "metarObsTime": 1775819700
    }
  }
}