{
  "generatedAt": "2026-04-19T01:30:55.021Z",
  "airports": {
    "KPIT": {
      "status": "OK",
      "delay": "—",
      "metarCat": "MVFR",
      "metarRaw": "SPECI KPIT 190118Z 30017G26KT 3SM -RA BR FEW005 OVC017 16/14 A2987 RMK AO2 PK WND 29026/0116 RAB09 PRESRR P0000 T01560144 $",
      "metarObsTime": 1776561480
    },
    "KAGC": {
      "status": "OK",
      "delay": "—",
      "metarCat": "VFR",
      "metarRaw": "METAR KAGC 190053Z 23007KT 10SM FEW120 16/14 A2984 RMK AO2 SLP104 T01610144",
      "metarObsTime": 1776559980
    },
    "KLBE": {
      "status": "OK",
      "delay": "—",
      "metarCat": "MVFR",
      "metarRaw": "METAR KLBE 190053Z 21010KT 10SM SCT016 OVC024 OVC060 17/16 A2987",
      "metarObsTime": 1776559980
    },
    "KJST": {
      "status": "OK",
      "delay": "—",
      "metarCat": "IFR",
      "metarRaw": "SPECI KJST 190101Z AUTO 27010KT 6SM -RA BR BKN007 OVC013 15/14 A2987 RMK AO2 P0002 T01500144",
      "metarObsTime": 1776560460
    },
    "KERI": {
      "status": "OK",
      "delay": "—",
      "metarCat": "VFR",
      "metarRaw": "METAR KERI 190051Z 25011G21KT 10SM OVC046 11/07 A2985 RMK AO2 PK WND 26028/2357 RAB2354E24 SLP107 P0000 T01060072 $",
      "metarObsTime": 1776559860
    },
    "KDUJ": {
      "status": "OK",
      "delay": "—",
      "metarCat": "MVFR",
      "metarRaw": "SPECI KDUJ 190109Z AUTO 23008KT 10SM FEW009 BKN014 OVC022 14/13 A2983 RMK AO2 T01440133",
      "metarObsTime": 1776560940
    },
    "KBFD": {
      "status": "OK",
      "delay": "—",
      "metarCat": "IFR",
      "metarRaw": "SPECI KBFD 190124Z AUTO 27009KT 2SM RA BR BKN006 OVC011 14/13 A2982 RMK AO2 VIS 1 1/4V3 RAB10 P0003 T01390128",
      "metarObsTime": 1776561840
    },
    "KBTP": {
      "status": "OK",
      "delay": "—",
      "metarCat": "MVFR",
      "metarRaw": "SPECI KBTP 190117Z AUTO 31010G18KT 270V340 4SM -RA BR SCT010 BKN016 OVC023 12/12 A2989 RMK AO2 WSHFT 0057 RAB0057 P0001 $",
      "metarObsTime": 1776561420
    },
    "KFKL": {
      "status": "OK",
      "delay": "—",
      "metarCat": "—",
      "metarRaw": "—",
      "metarObsTime": null
    },
    "KIDI": {
      "status": "OK",
      "delay": "—",
      "metarCat": "VFR",
      "metarRaw": "METAR KIDI 190115Z AUTO 20005KT 10SM SCT039 SCT046 OVC060 15/15 A2986 RMK A01",
      "metarObsTime": 1776561300
    },
    "KMDT": {
      "status": "OK",
      "delay": "—",
      "metarCat": "VFR",
      "metarRaw": "METAR KMDT 190056Z 13013KT 10SM BKN120 OVC250 18/13 A2983 RMK AO2 SLP100 T01780133",
      "metarObsTime": 1776560160
    },
    "KCXY": {
      "status": "OK",
      "delay": "—",
      "metarCat": "VFR",
      "metarRaw": "METAR KCXY 190056Z 11008KT 10SM FEW120 18/13 A2983 RMK AO2 SLP101 T01830128 $",
      "metarObsTime": 1776560160
    },
    "KMUI": {
      "status": "OK",
      "delay": "—",
      "metarCat": "VFR",
      "metarRaw": "METAR KMUI 190055Z AUTO 11007KT 10SM FEW120 BKN160 19/15 A2982 RMK AO2 SLP100 T01890146",
      "metarObsTime": 1776560100
    },
    "KUNV": {
      "status": "OK",
      "delay": "—",
      "metarCat": "MVFR",
      "metarRaw": "METAR KUNV 190053Z 20004KT 5SM -RA BR BKN036 BKN045 18/18 A2982",
      "metarObsTime": 1776559980
    },
    "KAOO": {
      "status": "OK",
      "delay": "—",
      "metarCat": "MVFR",
      "metarRaw": "SPECI KAOO 190116Z AUTO 28005G17KT 3SM RA BR SCT023 BKN040 OVC080 18/16 A2984 RMK AO2 P0009 T01780156",
      "metarObsTime": 1776561360
    },
    "KLNS": {
      "status": "OK",
      "delay": "—",
      "metarCat": "VFR",
      "metarRaw": "METAR KLNS 190053Z 14014G23KT 10SM FEW080 SCT110 16/13 A2984 RMK AO2 PK WND 13027/0007 SLP105 T01560128",
      "metarObsTime": 1776559980
    },
    "KIPT": {
      "status": "OK",
      "delay": "—",
      "metarCat": "VFR",
      "metarRaw": "METAR KIPT 190054Z 17018G33KT 10SM OVC100 22/13 A2976 RMK AO2 PK WND 18033/0045 PRESRR SLP075 T02170133 $",
      "metarObsTime": 1776560040
    },
    "KPHL": {
      "status": "OK",
      "delay": "—",
      "metarCat": "IFR",
      "metarRaw": "SPECI KPHL 190121Z 12010KT 10SM OVC009 12/10 A2993 RMK AO2 T01220100 $",
      "metarObsTime": 1776561660
    },
    "KABE": {
      "status": "OK",
      "delay": "—",
      "metarCat": "VFR",
      "metarRaw": "METAR KABE 190051Z 11014KT 10SM CLR 14/09 A2990 RMK AO2 SLP125 T01440089 $",
      "metarObsTime": 1776559860
    },
    "KAVP": {
      "status": "OK",
      "delay": "—",
      "metarCat": "VFR",
      "metarRaw": "METAR KAVP 190054Z VRB05G21KT 10SM CLR 16/10 A2981 RMK AO2 SLP088 T01610100",
      "metarObsTime": 1776560040
    },
    "KHZL": {
      "status": "OK",
      "delay": "—",
      "metarCat": "VFR",
      "metarRaw": "METAR KHZL 190115Z AUTO 14007G19KT 080V180 10SM CLR 15/09 A2987 RMK AO2",
      "metarObsTime": 1776561300
    }
  }
}