{
  "generatedAt": "2026-04-10T03:00:42.378Z",
  "airports": {
    "KPIT": {
      "status": "OK",
      "delay": "—",
      "metarCat": "VFR",
      "metarRaw": "METAR KPIT 100251Z 22005KT 10SM FEW250 19/04 A3024 RMK AO2 SLP245 T01890039 50003",
      "metarObsTime": 1775789460
    },
    "KAGC": {
      "status": "OK",
      "delay": "—",
      "metarCat": "VFR",
      "metarRaw": "METAR KAGC 100253Z 21007KT 10SM CLR 18/03 A3024 RMK AO2 SLP243 T01830033 50001",
      "metarObsTime": 1775789580
    },
    "KLBE": {
      "status": "OK",
      "delay": "—",
      "metarCat": "VFR",
      "metarRaw": "METAR KLBE 100255Z AUTO 18004KT 10SM CLR 17/02 A3027 RMK AO2",
      "metarObsTime": 1775789700
    },
    "KJST": {
      "status": "OK",
      "delay": "—",
      "metarCat": "VFR",
      "metarRaw": "METAR KJST 100254Z AUTO 18008KT 10SM CLR 11/M02 A3030 RMK AO2 SLP266 T01061017 50004",
      "metarObsTime": 1775789640
    },
    "KERI": {
      "status": "OK",
      "delay": "—",
      "metarCat": "VFR",
      "metarRaw": "METAR KERI 100251Z 15007KT 8SM -RA FEW060 BKN075 OVC100 13/11 A3019 RMK AO2 RAB0155 SLP223 P0003 60003 T01330106 50000 $",
      "metarObsTime": 1775789460
    },
    "KDUJ": {
      "status": "OK",
      "delay": "—",
      "metarCat": "VFR",
      "metarRaw": "METAR KDUJ 100253Z AUTO 13009KT 10SM CLR 12/00 A3027 RMK AO2 SLP250 60000 T01220000 50006",
      "metarObsTime": 1775789580
    },
    "KBFD": {
      "status": "OK",
      "delay": "—",
      "metarCat": "VFR",
      "metarRaw": "METAR KBFD 100253Z AUTO 15005KT 10SM FEW090 11/04 A3025 RMK AO2 SLP245 60003 T01060039 56012",
      "metarObsTime": 1775789580
    },
    "KBTP": {
      "status": "OK",
      "delay": "—",
      "metarCat": "VFR",
      "metarRaw": "METAR KBTP 100256Z AUTO 21004KT 10SM CLR 17/04 A3025 RMK AO2 SLP248 T01720044 50004 $",
      "metarObsTime": 1775789760
    },
    "KFKL": {
      "status": "OK",
      "delay": "—",
      "metarCat": "VFR",
      "metarRaw": "METAR KFKL 100256Z AUTO 16008KT 10SM BKN090 BKN110 13/09 A3024 RMK AO2 SLP240 T01330094 56006",
      "metarObsTime": 1775789760
    },
    "KIDI": {
      "status": "OK",
      "delay": "—",
      "metarCat": "VFR",
      "metarRaw": "METAR KIDI 100255Z AUTO 16007KT 10SM FEW048 FEW055 14/01 A3027 RMK A01",
      "metarObsTime": 1775789700
    },
    "KMDT": {
      "status": "OK",
      "delay": "—",
      "metarCat": "VFR",
      "metarRaw": "METAR KMDT 100256Z 12007KT 10SM FEW250 07/01 A3039 RMK AO2 SLP293 T00720011 50002",
      "metarObsTime": 1775789760
    },
    "KCXY": {
      "status": "OK",
      "delay": "—",
      "metarCat": "VFR",
      "metarRaw": "METAR KCXY 100256Z AUTO 15008KT 10SM CLR 11/M03 A3039 RMK AO2 SLP293 T01061028 50002 $",
      "metarObsTime": 1775789760
    },
    "KMUI": {
      "status": "OK",
      "delay": "—",
      "metarCat": "VFR",
      "metarRaw": "METAR KMUI 100255Z AUTO 00000KT 10SM CLR 08/M01 A3038 RMK AO2 SLP293 T00821006 50003",
      "metarObsTime": 1775789700
    },
    "KUNV": {
      "status": "OK",
      "delay": "—",
      "metarCat": "VFR",
      "metarRaw": "METAR KUNV 100255Z AUTO 18003KT 10SM CLR 11/M02 A3033 RMK AO2 T01121022",
      "metarObsTime": 1775789700
    },
    "KAOO": {
      "status": "OK",
      "delay": "—",
      "metarCat": "VFR",
      "metarRaw": "METAR KAOO 100253Z AUTO 21006KT 10SM CLR 11/M03 A3033 RMK AO2 SLP276 T01061028 50002 $",
      "metarObsTime": 1775789580
    },
    "KLNS": {
      "status": "OK",
      "delay": "—",
      "metarCat": "VFR",
      "metarRaw": "METAR KLNS 100253Z 16007KT 10SM CLR 07/03 A3042 RMK AO2 SLP301 T00670033 50007",
      "metarObsTime": 1775789580
    },
    "KIPT": {
      "status": "OK",
      "delay": "—",
      "metarCat": "VFR",
      "metarRaw": "METAR KIPT 100254Z AUTO 09008KT 10SM CLR 09/M01 A3035 RMK AO2 SLP280 T00941006 50007",
      "metarObsTime": 1775789640
    },
    "KPHL": {
      "status": "OK",
      "delay": "—",
      "metarCat": "VFR",
      "metarRaw": "METAR KPHL 100254Z 15005KT 10SM FEW014 07/03 A3047 RMK AO2 SLP317 T00670033 50008 $",
      "metarObsTime": 1775789640
    },
    "KABE": {
      "status": "OK",
      "delay": "—",
      "metarCat": "VFR",
      "metarRaw": "METAR KABE 100251Z 19008KT 10SM CLR 10/00 A3041 RMK AO2 SLP299 T01000000 50003 $",
      "metarObsTime": 1775789460
    },
    "KAVP": {
      "status": "OK",
      "delay": "—",
      "metarCat": "VFR",
      "metarRaw": "METAR KAVP 100254Z 21004KT 10SM CLR 10/M03 A3038 RMK AO2 SLP290 T01001028 51010",
      "metarObsTime": 1775789640
    },
    "KHZL": {
      "status": "OK",
      "delay": "—",
      "metarCat": "VFR",
      "metarRaw": "METAR KHZL 100255Z AUTO 00000KT 10SM CLR 07/M01 A3041 RMK AO2",
      "metarObsTime": 1775789700
    }
  }
}