{
  "generatedAt": "2026-03-28T03:50:22.620Z",
  "airports": {
    "KPIT": {
      "status": "OK",
      "delay": "—",
      "metarCat": "VFR",
      "metarRaw": "METAR KPIT 280251Z 32011KT 10SM FEW038 M01/M09 A3032 RMK AO2 SLP287 T10111094 51037",
      "metarObsTime": 1774666260
    },
    "KAGC": {
      "status": "OK",
      "delay": "—",
      "metarCat": "VFR",
      "metarRaw": "METAR KAGC 280253Z 34009G18KT 10SM OVC041 M01/M08 A3030 RMK AO2 SLP275 T10061083 53035",
      "metarObsTime": 1774666380
    },
    "KLBE": {
      "status": "OK",
      "delay": "—",
      "metarCat": "VFR",
      "metarRaw": "METAR KLBE 280335Z AUTO 29008G18KT 10SM OVC041 00/M06 A3033 RMK AO2",
      "metarObsTime": 1774668900
    },
    "KJST": {
      "status": "OK",
      "delay": "—",
      "metarCat": "VFR",
      "metarRaw": "METAR KJST 280254Z AUTO 30012KT 10SM CLR 00/M04 A3017 RMK AO2 SLP238 T00001044 51017",
      "metarObsTime": 1774666440
    },
    "KERI": {
      "status": "OK",
      "delay": "—",
      "metarCat": "VFR",
      "metarRaw": "SPECI KERI 280302Z 30011KT 10SM FEW021 M01/M05 A3034 RMK AO2 T10111050 $",
      "metarObsTime": 1774666920
    },
    "KDUJ": {
      "status": "OK",
      "delay": "—",
      "metarCat": "VFR",
      "metarRaw": "METAR KDUJ 280253Z AUTO 31008KT 10SM CLR M03/M07 A3022 RMK AO2 SLP254 T10281067 53026",
      "metarObsTime": 1774666380
    },
    "KBFD": {
      "status": "OK",
      "delay": "—",
      "metarCat": "VFR",
      "metarRaw": "METAR KBFD 280253Z AUTO 31007KT 10SM CLR M06/M09 A3021 RMK AO2 SLP257 T10561089 53017",
      "metarObsTime": 1774666380
    },
    "KBTP": {
      "status": "OK",
      "delay": "—",
      "metarCat": "VFR",
      "metarRaw": "METAR KBTP 280256Z AUTO 30007KT 10SM FEW038 M02/M09 A3033 RMK AO2 SLP289 T10221089 53029 FZRANO $",
      "metarObsTime": 1774666560
    },
    "KFKL": {
      "status": "OK",
      "delay": "—",
      "metarCat": "MVFR",
      "metarRaw": "SPECI KFKL 280347Z AUTO 30005KT 10SM BKN022 M04/M07 A3032 RMK AO2 FZRANO",
      "metarObsTime": 1774669620
    },
    "KIDI": {
      "status": "OK",
      "delay": "—",
      "metarCat": "VFR",
      "metarRaw": "METAR KIDI 280335Z AUTO 32011G16KT 10SM OVC038 M01/M07 A3029 RMK A01",
      "metarObsTime": 1774668900
    },
    "KMDT": {
      "status": "OK",
      "delay": "—",
      "metarCat": "VFR",
      "metarRaw": "METAR KMDT 280256Z 33004KT 10SM CLR 02/M03 A3020 RMK AO2 SLP231 T00221028 51017",
      "metarObsTime": 1774666560
    },
    "KCXY": {
      "status": "OK",
      "delay": "—",
      "metarCat": "VFR",
      "metarRaw": "METAR KCXY 280256Z AUTO 25004KT 10SM CLR 01/M03 A3021 RMK AO2 SLP236 T00061028 51018",
      "metarObsTime": 1774666560
    },
    "KMUI": {
      "status": "OK",
      "delay": "—",
      "metarCat": "—",
      "metarRaw": "—",
      "metarObsTime": null
    },
    "KUNV": {
      "status": "OK",
      "delay": "—",
      "metarCat": "VFR",
      "metarRaw": "METAR KUNV 280335Z AUTO 34003KT 10SM SCT049 SCT060 01/M06 A3021 RMK AO2 T00131064",
      "metarObsTime": 1774668900
    },
    "KAOO": {
      "status": "OK",
      "delay": "—",
      "metarCat": "VFR",
      "metarRaw": "METAR KAOO 280253Z AUTO 33007KT 10SM OVC046 04/M05 A3018 RMK AO2 SLP231 T00441050 51019",
      "metarObsTime": 1774666380
    },
    "KLNS": {
      "status": "OK",
      "delay": "—",
      "metarCat": "VFR",
      "metarRaw": "METAR KLNS 280253Z 35007KT 10SM CLR 01/M04 A3019 RMK AO2 SLP226 T00111044 51016",
      "metarObsTime": 1774666380
    },
    "KIPT": {
      "status": "OK",
      "delay": "—",
      "metarCat": "VFR",
      "metarRaw": "METAR KIPT 280254Z AUTO 02005KT 10SM CLR 00/M11 A3022 RMK AO2 SLP240 T00001111 51019",
      "metarObsTime": 1774666440
    },
    "KPHL": {
      "status": "OK",
      "delay": "—",
      "metarCat": "VFR",
      "metarRaw": "METAR KPHL 280254Z 32007KT 10SM BKN050 BKN120 BKN250 07/M04 A3021 RMK AO2 SLP229 T00671044 51027 $",
      "metarObsTime": 1774666440
    },
    "KABE": {
      "status": "OK",
      "delay": "—",
      "metarCat": "VFR",
      "metarRaw": "METAR KABE 280251Z 34008KT 10SM CLR 02/M08 A3020 RMK AO2 SLP228 T00221078 51023 $",
      "metarObsTime": 1774666260
    },
    "KAVP": {
      "status": "OK",
      "delay": "—",
      "metarCat": "VFR",
      "metarRaw": "METAR KAVP 280254Z 02006KT 10SM CLR M02/M09 A3020 RMK AO2 SLP236 T10171094 50021",
      "metarObsTime": 1774666440
    },
    "KHZL": {
      "status": "OK",
      "delay": "—",
      "metarCat": "VFR",
      "metarRaw": "METAR KHZL 280335Z AUTO 36003KT 10SM CLR M01/M11 A3019 RMK AO2",
      "metarObsTime": 1774668900
    }
  }
}