{
  "generatedAt": "2026-03-10T14:00:39.382Z",
  "airports": {
    "KPIT": {
      "status": "OK",
      "delay": "—",
      "metarCat": "MVFR",
      "metarRaw": "METAR KPIT 101351Z 20010KT 10SM BKN024 OVC034 17/08 A3001 RMK AO2 SLP165 T01720083",
      "metarObsTime": 1773150660
    },
    "KAGC": {
      "status": "OK",
      "delay": "—",
      "metarCat": "VFR",
      "metarRaw": "METAR KAGC 101353Z 18009KT 10SM SCT026 OVC034 15/04 A3001 RMK AO2 SLP166 T01500044",
      "metarObsTime": 1773150780
    },
    "KLBE": {
      "status": "OK",
      "delay": "—",
      "metarCat": "MVFR",
      "metarRaw": "METAR KLBE 101345Z 21009KT 10SM OVC030 18/09 A3005",
      "metarObsTime": 1773150300
    },
    "KJST": {
      "status": "OK",
      "delay": "—",
      "metarCat": "MVFR",
      "metarRaw": "METAR KJST 101354Z AUTO 22007KT 10SM OVC024 15/08 A3005 RMK AO2 SLP172 T01500078",
      "metarObsTime": 1773150840
    },
    "KERI": {
      "status": "OK",
      "delay": "—",
      "metarCat": "VFR",
      "metarRaw": "METAR KERI 101351Z 21009KT 10SM FEW026 OVC034 18/11 A2993 RMK AO2 SLP135 T01780111",
      "metarObsTime": 1773150660
    },
    "KDUJ": {
      "status": "OK",
      "delay": "—",
      "metarCat": "MVFR",
      "metarRaw": "METAR KDUJ 101353Z AUTO 22008KT 10SM OVC028 15/05 A3000 RMK AO2 SLP158 T01500050",
      "metarObsTime": 1773150780
    },
    "KBFD": {
      "status": "OK",
      "delay": "—",
      "metarCat": "MVFR",
      "metarRaw": "METAR KBFD 101353Z AUTO 22006KT 10SM BKN019 BKN024 OVC042 14/08 A2999 RMK AO2 SLP150 T01440083",
      "metarObsTime": 1773150780
    },
    "KBTP": {
      "status": "OK",
      "delay": "—",
      "metarCat": "VFR",
      "metarRaw": "METAR KBTP 101356Z AUTO 18006KT 10SM SCT023 OVC033 16/06 A3001 RMK AO2 SLP168 T01560061 $",
      "metarObsTime": 1773150960
    },
    "KFKL": {
      "status": "OK",
      "delay": "—",
      "metarCat": "VFR",
      "metarRaw": "METAR KFKL 101356Z AUTO 22009KT 10SM OVC040 16/09 A2999 RMK AO2 SLP156 T01610094",
      "metarObsTime": 1773150960
    },
    "KIDI": {
      "status": "OK",
      "delay": "—",
      "metarCat": "VFR",
      "metarRaw": "METAR KIDI 101355Z AUTO 21008KT 10SM OVC031 16/07 A3003 RMK A01",
      "metarObsTime": 1773150900
    },
    "KMDT": {
      "status": "OK",
      "delay": "—",
      "metarCat": "VFR",
      "metarRaw": "METAR KMDT 101356Z 00000KT 10SM FEW250 09/05 A3005 RMK AO2 SLP177 T00940050",
      "metarObsTime": 1773150960
    },
    "KCXY": {
      "status": "OK",
      "delay": "—",
      "metarCat": "VFR",
      "metarRaw": "METAR KCXY 101356Z 00000KT 10SM CLR 11/05 A3005 RMK AO2 SLP178 T01110050",
      "metarObsTime": 1773150960
    },
    "KMUI": {
      "status": "OK",
      "delay": "—",
      "metarCat": "VFR",
      "metarRaw": "METAR KMUI 101355Z 00000KT 10SM FEW045 SCT250 13/08 A3004 RMK AO2A SLP176 T01310075",
      "metarObsTime": 1773150900
    },
    "KUNV": {
      "status": "OK",
      "delay": "—",
      "metarCat": "VFR",
      "metarRaw": "METAR KUNV 101353Z 00000KT 10SM SCT034 14/01 A3003",
      "metarObsTime": 1773150780
    },
    "KAOO": {
      "status": "OK",
      "delay": "—",
      "metarCat": "—",
      "metarRaw": "—",
      "metarObsTime": null
    },
    "KLNS": {
      "status": "OK",
      "delay": "—",
      "metarCat": "VFR",
      "metarRaw": "METAR KLNS 101353Z 00000KT 8SM CLR 12/09 A3005 RMK AO2 SLP176 T01220094",
      "metarObsTime": 1773150780
    },
    "KIPT": {
      "status": "OK",
      "delay": "—",
      "metarCat": "VFR",
      "metarRaw": "METAR KIPT 101354Z 00000KT 10SM FEW046 07/02 A3004 RMK AO2 SLP173 T00720022",
      "metarObsTime": 1773150840
    },
    "KPHL": {
      "status": "OK",
      "delay": "—",
      "metarCat": "VFR",
      "metarRaw": "METAR KPHL 101354Z 26003KT 9SM BKN250 12/09 A3006 RMK AO2 SLP179 T01170089 $",
      "metarObsTime": 1773150840
    },
    "KABE": {
      "status": "OK",
      "delay": "—",
      "metarCat": "—",
      "metarRaw": "METAR KABE 101351Z 10SM 11/05 A3005 RMK AO2 SLP176 T01110050 $",
      "metarObsTime": 1773150660
    },
    "KAVP": {
      "status": "OK",
      "delay": "—",
      "metarCat": "VFR",
      "metarRaw": "METAR KAVP 101354Z 00000KT 10SM CLR 12/03 A3003 RMK AO2 SLP167 T01220033",
      "metarObsTime": 1773150840
    },
    "KHZL": {
      "status": "OK",
      "delay": "—",
      "metarCat": "VFR",
      "metarRaw": "METAR KHZL 101335Z AUTO 00000KT 10SM SCT034 BKN042 OVC050 17/01 A3007 RMK AO2",
      "metarObsTime": 1773149700
    }
  }
}