{
  "generatedAt": "2026-03-24T10:10:22.041Z",
  "airports": {
    "KPIT": {
      "status": "OK",
      "delay": "—",
      "metarCat": "VFR",
      "metarRaw": "METAR KPIT 240951Z 36003KT 10SM FEW250 M04/M09 A3040 RMK AO2 SLP317 T10441089",
      "metarObsTime": 1774345860
    },
    "KAGC": {
      "status": "OK",
      "delay": "—",
      "metarCat": "VFR",
      "metarRaw": "METAR KAGC 240953Z 34003KT 10SM CLR M05/M11 A3039 RMK AO2 SLP311 T10501106",
      "metarObsTime": 1774345980
    },
    "KLBE": {
      "status": "OK",
      "delay": "—",
      "metarCat": "VFR",
      "metarRaw": "METAR KLBE 240955Z AUTO 00000KT 10SM CLR M05/M09 A3042 RMK AO2",
      "metarObsTime": 1774346100
    },
    "KJST": {
      "status": "OK",
      "delay": "—",
      "metarCat": "VFR",
      "metarRaw": "METAR KJST 240954Z AUTO 34003KT 10SM CLR M07/M11 A3030 RMK AO2 SLP292 T10721106",
      "metarObsTime": 1774346040
    },
    "KERI": {
      "status": "OK",
      "delay": "—",
      "metarCat": "VFR",
      "metarRaw": "METAR KERI 240951Z AUTO 00000KT 10SM CLR M05/M08 A3041 RMK AO2 SLP308 T10501083",
      "metarObsTime": 1774345860
    },
    "KDUJ": {
      "status": "OK",
      "delay": "—",
      "metarCat": "VFR",
      "metarRaw": "METAR KDUJ 240953Z AUTO 00000KT 10SM FEW023 M07/M09 A3033 RMK AO2 SLP295 T10721094",
      "metarObsTime": 1774345980
    },
    "KBFD": {
      "status": "OK",
      "delay": "—",
      "metarCat": "MVFR",
      "metarRaw": "METAR KBFD 240953Z AUTO 05006KT 10SM OVC017 M06/M09 A3030 RMK AO2 SLP287 T10611094",
      "metarObsTime": 1774345980
    },
    "KBTP": {
      "status": "OK",
      "delay": "—",
      "metarCat": "VFR",
      "metarRaw": "METAR KBTP 240956Z AUTO 00000KT 10SM CLR M08/M11 A3041 RMK AO2 SLP321 T10831111 FZRANO $",
      "metarObsTime": 1774346160
    },
    "KFKL": {
      "status": "OK",
      "delay": "—",
      "metarCat": "VFR",
      "metarRaw": "METAR KFKL 240956Z AUTO 00000KT 10SM CLR M08/M09 A3037 RMK AO2 SLP308 T10781094 FZRANO",
      "metarObsTime": 1774346160
    },
    "KIDI": {
      "status": "OK",
      "delay": "—",
      "metarCat": "VFR",
      "metarRaw": "METAR KIDI 240955Z AUTO 00000KT 10SM CLR M07/M08 A3039 RMK A01",
      "metarObsTime": 1774346100
    },
    "KMDT": {
      "status": "OK",
      "delay": "—",
      "metarCat": "VFR",
      "metarRaw": "METAR KMDT 240956Z 32005KT 10SM SCT048 00/M08 A3038 RMK AO2 SLP290 T00001083",
      "metarObsTime": 1774346160
    },
    "KCXY": {
      "status": "OK",
      "delay": "—",
      "metarCat": "VFR",
      "metarRaw": "METAR KCXY 240956Z AUTO 26005KT 10SM BKN047 M01/M08 A3039 RMK AO2 SLP294 T10111078",
      "metarObsTime": 1774346160
    },
    "KMUI": {
      "status": "OK",
      "delay": "—",
      "metarCat": "VFR",
      "metarRaw": "METAR KMUI 240955Z AUTO 27005KT 10SM OVC039 01/M06 A3035 RMK AO2 SLPNO T00131065 $",
      "metarObsTime": 1774346100
    },
    "KUNV": {
      "status": "OK",
      "delay": "—",
      "metarCat": "VFR",
      "metarRaw": "METAR KUNV 240953Z 31004KT 10SM SCT032 M04/M09 A3037",
      "metarObsTime": 1774345980
    },
    "KAOO": {
      "status": "OK",
      "delay": "—",
      "metarCat": "VFR",
      "metarRaw": "METAR KAOO 240953Z AUTO 28005KT 10SM CLR M06/M11 A3036 RMK AO2 SLP301 T10561106",
      "metarObsTime": 1774345980
    },
    "KLNS": {
      "status": "OK",
      "delay": "—",
      "metarCat": "VFR",
      "metarRaw": "METAR KLNS 240953Z COR 32007KT 10SM OVC037 01/M06 A3036 RMK AO2 SLP284 T00111056",
      "metarObsTime": 1774345980
    },
    "KIPT": {
      "status": "OK",
      "delay": "—",
      "metarCat": "VFR",
      "metarRaw": "METAR KIPT 240954Z AUTO 33006KT 10SM CLR M02/M08 A3038 RMK AO2 SLP294 T10171083",
      "metarObsTime": 1774346040
    },
    "KPHL": {
      "status": "OK",
      "delay": "—",
      "metarCat": "VFR",
      "metarRaw": "METAR KPHL 240954Z 33006KT 10SM FEW042 01/M06 A3037 RMK AO2 SLP284 T00111056 $",
      "metarObsTime": 1774346040
    },
    "KABE": {
      "status": "OK",
      "delay": "—",
      "metarCat": "—",
      "metarRaw": "METAR KABE 240951Z A3035 RMK AO2 SLPNO $",
      "metarObsTime": 1774345860
    },
    "KAVP": {
      "status": "OK",
      "delay": "—",
      "metarCat": "VFR",
      "metarRaw": "METAR KAVP 240954Z 33008KT 10SM BKN041 M02/M06 A3033 RMK AO2 SLP278 T10171061",
      "metarObsTime": 1774346040
    },
    "KHZL": {
      "status": "OK",
      "delay": "—",
      "metarCat": "VFR",
      "metarRaw": "METAR KHZL 240955Z AUTO 33007KT 10SM SCT024 M02/M07 A3032 RMK AO2",
      "metarObsTime": 1774346100
    }
  }
}