{
  "generatedAt": "2026-04-16T21:50:57.550Z",
  "airports": {
    "KPIT": {
      "status": "OK",
      "delay": "—",
      "metarCat": "VFR",
      "metarRaw": "SPECI KPIT 162106Z 27013G27KT 10SM -RA BKN055 BKN100 21/15 A2983 RMK AO2 PK WND 26034/2054 WSHFT 2046 P0000 T02060150",
      "metarObsTime": 1776373560
    },
    "KAGC": {
      "status": "OK",
      "delay": "—",
      "metarCat": "VFR",
      "metarRaw": "SPECI KAGC 162132Z 28012G27KT 7SM -RA BKN075 OVC095 21/14 A2983 RMK AO2 PK WND 27039/2117 WSHFT 2112 RAB13 P0000 T02110139",
      "metarObsTime": 1776375120
    },
    "KLBE": {
      "status": "OK",
      "delay": "—",
      "metarCat": "VFR",
      "metarRaw": "METAR KLBE 162147Z 21013G21KT 10SM BKN090 BKN120 26/11 A2982",
      "metarObsTime": 1776376020
    },
    "KJST": {
      "status": "OK",
      "delay": "—",
      "metarCat": "VFR",
      "metarRaw": "METAR KJST 162054Z AUTO 23019G26KT 10SM CLR 26/07 A2984 RMK AO2 PK WND 20027/2026 WSHFT 2007 SLP091 T02560072 57021",
      "metarObsTime": 1776372840
    },
    "KERI": {
      "status": "OK",
      "delay": "—",
      "metarCat": "LIFR",
      "metarRaw": "SPECI KERI 162143Z 22005KT 4SM -RA BR OVC003 16/15 A2983 RMK AO2 RAE00B19 P0000 T01560150 $",
      "metarObsTime": 1776375780
    },
    "KDUJ": {
      "status": "OK",
      "delay": "—",
      "metarCat": "VFR",
      "metarRaw": "METAR KDUJ 162053Z AUTO 22012G21KT 10SM FEW080 26/07 A2979 RMK AO2 PK WND 22029/2017 SLP074 T02560072 58025",
      "metarObsTime": 1776372780
    },
    "KBFD": {
      "status": "OK",
      "delay": "—",
      "metarCat": "IFR",
      "metarRaw": "SPECI KBFD 162141Z AUTO 31021G36KT 1 3/4SM +RA SCT034 BKN070 OVC100 17/14 A2985 RMK AO2 PK WND 31043/2131 WSHFT 2126 RAB33 PRESRR P0005 T01670139",
      "metarObsTime": 1776375660
    },
    "KBTP": {
      "status": "OK",
      "delay": "—",
      "metarCat": "VFR",
      "metarRaw": "SPECI KBTP 162112Z AUTO 26013G25KT 9SM -RA SCT049 BKN070 OVC085 20/14 A2984 RMK AO2 WSHFT 2052 RAB2058 PRESRR PNO $",
      "metarObsTime": 1776373920
    },
    "KFKL": {
      "status": "OK",
      "delay": "—",
      "metarCat": "—",
      "metarRaw": "—",
      "metarObsTime": null
    },
    "KIDI": {
      "status": "OK",
      "delay": "—",
      "metarCat": "VFR",
      "metarRaw": "METAR KIDI 162135Z AUTO 23012G19KT 10SM BKN110 26/09 A2980 RMK A01",
      "metarObsTime": 1776375300
    },
    "KMDT": {
      "status": "OK",
      "delay": "—",
      "metarCat": "VFR",
      "metarRaw": "METAR KMDT 162056Z 21010G19KT 170V240 10SM FEW070 BKN250 31/13 A2974 RMK AO2 SLP068 T03060133 56028",
      "metarObsTime": 1776372960
    },
    "KCXY": {
      "status": "OK",
      "delay": "—",
      "metarCat": "VFR",
      "metarRaw": "METAR KCXY 162056Z 21010G20KT 10SM CLR 31/14 A2974 RMK AO2 SLP069 T03110139 56030 $",
      "metarObsTime": 1776372960
    },
    "KMUI": {
      "status": "OK",
      "delay": "—",
      "metarCat": "VFR",
      "metarRaw": "METAR KMUI 162055Z 23014KT 10SM SCT070 BKN250 32/13 A2973 RMK AO2A SLP066 T03230125 57029",
      "metarObsTime": 1776372900
    },
    "KUNV": {
      "status": "OK",
      "delay": "—",
      "metarCat": "VFR",
      "metarRaw": "METAR KUNV 162053Z 25013G18KT 10SM SCT080 29/11 A2976",
      "metarObsTime": 1776372780
    },
    "KAOO": {
      "status": "OK",
      "delay": "—",
      "metarCat": "VFR",
      "metarRaw": "METAR KAOO 162053Z AUTO 26020G25KT 10SM CLR 29/07 A2979 RMK AO2 SLP077 T02890067 56028",
      "metarObsTime": 1776372780
    },
    "KLNS": {
      "status": "OK",
      "delay": "—",
      "metarCat": "VFR",
      "metarRaw": "METAR KLNS 162053Z 19010G17KT 10SM SCT075 BKN090 29/14 A2975 RMK AO2 SLP071 T02940144 56031 $",
      "metarObsTime": 1776372780
    },
    "KIPT": {
      "status": "OK",
      "delay": "—",
      "metarCat": "VFR",
      "metarRaw": "METAR KIPT 162054Z 23008KT 10SM SCT100 32/11 A2969 RMK AO2 SLP051 T03170106 56036 $",
      "metarObsTime": 1776372840
    },
    "KPHL": {
      "status": "OK",
      "delay": "—",
      "metarCat": "VFR",
      "metarRaw": "METAR KPHL 162054Z 21013G22KT 10SM FEW070 SCT270 BKN350 33/14 A2975 RMK AO2 SLP073 T03280139 58031 $",
      "metarObsTime": 1776372840
    },
    "KABE": {
      "status": "OK",
      "delay": "—",
      "metarCat": "VFR",
      "metarRaw": "METAR KABE 162051Z 24013G20KT 10SM CLR 31/13 A2974 RMK AO2 SLP068 T03110128 56031",
      "metarObsTime": 1776372660
    },
    "KAVP": {
      "status": "OK",
      "delay": "—",
      "metarCat": "VFR",
      "metarRaw": "METAR KAVP 162054Z 23012G24KT 10SM FEW075 FEW095 31/10 A2974 RMK AO2 SLP061 T03060100 56030",
      "metarObsTime": 1776372840
    },
    "KHZL": {
      "status": "OK",
      "delay": "—",
      "metarCat": "VFR",
      "metarRaw": "METAR KHZL 162135Z AUTO 18004G18KT 10SM SCT075 SCT100 28/09 A2982 RMK AO2",
      "metarObsTime": 1776375300
    }
  }
}