{
  "generatedAt": "2026-03-11T05:00:16.552Z",
  "airports": {
    "KPIT": {
      "status": "OK",
      "delay": "—",
      "metarCat": "VFR",
      "metarRaw": "METAR KPIT 110451Z 17004KT 10SM FEW050 SCT230 14/13 A2992 RMK AO2 SLP134 T01390128 402110106",
      "metarObsTime": 1773204660
    },
    "KAGC": {
      "status": "OK",
      "delay": "—",
      "metarCat": "VFR",
      "metarRaw": "METAR KAGC 110453Z AUTO 17007KT 9SM CLR 16/13 A2992 RMK AO2 SLP130 T01560133 402060111",
      "metarObsTime": 1773204780
    },
    "KLBE": {
      "status": "OK",
      "delay": "—",
      "metarCat": "VFR",
      "metarRaw": "METAR KLBE 110455Z AUTO 00000KT 7SM FEW070 SCT080 12/12 A2995 RMK AO2",
      "metarObsTime": 1773204900
    },
    "KJST": {
      "status": "OK",
      "delay": "—",
      "metarCat": "VFR",
      "metarRaw": "METAR KJST 110454Z AUTO 20004KT 10SM FEW055 14/12 A2997 RMK AO2 SLP142 T01390122 402220128",
      "metarObsTime": 1773204840
    },
    "KERI": {
      "status": "OK",
      "delay": "—",
      "metarCat": "VFR",
      "metarRaw": "METAR KERI 110451Z AUTO 16008KT 10SM CLR 16/13 A2986 RMK AO2 SLP110 T01610133 402170144",
      "metarObsTime": 1773204660
    },
    "KDUJ": {
      "status": "OK",
      "delay": "—",
      "metarCat": "VFR",
      "metarRaw": "METAR KDUJ 110453Z AUTO VRB03KT 10SM CLR 14/12 A2994 RMK AO2 SLP134 T01440122 402060106",
      "metarObsTime": 1773204780
    },
    "KBFD": {
      "status": "OK",
      "delay": "—",
      "metarCat": "MVFR",
      "metarRaw": "METAR KBFD 110453Z AUTO 16003KT 4SM BR CLR 12/11 A2994 RMK AO2 SLP133 T01170111 402110106",
      "metarObsTime": 1773204780
    },
    "KBTP": {
      "status": "OK",
      "delay": "—",
      "metarCat": "VFR",
      "metarRaw": "METAR KBTP 110456Z AUTO 14006KT 10SM CLR 15/15 A2992 RMK AO2 SLP134 T01500150 $",
      "metarObsTime": 1773204960
    },
    "KFKL": {
      "status": "OK",
      "delay": "—",
      "metarCat": "VFR",
      "metarRaw": "METAR KFKL 110456Z AUTO 15006KT 10SM CLR 14/13 A2992 RMK AO2 SLP129 T01440128 402170122",
      "metarObsTime": 1773204960
    },
    "KIDI": {
      "status": "OK",
      "delay": "—",
      "metarCat": "—",
      "metarRaw": "—",
      "metarObsTime": null
    },
    "KMDT": {
      "status": "OK",
      "delay": "—",
      "metarCat": "VFR",
      "metarRaw": "METAR KMDT 110456Z 12005KT 10SM CLR 14/07 A2994 RMK AO2 SLP140 T01390067 403170028",
      "metarObsTime": 1773204960
    },
    "KCXY": {
      "status": "OK",
      "delay": "—",
      "metarCat": "VFR",
      "metarRaw": "METAR KCXY 110456Z AUTO 00000KT 10SM CLR 14/09 A2995 RMK AO2 SLP141 T01390094 402780033",
      "metarObsTime": 1773204960
    },
    "KMUI": {
      "status": "OK",
      "delay": "—",
      "metarCat": "VFR",
      "metarRaw": "METAR KMUI 110455Z AUTO 00000KT 10SM CLR 13/11 A2994 RMK AO2 SLP140 T01300107 402760030",
      "metarObsTime": 1773204900
    },
    "KUNV": {
      "status": "OK",
      "delay": "—",
      "metarCat": "VFR",
      "metarRaw": "METAR KUNV 110455Z AUTO 00000KT 10SM SCT050 SCT065 14/12 A2996 RMK AO2 T01440115",
      "metarObsTime": 1773204900
    },
    "KAOO": {
      "status": "OK",
      "delay": "—",
      "metarCat": "—",
      "metarRaw": "—",
      "metarObsTime": null
    },
    "KLNS": {
      "status": "OK",
      "delay": "—",
      "metarCat": "VFR",
      "metarRaw": "METAR KLNS 110453Z AUTO 00000KT 10SM CLR 15/08 A2997 RMK AO2 SLP145 T01500078 402720044",
      "metarObsTime": 1773204780
    },
    "KIPT": {
      "status": "OK",
      "delay": "—",
      "metarCat": "VFR",
      "metarRaw": "METAR KIPT 110454Z AUTO 00000KT 10SM FEW070 11/11 A2994 RMK AO2 SLP139 T01110106 402500011 $",
      "metarObsTime": 1773204840
    },
    "KPHL": {
      "status": "OK",
      "delay": "—",
      "metarCat": "VFR",
      "metarRaw": "METAR KPHL 110454Z 17004KT 10SM SCT090 13/05 A2999 RMK AO2 SLP154 T01330050 402830044 $",
      "metarObsTime": 1773204840
    },
    "KABE": {
      "status": "OK",
      "delay": "—",
      "metarCat": "VFR",
      "metarRaw": "METAR KABE 110451Z 00000KT 10SM FEW075 12/09 A2997 RMK AO2 SLP146 T01170089 402670022 $",
      "metarObsTime": 1773204660
    },
    "KAVP": {
      "status": "OK",
      "delay": "—",
      "metarCat": "VFR",
      "metarRaw": "METAR KAVP 110454Z 00000KT 10SM CLR 13/09 A2997 RMK AO2 SLP142 T01330089 402440044",
      "metarObsTime": 1773204840
    },
    "KHZL": {
      "status": "OK",
      "delay": "—",
      "metarCat": "VFR",
      "metarRaw": "METAR KHZL 110455Z AUTO 00000KT 10SM CLR 13/06 A3002 RMK AO2",
      "metarObsTime": 1773204900
    }
  }
}