{
  "generatedAt": "2026-03-12T01:00:21.895Z",
  "airports": {
    "KPIT": {
      "status": "OK",
      "delay": "—",
      "metarCat": "VFR",
      "metarRaw": "METAR KPIT 120051Z 24011G22KT 6SM -RA BR BKN048 BKN060 OVC090 17/14 A2967 RMK AO2 SLP049 P0007 T01670144 $",
      "metarObsTime": 1773276660
    },
    "KAGC": {
      "status": "OK",
      "delay": "—",
      "metarCat": "IFR",
      "metarRaw": "METAR KAGC 120053Z 25013G21KT 2 1/2SM RA BR FEW043 SCT065 OVC080 16/14 A2968 RMK AO2 PK WND 28029/0001 WSHFT 0000 LTG DSNT S SLP053 P0022 T01610144",
      "metarObsTime": 1773276780
    },
    "KLBE": {
      "status": "OK",
      "delay": "—",
      "metarCat": "MVFR",
      "metarRaw": "METAR KLBE 120047Z 26010KT 5SM VCTS -RA BR FEW001 BKN014 OVC020 17/17 A2972 RMK LTG DSNT S AND SW",
      "metarObsTime": 1773276420
    },
    "KJST": {
      "status": "OK",
      "delay": "—",
      "metarCat": "MVFR",
      "metarRaw": "METAR KJST 120054Z AUTO 25009G14KT 10SM -RA SCT012 BKN020 OVC050 14/14 A2971 RMK AO2 RAE2359B54 TSE2355 SLP056 P0000 T01440139",
      "metarObsTime": 1773276840
    },
    "KERI": {
      "status": "OK",
      "delay": "—",
      "metarCat": "LIFR",
      "metarRaw": "METAR KERI 120051Z 26014G25KT 2 1/2SM -RA BR OVC003 06/06 A2966 RMK AO2 PK WND 25031/2355 PRESRR SLP044 P0001 T00610061",
      "metarObsTime": 1773276660
    },
    "KDUJ": {
      "status": "OK",
      "delay": "—",
      "metarCat": "VFR",
      "metarRaw": "METAR KDUJ 120053Z AUTO 22009KT 10SM -RA SCT011 BKN035 OVC095 15/14 A2963 RMK AO2 SLP029 P0002 T01500144",
      "metarObsTime": 1773276780
    },
    "KBFD": {
      "status": "OK",
      "delay": "—",
      "metarCat": "VFR",
      "metarRaw": "METAR KBFD 120053Z AUTO 21010KT 10SM FEW060 BKN075 OVC100 14/13 A2960 RMK AO2 RAE22 SLP015 P0001 T01440133",
      "metarObsTime": 1773276780
    },
    "KBTP": {
      "status": "OK",
      "delay": "—",
      "metarCat": "VFR",
      "metarRaw": "METAR KBTP 120056Z AUTO 20012G19KT 8SM -RA SCT065 OVC075 16/ A2966 RMK AO2 SLP046 P0005 T0156 $",
      "metarObsTime": 1773276960
    },
    "KFKL": {
      "status": "OK",
      "delay": "—",
      "metarCat": "IFR",
      "metarRaw": "METAR KFKL 120056Z AUTO 23012KT 10SM BKN009 OVC013 A2962 RMK AO2 RAE36 CIG 007V012 SLPNO P0001 FZRANO $",
      "metarObsTime": 1773276960
    },
    "KIDI": {
      "status": "OK",
      "delay": "—",
      "metarCat": "—",
      "metarRaw": "—",
      "metarObsTime": null
    },
    "KMDT": {
      "status": "OK",
      "delay": "—",
      "metarCat": "VFR",
      "metarRaw": "METAR KMDT 120056Z 00000KT 10SM SCT100 BKN150 15/15 A2966 RMK AO2 SLP045 T01500150",
      "metarObsTime": 1773276960
    },
    "KCXY": {
      "status": "OK",
      "delay": "—",
      "metarCat": "VFR",
      "metarRaw": "METAR KCXY 120056Z 10003KT 10SM FEW095 17/16 A2967 RMK AO2 SLP047 T01720156",
      "metarObsTime": 1773276960
    },
    "KMUI": {
      "status": "OK",
      "delay": "—",
      "metarCat": "VFR",
      "metarRaw": "METAR KMUI 112355Z 00000KT 10SM FEW006 FEW023 SCT070 BKN130 BKN200 18/18 A2967 RMK AO2A LTG DSNT E-SE RAE55 TSE20B27E50 SLPNO 60041 T01820179 10228 20177 55000",
      "metarObsTime": 1773273300
    },
    "KUNV": {
      "status": "OK",
      "delay": "—",
      "metarCat": "VFR",
      "metarRaw": "METAR KUNV 120053Z 20006KT 10SM VCTS BKN110 16/16 A2968",
      "metarObsTime": 1773276780
    },
    "KAOO": {
      "status": "OK",
      "delay": "—",
      "metarCat": "VFR",
      "metarRaw": "METAR KAOO 120053Z AUTO 36005KT 10SM BKN100 14/14 A2970 RMK AO2 PK WND 34027/0009 RAB07E33 TSB20E38 SLPNO P0010 T01440139",
      "metarObsTime": 1773276780
    },
    "KLNS": {
      "status": "OK",
      "delay": "—",
      "metarCat": "VFR",
      "metarRaw": "METAR KLNS 120053Z 11004KT 10SM CLR 16/16 A2968 RMK AO2 RAE2355 TSE2358 SLP049 P0000 T01610156",
      "metarObsTime": 1773276780
    },
    "KIPT": {
      "status": "OK",
      "delay": "—",
      "metarCat": "VFR",
      "metarRaw": "METAR KIPT 120054Z 00000KT 8SM -RA FEW046 FEW075 OVC100 18/16 A2964 RMK AO2 RAB21 SLP037 P0009 T01780156 $",
      "metarObsTime": 1773276840
    },
    "KPHL": {
      "status": "OK",
      "delay": "—",
      "metarCat": "VFR",
      "metarRaw": "METAR KPHL 120054Z 21013G26KT 7SM -TSRA FEW035CB SCT070 OVC110 22/16 A2972 RMK AO2 PK WND 20026/0054 RAB29 TSB42 SLP062 FRQ LTGICCCCG OHD TS OHD MOV E P0000 T02170161 $",
      "metarObsTime": 1773276840
    },
    "KABE": {
      "status": "OK",
      "delay": "—",
      "metarCat": "VFR",
      "metarRaw": "METAR KABE 120051Z 21005KT 10SM -RA BKN043 18/17 A2970 RMK AO2 LTG DSNT SE SLP056 P0039 T01830167 $",
      "metarObsTime": 1773276660
    },
    "KAVP": {
      "status": "OK",
      "delay": "—",
      "metarCat": "VFR",
      "metarRaw": "METAR KAVP 120054Z 22004KT 10SM SCT055 SCT070 BKN085 18/15 A2968 RMK AO2 PK WND 22028/2359 RAE24 SLP047 P0007 T01780150",
      "metarObsTime": 1773276840
    },
    "KHZL": {
      "status": "OK",
      "delay": "—",
      "metarCat": "VFR",
      "metarRaw": "METAR KHZL 120035Z AUTO 17004KT 10SM -DZ SCT014 SCT033 SCT120 17/15 A2973 RMK AO2 LTG DSNT S",
      "metarObsTime": 1773275700
    }
  }
}