{
  "generatedAt": "2026-03-21T03:30:20.088Z",
  "airports": {
    "KPIT": {
      "status": "OK",
      "delay": "—",
      "metarCat": "VFR",
      "metarRaw": "METAR KPIT 210251Z 00000KT 10SM FEW060 SCT075 12/09 A2976 RMK AO2 RAE18 TSE18 SLP083 OCNL LTG DSNT SE-S P0000 60000 T01170089 50003 $",
      "metarObsTime": 1774061460
    },
    "KAGC": {
      "status": "OK",
      "delay": "—",
      "metarCat": "VFR",
      "metarRaw": "METAR KAGC 210253Z 00000KT 10SM FEW055 SCT075 BKN090 13/09 A2975 RMK AO2 LTG DSNT E AND SW AND W RAB02E18 SLP078 P0006 60007 T01280094 52001",
      "metarObsTime": 1774061580
    },
    "KLBE": {
      "status": "OK",
      "delay": "—",
      "metarCat": "VFR",
      "metarRaw": "METAR KLBE 210315Z AUTO 15005KT 10SM BKN050 BKN065 BKN090 11/11 A2978 RMK AO2 LTG DSNT ALQDS",
      "metarObsTime": 1774062900
    },
    "KJST": {
      "status": "OK",
      "delay": "—",
      "metarCat": "VFR",
      "metarRaw": "METAR KJST 210254Z AUTO 24007KT 10SM SCT041 BKN060 11/08 A2976 RMK AO2 LTG DSNT S-W RAE12 SLP076 P0001 60002 T01110078 58002",
      "metarObsTime": 1774061640
    },
    "KERI": {
      "status": "OK",
      "delay": "—",
      "metarCat": "IFR",
      "metarRaw": "SPECI KERI 210305Z 04005KT 4SM BR BKN006 OVC010 05/04 A2985 RMK AO2 T00500039",
      "metarObsTime": 1774062300
    },
    "KDUJ": {
      "status": "OK",
      "delay": "—",
      "metarCat": "VFR",
      "metarRaw": "METAR KDUJ 210253Z AUTO 30007KT 10SM CLR 09/08 A2976 RMK AO2 SLP079 T00940078 51007",
      "metarObsTime": 1774061580
    },
    "KBFD": {
      "status": "OK",
      "delay": "—",
      "metarCat": "IFR",
      "metarRaw": "METAR KBFD 210253Z AUTO 33009KT 5SM BR BKN008 OVC014 07/06 A2977 RMK AO2 CIG 006V012 SLP085 T00720061 53010",
      "metarObsTime": 1774061580
    },
    "KBTP": {
      "status": "OK",
      "delay": "—",
      "metarCat": "VFR",
      "metarRaw": "METAR KBTP 210256Z AUTO 03003KT 10SM CLR 09/09 A2977 RMK AO2 SLP088 T00890089 51004 $",
      "metarObsTime": 1774061760
    },
    "KFKL": {
      "status": "OK",
      "delay": "—",
      "metarCat": "VFR",
      "metarRaw": "METAR KFKL 210256Z AUTO VRB05KT 6SM BR FEW047 08/07 A2981 RMK AO2 SLP098 T00780067 51019",
      "metarObsTime": 1774061760
    },
    "KIDI": {
      "status": "OK",
      "delay": "—",
      "metarCat": "VFR",
      "metarRaw": "METAR KIDI 210315Z AUTO 00000KT 9SM BKN046 BKN060 09/09 A2977 RMK A01",
      "metarObsTime": 1774062900
    },
    "KMDT": {
      "status": "OK",
      "delay": "—",
      "metarCat": "VFR",
      "metarRaw": "METAR KMDT 210256Z 29003KT 10SM OVC060 12/10 A2977 RMK AO2 RAE0157 SLP081 P0000 60007 T01220100 55004",
      "metarObsTime": 1774061760
    },
    "KCXY": {
      "status": "OK",
      "delay": "—",
      "metarCat": "VFR",
      "metarRaw": "METAR KCXY 210256Z AUTO 35003KT 10SM SCT060 BKN070 OVC090 12/11 A2977 RMK AO2 RAB34E44 SLP084 P0000 60006 T01170106 55005",
      "metarObsTime": 1774061760
    },
    "KMUI": {
      "status": "OK",
      "delay": "—",
      "metarCat": "LIFR",
      "metarRaw": "SPECI KMUI 210303Z AUTO 00000KT 3/8SM FG BKN055 OVC100 12/12 A2975 RMK AO2 LTG DSNT NE SLP078 RVRNO",
      "metarObsTime": 1774062180
    },
    "KUNV": {
      "status": "OK",
      "delay": "—",
      "metarCat": "VFR",
      "metarRaw": "METAR KUNV 210315Z AUTO 00000KT 7SM CLR 10/10 A2976 RMK AO2 T00960096",
      "metarObsTime": 1774062900
    },
    "KAOO": {
      "status": "OK",
      "delay": "—",
      "metarCat": "VFR",
      "metarRaw": "METAR KAOO 210253Z AUTO 00000KT 10SM CLR 08/06 A2977 RMK AO2 SLP080 60000 T00830061 55000",
      "metarObsTime": 1774061580
    },
    "KLNS": {
      "status": "OK",
      "delay": "—",
      "metarCat": "IFR",
      "metarRaw": "SPECI KLNS 210314Z AUTO 35004KT 2 1/2SM BR SCT050 BKN070 09/09 A2978 RMK AO2 RAE02 P0000 T00940094",
      "metarObsTime": 1774062840
    },
    "KIPT": {
      "status": "OK",
      "delay": "—",
      "metarCat": "LIFR",
      "metarRaw": "SPECI KIPT 210323Z AUTO 00000KT 1/2SM FG FEW003 OVC065 07/07 A2976 RMK AO2 T00670067 $",
      "metarObsTime": 1774063380
    },
    "KPHL": {
      "status": "OK",
      "delay": "—",
      "metarCat": "VFR",
      "metarRaw": "METAR KPHL 210254Z 21007KT 10SM -RA OVC075 12/09 A2980 RMK AO2 SLP092 P0002 60009 T01170094 58003 $",
      "metarObsTime": 1774061640
    },
    "KABE": {
      "status": "OK",
      "delay": "—",
      "metarCat": "MVFR",
      "metarRaw": "SPECI KABE 210314Z 24003KT 4SM -RA BR SCT015 BKN036 OVC070 09/09 A2978 RMK AO2 RAB14 P0000 T00890089 $",
      "metarObsTime": 1774062840
    },
    "KAVP": {
      "status": "OK",
      "delay": "—",
      "metarCat": "VFR",
      "metarRaw": "SPECI KAVP 210301Z 22004KT 6SM BR SCT007 OVC038 10/09 A2976 RMK AO2 T01000094",
      "metarObsTime": 1774062060
    },
    "KHZL": {
      "status": "OK",
      "delay": "—",
      "metarCat": "MVFR",
      "metarRaw": "METAR KHZL 210315Z AUTO 00000KT 7SM -DZ SCT003 BKN020 OVC032 10/09 A2980 RMK AO2",
      "metarObsTime": 1774062900
    }
  }
}