{
  "generatedAt": "2026-03-12T12:00:14.139Z",
  "airports": {
    "KPIT": {
      "status": "OK",
      "delay": "—",
      "metarCat": "MVFR",
      "metarRaw": "METAR KPIT 121151Z 31010KT 10SM OVC023 01/M04 A3002 RMK AO2 SLP175 60000 70129 T00061039 10044 20006 53022 $",
      "metarObsTime": 1773316260
    },
    "KAGC": {
      "status": "OK",
      "delay": "—",
      "metarCat": "MVFR",
      "metarRaw": "METAR KAGC 121153Z 32012G21KT 10SM OVC027 00/M04 A3000 RMK AO2 SLP166 60004 70123 T00001039 10050 20000 53024",
      "metarObsTime": 1773316380
    },
    "KLBE": {
      "status": "OK",
      "delay": "—",
      "metarCat": "MVFR",
      "metarRaw": "METAR KLBE 121147Z 30012KT 10SM OVC020 01/M02 A3001",
      "metarObsTime": 1773316020
    },
    "KJST": {
      "status": "OK",
      "delay": "—",
      "metarCat": "MVFR",
      "metarRaw": "METAR KJST 121154Z AUTO 29016G27KT 10SM OVC013 M02/M04 A2990 RMK AO2 PK WND 31034/1129 UPB25E28SNE25 PRESRR SLP137 P0000 60004 70152 T10221039 10056 21028 53022",
      "metarObsTime": 1773316440
    },
    "KERI": {
      "status": "OK",
      "delay": "—",
      "metarCat": "MVFR",
      "metarRaw": "METAR KERI 121151Z 30012G19KT 10SM FEW021 OVC030 00/M06 A3002 RMK AO2 SLP169 70091 T00001056 10006 20000 53018",
      "metarObsTime": 1773316260
    },
    "KDUJ": {
      "status": "OK",
      "delay": "—",
      "metarCat": "MVFR",
      "metarRaw": "METAR KDUJ 121153Z AUTO 31013G22KT 10SM OVC019 M02/M06 A2991 RMK AO2 PK WND 29026/1130 SLP136 60001 70060 T10221056 10028 21022 53023",
      "metarObsTime": 1773316380
    },
    "KBFD": {
      "status": "OK",
      "delay": "—",
      "metarCat": "MVFR",
      "metarRaw": "METAR KBFD 121153Z AUTO 30012G23KT 10SM BKN014 OVC020 M03/M06 A2987 RMK AO2 PK WND 28027/1120 SLP122 60000 70041 T10281056 10006 21033 51020",
      "metarObsTime": 1773316380
    },
    "KBTP": {
      "status": "OK",
      "delay": "—",
      "metarCat": "MVFR",
      "metarRaw": "METAR KBTP 121156Z AUTO 31010KT 10SM BKN028 OVC034 M01/M03 A3001 RMK AO2 SLP174 60001 70075 T10061028 10033 21011 53017 FZRANO $",
      "metarObsTime": 1773316560
    },
    "KFKL": {
      "status": "OK",
      "delay": "—",
      "metarCat": "MVFR",
      "metarRaw": "METAR KFKL 121156Z AUTO 30006KT 10SM OVC026 A2999 RMK AO2 SLPNO 60001 70040 53023 FZRANO $",
      "metarObsTime": 1773316560
    },
    "KIDI": {
      "status": "OK",
      "delay": "—",
      "metarCat": "—",
      "metarRaw": "—",
      "metarObsTime": null
    },
    "KMDT": {
      "status": "OK",
      "delay": "—",
      "metarCat": "VFR",
      "metarRaw": "METAR KMDT 121156Z 31013G21KT 10SM -RA SCT023 BKN075 OVC095 06/04 A2982 RMK AO2 PK WND 32028/1058 SLP097 P0006 60011 70131 T00560039 10161 20056 51061 $",
      "metarObsTime": 1773316560
    },
    "KCXY": {
      "status": "OK",
      "delay": "—",
      "metarCat": "VFR",
      "metarRaw": "METAR KCXY 121156Z 29012G23KT 7SM -RA BKN075 OVC095 06/02 A2982 RMK AO2 SLP101 P0009 60023 70132 T00560022 10161 20056 51055",
      "metarObsTime": 1773316560
    },
    "KMUI": {
      "status": "OK",
      "delay": "—",
      "metarCat": "MVFR",
      "metarRaw": "METAR KMUI 121155Z 30012G22KT 260V360 10SM -RA BKN026 OVC075 06/03 A2978 RMK AO2A SLP088 60014 70082 T00610034 10180 20061 52057",
      "metarObsTime": 1773316500
    },
    "KUNV": {
      "status": "OK",
      "delay": "—",
      "metarCat": "MVFR",
      "metarRaw": "METAR KUNV 121153Z 32011G20KT 10SM BKN023 OVC110 01/M04 A2989",
      "metarObsTime": 1773316380
    },
    "KAOO": {
      "status": "OK",
      "delay": "—",
      "metarCat": "MVFR",
      "metarRaw": "METAR KAOO 121153Z AUTO 31016G25KT 6SM HZ BKN022 OVC100 01/M02 A2991 RMK AO2 PK WND 31026/1106 PRESRR SLP133 60000 7//// T00061022 10117 20006 53034",
      "metarObsTime": 1773316380
    },
    "KLNS": {
      "status": "OK",
      "delay": "—",
      "metarCat": "MVFR",
      "metarRaw": "METAR KLNS 121153Z 32018G26KT 10SM -RA SCT018 BKN026 OVC070 06/03 A2978 RMK AO2 PK WND 29029/1122 SLP083 P0008 60015 70039 T00560033 10161 20056 51066",
      "metarObsTime": 1773316380
    },
    "KIPT": {
      "status": "OK",
      "delay": "—",
      "metarCat": "VFR",
      "metarRaw": "METAR KIPT 121154Z 29009KT 10SM BKN041 BKN048 OVC110 04/M02 A2985 RMK AO2 PK WND 31026/1057 PRESRR SLP108 60000 70028 T00441022 10178 20044 51050 $",
      "metarObsTime": 1773316440
    },
    "KPHL": {
      "status": "OK",
      "delay": "—",
      "metarCat": "MVFR",
      "metarRaw": "METAR KPHL 121154Z 31022G38KT 10SM BKN025 BKN040 OVC200 14/07 A2970 RMK AO2 PK WND 31038/1149 PRESRR SLP057 CIG 023V028 70002 T01390067 10206 20139 53052 $",
      "metarObsTime": 1773316440
    },
    "KABE": {
      "status": "OK",
      "delay": "—",
      "metarCat": "MVFR",
      "metarRaw": "METAR KABE 121151Z 30012G22KT 9SM -RA BKN023 BKN029 OVC060 08/06 A2971 RMK AO2 PK WND 29029/1103 PRESRR SLP061 P0005 60010 70106 T00830056 10167 20083 53058 $",
      "metarObsTime": 1773316260
    },
    "KAVP": {
      "status": "OK",
      "delay": "—",
      "metarCat": "VFR",
      "metarRaw": "METAR KAVP 121154Z 32018G29KT 10SM -RA FEW021 BKN055 OVC075 03/M01 A2978 RMK AO2 PK WND 33029/1145 SLP083 P0001 60007 70074 T00331011 10167 20033 51057",
      "metarObsTime": 1773316440
    },
    "KHZL": {
      "status": "OK",
      "delay": "—",
      "metarCat": "IFR",
      "metarRaw": "METAR KHZL 121155Z AUTO 31008G16KT 260V330 10SM -RA OVC009 02/01 RMK AO2 P0003",
      "metarObsTime": 1773316500
    }
  }
}