{
  "generatedAt": "2026-03-23T23:40:18.213Z",
  "airports": {
    "KPIT": {
      "status": "OK",
      "delay": "—",
      "metarCat": "VFR",
      "metarRaw": "SPECI KPIT 232317Z 33011G20KT 10SM SCT028 BKN040 01/M05 A3030 RMK AO2 SNE16 P0000 T00111050",
      "metarObsTime": 1774307820
    },
    "KAGC": {
      "status": "OK",
      "delay": "—",
      "metarCat": "VFR",
      "metarRaw": "METAR KAGC 232253Z 33005KT 10SM OVC050 01/M06 A3028 RMK AO2 SLP268 T00111056",
      "metarObsTime": 1774306380
    },
    "KLBE": {
      "status": "OK",
      "delay": "—",
      "metarCat": "VFR",
      "metarRaw": "METAR KLBE 232247Z 29012G25KT 9SM BKN035 OVC042 02/M05 A3029",
      "metarObsTime": 1774306020
    },
    "KJST": {
      "status": "OK",
      "delay": "—",
      "metarCat": "MVFR",
      "metarRaw": "METAR KJST 232254Z AUTO 30018G26KT 6SM -SN FEW019 OVC028 M01/M04 A3016 RMK AO2 PK WND 29030/2219 UPB33E36B49E50SNE00B36E49B50 SLP230 P0000 T10111044",
      "metarObsTime": 1774306440
    },
    "KERI": {
      "status": "OK",
      "delay": "—",
      "metarCat": "VFR",
      "metarRaw": "METAR KERI 232251Z 30013G22KT 10SM BKN060 00/M06 A3032 RMK AO2 SLP277 T00001061",
      "metarObsTime": 1774306260
    },
    "KDUJ": {
      "status": "OK",
      "delay": "—",
      "metarCat": "MVFR",
      "metarRaw": "METAR KDUJ 232253Z AUTO 30011G24KT 10SM OVC019 M01/M05 A3018 RMK AO2 PK WND 29028/2226 SLP236 T10111050",
      "metarObsTime": 1774306380
    },
    "KBFD": {
      "status": "OK",
      "delay": "—",
      "metarCat": "MVFR",
      "metarRaw": "SPECI KBFD 232312Z AUTO 30015G23KT 4SM -SN BKN016 OVC022 M02/M05 A3018 RMK AO2 P0001 T10221050",
      "metarObsTime": 1774307520
    },
    "KBTP": {
      "status": "OK",
      "delay": "—",
      "metarCat": "VFR",
      "metarRaw": "METAR KBTP 232256Z AUTO 33010KT 10SM -SN BKN036 OVC044 01/M06 A3030 RMK AO2 UPB15E17RAB44E53SNE15B53 SLP278 P0000 T00061056 FZRANO $",
      "metarObsTime": 1774306560
    },
    "KFKL": {
      "status": "OK",
      "delay": "—",
      "metarCat": "VFR",
      "metarRaw": "METAR KFKL 232256Z AUTO 32008KT 300V010 10SM BKN040 OVC048 M01/M07 A3027 RMK AO2 UPB01E13 SLP269 P0000 T10061072 FZRANO",
      "metarObsTime": 1774306560
    },
    "KIDI": {
      "status": "OK",
      "delay": "—",
      "metarCat": "VFR",
      "metarRaw": "METAR KIDI 232335Z AUTO 30009G15KT 10SM SCT033 OVC046 00/M05 A3027 RMK A01",
      "metarObsTime": 1774308900
    },
    "KMDT": {
      "status": "OK",
      "delay": "—",
      "metarCat": "VFR",
      "metarRaw": "METAR KMDT 232256Z 36010G19KT 10SM BKN070 06/M05 A3015 RMK AO2 SLP213 T00561050",
      "metarObsTime": 1774306560
    },
    "KCXY": {
      "status": "OK",
      "delay": "—",
      "metarCat": "VFR",
      "metarRaw": "METAR KCXY 232256Z 34010G19KT 10SM OVC070 06/M05 A3016 RMK AO2 SLP216 T00561050",
      "metarObsTime": 1774306560
    },
    "KMUI": {
      "status": "OK",
      "delay": "—",
      "metarCat": "—",
      "metarRaw": "—",
      "metarObsTime": null
    },
    "KUNV": {
      "status": "OK",
      "delay": "—",
      "metarCat": "VFR",
      "metarRaw": "METAR KUNV 232253Z 32008KT 10SM BKN060 03/M04 A3015",
      "metarObsTime": 1774306380
    },
    "KAOO": {
      "status": "OK",
      "delay": "—",
      "metarCat": "VFR",
      "metarRaw": "METAR KAOO 232253Z AUTO 31016G28KT 10SM FEW028 SCT038 OVC050 02/M04 A3016 RMK AO2 PK WND 31028/2251 SNB01E19 SLP219 P0000 T00221039",
      "metarObsTime": 1774306380
    },
    "KLNS": {
      "status": "OK",
      "delay": "—",
      "metarCat": "VFR",
      "metarRaw": "METAR KLNS 232253Z COR 35010KT 10SM SCT047 BKN055 04/M03 A3015 RMK AO2 PK WND 33027/2154 SLP213 T00391028",
      "metarObsTime": 1774306380
    },
    "KIPT": {
      "status": "OK",
      "delay": "—",
      "metarCat": "VFR",
      "metarRaw": "METAR KIPT 232254Z 33008KT 10SM OVC065 03/M06 A3016 RMK AO2 SLP218 T00331056",
      "metarObsTime": 1774306440
    },
    "KPHL": {
      "status": "OK",
      "delay": "—",
      "metarCat": "VFR",
      "metarRaw": "METAR KPHL 232254Z 31019G28KT 10SM BKN035 06/M03 A3012 RMK AO2 PK WND 33033/2205 SLP199 T00611028",
      "metarObsTime": 1774306440
    },
    "KABE": {
      "status": "OK",
      "delay": "—",
      "metarCat": "VFR",
      "metarRaw": "METAR KABE 232251Z 32010G17KT 10SM OVC039 03/M04 A3013 RMK AO2 PK WND 33031/2205 SLP205 T00281044 $",
      "metarObsTime": 1774306260
    },
    "KAVP": {
      "status": "OK",
      "delay": "—",
      "metarCat": "VFR",
      "metarRaw": "METAR KAVP 232254Z 35007KT 10SM OVC034 01/M05 A3013 RMK AO2 SLP208 T00061050",
      "metarObsTime": 1774306440
    },
    "KHZL": {
      "status": "OK",
      "delay": "—",
      "metarCat": "VFR",
      "metarRaw": "METAR KHZL 232335Z AUTO 32009G16KT 10SM OVC033 00/M06 A3015 RMK AO2",
      "metarObsTime": 1774308900
    }
  }
}