{
  "generatedAt": "2026-04-15T01:20:48.629Z",
  "airports": {
    "KPIT": {
      "status": "OK",
      "delay": "—",
      "metarCat": "VFR",
      "metarRaw": "METAR KPIT 150051Z 15003KT 10SM FEW060 BKN250 18/18 A2995 RMK AO2 SLP144 T01830178 $",
      "metarObsTime": 1776214260
    },
    "KAGC": {
      "status": "OK",
      "delay": "—",
      "metarCat": "LIFR",
      "metarRaw": "SPECI KAGC 150117Z 16006KT 1SM R28/2800VP6000FT BR VV001 17/17 A2996 RMK AO2 T01720172",
      "metarObsTime": 1776215820
    },
    "KLBE": {
      "status": "OK",
      "delay": "—",
      "metarCat": "VFR",
      "metarRaw": "METAR KLBE 150055Z 00000KT 6SM BR SCT050 17/17 A2999",
      "metarObsTime": 1776214500
    },
    "KJST": {
      "status": "OK",
      "delay": "—",
      "metarCat": "VFR",
      "metarRaw": "METAR KJST 150054Z AUTO 16005KT 10SM CLR 14/14 A3001 RMK AO2 SLP157 T01440139",
      "metarObsTime": 1776214440
    },
    "KERI": {
      "status": "OK",
      "delay": "—",
      "metarCat": "VFR",
      "metarRaw": "METAR KERI 150051Z 00000KT 10SM CLR 15/12 A2990 RMK AO2 SLP124 T01500122 $",
      "metarObsTime": 1776214260
    },
    "KDUJ": {
      "status": "OK",
      "delay": "—",
      "metarCat": "VFR",
      "metarRaw": "METAR KDUJ 150053Z AUTO 21003KT 10SM FEW047 16/14 A2997 RMK AO2 SLP141 T01610139",
      "metarObsTime": 1776214380
    },
    "KBFD": {
      "status": "OK",
      "delay": "—",
      "metarCat": "VFR",
      "metarRaw": "SPECI KBFD 150115Z AUTO 19004KT 10SM SCT024 14/14 A2996 RMK AO2 T01440139",
      "metarObsTime": 1776215700
    },
    "KBTP": {
      "status": "OK",
      "delay": "—",
      "metarCat": "VFR",
      "metarRaw": "METAR KBTP 150056Z AUTO 14004KT 10SM SCT065 18/ A2997 RMK AO2 SLP147 T0178 PNO $",
      "metarObsTime": 1776214560
    },
    "KFKL": {
      "status": "OK",
      "delay": "—",
      "metarCat": "VFR",
      "metarRaw": "METAR KFKL 150056Z AUTO 19004KT 10SM CLR 18/13 A2996 RMK AO2 SLP141 T01780133",
      "metarObsTime": 1776214560
    },
    "KIDI": {
      "status": "OK",
      "delay": "—",
      "metarCat": "MVFR",
      "metarRaw": "METAR KIDI 150115Z AUTO 00000KT 3SM BR FEW029 BKN038 OVC055 15/15 A2999 RMK A01",
      "metarObsTime": 1776215700
    },
    "KMDT": {
      "status": "OK",
      "delay": "—",
      "metarCat": "VFR",
      "metarRaw": "METAR KMDT 150056Z 25012KT 10SM -RA BKN085 OVC110 22/16 A2993 RMK AO2 LTG DSNT S AND SW RAB34 PRESRR SLP136 P0000 T02170156",
      "metarObsTime": 1776214560
    },
    "KCXY": {
      "status": "OK",
      "delay": "—",
      "metarCat": "VFR",
      "metarRaw": "METAR KCXY 150056Z 27008KT 10SM -RA OVC100 22/16 A2994 RMK AO2 LTG DSNT S AND SW RAB31 SLP139 P0001 T02220156",
      "metarObsTime": 1776214560
    },
    "KMUI": {
      "status": "OK",
      "delay": "—",
      "metarCat": "VFR",
      "metarRaw": "METAR KMUI 150056Z 22009KT 10SM -RA SCT050 OVC100 25/16 A2990 RMK AO2A LTG DSNT SW RAB41 PRESRR SLP125 T02530161",
      "metarObsTime": 1776214560
    },
    "KUNV": {
      "status": "OK",
      "delay": "—",
      "metarCat": "VFR",
      "metarRaw": "METAR KUNV 150053Z 26004KT 10SM SCT065 20/15 A2997 RMK LTG DSNT E",
      "metarObsTime": 1776214380
    },
    "KAOO": {
      "status": "OK",
      "delay": "—",
      "metarCat": "VFR",
      "metarRaw": "METAR KAOO 150053Z AUTO 22007KT 10SM CLR 16/14 A3000 RMK AO2 RAE2355 SLP151 P0000 T01610144",
      "metarObsTime": 1776214380
    },
    "KLNS": {
      "status": "OK",
      "delay": "—",
      "metarCat": "VFR",
      "metarRaw": "METAR KLNS 150053Z 24005KT 10SM SCT075 BKN095 23/14 A2992 RMK AO2 SLP128 T02280139",
      "metarObsTime": 1776214380
    },
    "KIPT": {
      "status": "OK",
      "delay": "—",
      "metarCat": "MVFR",
      "metarRaw": "METAR KIPT 150054Z 26009G18KT 5SM VCTS -RA BR FEW022 BKN060 OVC100 19/17 A2994 RMK AO2 WSHFT 2359 LTG DSNT S AND SW RAB10 SLP138 P0005 T01890167 $",
      "metarObsTime": 1776214440
    },
    "KPHL": {
      "status": "OK",
      "delay": "—",
      "metarCat": "VFR",
      "metarRaw": "METAR KPHL 150054Z 23013G24KT 10SM FEW040 SCT080 BKN160 BKN260 27/12 A2989 RMK AO2 SLP120 T02720122 $",
      "metarObsTime": 1776214440
    },
    "KABE": {
      "status": "OK",
      "delay": "—",
      "metarCat": "VFR",
      "metarRaw": "METAR KABE 150051Z 23011KT 10SM SCT075 BKN090 26/13 A2988 RMK AO2 SLP115 T02610133 $",
      "metarObsTime": 1776214260
    },
    "KAVP": {
      "status": "OK",
      "delay": "—",
      "metarCat": "MVFR",
      "metarRaw": "SPECI KAVP 150104Z 00000KT 3SM VCTS -RA BR SCT048 SCT065 OVC090 18/16 A2995 RMK AO2 LTG DSNT E P0011 T01780161",
      "metarObsTime": 1776215040
    },
    "KHZL": {
      "status": "OK",
      "delay": "—",
      "metarCat": "VFR",
      "metarRaw": "METAR KHZL 150115Z AUTO 28004KT 10SM SCT065 SCT070 BKN095 23/12 A2999 RMK AO2 LTG DSNT NE",
      "metarObsTime": 1776215700
    }
  }
}