{
  "generatedAt": "2026-03-16T03:50:16.534Z",
  "airports": {
    "KPIT": {
      "status": "OK",
      "delay": "—",
      "metarCat": "VFR",
      "metarRaw": "METAR KPIT 160251Z 15018G24KT 10SM FEW150 BKN200 15/07 A2967 RMK AO2 SLP050 T01500067 58021 VISNO SE $",
      "metarObsTime": 1773629460
    },
    "KAGC": {
      "status": "OK",
      "delay": "—",
      "metarCat": "VFR",
      "metarRaw": "METAR KAGC 160253Z 16016G30KT 10SM CLR 13/05 A2969 RMK AO2 PK WND 17030/0250 SLP057 T01330050 58025",
      "metarObsTime": 1773629580
    },
    "KLBE": {
      "status": "OK",
      "delay": "—",
      "metarCat": "VFR",
      "metarRaw": "METAR KLBE 160335Z AUTO 13019G34KT 10SM BKN080 BKN095 13/08 A2968 RMK AO2",
      "metarObsTime": 1773632100
    },
    "KJST": {
      "status": "OK",
      "delay": "—",
      "metarCat": "IFR",
      "metarRaw": "SPECI KJST 160333Z AUTO 15015G28KT 10SM OVC009 07/05 A2978 RMK AO2 PK WND 16038/0255 CIG 007V012 T00720050",
      "metarObsTime": 1773631980
    },
    "KERI": {
      "status": "OK",
      "delay": "—",
      "metarCat": "VFR",
      "metarRaw": "METAR KERI 160251Z 15030G50KT 10SM CLR 13/04 A2948 RMK AO2 PK WND 15053/0236 SLP985 T01280039 56028 $",
      "metarObsTime": 1773629460
    },
    "KDUJ": {
      "status": "OK",
      "delay": "—",
      "metarCat": "MVFR",
      "metarRaw": "METAR KDUJ 160253Z AUTO 14015G28KT 10SM OVC020 08/04 A2978 RMK AO2 PK WND 13033/0222 SLP087 T00830044 58027 $",
      "metarObsTime": 1773629580
    },
    "KBFD": {
      "status": "OK",
      "delay": "—",
      "metarCat": "MVFR",
      "metarRaw": "SPECI KBFD 160304Z AUTO 14016G31KT 10SM OVC014 07/04 A2977 RMK AO2 PK WND 14031/0256 T00670039",
      "metarObsTime": 1773630240
    },
    "KBTP": {
      "status": "OK",
      "delay": "—",
      "metarCat": "—",
      "metarRaw": "—",
      "metarObsTime": null
    },
    "KFKL": {
      "status": "OK",
      "delay": "—",
      "metarCat": "VFR",
      "metarRaw": "METAR KFKL 160256Z AUTO 15019G27KT 10SM CLR 10/04 A2968 RMK AO2 PK WND 15031/0239 SLPNO T01000039 58024",
      "metarObsTime": 1773629760
    },
    "KIDI": {
      "status": "OK",
      "delay": "—",
      "metarCat": "VFR",
      "metarRaw": "METAR KIDI 160335Z AUTO 15018G27KT 10SM SCT024 SCT030 BKN080 11/06 A2974 RMK A01",
      "metarObsTime": 1773632100
    },
    "KMDT": {
      "status": "OK",
      "delay": "—",
      "metarCat": "MVFR",
      "metarRaw": "METAR KMDT 160256Z 12010KT 10SM OVC020 09/04 A3001 RMK AO2 SLP165 60000 T00890044 58039 $",
      "metarObsTime": 1773629760
    },
    "KCXY": {
      "status": "OK",
      "delay": "—",
      "metarCat": "MVFR",
      "metarRaw": "METAR KCXY 160256Z AUTO 11012G19KT 10SM OVC020 09/04 A3001 RMK AO2 SLP164 T00890044 58039",
      "metarObsTime": 1773629760
    },
    "KMUI": {
      "status": "OK",
      "delay": "—",
      "metarCat": "MVFR",
      "metarRaw": "SPECI KMUI 160338Z AUTO 05008KT 10SM FEW007 OVC016 07/05 A3000 RMK AO2 SLP164 $",
      "metarObsTime": 1773632280
    },
    "KUNV": {
      "status": "OK",
      "delay": "—",
      "metarCat": "MVFR",
      "metarRaw": "METAR KUNV 160335Z AUTO 14006G15KT 110V180 10SM OVC012 08/05 A2991 RMK AO2 T00760052",
      "metarObsTime": 1773632100
    },
    "KAOO": {
      "status": "OK",
      "delay": "—",
      "metarCat": "MVFR",
      "metarRaw": "METAR KAOO 160253Z AUTO 15006G21KT 9SM OVC014 08/06 A2991 RMK AO2 SLP134 T00830056 58026",
      "metarObsTime": 1773629580
    },
    "KLNS": {
      "status": "OK",
      "delay": "—",
      "metarCat": "MVFR",
      "metarRaw": "METAR KLNS 160253Z 11011KT 10SM OVC021 09/05 A3004 RMK AO2 SLP175 T00890050 58035",
      "metarObsTime": 1773629580
    },
    "KIPT": {
      "status": "OK",
      "delay": "—",
      "metarCat": "MVFR",
      "metarRaw": "SPECI KIPT 160343Z AUTO 08011G19KT 5SM -RA BR OVC014 06/04 A2996 RMK AO2 P0002 T00610044 $",
      "metarObsTime": 1773632580
    },
    "KPHL": {
      "status": "OK",
      "delay": "—",
      "metarCat": "VFR",
      "metarRaw": "METAR KPHL 160254Z 10008KT 10SM BKN032 OVC040 11/07 A3011 RMK AO2 SLP194 T01060067 58038 $",
      "metarObsTime": 1773629640
    },
    "KABE": {
      "status": "OK",
      "delay": "—",
      "metarCat": "MVFR",
      "metarRaw": "METAR KABE 160251Z 11011KT 10SM OVC018 06/03 A3012 RMK AO2 SLP203 T00560028 58038 $",
      "metarObsTime": 1773629460
    },
    "KAVP": {
      "status": "OK",
      "delay": "—",
      "metarCat": "VFR",
      "metarRaw": "SPECI KAVP 160329Z 13011G26KT 100V180 10SM SCT016 BKN045 OVC075 08/04 A3000 RMK AO2 PK WND 15026/0329 T00780044",
      "metarObsTime": 1773631740
    },
    "KHZL": {
      "status": "OK",
      "delay": "—",
      "metarCat": "LIFR",
      "metarRaw": "METAR KHZL 160335Z AUTO 13010G23KT 100V170 3SM -RA OVC003 04/03 A3001 RMK AO2",
      "metarObsTime": 1773632100
    }
  }
}