{
  "generatedAt": "2026-03-07T14:30:18.019Z",
  "airports": {
    "KPIT": {
      "status": "OK",
      "delay": "—",
      "metarCat": "VFR",
      "metarRaw": "METAR KPIT 071351Z 21013G19KT 10SM SCT039 SCT080 SCT250 21/13 A2998 RMK AO2 SLP156 T02060128",
      "metarObsTime": 1772891460
    },
    "KAGC": {
      "status": "OK",
      "delay": "—",
      "metarCat": "VFR",
      "metarRaw": "METAR KAGC 071353Z 19010KT 10SM SCT040 BKN050 BKN075 20/12 A3000 RMK AO2 SLP157 T02000117",
      "metarObsTime": 1772891580
    },
    "KLBE": {
      "status": "OK",
      "delay": "—",
      "metarCat": "VFR",
      "metarRaw": "METAR KLBE 071347Z 21011KT 10SM FEW041 SCT047 BKN065 21/14 A3003",
      "metarObsTime": 1772891220
    },
    "KJST": {
      "status": "OK",
      "delay": "—",
      "metarCat": "VFR",
      "metarRaw": "METAR KJST 071354Z AUTO 19009KT 10SM FEW035 SCT046 BKN060 16/11 A3006 RMK AO2 SLP177 T01560106",
      "metarObsTime": 1772891640
    },
    "KERI": {
      "status": "OK",
      "delay": "—",
      "metarCat": "VFR",
      "metarRaw": "METAR KERI 071351Z 19016G27KT 10SM OVC085 19/14 A2986 RMK AO2 PK WND 19027/1336 SLP109 T01940139 $",
      "metarObsTime": 1772891460
    },
    "KDUJ": {
      "status": "OK",
      "delay": "—",
      "metarCat": "MVFR",
      "metarRaw": "SPECI KDUJ 071417Z AUTO 10005KT 4SM TSRA BR SCT031 BKN045 BKN070 12/10 A2999 RMK AO2 LTG DSNT SW AND W RAB12 TSB11 P0002 T01220100",
      "metarObsTime": 1772893020
    },
    "KBFD": {
      "status": "OK",
      "delay": "—",
      "metarCat": "MVFR",
      "metarRaw": "METAR KBFD 071353Z AUTO 14007KT 8SM -RA BKN028 OVC037 09/08 A3000 RMK AO2 RAB1257E12B31 SLP160 P0002 T00890083",
      "metarObsTime": 1772891580
    },
    "KBTP": {
      "status": "OK",
      "delay": "—",
      "metarCat": "VFR",
      "metarRaw": "METAR KBTP 071356Z AUTO 21009KT 10SM SCT037 OVC048 19/13 A2999 RMK AO2 SLP158 T01890128 $",
      "metarObsTime": 1772891760
    },
    "KFKL": {
      "status": "OK",
      "delay": "—",
      "metarCat": "MVFR",
      "metarRaw": "SPECI KFKL 071412Z AUTO 22013G19KT 10SM BKN027 BKN038 OVC065 19/13 A2996 RMK AO2",
      "metarObsTime": 1772892720
    },
    "KIDI": {
      "status": "OK",
      "delay": "—",
      "metarCat": "VFR",
      "metarRaw": "METAR KIDI 071415Z AUTO 21008KT 10SM FEW037 SCT042 BKN065 20/13 A3001 RMK A01",
      "metarObsTime": 1772892900
    },
    "KMDT": {
      "status": "OK",
      "delay": "—",
      "metarCat": "LIFR",
      "metarRaw": "METAR KMDT 071356Z 15007KT 1SM R13/P6000FT BR OVC004 04/04 A3021 RMK AO2 SFC VIS 2 1/2 SLP233 T00440044",
      "metarObsTime": 1772891760
    },
    "KCXY": {
      "status": "OK",
      "delay": "—",
      "metarCat": "LIFR",
      "metarRaw": "METAR KCXY 071356Z 15005KT 3/4SM R08/P6000FT BR OVC004 05/04 A3021 RMK AO2 SLP234 T00500044",
      "metarObsTime": 1772891760
    },
    "KMUI": {
      "status": "OK",
      "delay": "—",
      "metarCat": "LIFR",
      "metarRaw": "SPECI KMUI 071419Z AUTO 18004KT 3SM BR OVC002 05/05 A3019 RMK AO2 LTG DSNT SE SLP230",
      "metarObsTime": 1772893140
    },
    "KUNV": {
      "status": "OK",
      "delay": "—",
      "metarCat": "LIFR",
      "metarRaw": "METAR KUNV 071353Z 21005KT 2SM BR OVC003 07/07 A3012",
      "metarObsTime": 1772891580
    },
    "KAOO": {
      "status": "OK",
      "delay": "—",
      "metarCat": "LIFR",
      "metarRaw": "SPECI KAOO 071415Z AUTO 16005KT 9SM OVC003 08/07 A3011 RMK AO2 T00780072",
      "metarObsTime": 1772892900
    },
    "KLNS": {
      "status": "OK",
      "delay": "—",
      "metarCat": "LIFR",
      "metarRaw": "SPECI KLNS 071420Z 19007KT 5SM BR OVC003 05/04 A3021 RMK AO2 T00500044",
      "metarObsTime": 1772893200
    },
    "KIPT": {
      "status": "OK",
      "delay": "—",
      "metarCat": "IFR",
      "metarRaw": "METAR KIPT 071354Z 10012G16KT 3SM BR OVC007 06/04 A3015 RMK AO2 SLP214 T00560044",
      "metarObsTime": 1772891640
    },
    "KPHL": {
      "status": "OK",
      "delay": "—",
      "metarCat": "LIFR",
      "metarRaw": "METAR KPHL 071354Z 00000KT 2SM BR OVC004 05/04 A3026 RMK AO2 SLP247 CIG 003V005 T00500039 $",
      "metarObsTime": 1772891640
    },
    "KABE": {
      "status": "OK",
      "delay": "—",
      "metarCat": "IFR",
      "metarRaw": "SPECI KABE 071406Z 17004KT 2 1/2SM BR OVC005 03/03 A3023 RMK AO2 T00330028",
      "metarObsTime": 1772892360
    },
    "KAVP": {
      "status": "OK",
      "delay": "—",
      "metarCat": "MVFR",
      "metarRaw": "METAR KAVP 071354Z 22006KT 10SM OVC010 04/02 A3015 RMK AO2 SLP216 T00440022",
      "metarObsTime": 1772891640
    },
    "KHZL": {
      "status": "OK",
      "delay": "—",
      "metarCat": "LIFR",
      "metarRaw": "METAR KHZL 071415Z AUTO 17005KT 1/2SM -DZ OVC002 02/02 A3018 RMK AO2",
      "metarObsTime": 1772892900
    }
  }
}