{
  "generatedAt": "2026-03-06T01:00:16.318Z",
  "airports": {
    "KPIT": {
      "status": "OK",
      "delay": "—",
      "metarCat": "MVFR",
      "metarRaw": "METAR KPIT 060051Z 24006KT 10SM BKN025 BKN032 OVC180 15/13 A3006 RMK AO2 SLP187 T01500128",
      "metarObsTime": 1772758260
    },
    "KAGC": {
      "status": "OK",
      "delay": "—",
      "metarCat": "MVFR",
      "metarRaw": "METAR KAGC 060053Z 24007KT 10SM BKN022 15/12 A3007 RMK AO2 SLP186 T01500122",
      "metarObsTime": 1772758380
    },
    "KLBE": {
      "status": "OK",
      "delay": "—",
      "metarCat": "VFR",
      "metarRaw": "METAR KLBE 060053Z 21011KT 10SM SCT080 15/15 A3009",
      "metarObsTime": 1772758380
    },
    "KJST": {
      "status": "OK",
      "delay": "—",
      "metarCat": "MVFR",
      "metarRaw": "METAR KJST 060054Z AUTO 26012G19KT 10SM -RA SCT009 BKN015 OVC025 13/12 A3008 RMK AO2 SLP187 P0005 T01330122",
      "metarObsTime": 1772758440
    },
    "KERI": {
      "status": "OK",
      "delay": "—",
      "metarCat": "LIFR",
      "metarRaw": "METAR KERI 060051Z 06005KT 2 1/2SM -RA BR OVC002 01/01 A3006 RMK AO2 SLP187 P0002 T00110006",
      "metarObsTime": 1772758260
    },
    "KDUJ": {
      "status": "OK",
      "delay": "—",
      "metarCat": "MVFR",
      "metarRaw": "METAR KDUJ 060053Z AUTO 23003KT 10SM SCT007 OVC013 11/11 A3004 RMK AO2 RAB2354E10 SLP177 P0001 T01060106",
      "metarObsTime": 1772758380
    },
    "KBFD": {
      "status": "OK",
      "delay": "—",
      "metarCat": "IFR",
      "metarRaw": "METAR KBFD 060053Z AUTO 14005KT 5SM -RA BR BKN008 OVC013 06/06 A3003 RMK AO2 RAE2354B44 SLP178 P0000 T00560056",
      "metarObsTime": 1772758380
    },
    "KBTP": {
      "status": "OK",
      "delay": "—",
      "metarCat": "MVFR",
      "metarRaw": "METAR KBTP 060056Z AUTO 24007KT 10SM BKN013 BKN017 OVC037 14/ A3007 RMK AO2 SLP187 T0144 $",
      "metarObsTime": 1772758560
    },
    "KFKL": {
      "status": "OK",
      "delay": "—",
      "metarCat": "IFR",
      "metarRaw": "METAR KFKL 060056Z AUTO 25007KT 10SM OVC005 13/13 A3005 RMK AO2 RAE47 CIG 003V009 SLPNO P0003 T01330128",
      "metarObsTime": 1772758560
    },
    "KIDI": {
      "status": "OK",
      "delay": "—",
      "metarCat": "MVFR",
      "metarRaw": "METAR KIDI 060055Z AUTO 22009KT 10SM SCT010 BKN015 OVC022 15/14 A3007 RMK A01",
      "metarObsTime": 1772758500
    },
    "KMDT": {
      "status": "OK",
      "delay": "—",
      "metarCat": "IFR",
      "metarRaw": "METAR KMDT 060056Z 09007KT 3SM -RA BR OVC005 08/07 A3014 RMK AO2 SFC VIS 5 LTG DSNT NE AND W RAB12 SLP208 P0006 T00780072",
      "metarObsTime": 1772758560
    },
    "KCXY": {
      "status": "OK",
      "delay": "—",
      "metarCat": "IFR",
      "metarRaw": "METAR KCXY 060056Z 09009KT 2SM BR OVC005 08/08 A3013 RMK AO2 LTG DSNT NE AND W RAB12E49 CIG 003V008 SLP206 P0003 T00830078",
      "metarObsTime": 1772758560
    },
    "KMUI": {
      "status": "OK",
      "delay": "—",
      "metarCat": "LIFR",
      "metarRaw": "SPECI KMUI 060044Z 09005KT 2SM -TSRA BR OVC004 08/08 A3013 RMK AO2A TSB44 SLP209",
      "metarObsTime": 1772757840
    },
    "KUNV": {
      "status": "OK",
      "delay": "—",
      "metarCat": "IFR",
      "metarRaw": "METAR KUNV 060053Z 26005KT 7SM -RA BKN008 OVC014 08/08 A3009",
      "metarObsTime": 1772758380
    },
    "KAOO": {
      "status": "OK",
      "delay": "—",
      "metarCat": "IFR",
      "metarRaw": "METAR KAOO 060053Z AUTO 02005KT 2SM -RA BR BKN080 OVC095 08/08 A3010 RMK AO2 SLP199 P0009 T00780078",
      "metarObsTime": 1772758380
    },
    "KLNS": {
      "status": "OK",
      "delay": "—",
      "metarCat": "LIFR",
      "metarRaw": "METAR KLNS 060053Z 10006KT 2SM -RA BR OVC002 07/07 A3016 RMK AO2 LTG DSNT NW RAB49 PRESRR SLP216 P0003 T00720067",
      "metarObsTime": 1772758380
    },
    "KIPT": {
      "status": "OK",
      "delay": "—",
      "metarCat": "IFR",
      "metarRaw": "METAR KIPT 060054Z 09009G16KT 10SM OVC009 08/07 A3009 RMK AO2 RAE02 SLP192 P0001 T00830072 $",
      "metarObsTime": 1772758440
    },
    "KPHL": {
      "status": "OK",
      "delay": "—",
      "metarCat": "LIFR",
      "metarRaw": "METAR KPHL 060054Z 05006KT 1SM BR OVC002 07/06 A3019 RMK AO2 SLP223 T00720061 RVRNO $",
      "metarObsTime": 1772758440
    },
    "KABE": {
      "status": "OK",
      "delay": "—",
      "metarCat": "IFR",
      "metarRaw": "METAR KABE 060051Z 02007KT 10SM -RA OVC005 06/05 A3020 RMK AO2 SLP229 P0006 T00560050",
      "metarObsTime": 1772758260
    },
    "KAVP": {
      "status": "OK",
      "delay": "—",
      "metarCat": "MVFR",
      "metarRaw": "METAR KAVP 060054Z 11008KT 8SM -RA BKN015 OVC028 06/03 A3013 RMK AO2 SLP206 P0009 T00560033",
      "metarObsTime": 1772758440
    },
    "KHZL": {
      "status": "OK",
      "delay": "—",
      "metarCat": "LIFR",
      "metarRaw": "METAR KHZL 060035Z AUTO 13008KT 090V160 5SM UP OVC004 05/03 A3013 RMK AO2 P0004",
      "metarObsTime": 1772757300
    }
  }
}