{
  "generatedAt": "2026-05-11T22:17:28.261Z",
  "faaFlow": {
    "updatedAt": "2026-05-11T22:17:27.654Z",
    "source": "https://www.fly.faa.gov/adv/adv_spt",
    "terminal": [
      {
        "time": "—",
        "text": "UNTIL",
        "code": "FLOW",
        "label": "FAA flow impact",
        "level": "yellow",
        "section": "Terminal Planned",
        "airports": []
      },
      {
        "time": "2300",
        "text": "MCO GROUND STOP POSSIBLE",
        "code": "GS",
        "label": "Ground stop possible",
        "level": "yellow",
        "section": "Terminal Planned",
        "airports": []
      },
      {
        "time": "—",
        "text": "AFTER",
        "code": "FLOW",
        "label": "FAA flow impact",
        "level": "yellow",
        "section": "Terminal Planned",
        "airports": []
      },
      {
        "time": "0000",
        "text": "SFO GROUND STOP/DELAY PROGRAM POSSIBLE",
        "code": "GS",
        "label": "Ground stop possible",
        "level": "yellow",
        "section": "Terminal Planned",
        "airports": []
      }
    ],
    "enroute": [
      {
        "time": "—",
        "text": "UNTIL",
        "code": "FLOW",
        "label": "FAA flow impact",
        "level": "yellow",
        "section": "En Route Planned",
        "airports": []
      },
      {
        "time": "2300",
        "text": "AR/ATLANTIC Y ROUTE CLOSURES POSSIBLE",
        "code": "CLOSURE",
        "label": "Closure possible",
        "level": "yellow",
        "section": "En Route Planned",
        "airports": []
      },
      {
        "time": "—",
        "text": "UNTIL",
        "code": "FLOW",
        "label": "FAA flow impact",
        "level": "yellow",
        "section": "En Route Planned",
        "airports": []
      },
      {
        "time": "2300",
        "text": "OCEANIC ROUTE CLOSURES POSSIBLE CDRS/SWAP/CAPPING/TUNNELING/HOTLINE/DIVERSION RECOVERY:",
        "code": "CLOSURE",
        "label": "Closure possible",
        "level": "yellow",
        "section": "En Route Planned",
        "airports": []
      },
      {
        "time": "—",
        "text": "UNTIL",
        "code": "FLOW",
        "label": "FAA flow impact",
        "level": "yellow",
        "section": "En Route Planned",
        "airports": []
      },
      {
        "time": "0000",
        "text": "MIA FLL PBI RSW CDRS",
        "code": "ROUTE",
        "label": "Route impact possible",
        "level": "blue",
        "section": "En Route Planned",
        "airports": []
      },
      {
        "time": "—",
        "text": "UNTIL",
        "code": "FLOW",
        "label": "FAA flow impact",
        "level": "yellow",
        "section": "En Route Planned",
        "airports": []
      },
      {
        "time": "0100",
        "text": "ZDC SWAP STATEMENT",
        "code": "ROUTE",
        "label": "Route impact possible",
        "level": "blue",
        "section": "En Route Planned",
        "airports": []
      },
      {
        "time": "—",
        "text": "UNTIL",
        "code": "FLOW",
        "label": "FAA flow impact",
        "level": "yellow",
        "section": "En Route Planned",
        "airports": []
      },
      {
        "time": "0300",
        "text": "ZMA SWAP STATEMENT RUNWAY/EQUIPMENT/POSSIBLE SYSTEM IMPACT REPORTS(SIRs): SEA - RWY 16C/34C CLOSED UNTIL 05/13/",
        "code": "CLOSURE",
        "label": "Closure possible",
        "level": "yellow",
        "section": "En Route Planned",
        "airports": []
      },
      {
        "time": "2026",
        "text": "IAD - RWY 01R/19L CLOSED 05/12",
        "code": "CLOSURE",
        "label": "Closure possible",
        "level": "yellow",
        "section": "En Route Planned",
        "airports": []
      },
      {
        "time": "—",
        "text": "AFTER",
        "code": "FLOW",
        "label": "FAA flow impact",
        "level": "yellow",
        "section": "En Route Planned",
        "airports": []
      },
      {
        "time": "0400",
        "text": "ATL RWY 26R ILS/LOC VIP MOVEMENT(S): NONE NEXT PLANNING WEBINAR:",
        "code": "FLOW",
        "label": "FAA flow impact",
        "level": "yellow",
        "section": "En Route Planned",
        "airports": []
      }
    ],
    "airports": {
      "KPIT": null,
      "KAGC": null,
      "KLBE": null,
      "KJST": null,
      "KERI": null,
      "KDUJ": null,
      "KBFD": null,
      "KBTP": null,
      "KFKL": null,
      "KIDI": null,
      "KMDT": null,
      "KCXY": null,
      "KMUI": null,
      "KUNV": null,
      "KAOO": null,
      "KLNS": null,
      "KIPT": null,
      "KPHL": null,
      "KABE": null,
      "KAVP": null,
      "KHZL": null
    }
  },
  "airports": {
    "KPIT": {
      "status": "OK",
      "delay": "—",
      "metarCat": "VFR",
      "metarRaw": "METAR KPIT 112151Z 33012G20KT 10SM FEW065 SCT100 16/M01 A3014 RMK AO2 SLP216 T01561011",
      "metarObsTime": 1778536260,
      "faaFlow": null
    },
    "KAGC": {
      "status": "OK",
      "delay": "—",
      "metarCat": "VFR",
      "metarRaw": "METAR KAGC 112153Z 33009G19KT 10SM BKN100 16/M01 A3013 RMK AO2 SLP209 T01611006",
      "metarObsTime": 1778536380,
      "faaFlow": null
    },
    "KLBE": {
      "status": "OK",
      "delay": "—",
      "metarCat": "VFR",
      "metarRaw": "METAR KLBE 112147Z 32012G18KT 10SM SCT045 BKN060 16/M00 A3014",
      "metarObsTime": 1778536020,
      "faaFlow": null
    },
    "KJST": {
      "status": "OK",
      "delay": "—",
      "metarCat": "VFR",
      "metarRaw": "METAR KJST 112154Z AUTO 30013G19KT 10SM BKN090 13/M03 A3010 RMK AO2 PK WND 32029/2129 SLP198 T01331033",
      "metarObsTime": 1778536440,
      "faaFlow": null
    },
    "KERI": {
      "status": "OK",
      "delay": "—",
      "metarCat": "VFR",
      "metarRaw": "METAR KERI 112151Z 27010KT 10SM CLR 12/01 A3019 RMK AO2 SLP227 T01220011",
      "metarObsTime": 1778536260,
      "faaFlow": null
    },
    "KDUJ": {
      "status": "OK",
      "delay": "—",
      "metarCat": "VFR",
      "metarRaw": "METAR KDUJ 112153Z AUTO 30012G24KT 10SM OVC095 13/M03 A3011 RMK AO2 SLP203 T01281033",
      "metarObsTime": 1778536380,
      "faaFlow": null
    },
    "KBFD": {
      "status": "OK",
      "delay": "—",
      "metarCat": "VFR",
      "metarRaw": "METAR KBFD 112153Z AUTO 32014G18KT 10SM SCT070 11/M04 A3011 RMK AO2 PK WND 28026/2124 SLP208 T01111044",
      "metarObsTime": 1778536380,
      "faaFlow": null
    },
    "KBTP": {
      "status": "OK",
      "delay": "—",
      "metarCat": "VFR",
      "metarRaw": "METAR KBTP 112156Z AUTO 31006KT 10SM SCT090 14/01 A3016 RMK AO2 SLP223 T01440011 $",
      "metarObsTime": 1778536560,
      "faaFlow": null
    },
    "KFKL": {
      "status": "OK",
      "delay": "—",
      "metarCat": "VFR",
      "metarRaw": "METAR KFKL 112156Z AUTO 32010G14KT 10SM FEW085 13/M02 A3016 RMK AO2 SLP221 T01281017",
      "metarObsTime": 1778536560,
      "faaFlow": null
    },
    "KIDI": {
      "status": "OK",
      "delay": "—",
      "metarCat": "VFR",
      "metarRaw": "METAR KIDI 112155Z AUTO 33010G18KT 10SM FEW065 SCT080 OVC090 14/M02 A3013 RMK A01",
      "metarObsTime": 1778536500,
      "faaFlow": null
    },
    "KMDT": {
      "status": "OK",
      "delay": "—",
      "metarCat": "VFR",
      "metarRaw": "METAR KMDT 112156Z 00000KT 10SM SCT045 17/M01 A3006 RMK AO2 SLP181 T01671011",
      "metarObsTime": 1778536560,
      "faaFlow": null
    },
    "KCXY": {
      "status": "OK",
      "delay": "—",
      "metarCat": "VFR",
      "metarRaw": "METAR KCXY 112156Z 00000KT 10SM FEW090 17/M01 A3007 RMK AO2 SLP182 T01671011",
      "metarObsTime": 1778536560,
      "faaFlow": null
    },
    "KMUI": {
      "status": "OK",
      "delay": "—",
      "metarCat": "VFR",
      "metarRaw": "METAR KMUI 112155Z 30004KT 10SM BKN080 BKN200 23/04 A3004 RMK AO2A SLP174 T02270042",
      "metarObsTime": 1778536500,
      "faaFlow": null
    },
    "KUNV": {
      "status": "OK",
      "delay": "—",
      "metarCat": "VFR",
      "metarRaw": "METAR KUNV 112153Z 32010G16KT 10SM BKN085 15/M04 A3008",
      "metarObsTime": 1778536380,
      "faaFlow": null
    },
    "KAOO": {
      "status": "OK",
      "delay": "—",
      "metarCat": "VFR",
      "metarRaw": "METAR KAOO 112153Z AUTO 32010G22KT 10SM SCT095 14/M05 A3009 RMK AO2 SLP194 T01441050",
      "metarObsTime": 1778536380,
      "faaFlow": null
    },
    "KLNS": {
      "status": "OK",
      "delay": "—",
      "metarCat": "VFR",
      "metarRaw": "METAR KLNS 112153Z VRB03KT 10SM FEW080 16/01 A3007 RMK AO2 SLP181 T01610006",
      "metarObsTime": 1778536380,
      "faaFlow": null
    },
    "KIPT": {
      "status": "OK",
      "delay": "—",
      "metarCat": "VFR",
      "metarRaw": "METAR KIPT 112154Z 00000KT 10SM OVC100 16/M01 A3004 RMK AO2 SLP175 T01611006",
      "metarObsTime": 1778536440,
      "faaFlow": null
    },
    "KPHL": {
      "status": "OK",
      "delay": "—",
      "metarCat": "VFR",
      "metarRaw": "METAR KPHL 112154Z 29007KT 10SM FEW070 SCT240 SCT350 17/M03 A3007 RMK AO2 SLP183 T01671028 $",
      "metarObsTime": 1778536440,
      "faaFlow": null
    },
    "KABE": {
      "status": "OK",
      "delay": "—",
      "metarCat": "VFR",
      "metarRaw": "METAR KABE 112151Z 26005KT 10SM SCT100 17/00 A3004 RMK AO2 SLP174 T01670000",
      "metarObsTime": 1778536260,
      "faaFlow": null
    },
    "KAVP": {
      "status": "OK",
      "delay": "—",
      "metarCat": "VFR",
      "metarRaw": "METAR KAVP 112154Z 35006KT 10SM BKN080 OVC090 14/M01 A3006 RMK AO2 SLP181 T01391011",
      "metarObsTime": 1778536440,
      "faaFlow": null
    },
    "KHZL": {
      "status": "OK",
      "delay": "—",
      "metarCat": "VFR",
      "metarRaw": "METAR KHZL 112155Z AUTO 00000KT 10SM OVC075 13/M02 A3009 RMK AO2",
      "metarObsTime": 1778536500,
      "faaFlow": null
    }
  }
}