{
  "generatedAt": "2026-03-23T06:50:15.948Z",
  "airports": {
    "KPIT": {
      "status": "OK",
      "delay": "—",
      "metarCat": "VFR",
      "metarRaw": "SPECI KPIT 230638Z 21004KT 6SM BR SCT002 BKN044 OVC060 09/09 A2972 RMK AO2 RAE24 P0006 T00940089",
      "metarObsTime": 1774247880
    },
    "KAGC": {
      "status": "OK",
      "delay": "—",
      "metarCat": "IFR",
      "metarRaw": "SPECI KAGC 230620Z 18006KT 2SM RA BR FEW007 SCT060 OVC080 11/11 A2971 RMK AO2 P0008 T01110106",
      "metarObsTime": 1774246800
    },
    "KLBE": {
      "status": "OK",
      "delay": "—",
      "metarCat": "MVFR",
      "metarRaw": "METAR KLBE 230635Z AUTO 17003KT 4SM RA BR FEW002 SCT017 BKN045 12/12 A2974 RMK AO2 LTG DSNT SW",
      "metarObsTime": 1774247700
    },
    "KJST": {
      "status": "OK",
      "delay": "—",
      "metarCat": "IFR",
      "metarRaw": "SPECI KJST 230644Z AUTO 22006KT 1 1/2SM -RA BR SCT019 OVC070 09/09 A2972 RMK AO2 P0012 T00940094",
      "metarObsTime": 1774248240
    },
    "KERI": {
      "status": "OK",
      "delay": "—",
      "metarCat": "LIFR",
      "metarRaw": "SPECI KERI 230621Z AUTO 03013KT 6SM BR OVC004 02/01 A2984 RMK AO2 T00170006",
      "metarObsTime": 1774246860
    },
    "KDUJ": {
      "status": "OK",
      "delay": "—",
      "metarCat": "LIFR",
      "metarRaw": "SPECI KDUJ 230641Z AUTO 33004KT 2SM BR BKN002 OVC060 08/08 A2970 RMK AO2 RAE40 PRESFR P0001 T00830078",
      "metarObsTime": 1774248060
    },
    "KBFD": {
      "status": "OK",
      "delay": "—",
      "metarCat": "LIFR",
      "metarRaw": "SPECI KBFD 230633Z AUTO 06005KT 2SM BR OVC002 01/01 A2975 RMK AO2 RAE26 P0000 T00110006 $",
      "metarObsTime": 1774247580
    },
    "KBTP": {
      "status": "OK",
      "delay": "—",
      "metarCat": "LIFR",
      "metarRaw": "SPECI KBTP 230606Z AUTO 33003KT 1 3/4SM -RA OVC003 08/ A2973 RMK AO2 P0000 $",
      "metarObsTime": 1774245960
    },
    "KFKL": {
      "status": "OK",
      "delay": "—",
      "metarCat": "LIFR",
      "metarRaw": "METAR KFKL 230556Z AUTO VRB04KT 3SM BR OVC002 04/04 A2977 RMK AO2 RAE53 SLP082 P0001 60017 T00440039 10072 20044 53002",
      "metarObsTime": 1774245360
    },
    "KIDI": {
      "status": "OK",
      "delay": "—",
      "metarCat": "IFR",
      "metarRaw": "METAR KIDI 230635Z AUTO 17004KT 2 1/2SM BR SCT003 BKN027 OVC039 11/11 A2970 RMK A01",
      "metarObsTime": 1774247700
    },
    "KMDT": {
      "status": "OK",
      "delay": "—",
      "metarCat": "VFR",
      "metarRaw": "METAR KMDT 230556Z COR 01006KT 10SM BKN048 OVC100 14/12 A2967 RMK AO2 SLP048 60014 T01440122 10178 20128 50014 $",
      "metarObsTime": 1774245360
    },
    "KCXY": {
      "status": "OK",
      "delay": "—",
      "metarCat": "IFR",
      "metarRaw": "SPECI KCXY 230645Z AUTO 33004KT 2SM R08/6000VP6000FT TSRA BR SCT045 BKN055 OVC070 13/12 A2971 RMK AO2 VIS 3/4V4 LTG DSNT NE RAB16 TSB45 P0015 T01280117",
      "metarObsTime": 1774248300
    },
    "KMUI": {
      "status": "OK",
      "delay": "—",
      "metarCat": "MVFR",
      "metarRaw": "SPECI KMUI 230638Z AUTO 06003KT 5SM -VCTSRA SCT005 BKN012 OVC060 11/11 A2969 RMK AO2 LTG DSNT NE AND SW RAE0555RAB18 SLP056",
      "metarObsTime": 1774247880
    },
    "KUNV": {
      "status": "OK",
      "delay": "—",
      "metarCat": "LIFR",
      "metarRaw": "METAR KUNV 230635Z AUTO 01004KT 5SM RA BKN003 OVC014 07/07 A2971 RMK AO2 P0008 T00730073",
      "metarObsTime": 1774247700
    },
    "KAOO": {
      "status": "OK",
      "delay": "—",
      "metarCat": "MVFR",
      "metarRaw": "METAR KAOO 230553Z AUTO 28004KT 3SM RA BR SCT011 BKN055 OVC095 12/11 A2975 RMK AO2 SLP066 P0014 60020 T01170106 10189 20117 51007",
      "metarObsTime": 1774245180
    },
    "KLNS": {
      "status": "OK",
      "delay": "—",
      "metarCat": "MVFR",
      "metarRaw": "SPECI KLNS 230636Z AUTO 02009KT 10SM OVC011 14/12 A2968 RMK AO2 T01390122",
      "metarObsTime": 1774247760
    },
    "KIPT": {
      "status": "OK",
      "delay": "—",
      "metarCat": "MVFR",
      "metarRaw": "METAR KIPT 230554Z AUTO 31004KT 8SM -RA BKN015 OVC085 06/04 A2975 RMK AO2 SLP075 P0006 60041 T00560044 10133 20056 58000 $",
      "metarObsTime": 1774245240
    },
    "KPHL": {
      "status": "OK",
      "delay": "—",
      "metarCat": "VFR",
      "metarRaw": "SPECI KPHL 230607Z 03013G22KT 6SM HZ SCT110 14/09 A2966 RMK AO2 T01440094 $",
      "metarObsTime": 1774246020
    },
    "KABE": {
      "status": "OK",
      "delay": "—",
      "metarCat": "VFR",
      "metarRaw": "SPECI KABE 230640Z 07011KT 10SM -RA FEW012 BKN070 OVC120 11/09 A2970 RMK AO2 RAB0556 P0007 T01110094 $",
      "metarObsTime": 1774248000
    },
    "KAVP": {
      "status": "OK",
      "delay": "—",
      "metarCat": "IFR",
      "metarRaw": "SPECI KAVP 230632Z 35006KT 5SM RA BR BKN005 BKN065 OVC080 05/05 A2972 RMK AO2 P0006 T00500050",
      "metarObsTime": 1774247520
    },
    "KHZL": {
      "status": "OK",
      "delay": "—",
      "metarCat": "VFR",
      "metarRaw": "METAR KHZL 230635Z AUTO 18003KT 10SM -RA SCT005 BKN070 OVC080 06/05 A2974 RMK AO2 P0002",
      "metarObsTime": 1774247700
    }
  }
}