{
  "generatedAt": "2026-03-06T07:10:13.172Z",
  "airports": {
    "KPIT": {
      "status": "OK",
      "delay": "—",
      "metarCat": "MVFR",
      "metarRaw": "METAR KPIT 060651Z 29003KT 10SM FEW002 BKN016 OVC022 13/12 A3014 RMK AO2 SLP212 T01330122 $",
      "metarObsTime": 1772779860
    },
    "KAGC": {
      "status": "OK",
      "delay": "—",
      "metarCat": "MVFR",
      "metarRaw": "METAR KAGC 060653Z 25005KT 9SM BKN015 13/12 A3013 RMK AO2 SLP207 T01330122",
      "metarObsTime": 1772779980
    },
    "KLBE": {
      "status": "OK",
      "delay": "—",
      "metarCat": "VFR",
      "metarRaw": "METAR KLBE 060655Z AUTO 21007KT 10SM FEW018 BKN038 14/14 A3016 RMK AO2",
      "metarObsTime": 1772780100
    },
    "KJST": {
      "status": "OK",
      "delay": "—",
      "metarCat": "MVFR",
      "metarRaw": "METAR KJST 060654Z AUTO 26009KT 10SM SCT011 BKN016 OVC032 13/11 A3014 RMK AO2 SLP204 T01280111",
      "metarObsTime": 1772780040
    },
    "KERI": {
      "status": "OK",
      "delay": "—",
      "metarCat": "LIFR",
      "metarRaw": "METAR KERI 060651Z AUTO 08006KT 1SM R06/P6000FT BR OVC002 01/00 A3017 RMK AO2 SLP222 T00060000",
      "metarObsTime": 1772779860
    },
    "KDUJ": {
      "status": "OK",
      "delay": "—",
      "metarCat": "MVFR",
      "metarRaw": "METAR KDUJ 060653Z AUTO 25008KT 10SM FEW011 OVC017 12/11 A3011 RMK AO2 SLP198 T01170106",
      "metarObsTime": 1772779980
    },
    "KBFD": {
      "status": "OK",
      "delay": "—",
      "metarCat": "MVFR",
      "metarRaw": "METAR KBFD 060653Z AUTO 23004KT 10SM FEW009 BKN020 OVC031 09/09 A3010 RMK AO2 SLP198 T00940094",
      "metarObsTime": 1772779980
    },
    "KBTP": {
      "status": "OK",
      "delay": "—",
      "metarCat": "IFR",
      "metarRaw": "METAR KBTP 060656Z AUTO 25007KT 10SM OVC008 13/ A3015 RMK AO2 RAE01 CIG 005V012 SLP213 P0000 T0128 $",
      "metarObsTime": 1772780160
    },
    "KFKL": {
      "status": "OK",
      "delay": "—",
      "metarCat": "LIFR",
      "metarRaw": "SPECI KFKL 060705Z AUTO 26005KT 10SM OVC004 09/09 A3014 RMK AO2",
      "metarObsTime": 1772780700
    },
    "KIDI": {
      "status": "OK",
      "delay": "—",
      "metarCat": "IFR",
      "metarRaw": "METAR KIDI 060655Z AUTO 24005KT 6SM BR OVC006 13/13 A3014 RMK A01",
      "metarObsTime": 1772780100
    },
    "KMDT": {
      "status": "OK",
      "delay": "—",
      "metarCat": "IFR",
      "metarRaw": "METAR KMDT 060656Z 09005KT 7SM OVC007 06/06 A3019 RMK AO2 SLP226 T00610056",
      "metarObsTime": 1772780160
    },
    "KCXY": {
      "status": "OK",
      "delay": "—",
      "metarCat": "IFR",
      "metarRaw": "METAR KCXY 060656Z AUTO 09007KT 8SM BKN008 OVC013 06/05 A3020 RMK AO2 CIG 006V010 SLP230 T00610050",
      "metarObsTime": 1772780160
    },
    "KMUI": {
      "status": "OK",
      "delay": "—",
      "metarCat": "IFR",
      "metarRaw": "METAR KMUI 060655Z AUTO 07007KT 10SM OVC008 08/07 A3019 RMK AO2 RAB0555E04 SLP229 P0000 T00760073",
      "metarObsTime": 1772780100
    },
    "KUNV": {
      "status": "OK",
      "delay": "—",
      "metarCat": "MVFR",
      "metarRaw": "METAR KUNV 060655Z AUTO 27004KT 7SM SCT003 BKN025 OVC033 08/08 A3015 RMK AO2 T00770076",
      "metarObsTime": 1772780100
    },
    "KAOO": {
      "status": "OK",
      "delay": "—",
      "metarCat": "MVFR",
      "metarRaw": "METAR KAOO 060653Z AUTO 21005KT 9SM BKN022 BKN036 OVC050 11/10 A3014 RMK AO2 SLP209 T01060100",
      "metarObsTime": 1772779980
    },
    "KLNS": {
      "status": "OK",
      "delay": "—",
      "metarCat": "IFR",
      "metarRaw": "METAR KLNS 060653Z AUTO 07006KT 10SM OVC008 06/05 A3021 RMK AO2 CIG 007V011 SLP232 T00560050",
      "metarObsTime": 1772779980
    },
    "KIPT": {
      "status": "OK",
      "delay": "—",
      "metarCat": "IFR",
      "metarRaw": "METAR KIPT 060654Z AUTO 10SM OVC009 07/06 A3017 RMK AO2 SLP219 T00670056 $",
      "metarObsTime": 1772780040
    },
    "KPHL": {
      "status": "OK",
      "delay": "—",
      "metarCat": "MVFR",
      "metarRaw": "METAR KPHL 060654Z 03008KT 10SM BKN010 OVC022 06/03 A3023 RMK AO2 SLP236 T00560033 $",
      "metarObsTime": 1772780040
    },
    "KABE": {
      "status": "OK",
      "delay": "—",
      "metarCat": "MVFR",
      "metarRaw": "METAR KABE 060651Z 05008KT 7SM -RA OVC010 04/03 A3024 RMK AO2 RAB38 SLP241 P0000 T00390033",
      "metarObsTime": 1772779860
    },
    "KAVP": {
      "status": "OK",
      "delay": "—",
      "metarCat": "MVFR",
      "metarRaw": "METAR KAVP 060654Z AUTO VRB03KT 10SM SCT013 OVC021 04/02 A3020 RMK AO2 SLP231 T00390022",
      "metarObsTime": 1772780040
    },
    "KHZL": {
      "status": "OK",
      "delay": "—",
      "metarCat": "LIFR",
      "metarRaw": "METAR KHZL 060655Z AUTO 13006KT 10SM -DZ OVC004 03/02 A3020 RMK AO2",
      "metarObsTime": 1772780100
    }
  }
}