{
  "generatedAt": "2026-03-09T21:20:18.280Z",
  "airports": {
    "KPIT": {
      "status": "OK",
      "delay": "—",
      "metarCat": "VFR",
      "metarRaw": "METAR KPIT 092051Z 22008G18KT 10SM FEW250 21/M03 A2994 RMK AO2 SLP145 T02111033 55012",
      "metarObsTime": 1773089460
    },
    "KAGC": {
      "status": "OK",
      "delay": "—",
      "metarCat": "VFR",
      "metarRaw": "METAR KAGC 092053Z 23013G19KT 10SM CLR 21/M04 A2994 RMK AO2 SLP142 T02111039 56013",
      "metarObsTime": 1773089580
    },
    "KLBE": {
      "status": "OK",
      "delay": "—",
      "metarCat": "VFR",
      "metarRaw": "METAR KLBE 092047Z 22012G20KT 20SM CLR 21/01 A2969",
      "metarObsTime": 1773089220
    },
    "KJST": {
      "status": "OK",
      "delay": "—",
      "metarCat": "VFR",
      "metarRaw": "METAR KJST 092054Z AUTO 25013G19KT 10SM CLR 18/M04 A2997 RMK AO2 SLP146 T01831039 55009",
      "metarObsTime": 1773089640
    },
    "KERI": {
      "status": "OK",
      "delay": "—",
      "metarCat": "VFR",
      "metarRaw": "METAR KERI 092051Z 20014G25KT 10SM CLR 21/M01 A2985 RMK AO2 PK WND 20028/2010 SLP107 T02111011 55003",
      "metarObsTime": 1773089460
    },
    "KDUJ": {
      "status": "OK",
      "delay": "—",
      "metarCat": "VFR",
      "metarRaw": "METAR KDUJ 092053Z AUTO 22011G21KT 10SM CLR 18/M03 A2993 RMK AO2 SLP135 T01831028 56008",
      "metarObsTime": 1773089580
    },
    "KBFD": {
      "status": "OK",
      "delay": "—",
      "metarCat": "VFR",
      "metarRaw": "METAR KBFD 092053Z AUTO 22010G21KT 10SM CLR 18/M06 A2991 RMK AO2 SLP128 T01781056 58004 $",
      "metarObsTime": 1773089580
    },
    "KBTP": {
      "status": "OK",
      "delay": "—",
      "metarCat": "VFR",
      "metarRaw": "METAR KBTP 092056Z AUTO 20013G17KT 10SM CLR 21/M01 A2994 RMK AO2 SLP146 T02061006 56012 $",
      "metarObsTime": 1773089760
    },
    "KFKL": {
      "status": "OK",
      "delay": "—",
      "metarCat": "VFR",
      "metarRaw": "METAR KFKL 092056Z AUTO 22013G18KT 10SM CLR 19/M03 A2993 RMK AO2 SLP136 T01941033 56012",
      "metarObsTime": 1773089760
    },
    "KIDI": {
      "status": "OK",
      "delay": "—",
      "metarCat": "VFR",
      "metarRaw": "METAR KIDI 092115Z AUTO 22009G18KT 10SM CLR 20/M01 A2995 RMK A01",
      "metarObsTime": 1773090900
    },
    "KMDT": {
      "status": "OK",
      "delay": "—",
      "metarCat": "VFR",
      "metarRaw": "METAR KMDT 092056Z 22009G17KT 10SM CLR 21/04 A2994 RMK AO2 SLP140 T02110039 56014",
      "metarObsTime": 1773089760
    },
    "KCXY": {
      "status": "OK",
      "delay": "—",
      "metarCat": "VFR",
      "metarRaw": "METAR KCXY 092056Z 18008KT 10SM CLR 23/04 A2994 RMK AO2 SLP140 T02280039 56015",
      "metarObsTime": 1773089760
    },
    "KMUI": {
      "status": "OK",
      "delay": "—",
      "metarCat": "—",
      "metarRaw": "—",
      "metarObsTime": null
    },
    "KUNV": {
      "status": "OK",
      "delay": "—",
      "metarCat": "VFR",
      "metarRaw": "METAR KUNV 092053Z 24010G17KT 10SM CLR 22/M03 A2993",
      "metarObsTime": 1773089580
    },
    "KAOO": {
      "status": "OK",
      "delay": "—",
      "metarCat": "VFR",
      "metarRaw": "METAR KAOO 092053Z AUTO 23015G23KT 10SM CLR 21/M04 A2995 RMK AO2 SLP141 T02111039 56016",
      "metarObsTime": 1773089580
    },
    "KLNS": {
      "status": "OK",
      "delay": "—",
      "metarCat": "VFR",
      "metarRaw": "METAR KLNS 092053Z 26010KT 10SM CLR 22/04 A2995 RMK AO2 SLP143 T02220039 56014",
      "metarObsTime": 1773089580
    },
    "KIPT": {
      "status": "OK",
      "delay": "—",
      "metarCat": "VFR",
      "metarRaw": "METAR KIPT 092054Z 26013G22KT 10SM CLR 23/M01 A2990 RMK AO2 SLP127 T02281006 56017 $",
      "metarObsTime": 1773089640
    },
    "KPHL": {
      "status": "OK",
      "delay": "—",
      "metarCat": "VFR",
      "metarRaw": "METAR KPHL 092054Z 25014KT 10SM FEW060 24/04 A2997 RMK AO2 SLP149 T02390039 56017 $",
      "metarObsTime": 1773089640
    },
    "KABE": {
      "status": "OK",
      "delay": "—",
      "metarCat": "VFR",
      "metarRaw": "METAR KABE 092051Z 23007KT 10SM CLR 22/04 A2995 RMK AO2 SLP143 T02170044 56017",
      "metarObsTime": 1773089460
    },
    "KAVP": {
      "status": "OK",
      "delay": "—",
      "metarCat": "VFR",
      "metarRaw": "METAR KAVP 092054Z 25013G19KT 10SM CLR 21/M02 A2993 RMK AO2 SLP135 T02061017 56015",
      "metarObsTime": 1773089640
    },
    "KHZL": {
      "status": "OK",
      "delay": "—",
      "metarCat": "VFR",
      "metarRaw": "METAR KHZL 092115Z AUTO 19006KT 160V230 10SM CLR 20/01 A2999 RMK AO2",
      "metarObsTime": 1773090900
    }
  }
}