{
  "generatedAt": "2026-03-06T16:00:19.205Z",
  "airports": {
    "KPIT": {
      "status": "OK",
      "delay": "—",
      "metarCat": "MVFR",
      "metarRaw": "METAR KPIT 061551Z 22007KT 10SM BKN015 BKN120 17/13 A3019 RMK AO2 SLP228 T01720133",
      "metarObsTime": 1772812260
    },
    "KAGC": {
      "status": "OK",
      "delay": "—",
      "metarCat": "IFR",
      "metarRaw": "METAR KAGC 061553Z 23007KT 10SM BKN006 OVC018 16/13 A3020 RMK AO2 SLP229 T01610133",
      "metarObsTime": 1772812380
    },
    "KLBE": {
      "status": "OK",
      "delay": "—",
      "metarCat": "VFR",
      "metarRaw": "METAR KLBE 061547Z 21006KT 15SM SCT020 BKN035 17/15 A3022",
      "metarObsTime": 1772812020
    },
    "KJST": {
      "status": "OK",
      "delay": "—",
      "metarCat": "MVFR",
      "metarRaw": "METAR KJST 061554Z AUTO 24009KT 10SM BKN011 BKN018 BKN095 15/13 A3022 RMK AO2 SLP232 T01500128",
      "metarObsTime": 1772812440
    },
    "KERI": {
      "status": "OK",
      "delay": "—",
      "metarCat": "IFR",
      "metarRaw": "METAR KERI 061551Z 04005KT 2 1/2SM BR SCT004 OVC009 03/02 A3019 RMK AO2 RAB15E44 SLP231 P0001 T00280022",
      "metarObsTime": 1772812260
    },
    "KDUJ": {
      "status": "OK",
      "delay": "—",
      "metarCat": "MVFR",
      "metarRaw": "METAR KDUJ 061553Z AUTO 23007KT 10SM BKN013 OVC020 14/12 A3020 RMK AO2 SLP227 T01390117",
      "metarObsTime": 1772812380
    },
    "KBFD": {
      "status": "OK",
      "delay": "—",
      "metarCat": "IFR",
      "metarRaw": "METAR KBFD 061553Z AUTO 19005KT 5SM BR BKN007 OVC013 11/10 A3020 RMK AO2 SLP230 T01110100",
      "metarObsTime": 1772812380
    },
    "KBTP": {
      "status": "OK",
      "delay": "—",
      "metarCat": "MVFR",
      "metarRaw": "METAR KBTP 061556Z AUTO 21006KT 10SM OVC014 17/14 A3020 RMK AO2 SLP232 T01670144 $",
      "metarObsTime": 1772812560
    },
    "KFKL": {
      "status": "OK",
      "delay": "—",
      "metarCat": "LIFR",
      "metarRaw": "METAR KFKL 061556Z AUTO 17006KT 8SM OVC002 13/13 A3019 RMK AO2 SLP226 T01330128",
      "metarObsTime": 1772812560
    },
    "KIDI": {
      "status": "OK",
      "delay": "—",
      "metarCat": "MVFR",
      "metarRaw": "METAR KIDI 061555Z AUTO 21011KT 10SM SCT018 BKN022 OVC028 17/13 A3021 RMK A01",
      "metarObsTime": 1772812500
    },
    "KMDT": {
      "status": "OK",
      "delay": "—",
      "metarCat": "IFR",
      "metarRaw": "METAR KMDT 061556Z 14007KT 3SM BR OVC006 05/04 A3033 RMK AO2 SFC VIS 4 SLP273 T00500044",
      "metarObsTime": 1772812560
    },
    "KCXY": {
      "status": "OK",
      "delay": "—",
      "metarCat": "IFR",
      "metarRaw": "METAR KCXY 061556Z 12008KT 5SM BR OVC006 05/04 A3033 RMK AO2 SLP274 T00500044",
      "metarObsTime": 1772812560
    },
    "KMUI": {
      "status": "OK",
      "delay": "—",
      "metarCat": "LIFR",
      "metarRaw": "METAR KMUI 061555Z 07004KT 2SM BR OVC004 05/04 A3032 RMK AO2A SLP274 T00470044",
      "metarObsTime": 1772812500
    },
    "KUNV": {
      "status": "OK",
      "delay": "—",
      "metarCat": "LIFR",
      "metarRaw": "METAR KUNV 061553Z 00000KT 2 1/2SM BR OVC003 09/09 A3025",
      "metarObsTime": 1772812380
    },
    "KAOO": {
      "status": "OK",
      "delay": "—",
      "metarCat": "VFR",
      "metarRaw": "METAR KAOO 061553Z AUTO 06004KT 9SM BKN036 BKN110 14/12 A3023 RMK AO2 SLP237 T01440117",
      "metarObsTime": 1772812380
    },
    "KLNS": {
      "status": "OK",
      "delay": "—",
      "metarCat": "LIFR",
      "metarRaw": "METAR KLNS 061553Z 10006KT 2 1/2SM BR OVC004 04/04 A3032 RMK AO2 SLP271 T00440039",
      "metarObsTime": 1772812380
    },
    "KIPT": {
      "status": "OK",
      "delay": "—",
      "metarCat": "IFR",
      "metarRaw": "METAR KIPT 061554Z 11005KT 5SM BR OVC006 06/04 A3030 RMK AO2 SLP262 T00560044",
      "metarObsTime": 1772812440
    },
    "KPHL": {
      "status": "OK",
      "delay": "—",
      "metarCat": "IFR",
      "metarRaw": "METAR KPHL 061554Z 06007KT 10SM OVC009 06/04 A3035 RMK AO2 SLP277 T00610039 $",
      "metarObsTime": 1772812440
    },
    "KABE": {
      "status": "OK",
      "delay": "—",
      "metarCat": "IFR",
      "metarRaw": "METAR KABE 061551Z 07006KT 10SM OVC006 03/02 A3034 RMK AO2 SLP278 T00330022",
      "metarObsTime": 1772812260
    },
    "KAVP": {
      "status": "OK",
      "delay": "—",
      "metarCat": "MVFR",
      "metarRaw": "METAR KAVP 061554Z 10004KT 10SM OVC013 04/02 A3031 RMK AO2 SLP268 T00390017",
      "metarObsTime": 1772812440
    },
    "KHZL": {
      "status": "OK",
      "delay": "—",
      "metarCat": "LIFR",
      "metarRaw": "METAR KHZL 061555Z AUTO 12003KT 4SM BR OVC002 02/01 A3032 RMK AO2",
      "metarObsTime": 1772812500
    }
  }
}