{
  "generatedAt": "2026-03-17T00:50:13.335Z",
  "airports": {
    "KPIT": {
      "status": "OK",
      "delay": "—",
      "metarCat": "LIFR",
      "metarRaw": "METAR KPIT 162351Z 26006G18KT 1/4SM R28R/5500VP6000FT SN FZFG VV006 M02/M02 A2952 RMK AO2 SFC VIS 1/2 SLP009 P0005 60024 T10171017 10061 21022 53009 $",
      "metarObsTime": 1773705060
    },
    "KAGC": {
      "status": "OK",
      "delay": "—",
      "metarCat": "LIFR",
      "metarRaw": "SPECI KAGC 170014Z 28014G22KT 1/4SM R28/3000V4000FT +SN FZFG VV006 M02/M02 A2951 RMK AO2 P0000 T10171022",
      "metarObsTime": 1773706440
    },
    "KLBE": {
      "status": "OK",
      "delay": "—",
      "metarCat": "LIFR",
      "metarRaw": "METAR KLBE 162347Z 26024G30KT 1/2SM -SN FZFG VV001 M01/M01 A2952",
      "metarObsTime": 1773704820
    },
    "KJST": {
      "status": "OK",
      "delay": "—",
      "metarCat": "LIFR",
      "metarRaw": "SPECI KJST 170015Z AUTO 27019G33KT 1/4SM SN FZFG VV004 M03/M03 A2943 RMK AO2 PK WND 29036/2355 P0002 T10281033",
      "metarObsTime": 1773706500
    },
    "KERI": {
      "status": "OK",
      "delay": "—",
      "metarCat": "LIFR",
      "metarRaw": "SPECI KERI 170026Z 24013G28KT 1/2SM R06/4500VP6000FT SN FZFG VV007 M02/M03 A2945 RMK AO2 PK WND 24032/0012 P0003 T10221033 $",
      "metarObsTime": 1773707160
    },
    "KDUJ": {
      "status": "OK",
      "delay": "—",
      "metarCat": "LIFR",
      "metarRaw": "SPECI KDUJ 170032Z AUTO 26014G31KT 1/2SM SN FZFG VV005 M02/M03 A2939 RMK AO2 PK WND 25032/0018 P0002 T10221028",
      "metarObsTime": 1773707520
    },
    "KBFD": {
      "status": "OK",
      "delay": "—",
      "metarCat": "LIFR",
      "metarRaw": "SPECI KBFD 170038Z AUTO 27010G21KT 1/2SM SN FZFG VV005 M02/M03 A2935 RMK AO2 P0005 T10221028",
      "metarObsTime": 1773707880
    },
    "KBTP": {
      "status": "OK",
      "delay": "—",
      "metarCat": "—",
      "metarRaw": "—",
      "metarObsTime": null
    },
    "KFKL": {
      "status": "OK",
      "delay": "—",
      "metarCat": "IFR",
      "metarRaw": "METAR KFKL 162356Z AUTO 26012KT 1 1/2SM -SN BR OVC008 M03/M04 A2946 RMK AO2 PK WND 28026/2329 CIG 003V012 SLP984 P0004 60019 T10331039 10033 21033 53008 FZRANO",
      "metarObsTime": 1773705360
    },
    "KIDI": {
      "status": "OK",
      "delay": "—",
      "metarCat": "LIFR",
      "metarRaw": "METAR KIDI 170035Z AUTO 25015G22KT 1/4SM FZFG OVC002 M01/M01 A2949 RMK A01",
      "metarObsTime": 1773707700
    },
    "KMDT": {
      "status": "OK",
      "delay": "—",
      "metarCat": "MVFR",
      "metarRaw": "METAR KMDT 162356Z 16018G30KT 10SM BKN020 OVC028 16/14 A2920 RMK AO2 PK WND 15030/2352 SLP889 VCSH SW-NE 60007 T01610139 10178 20144 58050",
      "metarObsTime": 1773705360
    },
    "KCXY": {
      "status": "OK",
      "delay": "—",
      "metarCat": "MVFR",
      "metarRaw": "SPECI KCXY 170047Z 27015G33KT 3SM +RA BR FEW016 BKN025 OVC055 09/08 A2929 RMK AO2 PK WND 24039/0036 WSHFT 0027 RAB36 PRESRR P0007 T00890078",
      "metarObsTime": 1773708420
    },
    "KMUI": {
      "status": "OK",
      "delay": "—",
      "metarCat": "MVFR",
      "metarRaw": "METAR KMUI 162355Z 15011G17KT 10SM OVC011 17/17 A2922 RMK AO2A RAE00 PRESFR SLP896 60014 T01710168 10187 20156 58043",
      "metarObsTime": 1773705300
    },
    "KUNV": {
      "status": "OK",
      "delay": "—",
      "metarCat": "MVFR",
      "metarRaw": "METAR KUNV 162353Z 26016G23KT 5SM RA BR BKN019 OVC034 03/00 A2938",
      "metarObsTime": 1773705180
    },
    "KAOO": {
      "status": "OK",
      "delay": "—",
      "metarCat": "LIFR",
      "metarRaw": "SPECI KAOO 170037Z AUTO 28014G28KT 3/4SM -SN BR VV014 M01/M02 A2941 RMK AO2 PK WND 28034/0016 P0001 T10061017",
      "metarObsTime": 1773707820
    },
    "KLNS": {
      "status": "OK",
      "delay": "—",
      "metarCat": "MVFR",
      "metarRaw": "METAR KLNS 162353Z 16015G24KT 10SM BKN017 OVC027 17/14 A2927 RMK AO2 PK WND 15033/2313 RAB2255E04 SLP908 P0000 60024 T01670144 10178 20156 58044",
      "metarObsTime": 1773705180
    },
    "KIPT": {
      "status": "OK",
      "delay": "—",
      "metarCat": "MVFR",
      "metarRaw": "SPECI KIPT 170046Z 27018G28KT 3SM +RA BR BKN014 BKN028 OVC044 06/05 A2928 RMK AO2 PK WND 27029/0029 P0020 T00610050",
      "metarObsTime": 1773708360
    },
    "KPHL": {
      "status": "OK",
      "delay": "—",
      "metarCat": "MVFR",
      "metarRaw": "SPECI KPHL 170043Z 16018G29KT 10SM BKN014 OVC090 17/15 A2934 RMK AO2 PK WND 17029/0039 T01720150 $",
      "metarObsTime": 1773708180
    },
    "KABE": {
      "status": "OK",
      "delay": "—",
      "metarCat": "MVFR",
      "metarRaw": "METAR KABE 162351Z 16010G19KT 10SM OVC011 17/14 A2932 RMK AO2 RAE27 SLP928 P0002 60035 T01670144 10194 20156 58032 $",
      "metarObsTime": 1773705060
    },
    "KAVP": {
      "status": "OK",
      "delay": "—",
      "metarCat": "VFR",
      "metarRaw": "METAR KAVP 162354Z 16010G25KT 10SM OVC100 16/12 A2924 RMK AO2 PK WND 18027/2303 RAE53 PRESFR SLP898 P0001 60024 T01560122 10178 20156 58038",
      "metarObsTime": 1773705240
    },
    "KHZL": {
      "status": "OK",
      "delay": "—",
      "metarCat": "MVFR",
      "metarRaw": "METAR KHZL 170035Z AUTO 16011G24KT 130V200 10SM BKN012 OVC018 15/13 A2925 RMK AO2 LTG DSNT S",
      "metarObsTime": 1773707700
    }
  }
}