{
  "generatedAt": "2026-03-16T11:20:19.982Z",
  "airports": {
    "KPIT": {
      "status": "OK",
      "delay": "—",
      "metarCat": "VFR",
      "metarRaw": "METAR KPIT 161051Z 17009G20KT 10SM FEW060 BKN080 OVC220 16/11 A2934 RMK AO2 SLP938 T01560106 VISNO SE $",
      "metarObsTime": 1773658260
    },
    "KAGC": {
      "status": "OK",
      "delay": "—",
      "metarCat": "VFR",
      "metarRaw": "METAR KAGC 161053Z AUTO 15014G22KT 10SM BKN090 16/10 A2936 RMK AO2 PK WND 15027/1001 SLP940 T01560100",
      "metarObsTime": 1773658380
    },
    "KLBE": {
      "status": "OK",
      "delay": "—",
      "metarCat": "VFR",
      "metarRaw": "METAR KLBE 161050Z 14019G29KT 10SM CLR 16/11 A2943",
      "metarObsTime": 1773658200
    },
    "KJST": {
      "status": "OK",
      "delay": "—",
      "metarCat": "VFR",
      "metarRaw": "SPECI KJST 161104Z AUTO 16017G31KT 10SM SCT008 12/11 A2949 RMK AO2 PK WND 18031/1058 T01170106",
      "metarObsTime": 1773659040
    },
    "KERI": {
      "status": "OK",
      "delay": "—",
      "metarCat": "—",
      "metarRaw": "SPECI KERI 161110Z 18018G27KT 10SM 17/10 A2926 RMK AO2 PK WND 18029/1052 T01720100 $",
      "metarObsTime": 1773659400
    },
    "KDUJ": {
      "status": "OK",
      "delay": "—",
      "metarCat": "VFR",
      "metarRaw": "SPECI KDUJ 161110Z AUTO 14010G20KT 10SM SCT014 12/10 A2943 RMK AO2 T01170100 $",
      "metarObsTime": 1773659400
    },
    "KBFD": {
      "status": "OK",
      "delay": "—",
      "metarCat": "IFR",
      "metarRaw": "METAR KBFD 161053Z AUTO 15012G29KT 120V190 10SM OVC007 11/09 A2945 RMK AO2 PK WND 14032/1015 SLP972 T01060094",
      "metarObsTime": 1773658380
    },
    "KBTP": {
      "status": "OK",
      "delay": "—",
      "metarCat": "—",
      "metarRaw": "—",
      "metarObsTime": null
    },
    "KFKL": {
      "status": "OK",
      "delay": "—",
      "metarCat": "VFR",
      "metarRaw": "METAR KFKL 161056Z AUTO 15016G23KT 10SM OVC080 14/10 A2935 RMK AO2 PK WND 13026/0957 SLP936 T01390100",
      "metarObsTime": 1773658560
    },
    "KIDI": {
      "status": "OK",
      "delay": "—",
      "metarCat": "VFR",
      "metarRaw": "METAR KIDI 161115Z AUTO 14013G24KT 10SM FEW065 14/11 A2943 RMK A01",
      "metarObsTime": 1773659700
    },
    "KMDT": {
      "status": "OK",
      "delay": "—",
      "metarCat": "IFR",
      "metarRaw": "METAR KMDT 161056Z 13012KT 10SM OVC006 12/12 A2963 RMK AO2 CIG 005V010 SLP033 T01220122 $",
      "metarObsTime": 1773658560
    },
    "KCXY": {
      "status": "OK",
      "delay": "—",
      "metarCat": "IFR",
      "metarRaw": "METAR KCXY 161056Z 10010KT 10SM OVC008 13/12 A2963 RMK AO2 CIG 006V010 SLP035 T01280122",
      "metarObsTime": 1773658560
    },
    "KMUI": {
      "status": "OK",
      "delay": "—",
      "metarCat": "LIFR",
      "metarRaw": "METAR KMUI 161055Z 03004KT 2SM -RA BR OVC003 12/12 A2964 RMK AO2A RAB47 SLP041 T01200117",
      "metarObsTime": 1773658500
    },
    "KUNV": {
      "status": "OK",
      "delay": "—",
      "metarCat": "MVFR",
      "metarRaw": "METAR KUNV 161053Z 16008G16KT 10SM OVC012 13/12 A2956",
      "metarObsTime": 1773658380
    },
    "KAOO": {
      "status": "OK",
      "delay": "—",
      "metarCat": "IFR",
      "metarRaw": "METAR KAOO 161053Z AUTO 17016G26KT 10SM OVC009 13/12 A2954 RMK AO2 PK WND 16026/1052 CIG 007V013 SLP004 T01330122",
      "metarObsTime": 1773658380
    },
    "KLNS": {
      "status": "OK",
      "delay": "—",
      "metarCat": "LIFR",
      "metarRaw": "SPECI KLNS 161101Z 11007KT 4SM BR OVC004 13/13 A2967 RMK AO2 T01280128",
      "metarObsTime": 1773658860
    },
    "KIPT": {
      "status": "OK",
      "delay": "—",
      "metarCat": "MVFR",
      "metarRaw": "METAR KIPT 161054Z 11011G19KT 5SM BR BKN011 OVC016 12/11 A2960 RMK AO2 RAE03B37E46 SLP024 P0002 T01220111 $",
      "metarObsTime": 1773658440
    },
    "KPHL": {
      "status": "OK",
      "delay": "—",
      "metarCat": "IFR",
      "metarRaw": "SPECI KPHL 161115Z 17010G19KT 9SM -RA OVC006 16/14 A2972 RMK AO2 RAB15 CIG 005V009 P0000 T01560144 $",
      "metarObsTime": 1773659700
    },
    "KABE": {
      "status": "OK",
      "delay": "—",
      "metarCat": "IFR",
      "metarRaw": "SPECI KABE 161109Z 14006KT 9SM OVC005 12/11 A2971 RMK AO2 T01170111 $",
      "metarObsTime": 1773659340
    },
    "KAVP": {
      "status": "OK",
      "delay": "—",
      "metarCat": "VFR",
      "metarRaw": "METAR KAVP 161054Z 14010G21KT 110V180 8SM -RA FEW017 BKN032 OVC065 12/11 A2966 RMK AO2 PK WND 16030/0958 RAB31 SLP045 P0002 T01220106",
      "metarObsTime": 1773658440
    },
    "KHZL": {
      "status": "OK",
      "delay": "—",
      "metarCat": "IFR",
      "metarRaw": "METAR KHZL 161115Z AUTO 14006KT 5SM -DZ OVC005 10/09 A2969 RMK AO2",
      "metarObsTime": 1773659700
    }
  }
}