{
  "generatedAt": "2026-03-30T19:20:28.777Z",
  "airports": {
    "KPIT": {
      "status": "OK",
      "delay": "—",
      "metarCat": "VFR",
      "metarRaw": "METAR KPIT 301851Z 24007G18KT 10SM FEW050 BKN090 BKN140 20/08 A3009 RMK AO2 SLP193 T02000083",
      "metarObsTime": 1774896660
    },
    "KAGC": {
      "status": "OK",
      "delay": "—",
      "metarCat": "VFR",
      "metarRaw": "METAR KAGC 301853Z 22015G22KT 10SM BKN065 20/08 A3009 RMK AO2 SLP192 T02000078",
      "metarObsTime": 1774896780
    },
    "KLBE": {
      "status": "OK",
      "delay": "—",
      "metarCat": "VFR",
      "metarRaw": "METAR KLBE 301847Z 21015G25KT 20SM BKN060 20/09 A3013",
      "metarObsTime": 1774896420
    },
    "KJST": {
      "status": "OK",
      "delay": "—",
      "metarCat": "VFR",
      "metarRaw": "METAR KJST 301854Z AUTO 24013G21KT 10SM OVC060 16/07 A3012 RMK AO2 SLP198 T01560067",
      "metarObsTime": 1774896840
    },
    "KERI": {
      "status": "OK",
      "delay": "—",
      "metarCat": "VFR",
      "metarRaw": "METAR KERI 301851Z 26013G23KT 10SM OVC060 18/07 A3000 RMK AO2 SLP160 T01830072 $",
      "metarObsTime": 1774896660
    },
    "KDUJ": {
      "status": "OK",
      "delay": "—",
      "metarCat": "VFR",
      "metarRaw": "METAR KDUJ 301853Z AUTO 24019G26KT 10SM BKN055 18/06 A3006 RMK AO2 PK WND 26031/1802 SLP178 T01830056",
      "metarObsTime": 1774896780
    },
    "KBFD": {
      "status": "OK",
      "delay": "—",
      "metarCat": "VFR",
      "metarRaw": "METAR KBFD 301853Z AUTO VRB06KT 10SM OVC055 16/05 A3004 RMK AO2 SLP173 T01610050",
      "metarObsTime": 1774896780
    },
    "KBTP": {
      "status": "OK",
      "delay": "—",
      "metarCat": "VFR",
      "metarRaw": "METAR KBTP 301856Z AUTO 22012KT 10SM OVC090 18/08 A3010 RMK AO2 SLP195 T01830083 $",
      "metarObsTime": 1774896960
    },
    "KFKL": {
      "status": "OK",
      "delay": "—",
      "metarCat": "VFR",
      "metarRaw": "METAR KFKL 301856Z AUTO 21012G17KT 10SM BKN047 OVC080 19/08 A3006 RMK AO2 SLP178 T01890083",
      "metarObsTime": 1774896960
    },
    "KIDI": {
      "status": "OK",
      "delay": "—",
      "metarCat": "VFR",
      "metarRaw": "METAR KIDI 301915Z AUTO 24009G16KT 10SM OVC070 17/07 A3010 RMK A01",
      "metarObsTime": 1774898100
    },
    "KMDT": {
      "status": "OK",
      "delay": "—",
      "metarCat": "VFR",
      "metarRaw": "METAR KMDT 301856Z 21012G25KT 190V250 10SM SCT065 BKN100 18/07 A3011 RMK AO2 PK WND 21026/1827 SLP197 T01780067",
      "metarObsTime": 1774896960
    },
    "KCXY": {
      "status": "OK",
      "delay": "—",
      "metarCat": "VFR",
      "metarRaw": "METAR KCXY 301856Z 21010G20KT 10SM OVC090 20/07 A3011 RMK AO2 SLP197 T02000072",
      "metarObsTime": 1774896960
    },
    "KMUI": {
      "status": "OK",
      "delay": "—",
      "metarCat": "VFR",
      "metarRaw": "METAR KMUI 301855Z 20016KT 10SM BKN090 BKN250 21/07 A3008 RMK AO2A SLP190 T02080067",
      "metarObsTime": 1774896900
    },
    "KUNV": {
      "status": "OK",
      "delay": "—",
      "metarCat": "VFR",
      "metarRaw": "METAR KUNV 301853Z 25012G19KT 10SM BKN065 OVC080 20/07 A3008",
      "metarObsTime": 1774896780
    },
    "KAOO": {
      "status": "OK",
      "delay": "—",
      "metarCat": "VFR",
      "metarRaw": "METAR KAOO 301853Z AUTO 23013G23KT 10SM FEW070 BKN080 19/07 A3011 RMK AO2 SLP194 T01940072",
      "metarObsTime": 1774896780
    },
    "KLNS": {
      "status": "OK",
      "delay": "—",
      "metarCat": "VFR",
      "metarRaw": "METAR KLNS 301853Z 25014G22KT 10SM BKN090 19/08 A3012 RMK AO2 PK WND 24027/1832 SLP198 T01940078",
      "metarObsTime": 1774896780
    },
    "KIPT": {
      "status": "OK",
      "delay": "—",
      "metarCat": "VFR",
      "metarRaw": "METAR KIPT 301854Z 24017G24KT 10SM SCT085 22/05 A3002 RMK AO2 SLP164 T02170050 $",
      "metarObsTime": 1774896840
    },
    "KPHL": {
      "status": "OK",
      "delay": "—",
      "metarCat": "VFR",
      "metarRaw": "METAR KPHL 301854Z 23019G28KT 10SM BKN090 BKN300 22/08 A3015 RMK AO2 PK WND 24030/1828 SLP207 T02170078 $",
      "metarObsTime": 1774896840
    },
    "KABE": {
      "status": "OK",
      "delay": "—",
      "metarCat": "VFR",
      "metarRaw": "METAR KABE 301851Z 24017G23KT 10SM OVC090 20/04 A3008 RMK AO2 PK WND 23026/1801 SLP186 T02000044 $",
      "metarObsTime": 1774896660
    },
    "KAVP": {
      "status": "OK",
      "delay": "—",
      "metarCat": "VFR",
      "metarRaw": "METAR KAVP 301854Z 23014G23KT 10SM BKN075 20/02 A3005 RMK AO2 SLP175 T02000022",
      "metarObsTime": 1774896840
    },
    "KHZL": {
      "status": "OK",
      "delay": "—",
      "metarCat": "VFR",
      "metarRaw": "METAR KHZL 301915Z AUTO 20004KT 10SM CLR 19/01 A3011 RMK AO2",
      "metarObsTime": 1774898100
    }
  }
}