{
  "generatedAt": "2026-04-26T18:51:02.194Z",
  "faaFlow": {
    "updatedAt": "2026-04-26T18:51:01.111Z",
    "source": "https://www.fly.faa.gov/adv/adv_spt",
    "terminal": [
      {
        "time": "—",
        "text": "AFTER",
        "code": "FLOW",
        "label": "FAA flow impact",
        "level": "yellow",
        "section": "Terminal Planned",
        "airports": []
      },
      {
        "time": "1900",
        "text": "MIA/PBI/FLL GROUND STOP/DELAY PROGRAM POSSIBLE",
        "code": "GS",
        "label": "Ground stop possible",
        "level": "yellow",
        "section": "Terminal Planned",
        "airports": []
      },
      {
        "time": "—",
        "text": "AFTER",
        "code": "FLOW",
        "label": "FAA flow impact",
        "level": "yellow",
        "section": "Terminal Planned",
        "airports": []
      },
      {
        "time": "1900",
        "text": "DEN GROUND STOP/DELAY PROGRAM POSSIBLE",
        "code": "GS",
        "label": "Ground stop possible",
        "level": "yellow",
        "section": "Terminal Planned",
        "airports": []
      },
      {
        "time": "—",
        "text": "AFTER",
        "code": "FLOW",
        "label": "FAA flow impact",
        "level": "yellow",
        "section": "Terminal Planned",
        "airports": []
      },
      {
        "time": "2200",
        "text": "SFO GROUND STOP/DELAY PROGRAM POSSIBLE",
        "code": "GS",
        "label": "Ground stop possible",
        "level": "yellow",
        "section": "Terminal Planned",
        "airports": []
      }
    ],
    "enroute": [
      {
        "time": "—",
        "text": "UNTIL",
        "code": "FLOW",
        "label": "FAA flow impact",
        "level": "yellow",
        "section": "En Route Planned",
        "airports": []
      },
      {
        "time": "2300",
        "text": "DEN CDRS/SWAP/ARRIVAL ROUTES PROBABLE",
        "code": "ROUTE",
        "label": "Route impact possible",
        "level": "orange",
        "section": "En Route Planned",
        "airports": []
      },
      {
        "time": "—",
        "text": "UNTIL",
        "code": "FLOW",
        "label": "FAA flow impact",
        "level": "yellow",
        "section": "En Route Planned",
        "airports": []
      },
      {
        "time": "2300",
        "text": "AR/Y/OCEANIC ROUTE CLOSURES PROBABLE CDRS/SWAP/CAPPING/TUNNELING/HOTLINE/DIVERSION RECOVERY:",
        "code": "CLOSURE",
        "label": "Closure possible",
        "level": "orange",
        "section": "En Route Planned",
        "airports": []
      },
      {
        "time": "—",
        "text": "UNTIL",
        "code": "FLOW",
        "label": "FAA flow impact",
        "level": "yellow",
        "section": "En Route Planned",
        "airports": []
      },
      {
        "time": "1900",
        "text": "AR/ATLANTIC/Y ROUTE TUNNELING RUNWAY/EQUIPMENT/POSSIBLE SYSTEM IMPACT REPORTS(SIRs): DFW - TXY G CLOSURE UNTIL 4/30/26",
        "code": "CLOSURE",
        "label": "Closure possible",
        "level": "yellow",
        "section": "En Route Planned",
        "airports": []
      },
      {
        "time": "—",
        "text": "2026",
        "code": "FLOW",
        "label": "FAA flow impact",
        "level": "yellow",
        "section": "En Route Planned",
        "airports": []
      },
      {
        "time": "2026",
        "text": "HOU - PROCEDURAL ADJUSTMENT UNTIL 05/31/26",
        "code": "FLOW",
        "label": "FAA flow impact",
        "level": "yellow",
        "section": "En Route Planned",
        "airports": []
      }
    ],
    "airports": {
      "KPIT": null,
      "KAGC": null,
      "KLBE": null,
      "KJST": null,
      "KERI": null,
      "KDUJ": null,
      "KBFD": null,
      "KBTP": null,
      "KFKL": null,
      "KIDI": null,
      "KMDT": null,
      "KCXY": null,
      "KMUI": null,
      "KUNV": null,
      "KAOO": null,
      "KLNS": null,
      "KIPT": null,
      "KPHL": null,
      "KABE": null,
      "KAVP": null,
      "KHZL": null
    }
  },
  "airports": {
    "KPIT": {
      "status": "OK",
      "delay": "—",
      "metarCat": "MVFR",
      "metarRaw": "METAR KPIT 261751Z 03006KT 10SM OVC023 13/07 A3011 RMK AO2 SLP205 60000 T01280067 10128 20072 56002",
      "metarObsTime": 1777225860,
      "faaFlow": null
    },
    "KAGC": {
      "status": "OK",
      "delay": "—",
      "metarCat": "VFR",
      "metarRaw": "SPECI KAGC 261844Z VRB06KT 10SM FEW024 13/07 A3010 RMK AO2 T01280067",
      "metarObsTime": 1777229040,
      "faaFlow": null
    },
    "KLBE": {
      "status": "OK",
      "delay": "—",
      "metarCat": "VFR",
      "metarRaw": "METAR KLBE 261847Z 01010KT 20SM SCT025 14/08 A3012",
      "metarObsTime": 1777229220,
      "faaFlow": null
    },
    "KJST": {
      "status": "OK",
      "delay": "—",
      "metarCat": "MVFR",
      "metarRaw": "METAR KJST 261754Z AUTO 05007KT 10SM OVC010 07/04 A3010 RMK AO2 SLP202 60000 T00720039 10072 20044 51001",
      "metarObsTime": 1777226040,
      "faaFlow": null
    },
    "KERI": {
      "status": "OK",
      "delay": "—",
      "metarCat": "VFR",
      "metarRaw": "METAR KERI 261751Z 03012KT 10SM CLR 11/07 A3014 RMK AO2 SLP209 T01110067 10111 20067 56007",
      "metarObsTime": 1777225860,
      "faaFlow": null
    },
    "KDUJ": {
      "status": "OK",
      "delay": "—",
      "metarCat": "MVFR",
      "metarRaw": "SPECI KDUJ 261805Z AUTO 05009KT 10SM OVC015 09/04 A3012 RMK AO2 T00890044",
      "metarObsTime": 1777226700,
      "faaFlow": null
    },
    "KBFD": {
      "status": "OK",
      "delay": "—",
      "metarCat": "VFR",
      "metarRaw": "SPECI KBFD 261839Z AUTO 00000KT 10SM SCT021 09/03 A3013 RMK AO2 T00940033 $",
      "metarObsTime": 1777228740,
      "faaFlow": null
    },
    "KBTP": {
      "status": "OK",
      "delay": "—",
      "metarCat": "MVFR",
      "metarRaw": "METAR KBTP 261756Z AUTO 09008KT 10SM OVC020 12/07 A3013 RMK AO2 SLP213 T01170072 10117 20072 53002 $",
      "metarObsTime": 1777226160,
      "faaFlow": null
    },
    "KFKL": {
      "status": "OK",
      "delay": "—",
      "metarCat": "—",
      "metarRaw": "—",
      "metarObsTime": null,
      "faaFlow": null
    },
    "KIDI": {
      "status": "OK",
      "delay": "—",
      "metarCat": "MVFR",
      "metarRaw": "METAR KIDI 261835Z AUTO 05009KT 10SM OVC021 10/06 A3014 RMK A01",
      "metarObsTime": 1777228500,
      "faaFlow": null
    },
    "KMDT": {
      "status": "OK",
      "delay": "—",
      "metarCat": "MVFR",
      "metarRaw": "METAR KMDT 261756Z 00000KT 10SM OVC030 13/06 A3011 RMK AO2 SLP199 T01330061 10133 20067 58004",
      "metarObsTime": 1777226160,
      "faaFlow": null
    },
    "KCXY": {
      "status": "OK",
      "delay": "—",
      "metarCat": "MVFR",
      "metarRaw": "METAR KCXY 261756Z 33004KT 10SM OVC030 12/06 A3012 RMK AO2 SLP201 T01220056 10122 20067 58003",
      "metarObsTime": 1777226160,
      "faaFlow": null
    },
    "KMUI": {
      "status": "OK",
      "delay": "—",
      "metarCat": "VFR",
      "metarRaw": "SPECI KMUI 261803Z AUTO 06005KT 10SM OVC031 16/10 A3010 RMK AO2 SLP196",
      "metarObsTime": 1777226580,
      "faaFlow": null
    },
    "KUNV": {
      "status": "OK",
      "delay": "—",
      "metarCat": "MVFR",
      "metarRaw": "METAR KUNV 261753Z 10003KT 10SM BKN027 OVC034 11/04 A3013",
      "metarObsTime": 1777225980,
      "faaFlow": null
    },
    "KAOO": {
      "status": "OK",
      "delay": "—",
      "metarCat": "MVFR",
      "metarRaw": "METAR KAOO 261753Z AUTO 01009KT 10SM OVC015 08/04 A3014 RMK AO2 SLP212 T00780044 10078 20050 51001",
      "metarObsTime": 1777225980,
      "faaFlow": null
    },
    "KLNS": {
      "status": "OK",
      "delay": "—",
      "metarCat": "VFR",
      "metarRaw": "METAR KLNS 261753Z 08007KT 10SM SCT028 SCT035 OVC048 13/06 A3010 RMK AO2 SLP195 T01280061 10133 20061 56005",
      "metarObsTime": 1777225980,
      "faaFlow": null
    },
    "KIPT": {
      "status": "OK",
      "delay": "—",
      "metarCat": "VFR",
      "metarRaw": "METAR KIPT 261754Z 06007KT 10SM OVC038 13/05 A3012 RMK AO2 SLP201 T01330050 10133 20072 58005 $",
      "metarObsTime": 1777226040,
      "faaFlow": null
    },
    "KPHL": {
      "status": "OK",
      "delay": "—",
      "metarCat": "MVFR",
      "metarRaw": "METAR KPHL 261754Z 03012KT 10SM OVC024 12/06 A3012 RMK AO2 SLP199 T01170056 10117 20072 50002 $",
      "metarObsTime": 1777226040,
      "faaFlow": null
    },
    "KABE": {
      "status": "OK",
      "delay": "—",
      "metarCat": "VFR",
      "metarRaw": "METAR KABE 261751Z 05006KT 10SM OVC039 14/05 A3010 RMK AO2 SLP194 T01390050 10139 20061 58004 $",
      "metarObsTime": 1777225860,
      "faaFlow": null
    },
    "KAVP": {
      "status": "OK",
      "delay": "—",
      "metarCat": "VFR",
      "metarRaw": "METAR KAVP 261754Z 02007KT 340V050 10SM SCT045 15/04 A3010 RMK AO2 SLP192 T01500039 10150 20056 58007",
      "metarObsTime": 1777226040,
      "faaFlow": null
    },
    "KHZL": {
      "status": "OK",
      "delay": "—",
      "metarCat": "VFR",
      "metarRaw": "METAR KHZL 261835Z AUTO 34005KT 10SM OVC035 12/03 A3013 RMK AO2",
      "metarObsTime": 1777228500,
      "faaFlow": null
    }
  }
}