{
  "generatedAt": "2026-03-08T15:10:17.604Z",
  "airports": {
    "KPIT": {
      "status": "OK",
      "delay": "—",
      "metarCat": "VFR",
      "metarRaw": "METAR KPIT 081451Z 27008G20KT 10SM SCT029 SCT250 11/04 A2992 RMK AO2 SLP140 T01060044 51017",
      "metarObsTime": 1772981460
    },
    "KAGC": {
      "status": "OK",
      "delay": "—",
      "metarCat": "MVFR",
      "metarRaw": "METAR KAGC 081453Z 27013G24KT 10SM BKN020 OVC043 11/06 A2992 RMK AO2 SLP134 T01060061 51019",
      "metarObsTime": 1772981580
    },
    "KLBE": {
      "status": "OK",
      "delay": "—",
      "metarCat": "MVFR",
      "metarRaw": "METAR KLBE 081447Z 26013G27KT 10SM OVC019 12/09 A2993",
      "metarObsTime": 1772981220
    },
    "KJST": {
      "status": "OK",
      "delay": "—",
      "metarCat": "IFR",
      "metarRaw": "METAR KJST 081454Z AUTO 28009G19KT 10SM OVC007 09/08 A2988 RMK AO2 PK WND 29027/1435 SLP118 60000 T00890078 51019",
      "metarObsTime": 1772981640
    },
    "KERI": {
      "status": "OK",
      "delay": "—",
      "metarCat": "VFR",
      "metarRaw": "METAR KERI 081451Z 26013G22KT 10SM OVC032 06/03 A2992 RMK AO2 SLP132 T00560028 51015",
      "metarObsTime": 1772981460
    },
    "KDUJ": {
      "status": "OK",
      "delay": "—",
      "metarCat": "MVFR",
      "metarRaw": "METAR KDUJ 081453Z AUTO 27013G19KT 10SM BKN022 08/03 A2987 RMK AO2 PK WND 28026/1418 SLP114 T00830033 51017",
      "metarObsTime": 1772981580
    },
    "KBFD": {
      "status": "OK",
      "delay": "—",
      "metarCat": "MVFR",
      "metarRaw": "METAR KBFD 081453Z AUTO 28016G22KT 10SM OVC019 06/01 A2985 RMK AO2 SLP108 T00560011 51014",
      "metarObsTime": 1772981580
    },
    "KBTP": {
      "status": "OK",
      "delay": "—",
      "metarCat": "MVFR",
      "metarRaw": "METAR KBTP 081456Z AUTO 28011KT 10SM OVC021 09/06 A2993 RMK AO2 SLP140 T00940061 50016 $",
      "metarObsTime": 1772981760
    },
    "KFKL": {
      "status": "OK",
      "delay": "—",
      "metarCat": "MVFR",
      "metarRaw": "METAR KFKL 081456Z AUTO 27013KT 10SM OVC021 07/03 A2992 RMK AO2 SLP134 T00720028 53014",
      "metarObsTime": 1772981760
    },
    "KIDI": {
      "status": "OK",
      "delay": "—",
      "metarCat": "MVFR",
      "metarRaw": "METAR KIDI 081455Z AUTO 27011KT 10SM OVC019 10/07 A2991 RMK A01",
      "metarObsTime": 1772981700
    },
    "KMDT": {
      "status": "OK",
      "delay": "—",
      "metarCat": "MVFR",
      "metarRaw": "METAR KMDT 081456Z 26003KT 3SM BR FEW010 BKN250 11/11 A2982 RMK AO2 SLP100 T01110106 51002",
      "metarObsTime": 1772981760
    },
    "KCXY": {
      "status": "OK",
      "delay": "—",
      "metarCat": "VFR",
      "metarRaw": "METAR KCXY 081456Z 00000KT 9SM CLR 13/11 A2983 RMK AO2 SLP104 T01280111 53002",
      "metarObsTime": 1772981760
    },
    "KMUI": {
      "status": "OK",
      "delay": "—",
      "metarCat": "VFR",
      "metarRaw": "SPECI KMUI 081503Z AUTO 00000KT 9SM SCT002 BKN220 13/13 A2981 RMK AO2 SLP098",
      "metarObsTime": 1772982180
    },
    "KUNV": {
      "status": "OK",
      "delay": "—",
      "metarCat": "MVFR",
      "metarRaw": "METAR KUNV 081453Z 29017G21KT 10SM OVC024 12/07 A2986",
      "metarObsTime": 1772981580
    },
    "KAOO": {
      "status": "OK",
      "delay": "—",
      "metarCat": "—",
      "metarRaw": "—",
      "metarObsTime": null
    },
    "KLNS": {
      "status": "OK",
      "delay": "—",
      "metarCat": "VFR",
      "metarRaw": "METAR KLNS 081453Z 00000KT 6SM BR CLR 13/12 A2983 RMK AO2 SLP100 T01330122 50002",
      "metarObsTime": 1772981580
    },
    "KIPT": {
      "status": "OK",
      "delay": "—",
      "metarCat": "MVFR",
      "metarRaw": "METAR KIPT 081454Z 00000KT 4SM BR OVC039 09/09 A2983 RMK AO2 SLP102 T00890089 51013",
      "metarObsTime": 1772981640
    },
    "KPHL": {
      "status": "OK",
      "delay": "—",
      "metarCat": "MVFR",
      "metarRaw": "METAR KPHL 081454Z 21006G19KT 5SM BR SCT070 OVC110 14/12 A2984 RMK AO2 RAB04E14 SLP104 P0000 60001 T01390117 50006 $",
      "metarObsTime": 1772981640
    },
    "KABE": {
      "status": "OK",
      "delay": "—",
      "metarCat": "VFR",
      "metarRaw": "METAR KABE 081451Z 22006KT 10SM CLR 13/12 A2980 RMK AO2 SLP093 T01330122 50002",
      "metarObsTime": 1772981460
    },
    "KAVP": {
      "status": "OK",
      "delay": "—",
      "metarCat": "VFR",
      "metarRaw": "METAR KAVP 081454Z 24008KT 10SM SCT040 BKN060 14/11 A2980 RMK AO2 SLP089 T01440111 51012",
      "metarObsTime": 1772981640
    },
    "KHZL": {
      "status": "OK",
      "delay": "—",
      "metarCat": "MVFR",
      "metarRaw": "METAR KHZL 081455Z AUTO 29006KT 10SM SCT019 BKN025 OVC041 15/10 A2983 RMK AO2",
      "metarObsTime": 1772981700
    }
  }
}