{
  "generatedAt": "2026-04-10T23:30:42.716Z",
  "airports": {
    "KPIT": {
      "status": "OK",
      "delay": "—",
      "metarCat": "VFR",
      "metarRaw": "METAR KPIT 102251Z 31014G20KT 6SM -RA BR FEW024 SCT055 OVC080 16/12 A3017 RMK AO2 SLP221 P0001 T01560122",
      "metarObsTime": 1775861460
    },
    "KAGC": {
      "status": "OK",
      "delay": "—",
      "metarCat": "VFR",
      "metarRaw": "METAR KAGC 102253Z 33012KT 10SM OVC080 16/11 A3016 RMK AO2 RAB40E50 SLP215 P0000 T01610111",
      "metarObsTime": 1775861580
    },
    "KLBE": {
      "status": "OK",
      "delay": "—",
      "metarCat": "VFR",
      "metarRaw": "METAR KLBE 102247Z 36007G20KT 9SM BKN095 18/11 A3016",
      "metarObsTime": 1775861220
    },
    "KJST": {
      "status": "OK",
      "delay": "—",
      "metarCat": "VFR",
      "metarRaw": "METAR KJST 102254Z AUTO 32016G22KT 10SM BKN085 BKN110 16/09 A3015 RMK AO2 PK WND 25029/2203 WSHFT 2223 SLP208 T01560089",
      "metarObsTime": 1775861640
    },
    "KERI": {
      "status": "OK",
      "delay": "—",
      "metarCat": "IFR",
      "metarRaw": "METAR KERI 102251Z 28009KT 5SM BR BKN009 OVC028 08/07 A3018 RMK AO2 CIG 006V013 SLP222 T00780067 $",
      "metarObsTime": 1775861460
    },
    "KDUJ": {
      "status": "OK",
      "delay": "—",
      "metarCat": "MVFR",
      "metarRaw": "SPECI KDUJ 102320Z AUTO 26006KT 4SM -RA BR FEW021 BKN060 OVC075 12/11 A3016 RMK AO2 P0005 T01220111",
      "metarObsTime": 1775863200
    },
    "KBFD": {
      "status": "OK",
      "delay": "—",
      "metarCat": "IFR",
      "metarRaw": "METAR KBFD 102253Z AUTO VRB05KT 10SM -RA BKN007 OVC012 11/11 A3014 RMK AO2 SLP208 P0004 T01110106",
      "metarObsTime": 1775861580
    },
    "KBTP": {
      "status": "OK",
      "delay": "—",
      "metarCat": "MVFR",
      "metarRaw": "SPECI KBTP 102303Z AUTO 28008KT 6SM -RA BR BKN010 OVC060 13/13 A3019 RMK AO2 P0000 $",
      "metarObsTime": 1775862180
    },
    "KFKL": {
      "status": "OK",
      "delay": "—",
      "metarCat": "IFR",
      "metarRaw": "METAR KFKL 102256Z AUTO 26007KT 10SM -RA OVC005 13/12 A3016 RMK AO2 SLP219 P0006 T01280122",
      "metarObsTime": 1775861760
    },
    "KIDI": {
      "status": "OK",
      "delay": "—",
      "metarCat": "VFR",
      "metarRaw": "METAR KIDI 102315Z AUTO VRB03G10KT 8SM SCT015 SCT055 OVC080 14/12 A3018 RMK A01",
      "metarObsTime": 1775862900
    },
    "KMDT": {
      "status": "OK",
      "delay": "—",
      "metarCat": "VFR",
      "metarRaw": "METAR KMDT 102256Z 18013G21KT 10SM FEW150 SCT250 22/07 A3008 RMK AO2 SLP188 T02170067",
      "metarObsTime": 1775861760
    },
    "KCXY": {
      "status": "OK",
      "delay": "—",
      "metarCat": "VFR",
      "metarRaw": "METAR KCXY 102256Z 19010KT 10SM CLR 23/07 A3008 RMK AO2 SLP188 T02280067 $",
      "metarObsTime": 1775861760
    },
    "KMUI": {
      "status": "OK",
      "delay": "—",
      "metarCat": "—",
      "metarRaw": "—",
      "metarObsTime": null
    },
    "KUNV": {
      "status": "OK",
      "delay": "—",
      "metarCat": "VFR",
      "metarRaw": "METAR KUNV 102253Z 31014G22KT 10SM OVC100 21/07 A3010",
      "metarObsTime": 1775861580
    },
    "KAOO": {
      "status": "OK",
      "delay": "—",
      "metarCat": "VFR",
      "metarRaw": "METAR KAOO 102253Z AUTO 27012G22KT 10SM OVC100 23/00 A3011 RMK AO2 SLP192 T02280000",
      "metarObsTime": 1775861580
    },
    "KLNS": {
      "status": "OK",
      "delay": "—",
      "metarCat": "VFR",
      "metarRaw": "METAR KLNS 102253Z 19009KT 10SM CLR 19/07 A3012 RMK AO2 SLP199 T01890072",
      "metarObsTime": 1775861580
    },
    "KIPT": {
      "status": "OK",
      "delay": "—",
      "metarCat": "VFR",
      "metarRaw": "METAR KIPT 102254Z 17013G26KT 10SM OVC110 22/07 A3003 RMK AO2 PK WND 16026/2200 SLP168 T02170067",
      "metarObsTime": 1775861640
    },
    "KPHL": {
      "status": "OK",
      "delay": "—",
      "metarCat": "VFR",
      "metarRaw": "METAR KPHL 102254Z 20010KT 10SM SCT260 19/07 A3015 RMK AO2 SLP208 T01940067 $",
      "metarObsTime": 1775861640
    },
    "KABE": {
      "status": "OK",
      "delay": "—",
      "metarCat": "VFR",
      "metarRaw": "METAR KABE 102251Z 20011KT 10SM CLR 21/04 A3010 RMK AO2 SLP193 T02060044 $",
      "metarObsTime": 1775861460
    },
    "KAVP": {
      "status": "OK",
      "delay": "—",
      "metarCat": "VFR",
      "metarRaw": "METAR KAVP 102254Z AUTO 19008G24KT 150V230 10SM CLR 20/06 A3007 RMK AO2 SLP183 T02000056",
      "metarObsTime": 1775861640
    },
    "KHZL": {
      "status": "OK",
      "delay": "—",
      "metarCat": "VFR",
      "metarRaw": "METAR KHZL 102315Z AUTO 16006KT 10SM SCT110 18/06 A3013 RMK AO2",
      "metarObsTime": 1775862900
    }
  }
}