{
  "generatedAt": "2026-03-16T20:40:14.685Z",
  "airports": {
    "KPIT": {
      "status": "OK",
      "delay": "—",
      "metarCat": "IFR",
      "metarRaw": "SPECI KPIT 162034Z 24011G17KT 1 1/2SM -SN BR SCT009 OVC014 02/00 A2949 RMK AO2 RAE24SNB06 P0002 T00220000 $",
      "metarObsTime": 1773693240
    },
    "KAGC": {
      "status": "OK",
      "delay": "—",
      "metarCat": "IFR",
      "metarRaw": "SPECI KAGC 162032Z 30009G20KT 1 3/4SM -PL BR FEW006 BKN018 OVC048 02/01 A2946 RMK AO2 RAB13E20PLB20 P0002 T00220006",
      "metarObsTime": 1773693120
    },
    "KLBE": {
      "status": "OK",
      "delay": "—",
      "metarCat": "MVFR",
      "metarRaw": "METAR KLBE 161947Z 26012G27KT 6SM -RA BR BKN019 OVC027 05/04 A2946",
      "metarObsTime": 1773690420
    },
    "KJST": {
      "status": "OK",
      "delay": "—",
      "metarCat": "LIFR",
      "metarRaw": "METAR KJST 161954Z AUTO 28015G23KT 7SM -RA BKN004 OVC011 05/04 A2937 RMK AO2 CIG 003V008 SLP951 P0005 T00500044",
      "metarObsTime": 1773690840
    },
    "KERI": {
      "status": "OK",
      "delay": "—",
      "metarCat": "IFR",
      "metarRaw": "SPECI KERI 162022Z 25014G28KT 1 3/4SM -SN BKN035 OVC050 01/M03 A2944 RMK AO2 PK WND 27032/2005 UPB09E11SNE02B11 P0000 T00111028 $",
      "metarObsTime": 1773692520
    },
    "KDUJ": {
      "status": "OK",
      "delay": "—",
      "metarCat": "IFR",
      "metarRaw": "SPECI KDUJ 162000Z AUTO 26015G28KT 4SM -RA BR BKN009 OVC016 04/03 A2938 RMK AO2 P0000 T00440033",
      "metarObsTime": 1773691200
    },
    "KBFD": {
      "status": "OK",
      "delay": "—",
      "metarCat": "MVFR",
      "metarRaw": "SPECI KBFD 162029Z AUTO 27010G29KT 3SM -RA BR SCT007 BKN014 OVC019 04/03 A2936 RMK AO2 PK WND 27029/2023 RAB10 P0000 T00440028",
      "metarObsTime": 1773692940
    },
    "KBTP": {
      "status": "OK",
      "delay": "—",
      "metarCat": "—",
      "metarRaw": "—",
      "metarObsTime": null
    },
    "KFKL": {
      "status": "OK",
      "delay": "—",
      "metarCat": "MVFR",
      "metarRaw": "SPECI KFKL 162034Z AUTO 26010KT 4SM -SN BR BKN010 OVC018 01/00 A2943 RMK AO2 CIG 006V013 P0001 FZRANO",
      "metarObsTime": 1773693240
    },
    "KIDI": {
      "status": "OK",
      "delay": "—",
      "metarCat": "IFR",
      "metarRaw": "METAR KIDI 162035Z AUTO 28013G19KT 2SM BR SCT009 BKN015 BKN020 04/03 A2941 RMK A01",
      "metarObsTime": 1773693300
    },
    "KMDT": {
      "status": "OK",
      "delay": "—",
      "metarCat": "VFR",
      "metarRaw": "SPECI KMDT 162021Z 15012G21KT 10SM -RA SCT017 OVC100 16/14 A2937 RMK AO2 RAB05 P0000 T01560139",
      "metarObsTime": 1773692460
    },
    "KCXY": {
      "status": "OK",
      "delay": "—",
      "metarCat": "VFR",
      "metarRaw": "SPECI KCXY 162027Z 15013G21KT 10SM -RA SCT018 OVC100 17/14 A2936 RMK AO2 P0001 T01720144",
      "metarObsTime": 1773692820
    },
    "KMUI": {
      "status": "OK",
      "delay": "—",
      "metarCat": "MVFR",
      "metarRaw": "SPECI KMUI 162028Z 17010G15KT 8SM -RA FEW006 BKN015 OVC075 17/17 A2937 RMK AO2A SLP948",
      "metarObsTime": 1773692880
    },
    "KUNV": {
      "status": "OK",
      "delay": "—",
      "metarCat": "VFR",
      "metarRaw": "METAR KUNV 161953Z 16005G12KT 10SM SCT025 BKN070 OVC095 17/13 A2930",
      "metarObsTime": 1773690780
    },
    "KAOO": {
      "status": "OK",
      "delay": "—",
      "metarCat": "IFR",
      "metarRaw": "SPECI KAOO 162036Z AUTO 31014G31KT 1 1/2SM +RA BR FEW009 BKN018 OVC060 09/08 A2930 RMK AO2 PK WND 30031/2030 WSHFT 2019 RAB01 P0012 T00940078",
      "metarObsTime": 1773693360
    },
    "KLNS": {
      "status": "OK",
      "delay": "—",
      "metarCat": "VFR",
      "metarRaw": "METAR KLNS 161953Z 18014G23KT 7SM -RA FEW048 OVC080 17/16 A2941 RMK AO2 PK WND 20028/1859 RAE03B23 SLP960 P0010 T01720156",
      "metarObsTime": 1773690780
    },
    "KIPT": {
      "status": "OK",
      "delay": "—",
      "metarCat": "MVFR",
      "metarRaw": "SPECI KIPT 162018Z 10011G20KT 7SM -RA SCT023 BKN029 OVC048 18/14 A2930 RMK AO2 RAB1955 PRESFR P0001 T01780144",
      "metarObsTime": 1773692280
    },
    "KPHL": {
      "status": "OK",
      "delay": "—",
      "metarCat": "MVFR",
      "metarRaw": "SPECI KPHL 162006Z 18015G27KT 10SM -RA BKN016 BKN080 OVC100 18/16 A2950 RMK AO2 PK WND 16027/1957 P0000 T01830161 $",
      "metarObsTime": 1773691560
    },
    "KABE": {
      "status": "OK",
      "delay": "—",
      "metarCat": "MVFR",
      "metarRaw": "METAR KABE 161951Z 18014G24KT 10SM OVC022 19/15 A2946 RMK AO2 PK WND 19028/1921 RAB11E35 SLP975 P0000 T01890150",
      "metarObsTime": 1773690660
    },
    "KAVP": {
      "status": "OK",
      "delay": "—",
      "metarCat": "VFR",
      "metarRaw": "METAR KAVP 161954Z 19009G23KT 150V210 10SM OVC100 18/14 A2939 RMK AO2 PK WND 21034/1859 RAE50 SLP948 P0001 T01780139",
      "metarObsTime": 1773690840
    },
    "KHZL": {
      "status": "OK",
      "delay": "—",
      "metarCat": "MVFR",
      "metarRaw": "METAR KHZL 162035Z AUTO 16006G19KT 7SM -RA BKN012 BKN036 OVC065 15/13 A2942 RMK AO2 P0006",
      "metarObsTime": 1773693300
    }
  }
}