{
  "generatedAt": "2026-03-09T02:40:13.893Z",
  "airports": {
    "KPIT": {
      "status": "OK",
      "delay": "—",
      "metarCat": "VFR",
      "metarRaw": "METAR KPIT 090151Z 24004KT 10SM FEW250 11/M04 A2996 RMK AO2 SLP155 T01111039",
      "metarObsTime": 1773021060
    },
    "KAGC": {
      "status": "OK",
      "delay": "—",
      "metarCat": "VFR",
      "metarRaw": "METAR KAGC 090153Z 19004KT 10SM CLR 12/M04 A2995 RMK AO2 SLP150 T01171044",
      "metarObsTime": 1773021180
    },
    "KLBE": {
      "status": "OK",
      "delay": "—",
      "metarCat": "—",
      "metarRaw": "—",
      "metarObsTime": null
    },
    "KJST": {
      "status": "OK",
      "delay": "—",
      "metarCat": "VFR",
      "metarRaw": "METAR KJST 090154Z AUTO 24007KT 10SM CLR 09/M04 A2996 RMK AO2 SLP150 T00891039",
      "metarObsTime": 1773021240
    },
    "KERI": {
      "status": "OK",
      "delay": "—",
      "metarCat": "VFR",
      "metarRaw": "METAR KERI 090151Z 20011KT 10SM CLR 12/M03 A2988 RMK AO2 SLP121 T01171028",
      "metarObsTime": 1773021060
    },
    "KDUJ": {
      "status": "OK",
      "delay": "—",
      "metarCat": "VFR",
      "metarRaw": "METAR KDUJ 090153Z AUTO 24007KT 10SM CLR 08/M04 A2993 RMK AO2 SLP140 T00831044",
      "metarObsTime": 1773021180
    },
    "KBFD": {
      "status": "OK",
      "delay": "—",
      "metarCat": "VFR",
      "metarRaw": "METAR KBFD 090153Z AUTO 22004KT 10SM CLR 08/M04 A2991 RMK AO2 SLP134 T00831044 $",
      "metarObsTime": 1773021180
    },
    "KBTP": {
      "status": "OK",
      "delay": "—",
      "metarCat": "VFR",
      "metarRaw": "METAR KBTP 090156Z AUTO 23006KT 10SM CLR 11/M02 A2997 RMK AO2 SLP157 T01061022 $",
      "metarObsTime": 1773021360
    },
    "KFKL": {
      "status": "OK",
      "delay": "—",
      "metarCat": "VFR",
      "metarRaw": "METAR KFKL 090156Z AUTO 23007KT 10SM CLR 09/M03 A2994 RMK AO2 SLP144 T00941028",
      "metarObsTime": 1773021360
    },
    "KIDI": {
      "status": "OK",
      "delay": "—",
      "metarCat": "VFR",
      "metarRaw": "METAR KIDI 090235Z AUTO 24004KT 10SM CLR 08/M02 A2998 RMK A01",
      "metarObsTime": 1773023700
    },
    "KMDT": {
      "status": "OK",
      "delay": "—",
      "metarCat": "VFR",
      "metarRaw": "METAR KMDT 090156Z 35003KT 10SM SCT200 08/04 A2994 RMK AO2 SLP141 T00780039",
      "metarObsTime": 1773021360
    },
    "KCXY": {
      "status": "OK",
      "delay": "—",
      "metarCat": "VFR",
      "metarRaw": "METAR KCXY 090156Z AUTO 28003KT 10SM CLR 08/03 A2995 RMK AO2 SLP143 T00830028",
      "metarObsTime": 1773021360
    },
    "KMUI": {
      "status": "OK",
      "delay": "—",
      "metarCat": "VFR",
      "metarRaw": "METAR KMUI 090155Z AUTO 28008KT 10SM CLR 16/M04 A2992 RMK AO2 SLP135 T01591041",
      "metarObsTime": 1773021300
    },
    "KUNV": {
      "status": "OK",
      "delay": "—",
      "metarCat": "VFR",
      "metarRaw": "METAR KUNV 090235Z AUTO 22005KT 10SM CLR 10/M03 A2996 RMK AO2 T00951034",
      "metarObsTime": 1773023700
    },
    "KAOO": {
      "status": "OK",
      "delay": "—",
      "metarCat": "VFR",
      "metarRaw": "METAR KAOO 090153Z AUTO 15007KT 10SM CLR 07/M02 A2997 RMK AO2 SLP155 T00671017",
      "metarObsTime": 1773021180
    },
    "KLNS": {
      "status": "OK",
      "delay": "—",
      "metarCat": "VFR",
      "metarRaw": "METAR KLNS 090153Z 30004KT 10SM CLR 11/06 A2994 RMK AO2 SLP139 T01060061",
      "metarObsTime": 1773021180
    },
    "KIPT": {
      "status": "OK",
      "delay": "—",
      "metarCat": "VFR",
      "metarRaw": "METAR KIPT 090154Z 00000KT 10SM CLR 06/01 A2993 RMK AO2 SLP136 T00560006",
      "metarObsTime": 1773021240
    },
    "KPHL": {
      "status": "OK",
      "delay": "—",
      "metarCat": "VFR",
      "metarRaw": "METAR KPHL 090154Z 23003KT 10SM SCT200 BKN250 13/09 A2993 RMK AO2 SLP134 T01330089 $",
      "metarObsTime": 1773021240
    },
    "KABE": {
      "status": "OK",
      "delay": "—",
      "metarCat": "VFR",
      "metarRaw": "METAR KABE 090151Z 00000KT 10SM CLR 11/06 A2993 RMK AO2 SLP135 T01110056",
      "metarObsTime": 1773021060
    },
    "KAVP": {
      "status": "OK",
      "delay": "—",
      "metarCat": "VFR",
      "metarRaw": "METAR KAVP 090154Z 16003KT 10SM CLR 10/M02 A2992 RMK AO2 SLP131 T01001017",
      "metarObsTime": 1773021240
    },
    "KHZL": {
      "status": "OK",
      "delay": "—",
      "metarCat": "VFR",
      "metarRaw": "METAR KHZL 090235Z AUTO 00000KT 10SM CLR 11/M05 A2997 RMK AO2",
      "metarObsTime": 1773023700
    }
  }
}