{
  "generatedAt": "2026-04-15T03:20:45.676Z",
  "airports": {
    "KPIT": {
      "status": "OK",
      "delay": "—",
      "metarCat": "VFR",
      "metarRaw": "METAR KPIT 150251Z 16005KT 10SM -RA SCT050 BKN100 OVC200 18/17 A2996 RMK AO2 RAB45 SLP145 OCNL LTG DSNT W P0000 60000 T01830172 50006 $",
      "metarObsTime": 1776221460
    },
    "KAGC": {
      "status": "OK",
      "delay": "—",
      "metarCat": "VFR",
      "metarRaw": "METAR KAGC 150253Z 18008KT 10SM FEW055 SCT090 18/16 A2997 RMK AO2 SLP145 T01780161 50005",
      "metarObsTime": 1776221580
    },
    "KLBE": {
      "status": "OK",
      "delay": "—",
      "metarCat": "VFR",
      "metarRaw": "METAR KLBE 150315Z AUTO 16003KT 10SM SCT055 SCT070 16/16 A2999 RMK AO2",
      "metarObsTime": 1776222900
    },
    "KJST": {
      "status": "OK",
      "delay": "—",
      "metarCat": "VFR",
      "metarRaw": "METAR KJST 150254Z AUTO 28006KT 10SM SCT044 BKN070 BKN100 16/14 A3002 RMK AO2 SLP158 T01560144 50012",
      "metarObsTime": 1776221640
    },
    "KERI": {
      "status": "OK",
      "delay": "—",
      "metarCat": "VFR",
      "metarRaw": "METAR KERI 150251Z 15008KT 10SM BKN060 18/15 A2989 RMK AO2 SLP118 T01830150 58005 $",
      "metarObsTime": 1776221460
    },
    "KDUJ": {
      "status": "OK",
      "delay": "—",
      "metarCat": "VFR",
      "metarRaw": "METAR KDUJ 150253Z AUTO 19003KT 10SM CLR 16/14 A2998 RMK AO2 SLP145 T01560144 50009",
      "metarObsTime": 1776221580
    },
    "KBFD": {
      "status": "OK",
      "delay": "—",
      "metarCat": "VFR",
      "metarRaw": "METAR KBFD 150253Z AUTO 22004KT 10SM CLR 14/14 A2999 RMK AO2 SLP147 T01440139 53011",
      "metarObsTime": 1776221580
    },
    "KBTP": {
      "status": "OK",
      "delay": "—",
      "metarCat": "VFR",
      "metarRaw": "METAR KBTP 150256Z AUTO 14004KT 10SM FEW055 17/ A2997 RMK AO2 SLP148 6//// T0172 50004 PNO $",
      "metarObsTime": 1776221760
    },
    "KFKL": {
      "status": "OK",
      "delay": "—",
      "metarCat": "VFR",
      "metarRaw": "METAR KFKL 150256Z AUTO 16006KT 10SM BKN050 BKN060 BKN080 17/16 A2996 RMK AO2 SLP140 T01720156 50003",
      "metarObsTime": 1776221760
    },
    "KIDI": {
      "status": "OK",
      "delay": "—",
      "metarCat": "VFR",
      "metarRaw": "METAR KIDI 150315Z AUTO 17004KT 10SM BKN055 OVC070 16/16 A2998 RMK A01",
      "metarObsTime": 1776222900
    },
    "KMDT": {
      "status": "OK",
      "delay": "—",
      "metarCat": "VFR",
      "metarRaw": "METAR KMDT 150256Z 00000KT 10SM SCT110 19/16 A2995 RMK AO2 RAE02 SLP140 P0000 60004 T01890156 51021",
      "metarObsTime": 1776221760
    },
    "KCXY": {
      "status": "OK",
      "delay": "—",
      "metarCat": "VFR",
      "metarRaw": "METAR KCXY 150256Z AUTO 30004KT 10SM BKN110 19/16 A2995 RMK AO2 SLP142 60006 T01890161 51021",
      "metarObsTime": 1776221760
    },
    "KMUI": {
      "status": "OK",
      "delay": "—",
      "metarCat": "VFR",
      "metarRaw": "METAR KMUI 150255Z AUTO 22005KT 10SM OVC110 21/18 A2992 RMK AO2 SLP131 T02140178 52022",
      "metarObsTime": 1776221700
    },
    "KUNV": {
      "status": "OK",
      "delay": "—",
      "metarCat": "VFR",
      "metarRaw": "METAR KUNV 150315Z AUTO 24005KT 10SM CLR 17/15 A2998 RMK AO2 T01710153",
      "metarObsTime": 1776222900
    },
    "KAOO": {
      "status": "OK",
      "delay": "—",
      "metarCat": "VFR",
      "metarRaw": "METAR KAOO 150253Z AUTO 21003KT 10SM CLR 15/14 A2999 RMK AO2 SLP149 60000 T01500139 50006",
      "metarObsTime": 1776221580
    },
    "KLNS": {
      "status": "OK",
      "delay": "—",
      "metarCat": "VFR",
      "metarRaw": "METAR KLNS 150253Z 24006KT 10SM FEW110 19/16 A2996 RMK AO2 RAB0158E43 SLP142 P0000 60000 T01940161 50024",
      "metarObsTime": 1776221580
    },
    "KIPT": {
      "status": "OK",
      "delay": "—",
      "metarCat": "VFR",
      "metarRaw": "METAR KIPT 150254Z AUTO 19003KT 10SM SCT110 17/17 A2993 RMK AO2 SLP133 60006 T01720167 51026 $",
      "metarObsTime": 1776221640
    },
    "KPHL": {
      "status": "OK",
      "delay": "—",
      "metarCat": "VFR",
      "metarRaw": "SPECI KPHL 150313Z 28015G26KT 6SM -RA SCT050 OVC080 21/17 A2996 RMK AO2 PK WND 26029/0255 P0006 T02110172 $",
      "metarObsTime": 1776222780
    },
    "KABE": {
      "status": "OK",
      "delay": "—",
      "metarCat": "VFR",
      "metarRaw": "METAR KABE 150251Z 27013G27KT 10SM FEW120 24/14 A2993 RMK AO2 PK WND 27027/0248 SLP131 T02390139 51026 $",
      "metarObsTime": 1776221460
    },
    "KAVP": {
      "status": "OK",
      "delay": "—",
      "metarCat": "VFR",
      "metarRaw": "METAR KAVP 150254Z AUTO 26005KT 10SM FEW060 SCT095 BKN120 17/16 A2995 RMK AO2 SLP134 60017 T01720161 51030",
      "metarObsTime": 1776221640
    },
    "KHZL": {
      "status": "OK",
      "delay": "—",
      "metarCat": "VFR",
      "metarRaw": "METAR KHZL 150315Z AUTO 00000KT 7SM BKN110 16/15 A3000 RMK AO2 P0001",
      "metarObsTime": 1776222900
    }
  }
}