{
  "generatedAt": "2026-04-26T17:02:24.614Z",
  "faaFlow": {
    "updatedAt": "2026-04-26T17:02:23.387Z",
    "source": "https://www.fly.faa.gov/adv/adv_spt",
    "terminal": [
      {
        "time": "—",
        "text": "AFTER",
        "code": "FLOW",
        "label": "FAA flow impact",
        "level": "yellow",
        "section": "Terminal Planned",
        "airports": []
      },
      {
        "time": "1900",
        "text": "MIA/PBI/FLL GROUND STOP/DELAY PROGRAM POSSIBLE",
        "code": "GS",
        "label": "Ground stop possible",
        "level": "yellow",
        "section": "Terminal Planned",
        "airports": []
      },
      {
        "time": "—",
        "text": "AFTER",
        "code": "FLOW",
        "label": "FAA flow impact",
        "level": "yellow",
        "section": "Terminal Planned",
        "airports": []
      },
      {
        "time": "1900",
        "text": "DEN GROUND STOP/DELAY PROGRAM POSSIBLE",
        "code": "GS",
        "label": "Ground stop possible",
        "level": "yellow",
        "section": "Terminal Planned",
        "airports": []
      },
      {
        "time": "—",
        "text": "AFTER",
        "code": "FLOW",
        "label": "FAA flow impact",
        "level": "yellow",
        "section": "Terminal Planned",
        "airports": []
      },
      {
        "time": "2200",
        "text": "SFO GROUND STOP/DELAY PROGRAM POSSIBLE",
        "code": "GS",
        "label": "Ground stop possible",
        "level": "yellow",
        "section": "Terminal Planned",
        "airports": []
      }
    ],
    "enroute": [
      {
        "time": "—",
        "text": "AFTER",
        "code": "FLOW",
        "label": "FAA flow impact",
        "level": "yellow",
        "section": "En Route Planned",
        "airports": []
      },
      {
        "time": "1800",
        "text": "DEN CDRS/SWAP/ARRIVAL ROUTES PROBABLE",
        "code": "ROUTE",
        "label": "Route impact possible",
        "level": "orange",
        "section": "En Route Planned",
        "airports": []
      },
      {
        "time": "—",
        "text": "UNTIL",
        "code": "FLOW",
        "label": "FAA flow impact",
        "level": "yellow",
        "section": "En Route Planned",
        "airports": []
      },
      {
        "time": "2300",
        "text": "AR/Y/OCEANIC ROUTE CLOSURES PROBABLE CDRS/SWAP/CAPPING/TUNNELING/HOTLINE/DIVERSION RECOVERY:",
        "code": "CLOSURE",
        "label": "Closure possible",
        "level": "orange",
        "section": "En Route Planned",
        "airports": []
      },
      {
        "time": "—",
        "text": "UNTIL",
        "code": "FLOW",
        "label": "FAA flow impact",
        "level": "yellow",
        "section": "En Route Planned",
        "airports": []
      },
      {
        "time": "1800",
        "text": "CLT CDRS RUNWAY/EQUIPMENT/POSSIBLE SYSTEM IMPACT REPORTS(SIRs): DFW - TXY G CLOSURE UNTIL 4/30/26",
        "code": "CLOSURE",
        "label": "Closure possible",
        "level": "yellow",
        "section": "En Route Planned",
        "airports": []
      },
      {
        "time": "—",
        "text": "2026",
        "code": "FLOW",
        "label": "FAA flow impact",
        "level": "yellow",
        "section": "En Route Planned",
        "airports": []
      },
      {
        "time": "2026",
        "text": "HOU - PROCEDURAL ADJUSTMENT UNTIL 05/31/26",
        "code": "FLOW",
        "label": "FAA flow impact",
        "level": "yellow",
        "section": "En Route Planned",
        "airports": []
      }
    ],
    "airports": {
      "KPIT": null,
      "KAGC": null,
      "KLBE": null,
      "KJST": null,
      "KERI": null,
      "KDUJ": null,
      "KBFD": null,
      "KBTP": null,
      "KFKL": null,
      "KIDI": null,
      "KMDT": null,
      "KCXY": null,
      "KMUI": null,
      "KUNV": null,
      "KAOO": null,
      "KLNS": null,
      "KIPT": null,
      "KPHL": null,
      "KABE": null,
      "KAVP": null,
      "KHZL": null
    }
  },
  "airports": {
    "KPIT": {
      "status": "OK",
      "delay": "—",
      "metarCat": "MVFR",
      "metarRaw": "METAR KPIT 261651Z 07009G15KT 10SM OVC020 12/07 A3011 RMK AO2 SLP206 T01220067",
      "metarObsTime": 1777222260,
      "faaFlow": null
    },
    "KAGC": {
      "status": "OK",
      "delay": "—",
      "metarCat": "MVFR",
      "metarRaw": "METAR KAGC 261653Z VRB03KT 10SM OVC021 12/06 A3010 RMK AO2 SLP200 T01170061",
      "metarObsTime": 1777222380,
      "faaFlow": null
    },
    "KLBE": {
      "status": "OK",
      "delay": "—",
      "metarCat": "MVFR",
      "metarRaw": "METAR KLBE 261647Z 06008KT 10SM OVC020 12/07 A3012",
      "metarObsTime": 1777222020,
      "faaFlow": null
    },
    "KJST": {
      "status": "OK",
      "delay": "—",
      "metarCat": "IFR",
      "metarRaw": "METAR KJST 261654Z AUTO 04008KT 10SM OVC007 07/04 A3010 RMK AO2 SLP202 T00670044",
      "metarObsTime": 1777222440,
      "faaFlow": null
    },
    "KERI": {
      "status": "OK",
      "delay": "—",
      "metarCat": "VFR",
      "metarRaw": "METAR KERI 261651Z 05008G16KT 10SM FEW007 11/07 A3015 RMK AO2 SLP212 T01060072",
      "metarObsTime": 1777222260,
      "faaFlow": null
    },
    "KDUJ": {
      "status": "OK",
      "delay": "—",
      "metarCat": "MVFR",
      "metarRaw": "METAR KDUJ 261653Z AUTO 07006KT 10SM OVC012 08/04 A3013 RMK AO2 SLP210 T00780044",
      "metarObsTime": 1777222380,
      "faaFlow": null
    },
    "KBFD": {
      "status": "OK",
      "delay": "—",
      "metarCat": "MVFR",
      "metarRaw": "METAR KBFD 261653Z AUTO 06008KT 10SM OVC013 07/03 A3015 RMK AO2 SLP217 T00670033 $",
      "metarObsTime": 1777222380,
      "faaFlow": null
    },
    "KBTP": {
      "status": "OK",
      "delay": "—",
      "metarCat": "MVFR",
      "metarRaw": "METAR KBTP 261656Z AUTO VRB06KT 10SM OVC016 11/07 A3013 RMK AO2 SLP212 T01060072 $",
      "metarObsTime": 1777222560,
      "faaFlow": null
    },
    "KFKL": {
      "status": "OK",
      "delay": "—",
      "metarCat": "—",
      "metarRaw": "—",
      "metarObsTime": null,
      "faaFlow": null
    },
    "KIDI": {
      "status": "OK",
      "delay": "—",
      "metarCat": "MVFR",
      "metarRaw": "METAR KIDI 261655Z AUTO VRB06KT 10SM OVC017 09/05 A3014 RMK A01",
      "metarObsTime": 1777222500,
      "faaFlow": null
    },
    "KMDT": {
      "status": "OK",
      "delay": "—",
      "metarCat": "MVFR",
      "metarRaw": "METAR KMDT 261656Z 34005KT 10SM BKN028 OVC035 12/06 A3011 RMK AO2 SLP199 T01170056",
      "metarObsTime": 1777222560,
      "faaFlow": null
    },
    "KCXY": {
      "status": "OK",
      "delay": "—",
      "metarCat": "MVFR",
      "metarRaw": "METAR KCXY 261656Z 31006KT 10SM OVC025 11/06 A3012 RMK AO2 SLP203 T01060056",
      "metarObsTime": 1777222560,
      "faaFlow": null
    },
    "KMUI": {
      "status": "OK",
      "delay": "—",
      "metarCat": "MVFR",
      "metarRaw": "METAR KMUI 261555Z AUTO 03005KT 10SM OVC023 14/09 A3010 RMK AO2 SLP196 T01380094",
      "metarObsTime": 1777218900,
      "faaFlow": null
    },
    "KUNV": {
      "status": "OK",
      "delay": "—",
      "metarCat": "VFR",
      "metarRaw": "METAR KUNV 261653Z 09003KT 10SM SCT024 OVC031 10/04 A3014",
      "metarObsTime": 1777222380,
      "faaFlow": null
    },
    "KAOO": {
      "status": "OK",
      "delay": "—",
      "metarCat": "MVFR",
      "metarRaw": "METAR KAOO 261653Z AUTO 02009KT 10SM OVC014 07/04 A3013 RMK AO2 SLP211 T00720039",
      "metarObsTime": 1777222380,
      "faaFlow": null
    },
    "KLNS": {
      "status": "OK",
      "delay": "—",
      "metarCat": "MVFR",
      "metarRaw": "METAR KLNS 261653Z 04007KT 10SM BKN024 BKN030 OVC036 12/06 A3011 RMK AO2 SLP198 T01170061",
      "metarObsTime": 1777222380,
      "faaFlow": null
    },
    "KIPT": {
      "status": "OK",
      "delay": "—",
      "metarCat": "VFR",
      "metarRaw": "METAR KIPT 261654Z VRB03KT 10SM OVC032 12/06 A3012 RMK AO2 SLP202 T01220056 $",
      "metarObsTime": 1777222440,
      "faaFlow": null
    },
    "KPHL": {
      "status": "OK",
      "delay": "—",
      "metarCat": "MVFR",
      "metarRaw": "METAR KPHL 261654Z 02012KT 10SM OVC020 10/05 A3012 RMK AO2 SLP199 T01000050 $",
      "metarObsTime": 1777222440,
      "faaFlow": null
    },
    "KABE": {
      "status": "OK",
      "delay": "—",
      "metarCat": "VFR",
      "metarRaw": "METAR KABE 261651Z 32006KT 10SM OVC035 12/05 A3011 RMK AO2 SLP197 T01220050 $",
      "metarObsTime": 1777222260,
      "faaFlow": null
    },
    "KAVP": {
      "status": "OK",
      "delay": "—",
      "metarCat": "VFR",
      "metarRaw": "METAR KAVP 261654Z 06009KT 10SM FEW039 13/04 A3011 RMK AO2 SLP196 T01330039",
      "metarObsTime": 1777222440,
      "faaFlow": null
    },
    "KHZL": {
      "status": "OK",
      "delay": "—",
      "metarCat": "MVFR",
      "metarRaw": "METAR KHZL 261655Z AUTO 00000KT 10SM SCT020 OVC027 10/03 A3013 RMK AO2",
      "metarObsTime": 1777222500,
      "faaFlow": null
    }
  }
}