{
  "generatedAt": "2026-04-19T08:50:53.557Z",
  "airports": {
    "KPIT": {
      "status": "OK",
      "delay": "—",
      "metarCat": "MVFR",
      "metarRaw": "SPECI KPIT 190834Z 33014KT 4SM -RA BR SCT007 BKN020 OVC025 07/04 A2997 RMK AO2 P0009 T00670044 $",
      "metarObsTime": 1776587640
    },
    "KAGC": {
      "status": "OK",
      "delay": "—",
      "metarCat": "MVFR",
      "metarRaw": "SPECI KAGC 190830Z 28007KT 3SM -RA BR FEW014 SCT024 OVC030 07/06 A2997 RMK AO2 P0005 T00670056",
      "metarObsTime": 1776587400
    },
    "KLBE": {
      "status": "OK",
      "delay": "—",
      "metarCat": "VFR",
      "metarRaw": "METAR KLBE 190835Z AUTO 25003KT 10SM -RA SCT024 BKN046 OVC100 08/06 A2999 RMK AO2",
      "metarObsTime": 1776587700
    },
    "KJST": {
      "status": "OK",
      "delay": "—",
      "metarCat": "MVFR",
      "metarRaw": "SPECI KJST 190832Z AUTO 31012KT 9SM -RA FEW009 BKN012 OVC027 05/03 A2992 RMK AO2 P0000 T00500033",
      "metarObsTime": 1776587520
    },
    "KERI": {
      "status": "OK",
      "delay": "—",
      "metarCat": "VFR",
      "metarRaw": "METAR KERI 190751Z AUTO 29013G19KT 10SM FEW060 SCT080 OVC110 07/M01 A2995 RMK AO2 SLP144 T00671006 $",
      "metarObsTime": 1776585060
    },
    "KDUJ": {
      "status": "OK",
      "delay": "—",
      "metarCat": "MVFR",
      "metarRaw": "SPECI KDUJ 190819Z AUTO 26009KT 10SM -RA BKN020 BKN028 OVC060 06/03 A2991 RMK AO2 RAB09 P0001 T00560033",
      "metarObsTime": 1776586740
    },
    "KBFD": {
      "status": "OK",
      "delay": "—",
      "metarCat": "MVFR",
      "metarRaw": "SPECI KBFD 190813Z AUTO 30007KT 10SM -RA FEW018 BKN023 OVC045 04/02 A2988 RMK AO2 P0000 T00390022",
      "metarObsTime": 1776586380
    },
    "KBTP": {
      "status": "OK",
      "delay": "—",
      "metarCat": "MVFR",
      "metarRaw": "SPECI KBTP 190807Z AUTO 27005KT 9SM -RA FEW019 BKN024 OVC034 06/06 A2998 RMK AO2 PRESRR P0001 $",
      "metarObsTime": 1776586020
    },
    "KFKL": {
      "status": "OK",
      "delay": "—",
      "metarCat": "—",
      "metarRaw": "—",
      "metarObsTime": null
    },
    "KIDI": {
      "status": "OK",
      "delay": "—",
      "metarCat": "VFR",
      "metarRaw": "METAR KIDI 190835Z AUTO 31010KT 7SM FEW016 SCT024 BKN032 06/04 A2998 RMK A01",
      "metarObsTime": 1776587700
    },
    "KMDT": {
      "status": "OK",
      "delay": "—",
      "metarCat": "IFR",
      "metarRaw": "METAR KMDT 190756Z 04004KT 5SM -RA BR FEW006 OVC008 13/13 A2977 RMK AO2 SLP080 P0007 T01330128",
      "metarObsTime": 1776585360
    },
    "KCXY": {
      "status": "OK",
      "delay": "—",
      "metarCat": "IFR",
      "metarRaw": "METAR KCXY 190756Z AUTO 07005KT 8SM -RA OVC006 14/13 A2977 RMK AO2 SLP080 P0005 T01390128 $",
      "metarObsTime": 1776585360
    },
    "KMUI": {
      "status": "OK",
      "delay": "—",
      "metarCat": "IFR",
      "metarRaw": "SPECI KMUI 190757Z AUTO 07003KT 10SM -RA OVC007 13/13 A2976 RMK AO2 RAB57 SLP079",
      "metarObsTime": 1776585420
    },
    "KUNV": {
      "status": "OK",
      "delay": "—",
      "metarCat": "VFR",
      "metarRaw": "METAR KUNV 190835Z AUTO 29014G21KT 10SM SCT029 SCT034 OVC044 10/04 A2987 RMK AO2 T00950044",
      "metarObsTime": 1776587700
    },
    "KAOO": {
      "status": "OK",
      "delay": "—",
      "metarCat": "VFR",
      "metarRaw": "METAR KAOO 190753Z AUTO 31015G24KT 10SM FEW027 BKN035 OVC047 09/01 A2988 RMK AO2 RAB00E11 SLP112 P0000 T00890011",
      "metarObsTime": 1776585180
    },
    "KLNS": {
      "status": "OK",
      "delay": "—",
      "metarCat": "MVFR",
      "metarRaw": "SPECI KLNS 190838Z AUTO 08003KT 8SM -RA BKN010 OVC060 13/12 A2976 RMK AO2 RAB07E17B38 P0001 T01280117",
      "metarObsTime": 1776587880
    },
    "KIPT": {
      "status": "OK",
      "delay": "—",
      "metarCat": "MVFR",
      "metarRaw": "SPECI KIPT 190825Z AUTO 28012G18KT 10SM OVC030 13/09 A2980 RMK AO2 RAE24 PRESRR P0000 T01280094 $",
      "metarObsTime": 1776587100
    },
    "KPHL": {
      "status": "OK",
      "delay": "—",
      "metarCat": "IFR",
      "metarRaw": "SPECI KPHL 190812Z 08008KT 10SM OVC007 12/09 A2979 RMK AO2 T01170094 $",
      "metarObsTime": 1776586320
    },
    "KABE": {
      "status": "OK",
      "delay": "—",
      "metarCat": "IFR",
      "metarRaw": "METAR KABE 190751Z 14005KT 10SM OVC007 11/09 A2979 RMK AO2 RAE02 SLP087 P0000 T01110094 $",
      "metarObsTime": 1776585060
    },
    "KAVP": {
      "status": "OK",
      "delay": "—",
      "metarCat": "MVFR",
      "metarRaw": "METAR KAVP 190754Z AUTO 00000KT 10SM -RA OVC014 13/11 A2976 RMK AO2 RAE01B18 SLP072 P0001 T01280111",
      "metarObsTime": 1776585240
    },
    "KHZL": {
      "status": "OK",
      "delay": "—",
      "metarCat": "LIFR",
      "metarRaw": "METAR KHZL 190835Z AUTO 15003KT 5SM BR OVC004 11/10 A2979 RMK AO2 P0001",
      "metarObsTime": 1776587700
    }
  }
}