{
  "generatedAt": "2026-03-24T09:50:18.743Z",
  "airports": {
    "KPIT": {
      "status": "OK",
      "delay": "—",
      "metarCat": "VFR",
      "metarRaw": "METAR KPIT 240851Z 35003KT 10SM FEW250 M04/M09 A3038 RMK AO2 SLP309 T10391094 53001",
      "metarObsTime": 1774342260
    },
    "KAGC": {
      "status": "OK",
      "delay": "—",
      "metarCat": "VFR",
      "metarRaw": "METAR KAGC 240853Z 35003KT 10SM CLR M05/M10 A3037 RMK AO2 SLP304 T10501100 53003",
      "metarObsTime": 1774342380
    },
    "KLBE": {
      "status": "OK",
      "delay": "—",
      "metarCat": "VFR",
      "metarRaw": "METAR KLBE 240935Z AUTO 00000KT 10SM CLR M05/M09 A3041 RMK AO2",
      "metarObsTime": 1774344900
    },
    "KJST": {
      "status": "OK",
      "delay": "—",
      "metarCat": "VFR",
      "metarRaw": "METAR KJST 240854Z AUTO 31005KT 10SM CLR M08/M11 A3028 RMK AO2 SLP287 T10781111 53005",
      "metarObsTime": 1774342440
    },
    "KERI": {
      "status": "OK",
      "delay": "—",
      "metarCat": "VFR",
      "metarRaw": "SPECI KERI 240917Z AUTO 11003KT 10SM SCT024 M05/M08 A3041 RMK AO2 T10501083",
      "metarObsTime": 1774343820
    },
    "KDUJ": {
      "status": "OK",
      "delay": "—",
      "metarCat": "VFR",
      "metarRaw": "SPECI KDUJ 240943Z AUTO 00000KT 10SM SCT023 M07/M09 A3032 RMK AO2 T10721094",
      "metarObsTime": 1774345380
    },
    "KBFD": {
      "status": "OK",
      "delay": "—",
      "metarCat": "MVFR",
      "metarRaw": "METAR KBFD 240853Z AUTO 33005KT 10SM OVC018 M06/M09 A3030 RMK AO2 SLP285 T10611089 53002",
      "metarObsTime": 1774342380
    },
    "KBTP": {
      "status": "OK",
      "delay": "—",
      "metarCat": "VFR",
      "metarRaw": "METAR KBTP 240856Z AUTO 00000KT 10SM CLR M07/M12 A3039 RMK AO2 SLP314 T10721117 53003 FZRANO $",
      "metarObsTime": 1774342560
    },
    "KFKL": {
      "status": "OK",
      "delay": "—",
      "metarCat": "VFR",
      "metarRaw": "METAR KFKL 240856Z AUTO 00000KT 10SM CLR M07/M09 A3035 RMK AO2 SLP302 T10721094 55001 FZRANO",
      "metarObsTime": 1774342560
    },
    "KIDI": {
      "status": "OK",
      "delay": "—",
      "metarCat": "VFR",
      "metarRaw": "METAR KIDI 240935Z AUTO 00000KT 10SM FEW033 M06/M08 A3038 RMK A01",
      "metarObsTime": 1774344900
    },
    "KMDT": {
      "status": "OK",
      "delay": "—",
      "metarCat": "VFR",
      "metarRaw": "METAR KMDT 240856Z 32008KT 10SM BKN050 01/M08 A3035 RMK AO2 SLP282 T00111083 53014",
      "metarObsTime": 1774342560
    },
    "KCXY": {
      "status": "OK",
      "delay": "—",
      "metarCat": "VFR",
      "metarRaw": "METAR KCXY 240856Z AUTO 30007KT 10SM FEW041 FEW050 00/M09 A3036 RMK AO2 SLP286 T00001089 53013",
      "metarObsTime": 1774342560
    },
    "KMUI": {
      "status": "OK",
      "delay": "—",
      "metarCat": "VFR",
      "metarRaw": "METAR KMUI 240855Z AUTO 31005KT 10SM BKN043 02/M07 A3032 RMK AO2 SLPNO 60000 T00151066 52011 $",
      "metarObsTime": 1774342500
    },
    "KUNV": {
      "status": "OK",
      "delay": "—",
      "metarCat": "VFR",
      "metarRaw": "METAR KUNV 240935Z AUTO 29003KT 10SM CLR M04/M10 A3035 RMK AO2 T10361097",
      "metarObsTime": 1774344900
    },
    "KAOO": {
      "status": "OK",
      "delay": "—",
      "metarCat": "VFR",
      "metarRaw": "METAR KAOO 240853Z AUTO 29003KT 10SM SCT035 M04/M11 A3034 RMK AO2 SLP291 T10441106 53011",
      "metarObsTime": 1774342380
    },
    "KLNS": {
      "status": "OK",
      "delay": "—",
      "metarCat": "VFR",
      "metarRaw": "METAR KLNS 240853Z AUTO 31003KT 10SM BKN045 01/M05 A3033 RMK AO2 SLP274 T00111050 53013",
      "metarObsTime": 1774342380
    },
    "KIPT": {
      "status": "OK",
      "delay": "—",
      "metarCat": "VFR",
      "metarRaw": "METAR KIPT 240854Z AUTO 35007KT 10SM FEW037 BKN045 M01/M08 A3035 RMK AO2 SLP281 T10061078 53008",
      "metarObsTime": 1774342440
    },
    "KPHL": {
      "status": "OK",
      "delay": "—",
      "metarCat": "VFR",
      "metarRaw": "METAR KPHL 240854Z 35006KT 10SM SCT042 01/M06 A3034 RMK AO2 SLP275 T00111056 51011 $",
      "metarObsTime": 1774342440
    },
    "KABE": {
      "status": "OK",
      "delay": "—",
      "metarCat": "—",
      "metarRaw": "METAR KABE 240851Z A3032 RMK AO2 SLPNO 53009 $",
      "metarObsTime": 1774342260
    },
    "KAVP": {
      "status": "OK",
      "delay": "—",
      "metarCat": "VFR",
      "metarRaw": "METAR KAVP 240854Z 33004KT 10SM OVC048 M02/M06 A3030 RMK AO2 SLP270 T10171061 53010",
      "metarObsTime": 1774342440
    },
    "KHZL": {
      "status": "OK",
      "delay": "—",
      "metarCat": "VFR",
      "metarRaw": "METAR KHZL 240935Z AUTO 33008KT 10SM CLR M02/M07 A3031 RMK AO2",
      "metarObsTime": 1774344900
    }
  }
}