{
  "generatedAt": "2026-03-16T22:00:14.927Z",
  "airports": {
    "KPIT": {
      "status": "OK",
      "delay": "—",
      "metarCat": "LIFR",
      "metarRaw": "METAR KPIT 162151Z 24012G20KT 1/4SM R28R/2400V4500FT +SN FZFG VV005 M01/M01 A2948 RMK AO2 SLP994 P0009 T10061011 $",
      "metarObsTime": 1773697860
    },
    "KAGC": {
      "status": "OK",
      "delay": "—",
      "metarCat": "LIFR",
      "metarRaw": "SPECI KAGC 162155Z 25014G26KT 1/4SM R28/2800V4000FT SN FZFG FEW006 OVC010 M01/M01 A2947 RMK AO2 P0000 T10061011",
      "metarObsTime": 1773698100
    },
    "KLBE": {
      "status": "OK",
      "delay": "—",
      "metarCat": "IFR",
      "metarRaw": "METAR KLBE 162147Z 26013KT 1 1/4SM -RA BR OVC008 02/02 A2949",
      "metarObsTime": 1773697620
    },
    "KJST": {
      "status": "OK",
      "delay": "—",
      "metarCat": "IFR",
      "metarRaw": "METAR KJST 162154Z AUTO 26015G29KT 2SM -SN BR BKN005 OVC011 01/00 A2938 RMK AO2 PK WND 27029/2151 RAE49SNB49 SLP959 P0005 T00060000",
      "metarObsTime": 1773698040
    },
    "KERI": {
      "status": "OK",
      "delay": "—",
      "metarCat": "LIFR",
      "metarRaw": "METAR KERI 162151Z 27019G32KT 1/4SM R06/2600V3500FT +SN FZFG SCT006 OVC012 M01/M02 A2945 RMK AO2 PK WND 27035/2102 SLP978 P0000 T10111017 $",
      "metarObsTime": 1773697860
    },
    "KDUJ": {
      "status": "OK",
      "delay": "—",
      "metarCat": "IFR",
      "metarRaw": "METAR KDUJ 162153Z AUTO 26011G25KT 2SM -SN BR BKN007 OVC015 01/01 A2938 RMK AO2 PK WND 28027/2128 RAB06E45SNB36E37B45 SLP957 P0003 T00110006",
      "metarObsTime": 1773697980
    },
    "KBFD": {
      "status": "OK",
      "delay": "—",
      "metarCat": "IFR",
      "metarRaw": "METAR KBFD 162153Z AUTO 27007G23KT 2 1/2SM -RA BR BKN010 OVC015 02/01 A2935 RMK AO2 RAE04B35 CIG 007V011 SLP943 P0002 T00170006",
      "metarObsTime": 1773697980
    },
    "KBTP": {
      "status": "OK",
      "delay": "—",
      "metarCat": "—",
      "metarRaw": "—",
      "metarObsTime": null
    },
    "KFKL": {
      "status": "OK",
      "delay": "—",
      "metarCat": "LIFR",
      "metarRaw": "METAR KFKL 162156Z AUTO 24009KT 1/2SM SN FZFG BKN004 OVC010 M01/M01 A2943 RMK AO2 CIG 003V007 SLP974 P0004 T10061011 FZRANO",
      "metarObsTime": 1773698160
    },
    "KIDI": {
      "status": "OK",
      "delay": "—",
      "metarCat": "MVFR",
      "metarRaw": "METAR KIDI 162155Z AUTO 27012G21KT 4SM BR FEW009 SCT013 SCT023 02/01 A2945 RMK A01 P0001",
      "metarObsTime": 1773698100
    },
    "KMDT": {
      "status": "OK",
      "delay": "—",
      "metarCat": "VFR",
      "metarRaw": "METAR KMDT 162156Z 16010G18KT 10SM -RA SCT024 BKN048 OVC100 15/13 A2933 RMK AO2 SLP931 P0000 T01500128",
      "metarObsTime": 1773698160
    },
    "KCXY": {
      "status": "OK",
      "delay": "—",
      "metarCat": "VFR",
      "metarRaw": "METAR KCXY 162156Z 15012G19KT 10SM -RA FEW037 SCT080 OVC100 16/13 A2932 RMK AO2 PK WND 15026/2059 RAE12B35 SLP929 P0001 T01610133",
      "metarObsTime": 1773698160
    },
    "KMUI": {
      "status": "OK",
      "delay": "—",
      "metarCat": "MVFR",
      "metarRaw": "METAR KMUI 162155Z 18008KT 8SM -RA BKN016 BKN055 OVC080 16/16 A2934 RMK AO2A SLP938 T01620157",
      "metarObsTime": 1773698100
    },
    "KUNV": {
      "status": "OK",
      "delay": "—",
      "metarCat": "MVFR",
      "metarRaw": "METAR KUNV 162153Z 27014KT 4SM RA BR SCT014 BKN020 OVC025 07/06 A2933",
      "metarObsTime": 1773697980
    },
    "KAOO": {
      "status": "OK",
      "delay": "—",
      "metarCat": "IFR",
      "metarRaw": "METAR KAOO 162153Z AUTO 30012G23KT 2 1/2SM +RA BR OVC018 05/03 A2936 RMK AO2 PK WND 29030/2124 SLP945 P0018 T00500028",
      "metarObsTime": 1773697980
    },
    "KLNS": {
      "status": "OK",
      "delay": "—",
      "metarCat": "VFR",
      "metarRaw": "METAR KLNS 162153Z 16012G19KT 10SM -RA FEW013 FEW042 OVC095 16/14 A2936 RMK AO2 RAE27B43 SLP940 P0000 T01560139",
      "metarObsTime": 1773697980
    },
    "KIPT": {
      "status": "OK",
      "delay": "—",
      "metarCat": "MVFR",
      "metarRaw": "METAR KIPT 162154Z 08011G22KT 10SM BKN022 OVC030 17/14 A2924 RMK AO2 SLP902 T01720139",
      "metarObsTime": 1773698040
    },
    "KPHL": {
      "status": "OK",
      "delay": "—",
      "metarCat": "MVFR",
      "metarRaw": "METAR KPHL 162154Z 18017G25KT 7SM -RA BKN012 OVC032 17/15 A2945 RMK AO2 PK WND 18028/2110 RAE05B27 SLP973 P0000 T01720150 $",
      "metarObsTime": 1773698040
    },
    "KABE": {
      "status": "OK",
      "delay": "—",
      "metarCat": "VFR",
      "metarRaw": "METAR KABE 162151Z AUTO 20012KT 10SM -RA FEW032 BKN045 OVC060 16/14 A2941 RMK AO2 WSHFT 2102 RAB2053 SLP959 P0029 T01610139 $",
      "metarObsTime": 1773697860
    },
    "KAVP": {
      "status": "OK",
      "delay": "—",
      "metarCat": "VFR",
      "metarRaw": "METAR KAVP 162154Z 18008G21KT 140V210 9SM -RA OVC090 16/13 A2935 RMK AO2 PK WND 20032/2102 SLP933 P0002 T01610133",
      "metarObsTime": 1773698040
    },
    "KHZL": {
      "status": "OK",
      "delay": "—",
      "metarCat": "MVFR",
      "metarRaw": "METAR KHZL 162135Z AUTO 16009G16KT 5SM RA SCT014 BKN060 OVC085 15/13 A2938 RMK AO2 P0004",
      "metarObsTime": 1773696900
    }
  }
}