{
  "generatedAt": "2026-04-05T17:10:35.041Z",
  "airports": {
    "KPIT": {
      "status": "OK",
      "delay": "—",
      "metarCat": "MVFR",
      "metarRaw": "METAR KPIT 051651Z 27014G24KT 10SM OVC030 07/00 A2997 RMK AO2 SLP157 T00720000 $",
      "metarObsTime": 1775407860
    },
    "KAGC": {
      "status": "OK",
      "delay": "—",
      "metarCat": "VFR",
      "metarRaw": "METAR KAGC 051653Z 29015G26KT 10SM OVC031 08/01 A2996 RMK AO2 PK WND 28026/1652 SLP148 T00780011",
      "metarObsTime": 1775407980
    },
    "KLBE": {
      "status": "OK",
      "delay": "—",
      "metarCat": "MVFR",
      "metarRaw": "METAR KLBE 051647Z 28011G25KT 10SM BKN027 OVC031 08/03 A2998",
      "metarObsTime": 1775407620
    },
    "KJST": {
      "status": "OK",
      "delay": "—",
      "metarCat": "MVFR",
      "metarRaw": "METAR KJST 051654Z AUTO 27020G32KT 10SM BKN021 OVC026 06/02 A2990 RMK AO2 PK WND 25032/1653 SLP125 T00560017",
      "metarObsTime": 1775408040
    },
    "KERI": {
      "status": "OK",
      "delay": "—",
      "metarCat": "MVFR",
      "metarRaw": "METAR KERI 051651Z 26017G29KT 8SM BKN023 OVC029 04/00 A2995 RMK AO2 PK WND 26029/1613 RAE00 SLP145 P0000 T00390000 $",
      "metarObsTime": 1775407860
    },
    "KDUJ": {
      "status": "OK",
      "delay": "—",
      "metarCat": "MVFR",
      "metarRaw": "METAR KDUJ 051653Z AUTO 25021G30KT 10SM OVC030 06/M01 A2990 RMK AO2 PK WND 27030/1649 SLP122 T00561011",
      "metarObsTime": 1775407980
    },
    "KBFD": {
      "status": "OK",
      "delay": "—",
      "metarCat": "MVFR",
      "metarRaw": "METAR KBFD 051653Z AUTO 27013G21KT 10SM OVC022 03/M01 A2987 RMK AO2 SLP116 T00331006",
      "metarObsTime": 1775407980
    },
    "KBTP": {
      "status": "OK",
      "delay": "—",
      "metarCat": "VFR",
      "metarRaw": "METAR KBTP 051656Z AUTO 27014G25KT 10SM OVC033 07/M01 A2998 RMK AO2 PK WND 26026/1640 SLP157 T00671006 $",
      "metarObsTime": 1775408160
    },
    "KFKL": {
      "status": "OK",
      "delay": "—",
      "metarCat": "MVFR",
      "metarRaw": "METAR KFKL 051656Z AUTO 25014G20KT 10SM BKN030 OVC039 06/00 A2994 RMK AO2 SLP141 T00560000",
      "metarObsTime": 1775408160
    },
    "KIDI": {
      "status": "OK",
      "delay": "—",
      "metarCat": "MVFR",
      "metarRaw": "METAR KIDI 051655Z AUTO 24011G23KT 10SM OVC028 07/02 A2994 RMK A01",
      "metarObsTime": 1775408100
    },
    "KMDT": {
      "status": "OK",
      "delay": "—",
      "metarCat": "VFR",
      "metarRaw": "METAR KMDT 051656Z 30006KT 10SM -RA SCT024 BKN055 OVC085 12/11 A2985 RMK AO2 SLP109 P0003 T01170111 $",
      "metarObsTime": 1775408160
    },
    "KCXY": {
      "status": "OK",
      "delay": "—",
      "metarCat": "VFR",
      "metarRaw": "METAR KCXY 051656Z VRB05KT 10SM SCT055 BKN080 OVC095 12/11 A2984 RMK AO2 RAE55 SLP105 P0002 T01170111 $",
      "metarObsTime": 1775408160
    },
    "KMUI": {
      "status": "OK",
      "delay": "—",
      "metarCat": "MVFR",
      "metarRaw": "METAR KMUI 051655Z AUTO 26007KT 10SM FEW019 BKN028 BKN033 BKN060 OVC090 14/13 A2982 RMK AO2 RAB1555E38RAB41E51 SLP101 P0002 T01390128",
      "metarObsTime": 1775408100
    },
    "KUNV": {
      "status": "OK",
      "delay": "—",
      "metarCat": "MVFR",
      "metarRaw": "METAR KUNV 051653Z 28011G20KT 10SM BKN026 BKN032 08/02 A2989",
      "metarObsTime": 1775407980
    },
    "KAOO": {
      "status": "OK",
      "delay": "—",
      "metarCat": "MVFR",
      "metarRaw": "METAR KAOO 051653Z AUTO 26020G30KT 10SM FEW017 BKN029 OVC034 08/03 A2991 RMK AO2 PK WND 27030/1649 SLP128 T00780028",
      "metarObsTime": 1775407980
    },
    "KLNS": {
      "status": "OK",
      "delay": "—",
      "metarCat": "VFR",
      "metarRaw": "METAR KLNS 051653Z 25006KT 7SM -RA SCT025 SCT070 OVC090 12/12 A2984 RMK AO2 SLP104 P0006 T01220117",
      "metarObsTime": 1775407980
    },
    "KIPT": {
      "status": "OK",
      "delay": "—",
      "metarCat": "VFR",
      "metarRaw": "METAR KIPT 051654Z 25016G24KT 10SM CLR 12/06 A2983 RMK AO2 PK WND 25030/1608 SLP100 T01170056",
      "metarObsTime": 1775408040
    },
    "KPHL": {
      "status": "OK",
      "delay": "—",
      "metarCat": "VFR",
      "metarRaw": "METAR KPHL 051654Z 22013G23KT 6SM -RA BR OVC060 17/14 A2984 RMK AO2 SLP105 P0003 T01720144 $",
      "metarObsTime": 1775408040
    },
    "KABE": {
      "status": "OK",
      "delay": "—",
      "metarCat": "VFR",
      "metarRaw": "METAR KABE 051651Z 22004KT 7SM -RA FEW006 BKN055 OVC075 11/10 A2981 RMK AO2 SLP094 P0004 T01060100 $",
      "metarObsTime": 1775407860
    },
    "KAVP": {
      "status": "OK",
      "delay": "—",
      "metarCat": "VFR",
      "metarRaw": "METAR KAVP 051654Z 21009KT 10SM FEW008 SCT085 BKN110 12/11 A2978 RMK AO2 RAE41 PRESFR SLP084 P0004 T01170106",
      "metarObsTime": 1775408040
    },
    "KHZL": {
      "status": "OK",
      "delay": "—",
      "metarCat": "IFR",
      "metarRaw": "METAR KHZL 051655Z AUTO 31003KT 10SM BKN006 OVC013 11/10 A2984 RMK AO2 P0004",
      "metarObsTime": 1775408100
    }
  }
}