{
  "generatedAt": "2026-03-21T15:00:15.725Z",
  "airports": {
    "KPIT": {
      "status": "OK",
      "delay": "—",
      "metarCat": "MVFR",
      "metarRaw": "METAR KPIT 211451Z 35008KT 10SM OVC015 07/02 A3001 RMK AO2 SLP173 T00670022 53022",
      "metarObsTime": 1774104660
    },
    "KAGC": {
      "status": "OK",
      "delay": "—",
      "metarCat": "MVFR",
      "metarRaw": "METAR KAGC 211453Z 35006KT 7SM OVC020 08/03 A3000 RMK AO2 SLP164 T00780028 53020",
      "metarObsTime": 1774104780
    },
    "KLBE": {
      "status": "OK",
      "delay": "—",
      "metarCat": "MVFR",
      "metarRaw": "METAR KLBE 211453Z 36009KT 10SM OVC023 BKN041 BKN070 10/05 A3001",
      "metarObsTime": 1774104780
    },
    "KJST": {
      "status": "OK",
      "delay": "—",
      "metarCat": "VFR",
      "metarRaw": "METAR KJST 211454Z AUTO 32007KT 10SM CLR 08/03 A2994 RMK AO2 SLP142 T00780033 51014",
      "metarObsTime": 1774104840
    },
    "KERI": {
      "status": "OK",
      "delay": "—",
      "metarCat": "MVFR",
      "metarRaw": "METAR KERI 211451Z 08010KT 10SM OVC016 03/01 A3002 RMK AO2 SLP171 T00280006 58005",
      "metarObsTime": 1774104660
    },
    "KDUJ": {
      "status": "OK",
      "delay": "—",
      "metarCat": "MVFR",
      "metarRaw": "METAR KDUJ 211453Z AUTO 36009KT 10SM OVC016 04/01 A3000 RMK AO2 SLP166 T00390006 53026",
      "metarObsTime": 1774104780
    },
    "KBFD": {
      "status": "OK",
      "delay": "—",
      "metarCat": "MVFR",
      "metarRaw": "METAR KBFD 211453Z AUTO 35003KT 10SM OVC011 01/M02 A2999 RMK AO2 CIG 008V014 SLP165 T00111017 51017",
      "metarObsTime": 1774104780
    },
    "KBTP": {
      "status": "OK",
      "delay": "—",
      "metarCat": "MVFR",
      "metarRaw": "METAR KBTP 211456Z AUTO 00000KT 10SM OVC018 07/03 A3002 RMK AO2 SLP175 T00670028 53020 $",
      "metarObsTime": 1774104960
    },
    "KFKL": {
      "status": "OK",
      "delay": "—",
      "metarCat": "IFR",
      "metarRaw": "METAR KFKL 211356Z AUTO 02008KT 10SM OVC009 03/01 A3001 RMK AO2 SLP172 T00280011",
      "metarObsTime": 1774101360
    },
    "KIDI": {
      "status": "OK",
      "delay": "—",
      "metarCat": "MVFR",
      "metarRaw": "METAR KIDI 211455Z AUTO 01009KT 10SM OVC018 07/03 A3001 RMK A01",
      "metarObsTime": 1774104900
    },
    "KMDT": {
      "status": "OK",
      "delay": "—",
      "metarCat": "VFR",
      "metarRaw": "METAR KMDT 211456Z 36008G19KT 10SM SCT029 12/05 A2993 RMK AO2 SLP135 T01220050 53026",
      "metarObsTime": 1774104960
    },
    "KCXY": {
      "status": "OK",
      "delay": "—",
      "metarCat": "MVFR",
      "metarRaw": "METAR KCXY 211456Z 32012KT 10SM BKN029 12/06 A2994 RMK AO2 SLP138 T01170056 51024",
      "metarObsTime": 1774104960
    },
    "KMUI": {
      "status": "OK",
      "delay": "—",
      "metarCat": "MVFR",
      "metarRaw": "METAR KMUI 211455Z AUTO 03009KT 10SM OVC028 10/05 A2992 RMK AO2 LTG DSNT NW SLP136 T01010049 52028",
      "metarObsTime": 1774104900
    },
    "KUNV": {
      "status": "OK",
      "delay": "—",
      "metarCat": "MVFR",
      "metarRaw": "METAR KUNV 211453Z 31008KT 10SM OVC025 07/02 A2999",
      "metarObsTime": 1774104780
    },
    "KAOO": {
      "status": "OK",
      "delay": "—",
      "metarCat": "VFR",
      "metarRaw": "METAR KAOO 211453Z AUTO 03007KT 10SM CLR 10/03 A2994 RMK AO2 SLP143 T01000033 51016",
      "metarObsTime": 1774104780
    },
    "KLNS": {
      "status": "OK",
      "delay": "—",
      "metarCat": "VFR",
      "metarRaw": "METAR KLNS 211453Z COR 36010KT 10SM SCT020 12/06 A2990 RMK AO2 SLP127 T01220056 51024",
      "metarObsTime": 1774104780
    },
    "KIPT": {
      "status": "OK",
      "delay": "—",
      "metarCat": "MVFR",
      "metarRaw": "METAR KIPT 211454Z 02009KT 10SM OVC022 05/01 A3002 RMK AO2 SLP167 T00500011 53039 $",
      "metarObsTime": 1774104840
    },
    "KPHL": {
      "status": "OK",
      "delay": "—",
      "metarCat": "VFR",
      "metarRaw": "METAR KPHL 211454Z 36012KT 10SM SCT022 15/08 A2989 RMK AO2 SLP122 T01500078 51026 $",
      "metarObsTime": 1774104840
    },
    "KABE": {
      "status": "OK",
      "delay": "—",
      "metarCat": "MVFR",
      "metarRaw": "METAR KABE 211451Z 34014KT 10SM BKN023 08/03 A2994 RMK AO2 SLP140 T00830028 51034 $",
      "metarObsTime": 1774104660
    },
    "KAVP": {
      "status": "OK",
      "delay": "—",
      "metarCat": "MVFR",
      "metarRaw": "METAR KAVP 211454Z 34014G22KT 10SM OVC017 03/M01 A3000 RMK AO2 SLP161 T00281011 53016",
      "metarObsTime": 1774104840
    },
    "KHZL": {
      "status": "OK",
      "delay": "—",
      "metarCat": "IFR",
      "metarRaw": "METAR KHZL 211455Z AUTO 34009G15KT 10SM OVC009 02/00 A2998 RMK AO2",
      "metarObsTime": 1774104900
    }
  }
}