{
  "generatedAt": "2026-04-28T09:13:21.283Z",
  "faaFlow": {
    "updatedAt": "2026-04-28T09:13:20.451Z",
    "source": "https://www.fly.faa.gov/adv/adv_spt",
    "terminal": [
      {
        "time": "—",
        "text": "AFTER",
        "code": "FLOW",
        "label": "FAA flow impact",
        "level": "yellow",
        "section": "Terminal Planned",
        "airports": []
      },
      {
        "time": "1200",
        "text": "ATL GROUND STOP POSSIBLE",
        "code": "GS",
        "label": "Ground stop possible",
        "level": "yellow",
        "section": "Terminal Planned",
        "airports": []
      },
      {
        "time": "—",
        "text": "AFTER",
        "code": "FLOW",
        "label": "FAA flow impact",
        "level": "yellow",
        "section": "Terminal Planned",
        "airports": []
      },
      {
        "time": "1500",
        "text": "SFO GROUND STOP/DELAY PROGRAM POSSIBLE",
        "code": "GS",
        "label": "Ground stop possible",
        "level": "yellow",
        "section": "Terminal Planned",
        "airports": []
      },
      {
        "time": "—",
        "text": "AFTER",
        "code": "FLOW",
        "label": "FAA flow impact",
        "level": "yellow",
        "section": "Terminal Planned",
        "airports": []
      },
      {
        "time": "2000",
        "text": "BNA GROUND STOP POSSIBLE",
        "code": "GS",
        "label": "Ground stop possible",
        "level": "yellow",
        "section": "Terminal Planned",
        "airports": []
      },
      {
        "time": "—",
        "text": "AFTER",
        "code": "FLOW",
        "label": "FAA flow impact",
        "level": "yellow",
        "section": "Terminal Planned",
        "airports": []
      },
      {
        "time": "2200",
        "text": "JFK GROUND DELAY PROGRAM POSSIBLE",
        "code": "GDP",
        "label": "Ground delay possible",
        "level": "yellow",
        "section": "Terminal Planned",
        "airports": []
      },
      {
        "time": "—",
        "text": "AFTER",
        "code": "FLOW",
        "label": "FAA flow impact",
        "level": "yellow",
        "section": "Terminal Planned",
        "airports": []
      },
      {
        "time": "0200",
        "text": "MEM GROUND STOP/DELAY PROGRAM POSSIBLE",
        "code": "GS",
        "label": "Ground stop possible",
        "level": "yellow",
        "section": "Terminal Planned",
        "airports": []
      }
    ],
    "enroute": [],
    "airports": {
      "KPIT": null,
      "KAGC": null,
      "KLBE": null,
      "KJST": null,
      "KERI": null,
      "KDUJ": null,
      "KBFD": null,
      "KBTP": null,
      "KFKL": null,
      "KIDI": null,
      "KMDT": null,
      "KCXY": null,
      "KMUI": null,
      "KUNV": null,
      "KAOO": null,
      "KLNS": null,
      "KIPT": null,
      "KPHL": null,
      "KABE": null,
      "KAVP": null,
      "KHZL": null
    }
  },
  "airports": {
    "KPIT": {
      "status": "OK",
      "delay": "—",
      "metarCat": "VFR",
      "metarRaw": "METAR KPIT 280851Z 26004KT 10SM -RA SCT034 OVC065 13/09 A2997 RMK AO2 SLP152 P0001 60001 T01280089 53006",
      "metarObsTime": 1777366260,
      "faaFlow": null
    },
    "KAGC": {
      "status": "OK",
      "delay": "—",
      "metarCat": "VFR",
      "metarRaw": "METAR KAGC 280853Z 16008G15KT 10SM OVC075 14/06 A2995 RMK AO2 RAE17 SLP142 P0000 60000 T01440056 55003",
      "metarObsTime": 1777366380,
      "faaFlow": null
    },
    "KLBE": {
      "status": "OK",
      "delay": "—",
      "metarCat": "VFR",
      "metarRaw": "METAR KLBE 280855Z AUTO 13008KT 10SM UP FEW035 SCT049 BKN055 13/07 A2999 RMK AO2",
      "metarObsTime": 1777366500,
      "faaFlow": null
    },
    "KJST": {
      "status": "OK",
      "delay": "—",
      "metarCat": "VFR",
      "metarRaw": "METAR KJST 280854Z AUTO 16014G22KT 10SM FEW120 11/03 A3002 RMK AO2 PK WND 16028/0828 SLP165 T01060033 56017",
      "metarObsTime": 1777366440,
      "faaFlow": null
    },
    "KERI": {
      "status": "OK",
      "delay": "—",
      "metarCat": "VFR",
      "metarRaw": "METAR KERI 280851Z AUTO 16019G30KT 10SM -RA FEW050 BKN075 OVC085 16/05 A2986 RMK AO2 PK WND 17030/0843 RAB51 SLP107 P0000 60000 T01610050 56001",
      "metarObsTime": 1777366260,
      "faaFlow": null
    },
    "KDUJ": {
      "status": "OK",
      "delay": "—",
      "metarCat": "VFR",
      "metarRaw": "METAR KDUJ 280853Z AUTO 13009G21KT 10SM CLR 12/03 A2999 RMK AO2 PK WND 15027/0801 SLP152 T01170033 58009",
      "metarObsTime": 1777366380,
      "faaFlow": null
    },
    "KBFD": {
      "status": "OK",
      "delay": "—",
      "metarCat": "VFR",
      "metarRaw": "METAR KBFD 280853Z AUTO 10SM CLR 11/03 A2999 RMK AO2 SLP148 T01110033 58010 $",
      "metarObsTime": 1777366380,
      "faaFlow": null
    },
    "KBTP": {
      "status": "OK",
      "delay": "—",
      "metarCat": "VFR",
      "metarRaw": "METAR KBTP 280856Z AUTO 16003KT 10SM -RA OVC070 13/08 A2998 RMK AO2 SLP155 P0000 60000 T01280078 53003 $",
      "metarObsTime": 1777366560,
      "faaFlow": null
    },
    "KFKL": {
      "status": "OK",
      "delay": "—",
      "metarCat": "—",
      "metarRaw": "—",
      "metarObsTime": null,
      "faaFlow": null
    },
    "KIDI": {
      "status": "OK",
      "delay": "—",
      "metarCat": "VFR",
      "metarRaw": "METAR KIDI 280855Z AUTO 14012G20KT 10SM FEW055 SCT075 BKN100 14/05 A2999 RMK A01",
      "metarObsTime": 1777366500,
      "faaFlow": null
    },
    "KMDT": {
      "status": "OK",
      "delay": "—",
      "metarCat": "VFR",
      "metarRaw": "METAR KMDT 280856Z 06003KT 10SM BKN200 09/03 A3016 RMK AO2 SLP213 T00890033 58011",
      "metarObsTime": 1777366560,
      "faaFlow": null
    },
    "KCXY": {
      "status": "OK",
      "delay": "—",
      "metarCat": "VFR",
      "metarRaw": "METAR KCXY 280856Z AUTO 14006KT 10SM CLR 10/04 A3016 RMK AO2 SLP213 T01000044 58012",
      "metarObsTime": 1777366560,
      "faaFlow": null
    },
    "KMUI": {
      "status": "OK",
      "delay": "—",
      "metarCat": "VFR",
      "metarRaw": "METAR KMUI 280855Z AUTO 00000KT 10SM FEW190 09/09 A3015 RMK AO2 SLP212 T00940085 58013",
      "metarObsTime": 1777366500,
      "faaFlow": null
    },
    "KUNV": {
      "status": "OK",
      "delay": "—",
      "metarCat": "VFR",
      "metarRaw": "METAR KUNV 280855Z AUTO 19009G17KT 10SM CLR 12/03 A3008 RMK AO2 T01240030",
      "metarObsTime": 1777366500,
      "faaFlow": null
    },
    "KAOO": {
      "status": "OK",
      "delay": "—",
      "metarCat": "VFR",
      "metarRaw": "METAR KAOO 280853Z AUTO 18008G17KT 10SM CLR 12/03 A3007 RMK AO2 SLP182 T01170028 58016",
      "metarObsTime": 1777366380,
      "faaFlow": null
    },
    "KLNS": {
      "status": "OK",
      "delay": "—",
      "metarCat": "VFR",
      "metarRaw": "METAR KLNS 280853Z AUTO 08003KT 10SM CLR 06/03 A3018 RMK AO2 SLP218 T00560033 58009",
      "metarObsTime": 1777366380,
      "faaFlow": null
    },
    "KIPT": {
      "status": "OK",
      "delay": "—",
      "metarCat": "VFR",
      "metarRaw": "METAR KIPT 280854Z AUTO 07009KT 10SM CLR 11/03 A3011 RMK AO2 SLP196 T01110033 58006 $",
      "metarObsTime": 1777366440,
      "faaFlow": null
    },
    "KPHL": {
      "status": "OK",
      "delay": "—",
      "metarCat": "VFR",
      "metarRaw": "METAR KPHL 280854Z 24003KT 10SM FEW200 BKN280 09/04 A3021 RMK AO2 SLP228 T00940039 56009 $",
      "metarObsTime": 1777366440,
      "faaFlow": null
    },
    "KABE": {
      "status": "OK",
      "delay": "—",
      "metarCat": "VFR",
      "metarRaw": "METAR KABE 280851Z 00000KT 10SM CLR 07/03 A3019 RMK AO2 SLP222 T00720028 56009",
      "metarObsTime": 1777366260,
      "faaFlow": null
    },
    "KAVP": {
      "status": "OK",
      "delay": "—",
      "metarCat": "VFR",
      "metarRaw": "METAR KAVP 280854Z 24004KT 10SM CLR 09/02 A3016 RMK AO2 SLP209 T00940022 58006",
      "metarObsTime": 1777366440,
      "faaFlow": null
    },
    "KHZL": {
      "status": "OK",
      "delay": "—",
      "metarCat": "VFR",
      "metarRaw": "METAR KHZL 280855Z AUTO 16003KT 10SM CLR 07/01 A3018 RMK AO2",
      "metarObsTime": 1777366500,
      "faaFlow": null
    }
  }
}