{
  "generatedAt": "2026-04-01T01:20:31.414Z",
  "airports": {
    "KPIT": {
      "status": "OK",
      "delay": "—",
      "metarCat": "VFR",
      "metarRaw": "METAR KPIT 010051Z 22006KT 10SM SCT060 OVC150 23/11 A2989 RMK AO2 SLP121 OCNL LTG DSNT NW-N T02330106",
      "metarObsTime": 1775004660
    },
    "KAGC": {
      "status": "OK",
      "delay": "—",
      "metarCat": "VFR",
      "metarRaw": "METAR KAGC 010053Z 22008KT 10SM CLR 23/10 A2989 RMK AO2 SLP118 T02330100",
      "metarObsTime": 1775004780
    },
    "KLBE": {
      "status": "OK",
      "delay": "—",
      "metarCat": "VFR",
      "metarRaw": "METAR KLBE 010053Z 21010KT 10SM CLR 21/10 A2991",
      "metarObsTime": 1775004780
    },
    "KJST": {
      "status": "OK",
      "delay": "—",
      "metarCat": "VFR",
      "metarRaw": "METAR KJST 010054Z AUTO 21009KT 10SM CLR 21/08 A2993 RMK AO2 SLP124 T02060078",
      "metarObsTime": 1775004840
    },
    "KERI": {
      "status": "OK",
      "delay": "—",
      "metarCat": "MVFR",
      "metarRaw": "SPECI KERI 010102Z 24018G33KT 3SM +RA BR BKN028 BKN038 OVC048 16/14 A2988 RMK AO2 PK WND 24033/0059 LTG DSNT SE AND S P0002 T01560144 $",
      "metarObsTime": 1775005320
    },
    "KDUJ": {
      "status": "OK",
      "delay": "—",
      "metarCat": "VFR",
      "metarRaw": "SPECI KDUJ 010109Z AUTO 30010G16KT 10SM BKN060 OVC075 17/13 A2990 RMK AO2 RAE0059 P0000 T01720133",
      "metarObsTime": 1775005740
    },
    "KBFD": {
      "status": "OK",
      "delay": "—",
      "metarCat": "VFR",
      "metarRaw": "METAR KBFD 010053Z AUTO 25006KT 10SM -RA FEW039 SCT065 OVC090 14/13 A2990 RMK AO2 PK WND 29042/0015 LTG DSNT E AND SW RAB06 TSB18E33 SLP120 P0018 T01440128",
      "metarObsTime": 1775004780
    },
    "KBTP": {
      "status": "OK",
      "delay": "—",
      "metarCat": "VFR",
      "metarRaw": "METAR KBTP 010056Z AUTO 22007KT 10SM SCT085 23/11 A2989 RMK AO2 SLP119 T02280111 $",
      "metarObsTime": 1775004960
    },
    "KFKL": {
      "status": "OK",
      "delay": "—",
      "metarCat": "VFR",
      "metarRaw": "SPECI KFKL 010112Z AUTO 28011G23KT 7SM TSRA FEW011 BKN039 OVC060 14/12 A2997 RMK AO2 PK WND 27035/0059 WSHFT 0052 LTG DSNT E AND SW AND W P0012",
      "metarObsTime": 1775005920
    },
    "KIDI": {
      "status": "OK",
      "delay": "—",
      "metarCat": "VFR",
      "metarRaw": "METAR KIDI 010115Z AUTO 23009KT 10SM BKN065 22/10 A2991 RMK A01",
      "metarObsTime": 1775006100
    },
    "KMDT": {
      "status": "OK",
      "delay": "—",
      "metarCat": "VFR",
      "metarRaw": "METAR KMDT 010056Z VRB03KT 10SM FEW050 BKN100 OVC250 24/12 A2990 RMK AO2 SLP122 T02440122",
      "metarObsTime": 1775004960
    },
    "KCXY": {
      "status": "OK",
      "delay": "—",
      "metarCat": "VFR",
      "metarRaw": "METAR KCXY 010056Z 19011G17KT 10SM CLR 24/13 A2989 RMK AO2 SLP121 T02390128",
      "metarObsTime": 1775004960
    },
    "KMUI": {
      "status": "OK",
      "delay": "—",
      "metarCat": "VFR",
      "metarRaw": "METAR KMUI 010055Z 22004KT 10SM FEW090 BKN250 23/14 A2988 RMK AO2A SLP119 T02250141",
      "metarObsTime": 1775004900
    },
    "KUNV": {
      "status": "OK",
      "delay": "—",
      "metarCat": "VFR",
      "metarRaw": "METAR KUNV 010053Z 22006KT 10SM CLR 22/10 A2987",
      "metarObsTime": 1775004780
    },
    "KAOO": {
      "status": "OK",
      "delay": "—",
      "metarCat": "VFR",
      "metarRaw": "METAR KAOO 010053Z AUTO 21010KT 10SM CLR 20/10 A2991 RMK AO2 SLP121 T02000100",
      "metarObsTime": 1775004780
    },
    "KLNS": {
      "status": "OK",
      "delay": "—",
      "metarCat": "VFR",
      "metarRaw": "METAR KLNS 010053Z 20008KT 10SM CLR 23/12 A2991 RMK AO2 SLP127 T02280122",
      "metarObsTime": 1775004780
    },
    "KIPT": {
      "status": "OK",
      "delay": "—",
      "metarCat": "VFR",
      "metarRaw": "METAR KIPT 010054Z 19013G22KT 10SM CLR 24/11 A2982 RMK AO2 SLP096 T02440111",
      "metarObsTime": 1775004840
    },
    "KPHL": {
      "status": "OK",
      "delay": "—",
      "metarCat": "VFR",
      "metarRaw": "METAR KPHL 010054Z 20011KT 10SM FEW060 FEW100 BKN280 24/13 A2994 RMK AO2 SLP138 T02390128 $",
      "metarObsTime": 1775004840
    },
    "KABE": {
      "status": "OK",
      "delay": "—",
      "metarCat": "VFR",
      "metarRaw": "METAR KABE 010051Z 21011KT 10SM CLR 23/12 A2990 RMK AO2 SLP122 T02280122 $",
      "metarObsTime": 1775004660
    },
    "KAVP": {
      "status": "OK",
      "delay": "—",
      "metarCat": "VFR",
      "metarRaw": "METAR KAVP 010054Z 22007G19KT 10SM SCT065 BKN100 23/12 A2988 RMK AO2 SLP109 T02330122",
      "metarObsTime": 1775004840
    },
    "KHZL": {
      "status": "OK",
      "delay": "—",
      "metarCat": "VFR",
      "metarRaw": "METAR KHZL 010115Z AUTO 19007KT 160V220 10SM SCT095 21/11 A2995 RMK AO2",
      "metarObsTime": 1775006100
    }
  }
}