{
  "generatedAt": "2026-03-29T07:00:30.184Z",
  "airports": {
    "KPIT": {
      "status": "OK",
      "delay": "—",
      "metarCat": "VFR",
      "metarRaw": "METAR KPIT 290651Z 15003KT 10SM OVC120 00/M07 A3043 RMK AO2 SLP324 T00001067",
      "metarObsTime": 1774767060
    },
    "KAGC": {
      "status": "OK",
      "delay": "—",
      "metarCat": "VFR",
      "metarRaw": "METAR KAGC 290653Z 18006KT 10SM OVC120 00/M07 A3043 RMK AO2 SLP321 T00001067",
      "metarObsTime": 1774767180
    },
    "KLBE": {
      "status": "OK",
      "delay": "—",
      "metarCat": "VFR",
      "metarRaw": "METAR KLBE 290655Z AUTO 00000KT 10SM OVC120 M01/M04 A3047 RMK AO2",
      "metarObsTime": 1774767300
    },
    "KJST": {
      "status": "OK",
      "delay": "—",
      "metarCat": "VFR",
      "metarRaw": "METAR KJST 290654Z AUTO 20007KT 10SM BKN110 M01/M09 A3040 RMK AO2 SLP318 T10061094",
      "metarObsTime": 1774767240
    },
    "KERI": {
      "status": "OK",
      "delay": "—",
      "metarCat": "VFR",
      "metarRaw": "METAR KERI 290651Z AUTO 17008KT 10SM CLR M01/M08 A3042 RMK AO2 SLP310 T10061083 $",
      "metarObsTime": 1774767060
    },
    "KDUJ": {
      "status": "OK",
      "delay": "—",
      "metarCat": "VFR",
      "metarRaw": "METAR KDUJ 290653Z AUTO 00000KT 10SM CLR M03/M11 A3040 RMK AO2 SLP315 T10331106",
      "metarObsTime": 1774767180
    },
    "KBFD": {
      "status": "OK",
      "delay": "—",
      "metarCat": "VFR",
      "metarRaw": "METAR KBFD 290653Z AUTO 00000KT 10SM CLR M08/M10 A3039 RMK AO2 SLP320 T10781100",
      "metarObsTime": 1774767180
    },
    "KBTP": {
      "status": "OK",
      "delay": "—",
      "metarCat": "VFR",
      "metarRaw": "METAR KBTP 290656Z AUTO 16006KT 10SM OVC120 00/M06 A3044 RMK AO2 SLP327 T00001061 FZRANO $",
      "metarObsTime": 1774767360
    },
    "KFKL": {
      "status": "OK",
      "delay": "—",
      "metarCat": "VFR",
      "metarRaw": "METAR KFKL 290656Z AUTO 20005KT 10SM OVC120 M02/M06 A3042 RMK AO2 SLP320 T10171061 FZRANO",
      "metarObsTime": 1774767360
    },
    "KIDI": {
      "status": "OK",
      "delay": "—",
      "metarCat": "VFR",
      "metarRaw": "METAR KIDI 290655Z AUTO 00000KT 10SM OVC110 M03/M05 A3045 RMK A01",
      "metarObsTime": 1774767300
    },
    "KMDT": {
      "status": "OK",
      "delay": "—",
      "metarCat": "VFR",
      "metarRaw": "METAR KMDT 290656Z 07003KT 10SM FEW150 00/M05 A3052 RMK AO2 SLP337 T00001050",
      "metarObsTime": 1774767360
    },
    "KCXY": {
      "status": "OK",
      "delay": "—",
      "metarCat": "VFR",
      "metarRaw": "METAR KCXY 290656Z AUTO 00000KT 10SM CLR M02/M07 A3052 RMK AO2 SLP339 T10171072",
      "metarObsTime": 1774767360
    },
    "KMUI": {
      "status": "OK",
      "delay": "—",
      "metarCat": "—",
      "metarRaw": "—",
      "metarObsTime": null
    },
    "KUNV": {
      "status": "OK",
      "delay": "—",
      "metarCat": "VFR",
      "metarRaw": "METAR KUNV 290655Z AUTO 25004KT 10SM CLR 00/M10 A3046 RMK AO2 T10021098",
      "metarObsTime": 1774767300
    },
    "KAOO": {
      "status": "OK",
      "delay": "—",
      "metarCat": "VFR",
      "metarRaw": "METAR KAOO 290653Z AUTO 21006KT 10SM CLR M03/M09 A3046 RMK AO2 SLP330 T10281089 $",
      "metarObsTime": 1774767180
    },
    "KLNS": {
      "status": "OK",
      "delay": "—",
      "metarCat": "VFR",
      "metarRaw": "METAR KLNS 290653Z AUTO 13004KT 10SM CLR M02/M06 A3052 RMK AO2 SLP340 T10221061",
      "metarObsTime": 1774767180
    },
    "KIPT": {
      "status": "OK",
      "delay": "—",
      "metarCat": "VFR",
      "metarRaw": "METAR KIPT 290654Z AUTO 00000KT 10SM CLR M03/M09 A3050 RMK AO2 SLP333 T10281089",
      "metarObsTime": 1774767240
    },
    "KPHL": {
      "status": "OK",
      "delay": "—",
      "metarCat": "VFR",
      "metarRaw": "METAR KPHL 290654Z 00000KT 10SM FEW140 01/M08 A3056 RMK AO2 SLP349 T00111078 $",
      "metarObsTime": 1774767240
    },
    "KABE": {
      "status": "OK",
      "delay": "—",
      "metarCat": "VFR",
      "metarRaw": "METAR KABE 290651Z 00000KT 10SM CLR M03/M08 A3053 RMK AO2 SLP341 T10281083 $",
      "metarObsTime": 1774767060
    },
    "KAVP": {
      "status": "OK",
      "delay": "—",
      "metarCat": "VFR",
      "metarRaw": "METAR KAVP 290654Z AUTO 10006KT 10SM CLR M03/M11 A3048 RMK AO2 SLP330 T10331111",
      "metarObsTime": 1774767240
    },
    "KHZL": {
      "status": "OK",
      "delay": "—",
      "metarCat": "VFR",
      "metarRaw": "METAR KHZL 290655Z AUTO 00000KT 10SM CLR M05/M08 A3048 RMK AO2",
      "metarObsTime": 1774767300
    }
  }
}