{
  "generatedAt": "2026-03-22T18:20:21.039Z",
  "airports": {
    "KPIT": {
      "status": "OK",
      "delay": "—",
      "metarCat": "VFR",
      "metarRaw": "METAR KPIT 221751Z 26011G20KT 10SM FEW035 SCT120 SCT250 27/10 A2966 RMK AO2 SLP042 T02720100 10272 20156 58017",
      "metarObsTime": 1774201860
    },
    "KAGC": {
      "status": "OK",
      "delay": "—",
      "metarCat": "VFR",
      "metarRaw": "METAR KAGC 221753Z 24017G24KT 10SM CLR 27/09 A2966 RMK AO2 PK WND 23027/1726 SLP041 T02670094 10267 20128 58021",
      "metarObsTime": 1774201980
    },
    "KLBE": {
      "status": "OK",
      "delay": "—",
      "metarCat": "VFR",
      "metarRaw": "METAR KLBE 221750Z 23020G30KT 10SM CLR 27/12 A2968",
      "metarObsTime": 1774201800
    },
    "KJST": {
      "status": "OK",
      "delay": "—",
      "metarCat": "VFR",
      "metarRaw": "METAR KJST 221754Z AUTO 24014G26KT 10SM CLR 22/07 A2971 RMK AO2 PK WND 23037/1656 SLP050 T02220067 10233 20139 58013",
      "metarObsTime": 1774202040
    },
    "KERI": {
      "status": "OK",
      "delay": "—",
      "metarCat": "VFR",
      "metarRaw": "METAR KERI 221751Z 00000KT 10SM FEW042 FEW080 BKN110 12/06 A2970 RMK AO2 PRESRR SLP057 60000 T01220056 10172 20072 50008",
      "metarObsTime": 1774201860
    },
    "KDUJ": {
      "status": "OK",
      "delay": "—",
      "metarCat": "VFR",
      "metarRaw": "METAR KDUJ 221753Z AUTO 28013G24KT 10SM SCT050 22/09 A2966 RMK AO2 PK WND 27029/1728 SLP037 60000 T02220094 10228 20139 58008",
      "metarObsTime": 1774201980
    },
    "KBFD": {
      "status": "OK",
      "delay": "—",
      "metarCat": "VFR",
      "metarRaw": "METAR KBFD 221753Z AUTO 24006KT 10SM -RA SCT033 SCT050 BKN080 16/08 A2967 RMK AO2 RAB38 SLP042 P0000 60001 T01610078 10161 20111 58011 $",
      "metarObsTime": 1774201980
    },
    "KBTP": {
      "status": "OK",
      "delay": "—",
      "metarCat": "VFR",
      "metarRaw": "METAR KBTP 221756Z AUTO 23013G18KT 10SM CLR 26/12 A2966 RMK AO2 SLP041 T02610117 10261 20144 58017 $",
      "metarObsTime": 1774202160
    },
    "KFKL": {
      "status": "OK",
      "delay": "—",
      "metarCat": "VFR",
      "metarRaw": "METAR KFKL 221756Z AUTO 28006KT 10SM CLR 20/11 A2967 RMK AO2 SLP041 60000 T02000111 10206 20139 58007",
      "metarObsTime": 1774202160
    },
    "KIDI": {
      "status": "OK",
      "delay": "—",
      "metarCat": "VFR",
      "metarRaw": "METAR KIDI 221815Z AUTO 25010G16KT 220V280 10SM CLR 27/11 A2966 RMK A01",
      "metarObsTime": 1774203300
    },
    "KMDT": {
      "status": "OK",
      "delay": "—",
      "metarCat": "VFR",
      "metarRaw": "METAR KMDT 221756Z 14007KT 10SM FEW200 BKN250 22/09 A2968 RMK AO2 SLP052 T02220089 10222 20078 58031",
      "metarObsTime": 1774202160
    },
    "KCXY": {
      "status": "OK",
      "delay": "—",
      "metarCat": "VFR",
      "metarRaw": "METAR KCXY 221756Z 26005KT 10SM CLR 24/09 A2969 RMK AO2 SLP053 T02390094 10239 20089 58033",
      "metarObsTime": 1774202160
    },
    "KMUI": {
      "status": "OK",
      "delay": "—",
      "metarCat": "VFR",
      "metarRaw": "SPECI KMUI 221814Z AUTO 10003KT 10SM -RA FEW140 20/12 A2968 RMK AO2 RAB14 SLP053",
      "metarObsTime": 1774203240
    },
    "KUNV": {
      "status": "OK",
      "delay": "—",
      "metarCat": "VFR",
      "metarRaw": "METAR KUNV 221753Z 27014G20KT 10SM SCT100 26/08 A2965",
      "metarObsTime": 1774201980
    },
    "KAOO": {
      "status": "OK",
      "delay": "—",
      "metarCat": "VFR",
      "metarRaw": "METAR KAOO 221753Z AUTO 23020G31KT 10SM CLR 27/07 A2968 RMK AO2 PK WND 23037/1721 SLP043 T02720072 10272 20078 58016",
      "metarObsTime": 1774201980
    },
    "KLNS": {
      "status": "OK",
      "delay": "—",
      "metarCat": "VFR",
      "metarRaw": "METAR KLNS 221753Z 20008KT 10SM CLR 21/10 A2971 RMK AO2 SLP060 T02060100 10206 20067 58030",
      "metarObsTime": 1774201980
    },
    "KIPT": {
      "status": "OK",
      "delay": "—",
      "metarCat": "VFR",
      "metarRaw": "METAR KIPT 221754Z 07007KT 030V110 10SM CLR 19/08 A2965 RMK AO2 SLP041 T01890083 10189 20056 58027 $",
      "metarObsTime": 1774202040
    },
    "KPHL": {
      "status": "OK",
      "delay": "—",
      "metarCat": "VFR",
      "metarRaw": "METAR KPHL 221754Z 25008KT 10SM FEW150 BKN330 18/11 A2975 RMK AO2 SLP074 T01830106 10189 20083 58025 $",
      "metarObsTime": 1774202040
    },
    "KABE": {
      "status": "OK",
      "delay": "—",
      "metarCat": "—",
      "metarRaw": "METAR KABE 221751Z VRB04KT 10SM 17/08 A2972 RMK AO2 SLP066 T01720083 10172 20072 58026 $",
      "metarObsTime": 1774201860
    },
    "KAVP": {
      "status": "OK",
      "delay": "—",
      "metarCat": "VFR",
      "metarRaw": "METAR KAVP 221754Z 21004KT 10SM SCT120 15/07 A2968 RMK AO2 SLP049 T01500067 10156 20072 58023",
      "metarObsTime": 1774202040
    },
    "KHZL": {
      "status": "OK",
      "delay": "—",
      "metarCat": "VFR",
      "metarRaw": "METAR KHZL 221755Z AUTO 18007KT 10SM CLR 18/06 A2974 RMK AO2",
      "metarObsTime": 1774202100
    }
  }
}