{
  "generatedAt": "2026-03-09T16:21:05.061Z",
  "airports": {
    "KPIT": {
      "status": "OK",
      "delay": "—",
      "metarCat": "VFR",
      "metarRaw": "METAR KPIT 091551Z 21013KT 10SM FEW250 15/01 A3000 RMK AO2 SLP167 T01500011",
      "metarObsTime": 1773071460
    },
    "KAGC": {
      "status": "OK",
      "delay": "—",
      "metarCat": "VFR",
      "metarRaw": "METAR KAGC 091553Z 20012KT 10SM CLR 15/04 A3001 RMK AO2 SLP165 T01500044",
      "metarObsTime": 1773071580
    },
    "KLBE": {
      "status": "OK",
      "delay": "—",
      "metarCat": "VFR",
      "metarRaw": "METAR KLBE 091545Z 22016G27KT 10SM CLR 16/07 A3004",
      "metarObsTime": 1773071100
    },
    "KJST": {
      "status": "OK",
      "delay": "—",
      "metarCat": "VFR",
      "metarRaw": "METAR KJST 091554Z AUTO 22012G18KT 10SM CLR 14/02 A3002 RMK AO2 SLP166 T01390017",
      "metarObsTime": 1773071640
    },
    "KERI": {
      "status": "OK",
      "delay": "—",
      "metarCat": "VFR",
      "metarRaw": "METAR KERI 091551Z 21015G28KT 10SM CLR 17/M01 A2989 RMK AO2 PK WND 21028/1545 SLP121 T01721011",
      "metarObsTime": 1773071460
    },
    "KDUJ": {
      "status": "OK",
      "delay": "—",
      "metarCat": "VFR",
      "metarRaw": "METAR KDUJ 091553Z AUTO 22011G20KT 10SM CLR 13/M02 A2998 RMK AO2 PK WND 22026/1500 SLP154 T01331017",
      "metarObsTime": 1773071580
    },
    "KBFD": {
      "status": "OK",
      "delay": "—",
      "metarCat": "VFR",
      "metarRaw": "METAR KBFD 091553Z AUTO 22010G22KT 10SM CLR 13/M03 A2995 RMK AO2 SLP143 T01281033 $",
      "metarObsTime": 1773071580
    },
    "KBTP": {
      "status": "OK",
      "delay": "—",
      "metarCat": "VFR",
      "metarRaw": "METAR KBTP 091556Z AUTO 23011G17KT 10SM CLR 16/01 A3000 RMK AO2 SLP165 T01610006 $",
      "metarObsTime": 1773071760
    },
    "KFKL": {
      "status": "OK",
      "delay": "—",
      "metarCat": "VFR",
      "metarRaw": "METAR KFKL 091556Z AUTO 20014G17KT 10SM CLR 14/M01 A2997 RMK AO2 SLP151 T01441006",
      "metarObsTime": 1773071760
    },
    "KIDI": {
      "status": "OK",
      "delay": "—",
      "metarCat": "VFR",
      "metarRaw": "METAR KIDI 091615Z AUTO 22016G21KT 10SM CLR 16/04 A3001 RMK A01",
      "metarObsTime": 1773072900
    },
    "KMDT": {
      "status": "OK",
      "delay": "—",
      "metarCat": "VFR",
      "metarRaw": "METAR KMDT 091556Z 00000KT 10SM FEW250 14/03 A3004 RMK AO2 SLP174 T01390033",
      "metarObsTime": 1773071760
    },
    "KCXY": {
      "status": "OK",
      "delay": "—",
      "metarCat": "VFR",
      "metarRaw": "METAR KCXY 091556Z VRB05KT 10SM CLR 16/03 A3005 RMK AO2 SLP176 T01610033",
      "metarObsTime": 1773071760
    },
    "KMUI": {
      "status": "OK",
      "delay": "—",
      "metarCat": "VFR",
      "metarRaw": "METAR KMUI 091455Z 00000KT 10SM CLR 14/02 A3006 RMK AO2A SLP183 T01410023 50018",
      "metarObsTime": 1773068100
    },
    "KUNV": {
      "status": "OK",
      "delay": "—",
      "metarCat": "VFR",
      "metarRaw": "METAR KUNV 091553Z 20010KT 170V230 10SM CLR 16/03 A3002",
      "metarObsTime": 1773071580
    },
    "KAOO": {
      "status": "OK",
      "delay": "—",
      "metarCat": "VFR",
      "metarRaw": "METAR KAOO 091553Z AUTO 22015KT 10SM CLR 17/04 A3003 RMK AO2 SLP170 T01670044",
      "metarObsTime": 1773071580
    },
    "KLNS": {
      "status": "OK",
      "delay": "—",
      "metarCat": "VFR",
      "metarRaw": "METAR KLNS 091553Z 25005KT 10SM CLR 18/05 A3005 RMK AO2 SLP176 T01830050",
      "metarObsTime": 1773071580
    },
    "KIPT": {
      "status": "OK",
      "delay": "—",
      "metarCat": "VFR",
      "metarRaw": "METAR KIPT 091554Z 13005KT 10SM CLR 11/01 A3002 RMK AO2 SLP170 T01060011 $",
      "metarObsTime": 1773071640
    },
    "KPHL": {
      "status": "OK",
      "delay": "—",
      "metarCat": "VFR",
      "metarRaw": "METAR KPHL 091554Z 24006KT 10SM FEW060 FEW200 21/04 A3007 RMK AO2 SLP183 T02060039 $",
      "metarObsTime": 1773071640
    },
    "KABE": {
      "status": "OK",
      "delay": "—",
      "metarCat": "VFR",
      "metarRaw": "METAR KABE 091551Z 23013KT 10SM CLR 18/02 A3005 RMK AO2 SLP176 T01830017",
      "metarObsTime": 1773071460
    },
    "KAVP": {
      "status": "OK",
      "delay": "—",
      "metarCat": "VFR",
      "metarRaw": "METAR KAVP 091554Z 23012G22KT 10SM CLR 16/01 A3002 RMK AO2 SLP164 T01610011",
      "metarObsTime": 1773071640
    },
    "KHZL": {
      "status": "OK",
      "delay": "—",
      "metarCat": "VFR",
      "metarRaw": "METAR KHZL 091615Z AUTO 22005G15KT 10SM CLR 17/00 A3007 RMK AO2",
      "metarObsTime": 1773072900
    }
  }
}