{
  "generatedAt": "2026-03-17T11:00:20.280Z",
  "airports": {
    "KPIT": {
      "status": "OK",
      "delay": "—",
      "metarCat": "MVFR",
      "metarRaw": "METAR KPIT 171051Z 26005KT 3SM -SN FEW011 BKN032 OVC041 M06/M08 A2983 RMK AO2 SLP123 P0000 T10561078 $",
      "metarObsTime": 1773744660
    },
    "KAGC": {
      "status": "OK",
      "delay": "—",
      "metarCat": "IFR",
      "metarRaw": "METAR KAGC 171053Z 24007KT 1 3/4SM -SN BR BKN023 BKN029 OVC038 M06/M08 A2983 RMK AO2 SNB15 SLP121 P0000 T10611078 $",
      "metarObsTime": 1773744780
    },
    "KLBE": {
      "status": "OK",
      "delay": "—",
      "metarCat": "MVFR",
      "metarRaw": "METAR KLBE 171047Z 23012KT 7SM -SN BKN030 OVC035 M05/M08 A2986",
      "metarObsTime": 1773744420
    },
    "KJST": {
      "status": "OK",
      "delay": "—",
      "metarCat": "IFR",
      "metarRaw": "METAR KJST 171054Z AUTO 27018G32KT 2 1/2SM -SN SCT019 SCT023 OVC044 M08/M12 A2971 RMK AO2 PK WND 28036/1044 VIS 1 1/2V3 SLP091 P0000 T10831117",
      "metarObsTime": 1773744840
    },
    "KERI": {
      "status": "OK",
      "delay": "—",
      "metarCat": "VFR",
      "metarRaw": "METAR KERI 170951Z 25019G32KT 220V300 6SM HZ OVC034 M05/12 A2974 RMK PK WIND260/40",
      "metarObsTime": 1773741060
    },
    "KDUJ": {
      "status": "OK",
      "delay": "—",
      "metarCat": "IFR",
      "metarRaw": "METAR KDUJ 171053Z AUTO 25011KT 1 1/2SM -SN BR FEW013 OVC018 M08/M10 A2972 RMK AO2 SLP086 P0000 T10831100 TSNO",
      "metarObsTime": 1773744780
    },
    "KBFD": {
      "status": "OK",
      "delay": "—",
      "metarCat": "MVFR",
      "metarRaw": "METAR KBFD 171053Z AUTO 25008G22KT 4SM -SN FEW025 OVC033 M09/M13 A2966 RMK AO2 PK WND 26029/1024 SLP068 P0000 T10891128",
      "metarObsTime": 1773744780
    },
    "KBTP": {
      "status": "OK",
      "delay": "—",
      "metarCat": "—",
      "metarRaw": "—",
      "metarObsTime": null
    },
    "KFKL": {
      "status": "OK",
      "delay": "—",
      "metarCat": "IFR",
      "metarRaw": "METAR KFKL 171056Z AUTO 26013KT 2 1/2SM -SN BR FEW010 BKN016 OVC039 M07/M09 A2976 RMK AO2 SLP101 P0000 T10721094 FZRANO",
      "metarObsTime": 1773744960
    },
    "KIDI": {
      "status": "OK",
      "delay": "—",
      "metarCat": "VFR",
      "metarRaw": "METAR KIDI 171055Z AUTO 26010G16KT 10SM FEW031 OVC043 M06/M10 A2982 RMK A01",
      "metarObsTime": 1773744900
    },
    "KMDT": {
      "status": "OK",
      "delay": "—",
      "metarCat": "VFR",
      "metarRaw": "METAR KMDT 170956Z 28018G31KT 10SM SCT060 M01/M08 A2977 RMK AO2 PK WND 25032/0859 SLP082 T10061083",
      "metarObsTime": 1773741360
    },
    "KCXY": {
      "status": "OK",
      "delay": "—",
      "metarCat": "VFR",
      "metarRaw": "METAR KCXY 170956Z AUTO 27011G22KT 10SM CLR M02/M10 A2977 RMK AO2 PK WND 28029/0913 SLP085 T10171100",
      "metarObsTime": 1773741360
    },
    "KMUI": {
      "status": "OK",
      "delay": "—",
      "metarCat": "VFR",
      "metarRaw": "SPECI KMUI 170959Z AUTO 25011KT 9SM FEW036 BKN049 M01/M06 A2973 RMK AO2 SNE59 SLP072",
      "metarObsTime": 1773741540
    },
    "KUNV": {
      "status": "OK",
      "delay": "—",
      "metarCat": "VFR",
      "metarRaw": "METAR KUNV 171053Z 26016G25KT 10SM SCT034 BKN042 M06/M11 A2976",
      "metarObsTime": 1773744780
    },
    "KAOO": {
      "status": "OK",
      "delay": "—",
      "metarCat": "VFR",
      "metarRaw": "METAR KAOO 171053Z AUTO 29010G25KT 8SM -SN SCT029 OVC037 M06/M11 A2977 RMK AO2 PK WND 27033/1011 SLP099 P0000 T10611111",
      "metarObsTime": 1773744780
    },
    "KLNS": {
      "status": "OK",
      "delay": "—",
      "metarCat": "VFR",
      "metarRaw": "METAR KLNS 171053Z 27015G25KT 10SM CLR M02/M09 A2980 RMK AO2 PK WND 27033/0956 SLP091 T10221089",
      "metarObsTime": 1773744780
    },
    "KIPT": {
      "status": "OK",
      "delay": "—",
      "metarCat": "MVFR",
      "metarRaw": "METAR KIPT 171054Z 28012KT 4SM -SN SCT022 BKN036 OVC047 M03/M07 A2974 RMK AO2 PK WND 25026/1005 SNB47 SLP074 P0000 T10331067",
      "metarObsTime": 1773744840
    },
    "KPHL": {
      "status": "OK",
      "delay": "—",
      "metarCat": "VFR",
      "metarRaw": "METAR KPHL 171054Z 26016KT 10SM BKN050 02/M07 A2980 RMK AO2 PK WND 27029/1014 SLP091 T00171072 $",
      "metarObsTime": 1773744840
    },
    "KABE": {
      "status": "OK",
      "delay": "—",
      "metarCat": "—",
      "metarRaw": "METAR KABE 171051Z 10SM M01/M08 A2974 RMK AO2 PK WND 25031/0954 SLP071 T10111083 $",
      "metarObsTime": 1773744660
    },
    "KAVP": {
      "status": "OK",
      "delay": "—",
      "metarCat": "VFR",
      "metarRaw": "METAR KAVP 171054Z AUTO 25017G24KT 10SM FEW044 M04/M08 A2968 RMK AO2 PK WND 25027/1031 SLP051 T10391083",
      "metarObsTime": 1773744840
    },
    "KHZL": {
      "status": "OK",
      "delay": "—",
      "metarCat": "VFR",
      "metarRaw": "METAR KHZL 171035Z AUTO 26008G16KT 230V300 10SM SCT032 M04/M10 RMK AO2",
      "metarObsTime": 1773743700
    }
  }
}