{
  "generatedAt": "2026-03-27T01:00:29.225Z",
  "airports": {
    "KPIT": {
      "status": "OK",
      "delay": "—",
      "metarCat": "VFR",
      "metarRaw": "SPECI KPIT 270058Z 29006KT 10SM -TSRA SCT025CB OVC050 23/13 A2966 RMK AO2 RAB58 TSB53 PRESRR OCNL LTGICCC W-N-NE TS W-N-NE MOV SE P0000 T02280133",
      "metarObsTime": 1774573080
    },
    "KAGC": {
      "status": "OK",
      "delay": "—",
      "metarCat": "VFR",
      "metarRaw": "METAR KAGC 270053Z 23012G20KT 10SM BKN060 23/13 A2963 RMK AO2 LTG DSNT NW-NE SLP031 T02280128",
      "metarObsTime": 1774572780
    },
    "KLBE": {
      "status": "OK",
      "delay": "—",
      "metarCat": "VFR",
      "metarRaw": "METAR KLBE 270050Z 21008KT 10SM CLR 21/13 A2964",
      "metarObsTime": 1774572600
    },
    "KJST": {
      "status": "OK",
      "delay": "—",
      "metarCat": "VFR",
      "metarRaw": "METAR KJST 270054Z AUTO 21008KT 10SM CLR 19/11 A2967 RMK AO2 SLP037 T01890111",
      "metarObsTime": 1774572840
    },
    "KERI": {
      "status": "OK",
      "delay": "—",
      "metarCat": "MVFR",
      "metarRaw": "METAR KERI 270051Z 02004KT 8SM -RA BKN010 BKN055 OVC065 09/08 A2979 RMK AO2 SLP091 P0006 T00890078",
      "metarObsTime": 1774572660
    },
    "KDUJ": {
      "status": "OK",
      "delay": "—",
      "metarCat": "MVFR",
      "metarRaw": "METAR KDUJ 270053Z AUTO 31007KT 4SM -RA BR FEW012 BKN034 OVC080 15/14 A2967 RMK AO2 LTG DSNT SW SLP043 P0022 T01500144",
      "metarObsTime": 1774572780
    },
    "KBFD": {
      "status": "OK",
      "delay": "—",
      "metarCat": "IFR",
      "metarRaw": "METAR KBFD 270053Z AUTO 35008KT 3SM RA BR BKN007 BKN042 OVC075 09/08 A2976 RMK AO2 PK WND 34027/0016 SLP077 P0023 T00940083",
      "metarObsTime": 1774572780
    },
    "KBTP": {
      "status": "OK",
      "delay": "—",
      "metarCat": "MVFR",
      "metarRaw": "METAR KBTP 270056Z AUTO 32012G23KT 5SM +TSRA BR FEW010 BKN035 OVC046 17/17 A2973 RMK AO2 PK WND 30030/0033 WSHFT 0030 LTG DSNT E AND SW AND W TSB19RAB18 SLP068 P0007 T01670167 $",
      "metarObsTime": 1774572960
    },
    "KFKL": {
      "status": "OK",
      "delay": "—",
      "metarCat": "VFR",
      "metarRaw": "METAR KFKL 270056Z AUTO 03011KT 10SM -RA FEW011 SCT036 BKN050 09/09 A2975 RMK AO2 PK WND 34033/0011 SLP076 P0007 T00940089",
      "metarObsTime": 1774572960
    },
    "KIDI": {
      "status": "OK",
      "delay": "—",
      "metarCat": "VFR",
      "metarRaw": "METAR KIDI 270055Z AUTO 24008G14KT 10SM FEW055 BKN065 OVC070 21/13 A2964 RMK A01",
      "metarObsTime": 1774572900
    },
    "KMDT": {
      "status": "OK",
      "delay": "—",
      "metarCat": "VFR",
      "metarRaw": "METAR KMDT 270056Z VRB05G16KT 10SM BKN075 OVC150 23/11 A2965 RMK AO2 SLP038 T02280106",
      "metarObsTime": 1774572960
    },
    "KCXY": {
      "status": "OK",
      "delay": "—",
      "metarCat": "VFR",
      "metarRaw": "METAR KCXY 270056Z 21013G21KT 10SM BKN080 BKN090 23/11 A2965 RMK AO2 SLP040 T02330111",
      "metarObsTime": 1774572960
    },
    "KMUI": {
      "status": "OK",
      "delay": "—",
      "metarCat": "VFR",
      "metarRaw": "SPECI KMUI 270029Z 23009KT 10SM BKN065 BKN080 23/12 A2963 RMK AO2A LTG DSNT NW RAB16E29 SLP035",
      "metarObsTime": 1774571340
    },
    "KUNV": {
      "status": "OK",
      "delay": "—",
      "metarCat": "VFR",
      "metarRaw": "METAR KUNV 270053Z 23013G19KT 10SM VCTS BKN050 BKN080 22/12 A2964 RMK LTG DSNT NE",
      "metarObsTime": 1774572780
    },
    "KAOO": {
      "status": "OK",
      "delay": "—",
      "metarCat": "VFR",
      "metarRaw": "METAR KAOO 270053Z AUTO 21009KT 10SM FEW060 20/12 A2965 RMK AO2 SLP035 T02000117",
      "metarObsTime": 1774572780
    },
    "KLNS": {
      "status": "OK",
      "delay": "—",
      "metarCat": "VFR",
      "metarRaw": "METAR KLNS 270053Z 18008KT 10SM BKN075 21/10 A2966 RMK AO2 SLP042 T02060100",
      "metarObsTime": 1774572780
    },
    "KIPT": {
      "status": "OK",
      "delay": "—",
      "metarCat": "VFR",
      "metarRaw": "METAR KIPT 270054Z 22013G23KT 8SM -RA FEW070 OVC090 18/15 A2962 RMK AO2 PK WND 24032/0002 LTG DSNT W SLP031 P0009 T01830150 $",
      "metarObsTime": 1774572840
    },
    "KPHL": {
      "status": "OK",
      "delay": "—",
      "metarCat": "VFR",
      "metarRaw": "METAR KPHL 270054Z 20015G23KT 10SM SCT080 BKN260 22/11 A2969 RMK AO2 SLP053 T02170106",
      "metarObsTime": 1774572840
    },
    "KABE": {
      "status": "OK",
      "delay": "—",
      "metarCat": "VFR",
      "metarRaw": "METAR KABE 270051Z 20015G21KT 10SM FEW090 21/09 A2963 RMK AO2 SLP034 T02110089 $",
      "metarObsTime": 1774572660
    },
    "KAVP": {
      "status": "OK",
      "delay": "—",
      "metarCat": "VFR",
      "metarRaw": "METAR KAVP 270054Z 22007G18KT 9SM -RA OVC055 21/09 A2961 RMK AO2 RAB50 SLP021 P0000 T02060094",
      "metarObsTime": 1774572840
    },
    "KHZL": {
      "status": "OK",
      "delay": "—",
      "metarCat": "VFR",
      "metarRaw": "METAR KHZL 270055Z AUTO 19004KT 7SM RA SCT048 BKN070 OVC100 17/12 A2971 RMK AO2 LTG DSNT SW P0006",
      "metarObsTime": 1774572900
    }
  }
}