{
  "generatedAt": "2026-04-21T21:11:02.525Z",
  "airports": {
    "KPIT": {
      "status": "OK",
      "delay": "—",
      "metarCat": "VFR",
      "metarRaw": "METAR KPIT 212051Z 21013G18KT 10SM FEW060 SCT130 BKN220 20/00 A3003 RMK AO2 SLP180 T02000000 56037",
      "metarObsTime": 1776804660
    },
    "KAGC": {
      "status": "OK",
      "delay": "—",
      "metarCat": "VFR",
      "metarRaw": "METAR KAGC 212053Z 22010KT 10SM CLR 19/01 A3003 RMK AO2 SLP178 T01940011 56041",
      "metarObsTime": 1776804780
    },
    "KLBE": {
      "status": "OK",
      "delay": "—",
      "metarCat": "VFR",
      "metarRaw": "METAR KLBE 211955Z 22009KT 10SM CLR 18/M00 A3011",
      "metarObsTime": 1776801300
    },
    "KJST": {
      "status": "OK",
      "delay": "—",
      "metarCat": "VFR",
      "metarRaw": "METAR KJST 212054Z AUTO VRB05KT 10SM CLR 16/M03 A3007 RMK AO2 SLP193 T01611033 56034",
      "metarObsTime": 1776804840
    },
    "KERI": {
      "status": "OK",
      "delay": "—",
      "metarCat": "VFR",
      "metarRaw": "METAR KERI 212051Z 20011G22KT 10SM -RA FEW060 SCT075 OVC090 17/00 A2998 RMK AO2 PK WND 21028/1953 RAB40 SLP155 P0000 60000 T01670000 56032",
      "metarObsTime": 1776804660
    },
    "KDUJ": {
      "status": "OK",
      "delay": "—",
      "metarCat": "VFR",
      "metarRaw": "METAR KDUJ 212053Z AUTO 21009G18KT 10SM FEW085 15/M04 A3005 RMK AO2 SLP186 T01501039 56033",
      "metarObsTime": 1776804780
    },
    "KBFD": {
      "status": "OK",
      "delay": "—",
      "metarCat": "VFR",
      "metarRaw": "METAR KBFD 212053Z AUTO 19011G16KT 10SM SCT049 BKN085 13/M06 A3004 RMK AO2 SLP188 T01281056 56030",
      "metarObsTime": 1776804780
    },
    "KBTP": {
      "status": "OK",
      "delay": "—",
      "metarCat": "VFR",
      "metarRaw": "METAR KBTP 212056Z AUTO 22010KT 10SM CLR 19/02 A3003 RMK AO2 SLP180 T01890017 56040 $",
      "metarObsTime": 1776804960
    },
    "KFKL": {
      "status": "OK",
      "delay": "—",
      "metarCat": "—",
      "metarRaw": "—",
      "metarObsTime": null
    },
    "KIDI": {
      "status": "OK",
      "delay": "—",
      "metarCat": "—",
      "metarRaw": "—",
      "metarObsTime": null
    },
    "KMDT": {
      "status": "OK",
      "delay": "—",
      "metarCat": "VFR",
      "metarRaw": "METAR KMDT 212056Z 21004KT 10SM SCT100 14/M04 A3017 RMK AO2 SLP220 T01391039 56033",
      "metarObsTime": 1776804960
    },
    "KCXY": {
      "status": "OK",
      "delay": "—",
      "metarCat": "VFR",
      "metarRaw": "METAR KCXY 212056Z VRB06G16KT 10SM CLR 14/M04 A3017 RMK AO2 SLP221 T01441039 56033",
      "metarObsTime": 1776804960
    },
    "KMUI": {
      "status": "OK",
      "delay": "—",
      "metarCat": "VFR",
      "metarRaw": "METAR KMUI 212055Z 17005KT 10SM FEW150 SCT200 16/M03 A3016 RMK AO2A SLP219 T01631027 57032",
      "metarObsTime": 1776804900
    },
    "KUNV": {
      "status": "OK",
      "delay": "—",
      "metarCat": "VFR",
      "metarRaw": "METAR KUNV 212053Z 23009G15KT 10SM SCT100 14/M05 A3011",
      "metarObsTime": 1776804780
    },
    "KAOO": {
      "status": "OK",
      "delay": "—",
      "metarCat": "VFR",
      "metarRaw": "METAR KAOO 212053Z AUTO 18009G18KT 10SM CLR 16/M05 A3010 RMK AO2 SLP201 T01561050 56039",
      "metarObsTime": 1776804780
    },
    "KLNS": {
      "status": "OK",
      "delay": "—",
      "metarCat": "VFR",
      "metarRaw": "METAR KLNS 212053Z 22008KT 10SM CLR 13/M04 A3019 RMK AO2 SLP224 T01281044 58034",
      "metarObsTime": 1776804780
    },
    "KIPT": {
      "status": "OK",
      "delay": "—",
      "metarCat": "VFR",
      "metarRaw": "METAR KIPT 212054Z 16008G14KT 140V200 10SM FEW080 14/M04 A3012 RMK AO2 SLP204 T01441039 58034 $",
      "metarObsTime": 1776804840
    },
    "KPHL": {
      "status": "OK",
      "delay": "—",
      "metarCat": "VFR",
      "metarRaw": "METAR KPHL 212054Z 19008G17KT 10SM FEW100 SCT150 14/M06 A3024 RMK AO2 SLP240 T01391056 56027 $",
      "metarObsTime": 1776804840
    },
    "KABE": {
      "status": "OK",
      "delay": "—",
      "metarCat": "VFR",
      "metarRaw": "METAR KABE 212051Z AUTO 10SM CLR 12/M06 A3020 RMK AO2 SLP230 T01171061 56030",
      "metarObsTime": 1776804660
    },
    "KAVP": {
      "status": "OK",
      "delay": "—",
      "metarCat": "VFR",
      "metarRaw": "METAR KAVP 212054Z VRB04KT 10SM SCT090 BKN120 11/M09 A3016 RMK AO2 SLP219 T01111094 56027",
      "metarObsTime": 1776804840
    },
    "KHZL": {
      "status": "OK",
      "delay": "—",
      "metarCat": "VFR",
      "metarRaw": "METAR KHZL 212100Z AUTO 16003KT 10SM SCT070 BKN090 11/M09 A3018 RMK AO2",
      "metarObsTime": 1776805200
    }
  }
}