{
  "generatedAt": "2026-04-02T10:30:36.645Z",
  "airports": {
    "KPIT": {
      "status": "OK",
      "delay": "—",
      "metarCat": "LIFR",
      "metarRaw": "METAR KPIT 020951Z 36003KT 1/2SM R28R/5500VP6000FT -RA FG VV002 09/09 A3014 RMK AO2 SLP216 P0001 T00890089 $",
      "metarObsTime": 1775123460
    },
    "KAGC": {
      "status": "OK",
      "delay": "—",
      "metarCat": "LIFR",
      "metarRaw": "METAR KAGC 020953Z 02003KT 1/4SM R28/1600V2000FT FG VV002 11/10 A3013 RMK AO2 RAB19E36 SLP206 P0001 T01060100",
      "metarObsTime": 1775123580
    },
    "KLBE": {
      "status": "OK",
      "delay": "—",
      "metarCat": "VFR",
      "metarRaw": "METAR KLBE 021015Z AUTO 00000KT 10SM BKN055 BKN085 BKN120 12/12 A3018 RMK AO2",
      "metarObsTime": 1775124900
    },
    "KJST": {
      "status": "OK",
      "delay": "—",
      "metarCat": "LIFR",
      "metarRaw": "METAR KJST 020954Z AUTO 16005KT 7SM OVC004 09/09 A3017 RMK AO2 SLP213 T00890089",
      "metarObsTime": 1775123640
    },
    "KERI": {
      "status": "OK",
      "delay": "—",
      "metarCat": "IFR",
      "metarRaw": "METAR KERI 020951Z 05012KT 7SM OVC005 02/01 A3019 RMK AO2 SLP229 T00220011 $",
      "metarObsTime": 1775123460
    },
    "KDUJ": {
      "status": "OK",
      "delay": "—",
      "metarCat": "IFR",
      "metarRaw": "METAR KDUJ 020953Z AUTO 10006KT 10SM OVC006 06/05 A3017 RMK AO2 SLP221 T00560050",
      "metarObsTime": 1775123580
    },
    "KBFD": {
      "status": "OK",
      "delay": "—",
      "metarCat": "LIFR",
      "metarRaw": "METAR KBFD 020953Z AUTO 09005KT 3SM -RA BR OVC003 03/02 A3019 RMK AO2 SLP237 P0001 T00280022",
      "metarObsTime": 1775123580
    },
    "KBTP": {
      "status": "OK",
      "delay": "—",
      "metarCat": "IFR",
      "metarRaw": "SPECI KBTP 021003Z AUTO 08004KT 10SM OVC006 10/ A3016 RMK AO2 $",
      "metarObsTime": 1775124180
    },
    "KFKL": {
      "status": "OK",
      "delay": "—",
      "metarCat": "LIFR",
      "metarRaw": "METAR KFKL 020956Z AUTO 08005KT 6SM BR OVC003 06/06 A3016 RMK AO2 SLP223 T00610061",
      "metarObsTime": 1775123760
    },
    "KIDI": {
      "status": "OK",
      "delay": "—",
      "metarCat": "VFR",
      "metarRaw": "METAR KIDI 021015Z AUTO 09008KT 10SM SCT024 BKN060 OVC075 10/09 A3017 RMK A01",
      "metarObsTime": 1775124900
    },
    "KMDT": {
      "status": "OK",
      "delay": "—",
      "metarCat": "IFR",
      "metarRaw": "METAR KMDT 020956Z 09009KT 5SM BR OVC009 12/11 A3023 RMK AO2 SLP236 T01170106 $",
      "metarObsTime": 1775123760
    },
    "KCXY": {
      "status": "OK",
      "delay": "—",
      "metarCat": "IFR",
      "metarRaw": "SPECI KCXY 021018Z AUTO 08009KT 2 1/2SM BR OVC007 11/10 A3024 RMK AO2 RAB08E18 P0001 T01060100",
      "metarObsTime": 1775125080
    },
    "KMUI": {
      "status": "OK",
      "delay": "—",
      "metarCat": "IFR",
      "metarRaw": "SPECI KMUI 021019Z 07008KT 7SM OVC005 10/10 A3024 RMK AO2A SLP242",
      "metarObsTime": 1775125140
    },
    "KUNV": {
      "status": "OK",
      "delay": "—",
      "metarCat": "LIFR",
      "metarRaw": "SPECI KUNV 021030Z 04005KT 2 1/2SM -RA BR OVC004 06/06 A3023",
      "metarObsTime": 1775125800
    },
    "KAOO": {
      "status": "OK",
      "delay": "—",
      "metarCat": "IFR",
      "metarRaw": "METAR KAOO 020953Z AUTO 00000KT 10SM OVC008 08/07 A3022 RMK AO2 SLP232 T00780067",
      "metarObsTime": 1775123580
    },
    "KLNS": {
      "status": "OK",
      "delay": "—",
      "metarCat": "IFR",
      "metarRaw": "METAR KLNS 020953Z COR 08013KT 9SM OVC009 10/08 A3024 RMK AO2 PK WND 10027/0926 SLP239 T01000083",
      "metarObsTime": 1775123580
    },
    "KIPT": {
      "status": "OK",
      "delay": "—",
      "metarCat": "MVFR",
      "metarRaw": "METAR KIPT 020954Z AUTO 00000KT 10SM OVC014 07/06 A3025 RMK AO2 SLP244 T00670056 $",
      "metarObsTime": 1775123640
    },
    "KPHL": {
      "status": "OK",
      "delay": "—",
      "metarCat": "MVFR",
      "metarRaw": "METAR KPHL 020954Z 07015G22KT 10SM OVC010 09/07 A3029 RMK AO2 SLP256 T00940072 $",
      "metarObsTime": 1775123640
    },
    "KABE": {
      "status": "OK",
      "delay": "—",
      "metarCat": "IFR",
      "metarRaw": "SPECI KABE 021026Z 08011KT 5SM BR BKN008 OVC014 08/07 A3030 RMK AO2 RAB0959E10 P0000 T00830072 $",
      "metarObsTime": 1775125560
    },
    "KAVP": {
      "status": "OK",
      "delay": "—",
      "metarCat": "MVFR",
      "metarRaw": "SPECI KAVP 021013Z 04004KT 10SM OVC014 07/05 A3026 RMK AO2 T00720050",
      "metarObsTime": 1775124780
    },
    "KHZL": {
      "status": "OK",
      "delay": "—",
      "metarCat": "LIFR",
      "metarRaw": "METAR KHZL 021015Z AUTO 13005KT 2SM -DZ OVC004 06/05 A3026 RMK AO2 VIS 1/2V5",
      "metarObsTime": 1775124900
    }
  }
}