{
  "generatedAt": "2026-03-24T14:30:24.456Z",
  "airports": {
    "KPIT": {
      "status": "OK",
      "delay": "—",
      "metarCat": "VFR",
      "metarRaw": "METAR KPIT 241351Z 00000KT 10SM FEW250 M02/M09 A3044 RMK AO2 SLP330 T10221089",
      "metarObsTime": 1774360260
    },
    "KAGC": {
      "status": "OK",
      "delay": "—",
      "metarCat": "VFR",
      "metarRaw": "METAR KAGC 241353Z 24005KT 10SM CLR M02/M09 A3044 RMK AO2 SLP327 T10221094",
      "metarObsTime": 1774360380
    },
    "KLBE": {
      "status": "OK",
      "delay": "—",
      "metarCat": "VFR",
      "metarRaw": "METAR KLBE 241347Z 00000KT 10SM CLR M01/M08 A3046",
      "metarObsTime": 1774360020
    },
    "KJST": {
      "status": "OK",
      "delay": "—",
      "metarCat": "VFR",
      "metarRaw": "METAR KJST 241354Z AUTO 00000KT 10SM CLR M04/M09 A3035 RMK AO2 SLP308 T10391089",
      "metarObsTime": 1774360440
    },
    "KERI": {
      "status": "OK",
      "delay": "—",
      "metarCat": "VFR",
      "metarRaw": "METAR KERI 241351Z 21005KT 10SM CLR M01/M08 A3045 RMK AO2 SLP320 T10061083",
      "metarObsTime": 1774360260
    },
    "KDUJ": {
      "status": "OK",
      "delay": "—",
      "metarCat": "MVFR",
      "metarRaw": "SPECI KDUJ 241424Z AUTO 00000KT 10SM BKN021 M03/M09 A3038 RMK AO2 T10331089",
      "metarObsTime": 1774362240
    },
    "KBFD": {
      "status": "OK",
      "delay": "—",
      "metarCat": "VFR",
      "metarRaw": "METAR KBFD 241353Z AUTO 00000KT 10SM CLR M04/M09 A3036 RMK AO2 SLP307 T10441094",
      "metarObsTime": 1774360380
    },
    "KBTP": {
      "status": "OK",
      "delay": "—",
      "metarCat": "VFR",
      "metarRaw": "METAR KBTP 241356Z AUTO 00000KT 10SM CLR 01/M07 A3045 RMK AO2 SLP331 T00111072 FZRANO $",
      "metarObsTime": 1774360560
    },
    "KFKL": {
      "status": "OK",
      "delay": "—",
      "metarCat": "VFR",
      "metarRaw": "METAR KFKL 241356Z AUTO 17007KT 10SM CLR M02/M07 A3041 RMK AO2 SLP321 T10221067 FZRANO",
      "metarObsTime": 1774360560
    },
    "KIDI": {
      "status": "OK",
      "delay": "—",
      "metarCat": "VFR",
      "metarRaw": "METAR KIDI 241415Z AUTO 01004KT 10SM CLR M02/M07 A3043 RMK A01",
      "metarObsTime": 1774361700
    },
    "KMDT": {
      "status": "OK",
      "delay": "—",
      "metarCat": "VFR",
      "metarRaw": "METAR KMDT 241356Z 01008KT 10SM FEW045 SCT250 03/M08 A3045 RMK AO2 SLP315 T00281078",
      "metarObsTime": 1774360560
    },
    "KCXY": {
      "status": "OK",
      "delay": "—",
      "metarCat": "VFR",
      "metarRaw": "METAR KCXY 241356Z VRB05KT 10SM CLR 03/M08 A3046 RMK AO2 SLP319 T00281078",
      "metarObsTime": 1774360560
    },
    "KMUI": {
      "status": "OK",
      "delay": "—",
      "metarCat": "VFR",
      "metarRaw": "METAR KMUI 241355Z 31009KT 10SM FEW040 SCT200 03/M08 A3043 RMK AO2A SLP312 T00301081",
      "metarObsTime": 1774360500
    },
    "KUNV": {
      "status": "OK",
      "delay": "—",
      "metarCat": "VFR",
      "metarRaw": "METAR KUNV 241353Z 33004KT 10SM SCT032 00/M08 A3043",
      "metarObsTime": 1774360380
    },
    "KAOO": {
      "status": "OK",
      "delay": "—",
      "metarCat": "VFR",
      "metarRaw": "METAR KAOO 241353Z AUTO 13003KT 10SM CLR M02/M08 A3041 RMK AO2 SLP316 T10171083",
      "metarObsTime": 1774360380
    },
    "KLNS": {
      "status": "OK",
      "delay": "—",
      "metarCat": "VFR",
      "metarRaw": "METAR KLNS 241353Z 03009KT 10SM CLR 03/M06 A3044 RMK AO2 SLP310 T00331061",
      "metarObsTime": 1774360380
    },
    "KIPT": {
      "status": "OK",
      "delay": "—",
      "metarCat": "VFR",
      "metarRaw": "METAR KIPT 241354Z VRB04KT 10SM CLR 01/M08 A3046 RMK AO2 SLP322 T00061078 $",
      "metarObsTime": 1774360440
    },
    "KPHL": {
      "status": "OK",
      "delay": "—",
      "metarCat": "VFR",
      "metarRaw": "METAR KPHL 241354Z 01009G20KT 10SM SCT045 SCT320 05/M06 A3045 RMK AO2 SLP310 T00501056 $",
      "metarObsTime": 1774360440
    },
    "KABE": {
      "status": "OK",
      "delay": "—",
      "metarCat": "—",
      "metarRaw": "METAR KABE 241351Z A3043 RMK AO2 SLPNO $",
      "metarObsTime": 1774360260
    },
    "KAVP": {
      "status": "OK",
      "delay": "—",
      "metarCat": "VFR",
      "metarRaw": "METAR KAVP 241354Z AUTO 32005KT 10SM BKN032 M01/M07 A3041 RMK AO2 SLP306 T10111067",
      "metarObsTime": 1774360440
    },
    "KHZL": {
      "status": "OK",
      "delay": "—",
      "metarCat": "VFR",
      "metarRaw": "METAR KHZL 241415Z AUTO 02004KT 10SM SCT024 M01/M08 A3041 RMK AO2",
      "metarObsTime": 1774361700
    }
  }
}