{
  "generatedAt": "2026-03-14T21:50:13.259Z",
  "airports": {
    "KPIT": {
      "status": "OK",
      "delay": "—",
      "metarCat": "VFR",
      "metarRaw": "METAR KPIT 142051Z 28007KT 10SM BKN110 07/M12 A3019 RMK AO2 SLP238 T00721117 55002",
      "metarObsTime": 1773521460
    },
    "KAGC": {
      "status": "OK",
      "delay": "—",
      "metarCat": "VFR",
      "metarRaw": "METAR KAGC 142053Z 28006KT 10SM SCT100 07/M11 A3018 RMK AO2 SLP233 T00721111 55001",
      "metarObsTime": 1773521580
    },
    "KLBE": {
      "status": "OK",
      "delay": "—",
      "metarCat": "—",
      "metarRaw": "—",
      "metarObsTime": null
    },
    "KJST": {
      "status": "OK",
      "delay": "—",
      "metarCat": "VFR",
      "metarRaw": "METAR KJST 142054Z AUTO 29013G23KT 10SM CLR 04/M12 A3013 RMK AO2 SLP221 T00441122 53009",
      "metarObsTime": 1773521640
    },
    "KERI": {
      "status": "OK",
      "delay": "—",
      "metarCat": "VFR",
      "metarRaw": "METAR KERI 142051Z 28008KT 10SM CLR 00/M07 A3026 RMK AO2 SLPNO T00001067 53006 $",
      "metarObsTime": 1773521460
    },
    "KDUJ": {
      "status": "OK",
      "delay": "—",
      "metarCat": "VFR",
      "metarRaw": "METAR KDUJ 142053Z AUTO 31007G20KT 10SM CLR 06/M12 A3013 RMK AO2 PK WND 27029/1957 SLP217 T00561117 53004",
      "metarObsTime": 1773521580
    },
    "KBFD": {
      "status": "OK",
      "delay": "—",
      "metarCat": "VFR",
      "metarRaw": "METAR KBFD 142053Z AUTO 29010KT 10SM CLR 01/M09 A3014 RMK AO2 SLP226 T00111094 53010",
      "metarObsTime": 1773521580
    },
    "KBTP": {
      "status": "OK",
      "delay": "—",
      "metarCat": "VFR",
      "metarRaw": "METAR KBTP 142056Z AUTO 28009KT 10SM CLR 07/M09 A3020 RMK AO2 SLP242 T00671089 53002 $",
      "metarObsTime": 1773521760
    },
    "KFKL": {
      "status": "OK",
      "delay": "—",
      "metarCat": "VFR",
      "metarRaw": "METAR KFKL 142056Z AUTO 31006G15KT 10SM CLR A3019 RMK AO2 SLPNO 53003 FZRANO $",
      "metarObsTime": 1773521760
    },
    "KIDI": {
      "status": "OK",
      "delay": "—",
      "metarCat": "VFR",
      "metarRaw": "METAR KIDI 142135Z AUTO 29009G15KT 10SM CLR 07/M10 A3018 RMK A01",
      "metarObsTime": 1773524100
    },
    "KMDT": {
      "status": "OK",
      "delay": "—",
      "metarCat": "VFR",
      "metarRaw": "METAR KMDT 142056Z 30015KT 10SM FEW250 12/M09 A3015 RMK AO2 PK WND 31030/2001 SLP210 T01171094 53014 $",
      "metarObsTime": 1773521760
    },
    "KCXY": {
      "status": "OK",
      "delay": "—",
      "metarCat": "VFR",
      "metarRaw": "METAR KCXY 142056Z 31015G21KT 10SM CLR 11/M12 A3015 RMK AO2 PK WND 29026/2001 RAE1957 SLP213 P0000 60000 T01111122 53014",
      "metarObsTime": 1773521760
    },
    "KMUI": {
      "status": "OK",
      "delay": "—",
      "metarCat": "VFR",
      "metarRaw": "SPECI KMUI 142126Z AUTO 31014G20KT 10SM CLR 12/M13 A3014 RMK AO2 WSHFT 19 SLP211 $",
      "metarObsTime": 1773523560
    },
    "KUNV": {
      "status": "OK",
      "delay": "—",
      "metarCat": "VFR",
      "metarRaw": "METAR KUNV 142053Z 30011G16KT 10SM CLR 09/M12 A3015",
      "metarObsTime": 1773521580
    },
    "KAOO": {
      "status": "OK",
      "delay": "—",
      "metarCat": "VFR",
      "metarRaw": "METAR KAOO 142053Z AUTO 28010KT 10SM CLR 08/M12 A3015 RMK AO2 SLP217 T00831122 53010",
      "metarObsTime": 1773521580
    },
    "KLNS": {
      "status": "OK",
      "delay": "—",
      "metarCat": "VFR",
      "metarRaw": "METAR KLNS 142053Z 29015G24KT 10SM CLR 11/M12 A3014 RMK AO2 PK WND 27029/2032 SLP209 T01111117 52015",
      "metarObsTime": 1773521580
    },
    "KIPT": {
      "status": "OK",
      "delay": "—",
      "metarCat": "VFR",
      "metarRaw": "METAR KIPT 142054Z 30014G27KT 10SM CLR 09/M12 A3015 RMK AO2 PK WND 30031/2006 SLP212 T00891122 53018",
      "metarObsTime": 1773521640
    },
    "KPHL": {
      "status": "OK",
      "delay": "—",
      "metarCat": "VFR",
      "metarRaw": "METAR KPHL 142054Z 30021G31KT 10SM SCT250 13/M13 A3015 RMK AO2 PK WND 30035/2037 SLP210 T01331133 53022 $",
      "metarObsTime": 1773521640
    },
    "KABE": {
      "status": "OK",
      "delay": "—",
      "metarCat": "VFR",
      "metarRaw": "METAR KABE 142051Z 29018G30KT 10SM CLR 10/M12 A3013 RMK AO2 PK WND 30030/2012 SLP207 T01001117 53027 $",
      "metarObsTime": 1773521460
    },
    "KAVP": {
      "status": "OK",
      "delay": "—",
      "metarCat": "VFR",
      "metarRaw": "METAR KAVP 142054Z 32014G23KT 10SM CLR 07/M09 A3011 RMK AO2 PK WND 30027/2012 SLP203 T00671094 53024",
      "metarObsTime": 1773521640
    },
    "KHZL": {
      "status": "OK",
      "delay": "—",
      "metarCat": "VFR",
      "metarRaw": "METAR KHZL 142135Z AUTO 28008KT 250V320 10SM CLR 06/M13 A3015 RMK AO2",
      "metarObsTime": 1773524100
    }
  }
}