{
  "generatedAt": "2026-04-02T15:40:42.993Z",
  "airports": {
    "KPIT": {
      "status": "OK",
      "delay": "—",
      "metarCat": "VFR",
      "metarRaw": "SPECI KPIT 021512Z 14006KT 7SM SCT005 BKN047 BKN250 16/14 A3017 RMK AO2 T01610139",
      "metarObsTime": 1775142720
    },
    "KAGC": {
      "status": "OK",
      "delay": "—",
      "metarCat": "VFR",
      "metarRaw": "METAR KAGC 021453Z 17008KT 9SM CLR 16/14 A3017 RMK AO2 SLP223 60000 T01560144 50004",
      "metarObsTime": 1775141580
    },
    "KLBE": {
      "status": "OK",
      "delay": "—",
      "metarCat": "VFR",
      "metarRaw": "METAR KLBE 021450Z VRB05KT 10SM SCT060 19/17 A3020",
      "metarObsTime": 1775141400
    },
    "KJST": {
      "status": "OK",
      "delay": "—",
      "metarCat": "VFR",
      "metarRaw": "SPECI KJST 021535Z AUTO 16010G18KT 10SM SCT008 SCT012 15/12 A3024 RMK AO2 T01500117",
      "metarObsTime": 1775144100
    },
    "KERI": {
      "status": "OK",
      "delay": "—",
      "metarCat": "MVFR",
      "metarRaw": "METAR KERI 021451Z 05007KT 8SM -RA SCT011 OVC020 04/03 A3017 RMK AO2 RAB13 SLP223 P0000 60000 T00440033 58008 $",
      "metarObsTime": 1775141460
    },
    "KDUJ": {
      "status": "OK",
      "delay": "—",
      "metarCat": "VFR",
      "metarRaw": "SPECI KDUJ 021525Z AUTO 13008KT 10SM FEW009 SCT024 OVC100 12/09 A3021 RMK AO2 T01220094",
      "metarObsTime": 1775143500
    },
    "KBFD": {
      "status": "OK",
      "delay": "—",
      "metarCat": "LIFR",
      "metarRaw": "METAR KBFD 021453Z AUTO 14007KT 3SM BR OVC002 07/06 A3022 RMK AO2 SLP245 T00670061 53001",
      "metarObsTime": 1775141580
    },
    "KBTP": {
      "status": "OK",
      "delay": "—",
      "metarCat": "VFR",
      "metarRaw": "SPECI KBTP 021528Z AUTO 15006KT 10SM FEW008 17/16 A3018 RMK AO2 $",
      "metarObsTime": 1775143680
    },
    "KFKL": {
      "status": "OK",
      "delay": "—",
      "metarCat": "LIFR",
      "metarRaw": "METAR KFKL 021456Z AUTO 12007KT 5SM BR OVC003 10/10 A3019 RMK AO2 RAE52 SLP230 P0000 60000 T01000100 55001",
      "metarObsTime": 1775141760
    },
    "KIDI": {
      "status": "OK",
      "delay": "—",
      "metarCat": "VFR",
      "metarRaw": "METAR KIDI 021535Z AUTO 15007G12KT 10SM CLR 21/14 A3020 RMK A01",
      "metarObsTime": 1775144100
    },
    "KMDT": {
      "status": "OK",
      "delay": "—",
      "metarCat": "IFR",
      "metarRaw": "METAR KMDT 021456Z 12010KT 9SM OVC007 09/08 A3034 RMK AO2 SLP274 60000 T00940078 50014",
      "metarObsTime": 1775141760
    },
    "KCXY": {
      "status": "OK",
      "delay": "—",
      "metarCat": "IFR",
      "metarRaw": "METAR KCXY 021456Z 12012KT 3SM BR OVC007 09/08 A3034 RMK AO2 SLP276 T00890078 50015",
      "metarObsTime": 1775141760
    },
    "KMUI": {
      "status": "OK",
      "delay": "—",
      "metarCat": "IFR",
      "metarRaw": "METAR KMUI 021455Z 08012KT 4SM BR OVC005 09/09 A3033 RMK AO2A SLP275 60002 T00940091 50013",
      "metarObsTime": 1775141700
    },
    "KUNV": {
      "status": "OK",
      "delay": "—",
      "metarCat": "LIFR",
      "metarRaw": "SPECI KUNV 021532Z 00000KT 2SM BR OVC002 08/08 A3031",
      "metarObsTime": 1775143920
    },
    "KAOO": {
      "status": "OK",
      "delay": "—",
      "metarCat": "LIFR",
      "metarRaw": "SPECI KAOO 021533Z AUTO 11003KT 1 3/4SM BR OVC003 09/09 A3028 RMK AO2 T00940089",
      "metarObsTime": 1775143980
    },
    "KLNS": {
      "status": "OK",
      "delay": "—",
      "metarCat": "IFR",
      "metarRaw": "METAR KLNS 021453Z 09011KT 10SM OVC007 09/07 A3035 RMK AO2 SLP278 T00890072 51017",
      "metarObsTime": 1775141580
    },
    "KIPT": {
      "status": "OK",
      "delay": "—",
      "metarCat": "MVFR",
      "metarRaw": "METAR KIPT 021454Z 07010G18KT 10SM OVC012 09/07 A3031 RMK AO2 SLP267 T00940072 51010 $",
      "metarObsTime": 1775141640
    },
    "KPHL": {
      "status": "OK",
      "delay": "—",
      "metarCat": "MVFR",
      "metarRaw": "SPECI KPHL 021509Z 07013KT 10SM OVC010 08/06 A3040 RMK AO2 T00830061 $",
      "metarObsTime": 1775142540
    },
    "KABE": {
      "status": "OK",
      "delay": "—",
      "metarCat": "IFR",
      "metarRaw": "METAR KABE 021451Z 09011KT 8SM OVC009 07/06 A3039 RMK AO2 RAE1358 SLP294 P0000 60000 T00720061 51008 $",
      "metarObsTime": 1775141460
    },
    "KAVP": {
      "status": "OK",
      "delay": "—",
      "metarCat": "MVFR",
      "metarRaw": "METAR KAVP 021454Z VRB05KT 10SM OVC014 08/05 A3035 RMK AO2 SLP279 T00780050 51012",
      "metarObsTime": 1775141640
    },
    "KHZL": {
      "status": "OK",
      "delay": "—",
      "metarCat": "LIFR",
      "metarRaw": "METAR KHZL 021535Z AUTO 12006G19KT 080V140 10SM OVC004 06/04 A3036 RMK AO2",
      "metarObsTime": 1775144100
    }
  }
}