{
  "generatedAt": "2026-03-06T14:40:15.372Z",
  "airports": {
    "KPIT": {
      "status": "OK",
      "delay": "—",
      "metarCat": "MVFR",
      "metarRaw": "SPECI KPIT 061436Z 20009KT 10SM BKN010 BKN028 BKN041 16/13 A3019 RMK AO2 T01560133",
      "metarObsTime": 1772807760
    },
    "KAGC": {
      "status": "OK",
      "delay": "—",
      "metarCat": "IFR",
      "metarRaw": "SPECI KAGC 061423Z 19006KT 7SM BKN006 BKN018 15/14 A3019 RMK AO2 T01500139",
      "metarObsTime": 1772806980
    },
    "KLBE": {
      "status": "OK",
      "delay": "—",
      "metarCat": "MVFR",
      "metarRaw": "METAR KLBE 061347Z 00000KT 5SM BR OVC025 14/14 A3022",
      "metarObsTime": 1772804820
    },
    "KJST": {
      "status": "OK",
      "delay": "—",
      "metarCat": "VFR",
      "metarRaw": "METAR KJST 061354Z AUTO 20003KT 10SM SCT018 BKN032 13/11 A3021 RMK AO2 SLP228 T01280111",
      "metarObsTime": 1772805240
    },
    "KERI": {
      "status": "OK",
      "delay": "—",
      "metarCat": "LIFR",
      "metarRaw": "SPECI KERI 061413Z 04006KT 1 1/2SM BR OVC002 01/01 A3021 RMK AO2 T00110006",
      "metarObsTime": 1772806380
    },
    "KDUJ": {
      "status": "OK",
      "delay": "—",
      "metarCat": "MVFR",
      "metarRaw": "SPECI KDUJ 061416Z AUTO 00000KT 10SM SCT005 OVC022 12/11 A3018 RMK AO2 T01170106",
      "metarObsTime": 1772806560
    },
    "KBFD": {
      "status": "OK",
      "delay": "—",
      "metarCat": "LIFR",
      "metarRaw": "SPECI KBFD 061403Z AUTO 23006KT 10SM BKN004 OVC011 09/08 A3019 RMK AO2 CIG 003V009 T00940083",
      "metarObsTime": 1772805780
    },
    "KBTP": {
      "status": "OK",
      "delay": "—",
      "metarCat": "MVFR",
      "metarRaw": "SPECI KBTP 061436Z AUTO 20007KT 10SM SCT004 BKN025 15/15 A3020 RMK AO2 $",
      "metarObsTime": 1772807760
    },
    "KFKL": {
      "status": "OK",
      "delay": "—",
      "metarCat": "LIFR",
      "metarRaw": "SPECI KFKL 061423Z AUTO 19006KT 1/4SM FG OVC002 11/11 A3020 RMK AO2",
      "metarObsTime": 1772806980
    },
    "KIDI": {
      "status": "OK",
      "delay": "—",
      "metarCat": "MVFR",
      "metarRaw": "METAR KIDI 061435Z AUTO 20004KT 10SM BKN024 BKN029 OVC037 15/14 A3021 RMK A01",
      "metarObsTime": 1772807700
    },
    "KMDT": {
      "status": "OK",
      "delay": "—",
      "metarCat": "LIFR",
      "metarRaw": "SPECI KMDT 061427Z 12009KT 1SM R13/P6000FT BR OVC003 05/04 A3031 RMK AO2 T00500044",
      "metarObsTime": 1772807220
    },
    "KCXY": {
      "status": "OK",
      "delay": "—",
      "metarCat": "LIFR",
      "metarRaw": "SPECI KCXY 061435Z 08007KT 1 1/2SM R08/5000V6000FT BR OVC003 05/04 A3031 RMK AO2 T00500044",
      "metarObsTime": 1772807700
    },
    "KMUI": {
      "status": "OK",
      "delay": "—",
      "metarCat": "IFR",
      "metarRaw": "SPECI KMUI 061421Z 09006KT 3SM BR OVC006 05/05 A3030 RMK AO2A SLP267",
      "metarObsTime": 1772806860
    },
    "KUNV": {
      "status": "OK",
      "delay": "—",
      "metarCat": "LIFR",
      "metarRaw": "SPECI KUNV 061431Z 00000KT 1/2SM R24/P6000FT FG OVC003 08/08 A3023",
      "metarObsTime": 1772807460
    },
    "KAOO": {
      "status": "OK",
      "delay": "—",
      "metarCat": "MVFR",
      "metarRaw": "METAR KAOO 061353Z AUTO 06004KT 3SM BR OVC025 10/09 A3022 RMK AO2 SLP237 T01000089",
      "metarObsTime": 1772805180
    },
    "KLNS": {
      "status": "OK",
      "delay": "—",
      "metarCat": "LIFR",
      "metarRaw": "METAR KLNS 061353Z 07007KT 1 1/2SM BR OVC003 04/03 A3030 RMK AO2 SLP264 T00390033",
      "metarObsTime": 1772805180
    },
    "KIPT": {
      "status": "OK",
      "delay": "—",
      "metarCat": "IFR",
      "metarRaw": "METAR KIPT 061354Z 09006KT 5SM BR OVC006 06/04 A3026 RMK AO2 SLP251 T00560044",
      "metarObsTime": 1772805240
    },
    "KPHL": {
      "status": "OK",
      "delay": "—",
      "metarCat": "IFR",
      "metarRaw": "METAR KPHL 061354Z 07006G16KT 10SM OVC008 06/03 A3034 RMK AO2 SLP273 T00560033 $",
      "metarObsTime": 1772805240
    },
    "KABE": {
      "status": "OK",
      "delay": "—",
      "metarCat": "IFR",
      "metarRaw": "METAR KABE 061351Z AUTO 05008KT 10SM OVC006 03/02 A3033 RMK AO2 UPB14E23RAB23E48 SLP273 P0000 T00280017",
      "metarObsTime": 1772805060
    },
    "KAVP": {
      "status": "OK",
      "delay": "—",
      "metarCat": "MVFR",
      "metarRaw": "METAR KAVP 061354Z AUTO 06005KT 10SM OVC012 03/01 A3029 RMK AO2 SLP261 T00330011",
      "metarObsTime": 1772805240
    },
    "KHZL": {
      "status": "OK",
      "delay": "—",
      "metarCat": "LIFR",
      "metarRaw": "METAR KHZL 061435Z AUTO 11004KT 1 3/4SM BR OVC002 02/01 A3029 RMK AO2",
      "metarObsTime": 1772807700
    }
  }
}