{
  "generatedAt": "2026-03-16T19:00:26.235Z",
  "airports": {
    "KPIT": {
      "status": "OK",
      "delay": "—",
      "metarCat": "IFR",
      "metarRaw": "METAR KPIT 161851Z 27018G29KT 3SM -RA BR BKN009 OVC015 04/03 A2945 RMK AO2 PK WND 27029/1849 DZE22RAB22 SLP981 P0000 T00390028",
      "metarObsTime": 1773687060
    },
    "KAGC": {
      "status": "OK",
      "delay": "—",
      "metarCat": "MVFR",
      "metarRaw": "METAR KAGC 161853Z 25020G32KT 3SM -RA BKN020 OVC026 05/02 A2945 RMK AO2 PK WND 26032/1846 RAB45 SLP977 P0000 T00500022",
      "metarObsTime": 1773687180
    },
    "KLBE": {
      "status": "OK",
      "delay": "—",
      "metarCat": "MVFR",
      "metarRaw": "SPECI KLBE 161800Z 24015G30KT 8SM -RA BKN017 OVC036 08/05 A2947",
      "metarObsTime": 1773684000
    },
    "KJST": {
      "status": "OK",
      "delay": "—",
      "metarCat": "VFR",
      "metarRaw": "METAR KJST 161854Z AUTO 27012KT 10SM -RA SCT031 BKN038 OVC085 09/07 A2937 RMK AO2 PK WND 26028/1831 WSHFT 1825 RAB46 SLP948 P0000 T00940072",
      "metarObsTime": 1773687240
    },
    "KERI": {
      "status": "OK",
      "delay": "—",
      "metarCat": "MVFR",
      "metarRaw": "METAR KERI 161851Z 26017G28KT 10SM BKN020 OVC029 02/M02 A2944 RMK AO2 PK WND 27032/1828 RAE04B40E46 SLP970 P0000 T00171017 $",
      "metarObsTime": 1773687060
    },
    "KDUJ": {
      "status": "OK",
      "delay": "—",
      "metarCat": "MVFR",
      "metarRaw": "METAR KDUJ 161853Z AUTO 26016G26KT 10SM OVC010 07/04 A2935 RMK AO2 PK WND 25035/1811 WSHFT 1801 CIG 008V012 SLP941 T00720044",
      "metarObsTime": 1773687180
    },
    "KBFD": {
      "status": "OK",
      "delay": "—",
      "metarCat": "IFR",
      "metarRaw": "METAR KBFD 161853Z AUTO 29008G21KT 10SM -RA BKN007 BKN017 OVC021 08/07 A2933 RMK AO2 PK WND 19027/1836 WSHFT 1836 RAB15 CIG 005V012 SLP933 P0001 T00780067",
      "metarObsTime": 1773687180
    },
    "KBTP": {
      "status": "OK",
      "delay": "—",
      "metarCat": "—",
      "metarRaw": "—",
      "metarObsTime": null
    },
    "KFKL": {
      "status": "OK",
      "delay": "—",
      "metarCat": "IFR",
      "metarRaw": "METAR KFKL 161856Z AUTO 26016G22KT 1 1/4SM -RA BR BKN006 OVC011 03/03 A2942 RMK AO2 RAE18B34 CIG 004V008 SLP969 P0001 T00330028",
      "metarObsTime": 1773687360
    },
    "KIDI": {
      "status": "OK",
      "delay": "—",
      "metarCat": "MVFR",
      "metarRaw": "METAR KIDI 161855Z AUTO 25017G25KT 9SM BKN014 OVC021 07/05 A2942 RMK A01",
      "metarObsTime": 1773687300
    },
    "KMDT": {
      "status": "OK",
      "delay": "—",
      "metarCat": "VFR",
      "metarRaw": "METAR KMDT 161856Z 15011KT 9SM -RA FEW020 SCT080 OVC100 16/14 A2940 RMK AO2 RAB06 SLP956 P0002 T01610144",
      "metarObsTime": 1773687360
    },
    "KCXY": {
      "status": "OK",
      "delay": "—",
      "metarCat": "VFR",
      "metarRaw": "METAR KCXY 161856Z 15013G25KT 10SM -RA FEW019 OVC095 17/16 A2940 RMK AO2 RAB10 SLP955 P0002 T01720156",
      "metarObsTime": 1773687360
    },
    "KMUI": {
      "status": "OK",
      "delay": "—",
      "metarCat": "MVFR",
      "metarRaw": "METAR KMUI 161855Z 17006KT 10SM -RA SCT012 BKN018 OVC036 18/18 A2941 RMK AO2A RAB24 SLP962 T01780175",
      "metarObsTime": 1773687300
    },
    "KUNV": {
      "status": "OK",
      "delay": "—",
      "metarCat": "VFR",
      "metarRaw": "METAR KUNV 161853Z 20009G15KT 10SM SCT031 BKN085 OVC110 17/12 A2935",
      "metarObsTime": 1773687180
    },
    "KAOO": {
      "status": "OK",
      "delay": "—",
      "metarCat": "VFR",
      "metarRaw": "METAR KAOO 161853Z AUTO 19009KT 10SM FEW041 SCT120 17/12 A2934 RMK AO2 RAE1755 SLP933 P0000 T01720122",
      "metarObsTime": 1773687180
    },
    "KLNS": {
      "status": "OK",
      "delay": "—",
      "metarCat": "MVFR",
      "metarRaw": "METAR KLNS 161853Z AUTO 19013G23KT 3SM -RA BR SCT015 BKN029 OVC075 17/16 A2945 RMK AO2 PK WND 19034/1830 SLP973 P0007 T01720156",
      "metarObsTime": 1773687180
    },
    "KIPT": {
      "status": "OK",
      "delay": "—",
      "metarCat": "MVFR",
      "metarRaw": "METAR KIPT 161854Z 16015G23KT 8SM -RA SCT017 BKN024 OVC030 18/15 A2933 RMK AO2 PK WND 12026/1758 RAB16 SLP931 P0008 T01780150",
      "metarObsTime": 1773687240
    },
    "KPHL": {
      "status": "OK",
      "delay": "—",
      "metarCat": "VFR",
      "metarRaw": "METAR KPHL 161854Z 18016G23KT 10SM -RA FEW020 SCT060 BKN100 OVC200 18/15 A2953 RMK AO2 PK WND 19029/1806 SLP999 P0001 T01830150 $",
      "metarObsTime": 1773687240
    },
    "KABE": {
      "status": "OK",
      "delay": "—",
      "metarCat": "VFR",
      "metarRaw": "METAR KABE 161851Z 17010G21KT 10SM SCT021 OVC031 19/15 A2948 RMK AO2 PK WND 16027/1813 SLP983 T01890150",
      "metarObsTime": 1773687060
    },
    "KAVP": {
      "status": "OK",
      "delay": "—",
      "metarCat": "VFR",
      "metarRaw": "METAR KAVP 161854Z 20009G27KT 10SM -RA OVC095 17/14 A2942 RMK AO2 PK WND 19027/1846 SLP958 P0009 T01720139",
      "metarObsTime": 1773687240
    },
    "KHZL": {
      "status": "OK",
      "delay": "—",
      "metarCat": "MVFR",
      "metarRaw": "METAR KHZL 161855Z AUTO 17009G20KT 120V190 10SM BKN012 OVC019 16/13 A2947 RMK AO2 P0003",
      "metarObsTime": 1773687300
    }
  }
}