{
  "generatedAt": "2026-04-05T22:10:45.148Z",
  "airports": {
    "KPIT": {
      "status": "OK",
      "delay": "—",
      "metarCat": "VFR",
      "metarRaw": "METAR KPIT 052151Z 27012G20KT 10SM BKN033 OVC045 07/01 A3001 RMK AO2 SLP174 T00720011 $",
      "metarObsTime": 1775425860
    },
    "KAGC": {
      "status": "OK",
      "delay": "—",
      "metarCat": "VFR",
      "metarRaw": "METAR KAGC 052153Z 27011G21KT 10SM BKN034 OVC050 07/01 A3000 RMK AO2 SLP168 T00720006",
      "metarObsTime": 1775425980
    },
    "KLBE": {
      "status": "OK",
      "delay": "—",
      "metarCat": "VFR",
      "metarRaw": "METAR KLBE 052147Z 22018G26KT 10SM OVC042 08/01 A3002",
      "metarObsTime": 1775425620
    },
    "KJST": {
      "status": "OK",
      "delay": "—",
      "metarCat": "MVFR",
      "metarRaw": "METAR KJST 052154Z AUTO 27009G26KT 10SM OVC026 04/M01 A2994 RMK AO2 PK WND 28029/2109 SLP148 T00441006",
      "metarObsTime": 1775426040
    },
    "KERI": {
      "status": "OK",
      "delay": "—",
      "metarCat": "VFR",
      "metarRaw": "METAR KERI 052151Z 26016G27KT 10SM BKN031 OVC040 04/01 A3000 RMK AO2 PK WND 26031/2123 RAB17E29 SLP164 P0000 T00440006 $",
      "metarObsTime": 1775425860
    },
    "KDUJ": {
      "status": "OK",
      "delay": "—",
      "metarCat": "VFR",
      "metarRaw": "SPECI KDUJ 052205Z AUTO 27010G19KT 10SM FEW019 BKN031 OVC047 04/M01 A2994 RMK AO2 T00391006",
      "metarObsTime": 1775426700
    },
    "KBFD": {
      "status": "OK",
      "delay": "—",
      "metarCat": "MVFR",
      "metarRaw": "METAR KBFD 052153Z AUTO 28009KT 10SM OVC029 03/M02 A2991 RMK AO2 SLP135 T00281017",
      "metarObsTime": 1775425980
    },
    "KBTP": {
      "status": "OK",
      "delay": "—",
      "metarCat": "VFR",
      "metarRaw": "METAR KBTP 052156Z AUTO 26013G22KT 10SM OVC039 07/M01 A3001 RMK AO2 SLP173 T00671006 $",
      "metarObsTime": 1775426160
    },
    "KFKL": {
      "status": "OK",
      "delay": "—",
      "metarCat": "VFR",
      "metarRaw": "METAR KFKL 052156Z AUTO 28012KT 10SM OVC032 04/M01 A2998 RMK AO2 SLP162 T00441011",
      "metarObsTime": 1775426160
    },
    "KIDI": {
      "status": "OK",
      "delay": "—",
      "metarCat": "VFR",
      "metarRaw": "METAR KIDI 052155Z AUTO 28015KT 10SM BKN031 BKN038 OVC044 06/02 A2999 RMK A01",
      "metarObsTime": 1775426100
    },
    "KMDT": {
      "status": "OK",
      "delay": "—",
      "metarCat": "VFR",
      "metarRaw": "METAR KMDT 052156Z 31015G24KT 10SM SCT040 BKN100 13/02 A2988 RMK AO2 PK WND 31029/2137 SLP120 T01280022 $",
      "metarObsTime": 1775426160
    },
    "KCXY": {
      "status": "OK",
      "delay": "—",
      "metarCat": "VFR",
      "metarRaw": "METAR KCXY 052156Z 30012G21KT 10SM BKN055 13/02 A2989 RMK AO2 PK WND 29027/2127 RAB34E40 SLP123 P0000 T01280022 $",
      "metarObsTime": 1775426160
    },
    "KMUI": {
      "status": "OK",
      "delay": "—",
      "metarCat": "VFR",
      "metarRaw": "METAR KMUI 052155Z AUTO 29012G19KT 10SM OVC045 13/02 A2986 RMK AO2 SLP116 T01250024",
      "metarObsTime": 1775426100
    },
    "KUNV": {
      "status": "OK",
      "delay": "—",
      "metarCat": "VFR",
      "metarRaw": "METAR KUNV 052153Z 29011G19KT 10SM OVC038 08/00 A2993",
      "metarObsTime": 1775425980
    },
    "KAOO": {
      "status": "OK",
      "delay": "—",
      "metarCat": "VFR",
      "metarRaw": "METAR KAOO 052153Z AUTO 10SM OVC038 07/M01 A2996 RMK AO2 SLP147 T00721006",
      "metarObsTime": 1775425980
    },
    "KLNS": {
      "status": "OK",
      "delay": "—",
      "metarCat": "VFR",
      "metarRaw": "METAR KLNS 052153Z COR 30015KT 10SM BKN048 12/04 A2987 RMK AO2 SLP115 T01220044",
      "metarObsTime": 1775425980
    },
    "KIPT": {
      "status": "OK",
      "delay": "—",
      "metarCat": "VFR",
      "metarRaw": "METAR KIPT 052154Z 30013G22KT 10SM OVC045 10/01 A2988 RMK AO2 PK WND 27030/2057 SLP118 T01000006",
      "metarObsTime": 1775426040
    },
    "KPHL": {
      "status": "OK",
      "delay": "—",
      "metarCat": "MVFR",
      "metarRaw": "METAR KPHL 052154Z 29010KT 10SM SCT016 BKN027 BKN045 BKN210 15/09 A2985 RMK AO2 SLP108 T01500094 $",
      "metarObsTime": 1775426040
    },
    "KABE": {
      "status": "OK",
      "delay": "—",
      "metarCat": "VFR",
      "metarRaw": "METAR KABE 052151Z 30009G17KT 10SM CLR 13/03 A2983 RMK AO2 SLP104 T01280033 $",
      "metarObsTime": 1775425860
    },
    "KAVP": {
      "status": "OK",
      "delay": "—",
      "metarCat": "VFR",
      "metarRaw": "METAR KAVP 052154Z 28011G16KT 10SM OVC047 10/02 A2984 RMK AO2 SLP104 T01000022",
      "metarObsTime": 1775426040
    },
    "KHZL": {
      "status": "OK",
      "delay": "—",
      "metarCat": "VFR",
      "metarRaw": "METAR KHZL 052155Z AUTO 30007KT 260V340 10SM SCT030 OVC038 08/02 A2987 RMK AO2",
      "metarObsTime": 1775426100
    }
  }
}