{
  "generatedAt": "2026-04-04T09:50:40.740Z",
  "airports": {
    "KPIT": {
      "status": "OK",
      "delay": "—",
      "metarCat": "VFR",
      "metarRaw": "METAR KPIT 040851Z 00000KT 7SM -RA FEW009 BKN045 OVC080 16/16 A3013 RMK AO2 RAB09 SLP205 OCNL LTG DSNT N P0011 60031 T01560156 56011 $",
      "metarObsTime": 1775292660
    },
    "KAGC": {
      "status": "OK",
      "delay": "—",
      "metarCat": "VFR",
      "metarRaw": "SPECI KAGC 040900Z 00000KT 7SM -RA FEW060 SCT075 OVC100 16/15 A3014 RMK AO2 P0001 T01560150",
      "metarObsTime": 1775293200
    },
    "KLBE": {
      "status": "OK",
      "delay": "—",
      "metarCat": "MVFR",
      "metarRaw": "METAR KLBE 040935Z AUTO 31003KT 3SM -RA BR FEW024 SCT048 BKN060 16/16 A3016 RMK AO2",
      "metarObsTime": 1775295300
    },
    "KJST": {
      "status": "OK",
      "delay": "—",
      "metarCat": "VFR",
      "metarRaw": "METAR KJST 040854Z AUTO 24005KT 10SM OVC095 15/13 A3016 RMK AO2 SLP204 60004 T01500133 58005",
      "metarObsTime": 1775292840
    },
    "KERI": {
      "status": "OK",
      "delay": "—",
      "metarCat": "VFR",
      "metarRaw": "METAR KERI 040851Z AUTO 07013KT 10SM -RA FEW043 BKN100 06/03 A3015 RMK AO2 RAB37 SLP212 P0000 60000 T00560028 58018",
      "metarObsTime": 1775292660
    },
    "KDUJ": {
      "status": "OK",
      "delay": "—",
      "metarCat": "LIFR",
      "metarRaw": "SPECI KDUJ 040941Z AUTO 00000KT 1/2SM FG SCT004 BKN008 OVC110 14/14 A3015 RMK AO2 T01440144",
      "metarObsTime": 1775295660
    },
    "KBFD": {
      "status": "OK",
      "delay": "—",
      "metarCat": "LIFR",
      "metarRaw": "SPECI KBFD 040904Z AUTO 00000KT 3/4SM BR VV002 11/11 A3017 RMK AO2 T01060106",
      "metarObsTime": 1775293440
    },
    "KBTP": {
      "status": "OK",
      "delay": "—",
      "metarCat": "MVFR",
      "metarRaw": "SPECI KBTP 040900Z AUTO 25003KT 3SM RA FEW004 BKN044 OVC060 16/ A3016 RMK AO2 P0001 $",
      "metarObsTime": 1775293200
    },
    "KFKL": {
      "status": "OK",
      "delay": "—",
      "metarCat": "VFR",
      "metarRaw": "SPECI KFKL 040946Z AUTO 10003KT 8SM RA SCT007 BKN060 OVC100 12/11 A3015 RMK AO2 RAB04 P0003",
      "metarObsTime": 1775295960
    },
    "KIDI": {
      "status": "OK",
      "delay": "—",
      "metarCat": "MVFR",
      "metarRaw": "METAR KIDI 040935Z AUTO 00000KT 4SM BR FEW055 SCT070 BKN080 14/14 A3015 RMK A01",
      "metarObsTime": 1775295300
    },
    "KMDT": {
      "status": "OK",
      "delay": "—",
      "metarCat": "MVFR",
      "metarRaw": "METAR KMDT 040856Z 34003KT 4SM BR BKN110 11/11 A3013 RMK AO2 SLP203 T01110106 55001 $",
      "metarObsTime": 1775292960
    },
    "KCXY": {
      "status": "OK",
      "delay": "—",
      "metarCat": "MVFR",
      "metarRaw": "METAR KCXY 040856Z AUTO 00000KT 4SM BR OVC110 11/11 A3014 RMK AO2 SLP206 T01110106 55000",
      "metarObsTime": 1775292960
    },
    "KMUI": {
      "status": "OK",
      "delay": "—",
      "metarCat": "IFR",
      "metarRaw": "SPECI KMUI 040941Z AUTO 00000KT 1SM BR CLR 11/10 A3011 RMK AO2 VIS 1V3 SLP200 RVRNO",
      "metarObsTime": 1775295660
    },
    "KUNV": {
      "status": "OK",
      "delay": "—",
      "metarCat": "LIFR",
      "metarRaw": "METAR KUNV 040935Z AUTO 00000KT 3/4SM BR SCT001 SCT020 OVC110 15/15 A3015 RMK AO2 T01470147",
      "metarObsTime": 1775295300
    },
    "KAOO": {
      "status": "OK",
      "delay": "—",
      "metarCat": "VFR",
      "metarRaw": "METAR KAOO 040853Z AUTO 00000KT 10SM -RA SCT090 BKN110 15/13 A3015 RMK AO2 RAB42 SLP203 P0000 60000 T01500128 58006",
      "metarObsTime": 1775292780
    },
    "KLNS": {
      "status": "OK",
      "delay": "—",
      "metarCat": "IFR",
      "metarRaw": "SPECI KLNS 040942Z AUTO 19003KT 1 1/4SM BR SCT003 BKN110 11/11 A3013 RMK AO2 T01110111",
      "metarObsTime": 1775295720
    },
    "KIPT": {
      "status": "OK",
      "delay": "—",
      "metarCat": "MVFR",
      "metarRaw": "SPECI KIPT 040944Z AUTO 00000KT 4SM BR OVC015 11/11 A3015 RMK AO2 T01110106",
      "metarObsTime": 1775295840
    },
    "KPHL": {
      "status": "OK",
      "delay": "—",
      "metarCat": "VFR",
      "metarRaw": "METAR KPHL 040854Z 22009KT 10SM FEW150 SCT270 17/14 A3012 RMK AO2 SLP200 T01720139 56002 $",
      "metarObsTime": 1775292840
    },
    "KABE": {
      "status": "OK",
      "delay": "—",
      "metarCat": "VFR",
      "metarRaw": "METAR KABE 040851Z 00000KT 6SM BR BKN110 10/09 A3012 RMK AO2 SLP198 T01000094 57003 $",
      "metarObsTime": 1775292660
    },
    "KAVP": {
      "status": "OK",
      "delay": "—",
      "metarCat": "MVFR",
      "metarRaw": "METAR KAVP 040854Z AUTO 33011KT 10SM OVC012 12/10 A3017 RMK AO2 SLP214 T01220100 53014",
      "metarObsTime": 1775292840
    },
    "KHZL": {
      "status": "OK",
      "delay": "—",
      "metarCat": "LIFR",
      "metarRaw": "METAR KHZL 040935Z AUTO 35003KT 5SM BR BKN004 BKN008 OVC014 13/12 A3019 RMK AO2",
      "metarObsTime": 1775295300
    }
  }
}