{
  "generatedAt": "2026-03-17T22:00:23.314Z",
  "airports": {
    "KPIT": {
      "status": "OK",
      "delay": "—",
      "metarCat": "VFR",
      "metarRaw": "METAR KPIT 172151Z 26012G20KT 8SM -SN SCT021 BKN040 BKN070 M04/M12 A3008 RMK AO2 SNB06 SLP210 P0000 T10441117",
      "metarObsTime": 1773784260
    },
    "KAGC": {
      "status": "OK",
      "delay": "—",
      "metarCat": "VFR",
      "metarRaw": "METAR KAGC 172153Z 27008G17KT 6SM HZ BKN031 BKN050 OVC065 M05/M09 A3007 RMK AO2 PK WND 29026/2055 SNB02E52 SLP206 P0000 T10501089",
      "metarObsTime": 1773784380
    },
    "KLBE": {
      "status": "OK",
      "delay": "—",
      "metarCat": "MVFR",
      "metarRaw": "METAR KLBE 172147Z 27010KT 3SM -SN BR SCT024 BKN041 BKN080 M04/M08 A3008",
      "metarObsTime": 1773784020
    },
    "KJST": {
      "status": "OK",
      "delay": "—",
      "metarCat": "IFR",
      "metarRaw": "METAR KJST 172154Z AUTO 30014G23KT 1 1/2SM -SN BKN014 BKN020 OVC041 M07/M10 A2995 RMK AO2 PK WND 29028/2057 SLP179 P0000 T10721100",
      "metarObsTime": 1773784440
    },
    "KERI": {
      "status": "OK",
      "delay": "—",
      "metarCat": "VFR",
      "metarRaw": "METAR KERI 172151Z 27015G23KT 10SM BKN037 BKN049 OVC070 M05/M12 A3010 RMK AO2 SLP202 T10501122",
      "metarObsTime": 1773784260
    },
    "KDUJ": {
      "status": "OK",
      "delay": "—",
      "metarCat": "VFR",
      "metarRaw": "METAR KDUJ 172153Z AUTO 28015G23KT 10SM SCT031 BKN040 BKN070 M06/M13 A2997 RMK AO2 SNE04B17E39 SLP175 P0000 T10611133",
      "metarObsTime": 1773784380
    },
    "KBFD": {
      "status": "OK",
      "delay": "—",
      "metarCat": "VFR",
      "metarRaw": "METAR KBFD 172153Z AUTO 29016G24KT 7SM -SN SCT038 BKN049 OVC060 M08/M13 A2994 RMK AO2 PK WND 29028/2058 SNB46 SLP172 P0000 T10781133",
      "metarObsTime": 1773784380
    },
    "KBTP": {
      "status": "OK",
      "delay": "—",
      "metarCat": "VFR",
      "metarRaw": "SPECI KBTP 172127Z AUTO 27009G21KT 9SM BKN045 BKN055 M04/M13 A3006 RMK AO2 PK WND 27026/2110 SNB12E23 P0000 FZRANO $",
      "metarObsTime": 1773782820
    },
    "KFKL": {
      "status": "OK",
      "delay": "—",
      "metarCat": "MVFR",
      "metarRaw": "SPECI KFKL 172146Z AUTO 30009G17KT 3SM -SN FEW011 BKN022 OVC065 M06/M10 A3004 RMK AO2 P0000 FZRANO",
      "metarObsTime": 1773783960
    },
    "KIDI": {
      "status": "OK",
      "delay": "—",
      "metarCat": "VFR",
      "metarRaw": "METAR KIDI 172155Z AUTO 28014G20KT 10SM FEW026 SCT055 BKN065 M05/M11 A3004 RMK A01",
      "metarObsTime": 1773784500
    },
    "KMDT": {
      "status": "OK",
      "delay": "—",
      "metarCat": "VFR",
      "metarRaw": "METAR KMDT 172056Z 29015G23KT 10SM BKN045 BKN080 02/M11 A2999 RMK AO2 SLP158 T00221106 53011",
      "metarObsTime": 1773780960
    },
    "KCXY": {
      "status": "OK",
      "delay": "—",
      "metarCat": "VFR",
      "metarRaw": "METAR KCXY 172056Z 26011G19KT 10SM FEW046 OVC070 02/M13 A2999 RMK AO2 PK WND 32027/2031 SLP161 T00171128 53012",
      "metarObsTime": 1773780960
    },
    "KMUI": {
      "status": "OK",
      "delay": "—",
      "metarCat": "VFR",
      "metarRaw": "METAR KMUI 172055Z 28009G17KT 10SM SCT040 BKN075 01/M09 A2996 RMK AO2A PK WND 29026/15 SNB10E32 SLP153 60000 T00091092 52015",
      "metarObsTime": 1773780900
    },
    "KUNV": {
      "status": "OK",
      "delay": "—",
      "metarCat": "VFR",
      "metarRaw": "METAR KUNV 172153Z 28015G20KT 10SM VCSH SCT040 M03/M11 A2999",
      "metarObsTime": 1773784380
    },
    "KAOO": {
      "status": "OK",
      "delay": "—",
      "metarCat": "MVFR",
      "metarRaw": "METAR KAOO 172153Z AUTO 27010KT 4SM -SN BKN030 BKN038 OVC065 M04/M08 A3000 RMK AO2 SNE03B32 SLP183 P0000 T10441083",
      "metarObsTime": 1773784380
    },
    "KLNS": {
      "status": "OK",
      "delay": "—",
      "metarCat": "VFR",
      "metarRaw": "METAR KLNS 172153Z 29015G21KT 10SM SCT070 BKN085 01/M12 A3000 RMK AO2 SLP162 T00111117",
      "metarObsTime": 1773784380
    },
    "KIPT": {
      "status": "OK",
      "delay": "—",
      "metarCat": "VFR",
      "metarRaw": "METAR KIPT 172154Z 28013G23KT 10SM FEW037 BKN049 BKN060 M01/M09 A3000 RMK AO2 WSHFT 2054 SLP164 T10111094",
      "metarObsTime": 1773784440
    },
    "KPHL": {
      "status": "OK",
      "delay": "—",
      "metarCat": "VFR",
      "metarRaw": "METAR KPHL 172154Z 31019G26KT 10SM BKN070 04/M12 A3002 RMK AO2 PK WND 27029/2125 SLP163 T00441122 $",
      "metarObsTime": 1773784440
    },
    "KABE": {
      "status": "OK",
      "delay": "—",
      "metarCat": "VFR",
      "metarRaw": "METAR KABE 172151Z 28011G21KT 10SM FEW055 BKN070 BKN085 01/M08 A2998 RMK AO2 SNB02E11 SLP156 P0000 T00061078 $",
      "metarObsTime": 1773784260
    },
    "KAVP": {
      "status": "OK",
      "delay": "—",
      "metarCat": "IFR",
      "metarRaw": "METAR KAVP 172154Z 28012KT 1 1/2SM R04/5000VP6000FT -SN BKN023 OVC043 M02/M07 A2994 RMK AO2 VIS 1/2V5 UPB01E03SNB03E12B38 SLP148 P0000 T10221072",
      "metarObsTime": 1773784440
    },
    "KHZL": {
      "status": "OK",
      "delay": "—",
      "metarCat": "VFR",
      "metarRaw": "METAR KHZL 172135Z AUTO 28006KT 10SM SCT007 BKN050 OVC065 M02/M07 RMK AO2",
      "metarObsTime": 1773783300
    }
  }
}