{
  "generatedAt": "2026-04-28T10:11:05.563Z",
  "faaFlow": {
    "updatedAt": "2026-04-28T10:11:04.701Z",
    "source": "https://www.fly.faa.gov/adv/adv_spt",
    "terminal": [
      {
        "time": "—",
        "text": "AFTER",
        "code": "FLOW",
        "label": "FAA flow impact",
        "level": "yellow",
        "section": "Terminal Planned",
        "airports": []
      },
      {
        "time": "1200",
        "text": "ATL GROUND STOP POSSIBLE",
        "code": "GS",
        "label": "Ground stop possible",
        "level": "yellow",
        "section": "Terminal Planned",
        "airports": []
      },
      {
        "time": "—",
        "text": "AFTER",
        "code": "FLOW",
        "label": "FAA flow impact",
        "level": "yellow",
        "section": "Terminal Planned",
        "airports": []
      },
      {
        "time": "1500",
        "text": "SFO GROUND STOP/DELAY PROGRAM POSSIBLE",
        "code": "GS",
        "label": "Ground stop possible",
        "level": "yellow",
        "section": "Terminal Planned",
        "airports": []
      },
      {
        "time": "—",
        "text": "AFTER",
        "code": "FLOW",
        "label": "FAA flow impact",
        "level": "yellow",
        "section": "Terminal Planned",
        "airports": []
      },
      {
        "time": "2000",
        "text": "BNA GROUND STOP POSSIBLE",
        "code": "GS",
        "label": "Ground stop possible",
        "level": "yellow",
        "section": "Terminal Planned",
        "airports": []
      },
      {
        "time": "—",
        "text": "AFTER",
        "code": "FLOW",
        "label": "FAA flow impact",
        "level": "yellow",
        "section": "Terminal Planned",
        "airports": []
      },
      {
        "time": "2200",
        "text": "JFK GROUND DELAY PROGRAM POSSIBLE",
        "code": "GDP",
        "label": "Ground delay possible",
        "level": "yellow",
        "section": "Terminal Planned",
        "airports": []
      },
      {
        "time": "—",
        "text": "AFTER",
        "code": "FLOW",
        "label": "FAA flow impact",
        "level": "yellow",
        "section": "Terminal Planned",
        "airports": []
      },
      {
        "time": "0200",
        "text": "MEM GROUND STOP/DELAY PROGRAM POSSIBLE",
        "code": "GS",
        "label": "Ground stop possible",
        "level": "yellow",
        "section": "Terminal Planned",
        "airports": []
      }
    ],
    "enroute": [],
    "airports": {
      "KPIT": null,
      "KAGC": null,
      "KLBE": null,
      "KJST": null,
      "KERI": null,
      "KDUJ": null,
      "KBFD": null,
      "KBTP": null,
      "KFKL": null,
      "KIDI": null,
      "KMDT": null,
      "KCXY": null,
      "KMUI": null,
      "KUNV": null,
      "KAOO": null,
      "KLNS": null,
      "KIPT": null,
      "KPHL": null,
      "KABE": null,
      "KAVP": null,
      "KHZL": null
    }
  },
  "airports": {
    "KPIT": {
      "status": "OK",
      "delay": "—",
      "metarCat": "VFR",
      "metarRaw": "METAR KPIT 280951Z 16006KT 7SM -RA FEW028 BKN045 OVC060 12/10 A2995 RMK AO2 SLP144 P0004 T01170100",
      "metarObsTime": 1777369860,
      "faaFlow": null
    },
    "KAGC": {
      "status": "OK",
      "delay": "—",
      "metarCat": "MVFR",
      "metarRaw": "METAR KAGC 280953Z 18007KT 4SM RA SCT032 BKN050 OVC065 12/08 A2997 RMK AO2 RAB00 SLP150 P0003 T01170083",
      "metarObsTime": 1777369980,
      "faaFlow": null
    },
    "KLBE": {
      "status": "OK",
      "delay": "—",
      "metarCat": "VFR",
      "metarRaw": "METAR KLBE 280955Z AUTO VRB04G11KT 8SM -RA FEW034 SCT047 BKN065 13/08 A3001 RMK AO2",
      "metarObsTime": 1777370100,
      "faaFlow": null
    },
    "KJST": {
      "status": "OK",
      "delay": "—",
      "metarCat": "VFR",
      "metarRaw": "METAR KJST 280954Z AUTO 16014KT 10SM -RA BKN085 OVC100 09/04 A3002 RMK AO2 RAB17 SLP165 P0001 T00890044",
      "metarObsTime": 1777370040,
      "faaFlow": null
    },
    "KERI": {
      "status": "OK",
      "delay": "—",
      "metarCat": "VFR",
      "metarRaw": "METAR KERI 280951Z 16021G46KT 10SM FEW110 15/07 A2976 RMK AO2 PK WND 15046/0945 RAE02 PRESFR SLP075 P0000 T01500067",
      "metarObsTime": 1777369860,
      "faaFlow": null
    },
    "KDUJ": {
      "status": "OK",
      "delay": "—",
      "metarCat": "VFR",
      "metarRaw": "METAR KDUJ 280953Z AUTO 13009G18KT 10SM SCT060 BKN080 OVC100 12/03 A3000 RMK AO2 SLP153 T01170028",
      "metarObsTime": 1777369980,
      "faaFlow": null
    },
    "KBFD": {
      "status": "OK",
      "delay": "—",
      "metarCat": "VFR",
      "metarRaw": "METAR KBFD 280953Z AUTO 10SM SCT080 11/03 A2999 RMK AO2 SLP148 T01110033 TSNO $",
      "metarObsTime": 1777369980,
      "faaFlow": null
    },
    "KBTP": {
      "status": "OK",
      "delay": "—",
      "metarCat": "VFR",
      "metarRaw": "METAR KBTP 280956Z AUTO 14003KT 10SM -RA FEW036 OVC060 12/11 A2997 RMK AO2 SLP150 P0002 T01170106 $",
      "metarObsTime": 1777370160,
      "faaFlow": null
    },
    "KFKL": {
      "status": "OK",
      "delay": "—",
      "metarCat": "—",
      "metarRaw": "—",
      "metarObsTime": null,
      "faaFlow": null
    },
    "KIDI": {
      "status": "OK",
      "delay": "—",
      "metarCat": "VFR",
      "metarRaw": "METAR KIDI 280955Z AUTO 14008G14KT 110V170 10SM BKN065 OVC075 13/06 A3000 RMK A01",
      "metarObsTime": 1777370100,
      "faaFlow": null
    },
    "KMDT": {
      "status": "OK",
      "delay": "—",
      "metarCat": "VFR",
      "metarRaw": "METAR KMDT 280956Z 08003KT 10SM SCT180 BKN250 09/04 A3015 RMK AO2 SLP209 T00890039",
      "metarObsTime": 1777370160,
      "faaFlow": null
    },
    "KCXY": {
      "status": "OK",
      "delay": "—",
      "metarCat": "VFR",
      "metarRaw": "METAR KCXY 280956Z AUTO 13005KT 10SM CLR 09/05 A3015 RMK AO2 SLP211 T00890050",
      "metarObsTime": 1777370160,
      "faaFlow": null
    },
    "KMUI": {
      "status": "OK",
      "delay": "—",
      "metarCat": "VFR",
      "metarRaw": "METAR KMUI 280955Z AUTO 00000KT 10SM BKN180 08/08 A3014 RMK AO2 SLP209 T00820076",
      "metarObsTime": 1777370100,
      "faaFlow": null
    },
    "KUNV": {
      "status": "OK",
      "delay": "—",
      "metarCat": "VFR",
      "metarRaw": "METAR KUNV 280935Z AUTO 19009G16KT 10SM CLR 12/03 A3009 RMK AO2 T01200030",
      "metarObsTime": 1777368900,
      "faaFlow": null
    },
    "KAOO": {
      "status": "OK",
      "delay": "—",
      "metarCat": "VFR",
      "metarRaw": "METAR KAOO 280953Z AUTO 15013G21KT 10SM BKN110 11/03 A3006 RMK AO2 SLP177 T01110033",
      "metarObsTime": 1777369980,
      "faaFlow": null
    },
    "KLNS": {
      "status": "OK",
      "delay": "—",
      "metarCat": "VFR",
      "metarRaw": "METAR KLNS 280953Z 08003KT 10SM CLR 05/03 A3016 RMK AO2 SLP213 T00500033",
      "metarObsTime": 1777369980,
      "faaFlow": null
    },
    "KIPT": {
      "status": "OK",
      "delay": "—",
      "metarCat": "VFR",
      "metarRaw": "METAR KIPT 280954Z AUTO 09004KT 10SM CLR 11/03 A3010 RMK AO2 SLP192 T01110033 $",
      "metarObsTime": 1777370040,
      "faaFlow": null
    },
    "KPHL": {
      "status": "OK",
      "delay": "—",
      "metarCat": "VFR",
      "metarRaw": "METAR KPHL 280954Z 00000KT 10SM FEW070 SCT210 BKN300 08/04 A3018 RMK AO2 SLP220 T00780039 $",
      "metarObsTime": 1777370040,
      "faaFlow": null
    },
    "KABE": {
      "status": "OK",
      "delay": "—",
      "metarCat": "VFR",
      "metarRaw": "METAR KABE 280951Z 00000KT 10SM CLR 05/02 A3017 RMK AO2 SLP217 T00500022",
      "metarObsTime": 1777369860,
      "faaFlow": null
    },
    "KAVP": {
      "status": "OK",
      "delay": "—",
      "metarCat": "VFR",
      "metarRaw": "METAR KAVP 280954Z 00000KT 10SM CLR 06/03 A3014 RMK AO2 SLP204 T00610028",
      "metarObsTime": 1777370040,
      "faaFlow": null
    },
    "KHZL": {
      "status": "OK",
      "delay": "—",
      "metarCat": "VFR",
      "metarRaw": "METAR KHZL 280955Z AUTO 00000KT 10SM CLR 06/00 A3017 RMK AO2",
      "metarObsTime": 1777370100,
      "faaFlow": null
    }
  }
}