{
  "generatedAt": "2026-03-12T06:40:15.452Z",
  "airports": {
    "KPIT": {
      "status": "OK",
      "delay": "—",
      "metarCat": "MVFR",
      "metarRaw": "SPECI KPIT 120633Z 31016G22KT 10SM -RA BKN011 OVC026 03/01 A2985 RMK AO2 PK WND 31029/0556 PLE11 P0000 T00330011 $",
      "metarObsTime": 1773297180
    },
    "KAGC": {
      "status": "OK",
      "delay": "—",
      "metarCat": "IFR",
      "metarRaw": "SPECI KAGC 120601Z 34013G28KT 10SM OVC009 05/04 A2980 RMK AO2 PK WND 31028/0554 P0001 T00500039",
      "metarObsTime": 1773295260
    },
    "KLBE": {
      "status": "OK",
      "delay": "—",
      "metarCat": "MVFR",
      "metarRaw": "METAR KLBE 120635Z AUTO 32007G13KT 6SM -RA BR OVC012 06/05 A2985 RMK AO2",
      "metarObsTime": 1773297300
    },
    "KJST": {
      "status": "OK",
      "delay": "—",
      "metarCat": "IFR",
      "metarRaw": "METAR KJST 120554Z AUTO 30010G27KT 8SM -RA BKN009 BKN012 OVC019 06/04 A2974 RMK AO2 PK WND 32035/0530 WSHFT 0457 SLP066 P0003 60037 T00560044 10150 20056 53020",
      "metarObsTime": 1773294840
    },
    "KERI": {
      "status": "OK",
      "delay": "—",
      "metarCat": "MVFR",
      "metarRaw": "METAR KERI 120551Z AUTO 28018G32KT 10SM OVC017 01/M02 A2987 RMK AO2 PK WND 29032/0550 SLP119 60004 T00061017 10117 20006 53018",
      "metarObsTime": 1773294660
    },
    "KDUJ": {
      "status": "OK",
      "delay": "—",
      "metarCat": "IFR",
      "metarRaw": "SPECI KDUJ 120607Z AUTO 29011G19KT 10SM UP BKN008 OVC012 03/02 A2975 RMK AO2 RAE03UPB03 P0000 T00280017",
      "metarObsTime": 1773295620
    },
    "KBFD": {
      "status": "OK",
      "delay": "—",
      "metarCat": "IFR",
      "metarRaw": "SPECI KBFD 120631Z AUTO 30012G24KT 2 1/2SM -SN BR SCT008 OVC012 00/M01 A2974 RMK AO2 P0000 T00001011",
      "metarObsTime": 1773297060
    },
    "KBTP": {
      "status": "OK",
      "delay": "—",
      "metarCat": "MVFR",
      "metarRaw": "METAR KBTP 120556Z AUTO 29013KT 10SM -RA OVC010 03/03 A2984 RMK AO2 CIG 009V014 SLP111 P0000 60032 T00330033 10161 20033 53019 $",
      "metarObsTime": 1773294960
    },
    "KFKL": {
      "status": "OK",
      "delay": "—",
      "metarCat": "IFR",
      "metarRaw": "SPECI KFKL 120631Z AUTO 31014G21KT 2SM -SN BKN008 OVC014 A2984 RMK AO2 CIG 003V013 P0000 FZRANO $",
      "metarObsTime": 1773297060
    },
    "KIDI": {
      "status": "OK",
      "delay": "—",
      "metarCat": "—",
      "metarRaw": "—",
      "metarObsTime": null
    },
    "KMDT": {
      "status": "OK",
      "delay": "—",
      "metarCat": "LIFR",
      "metarRaw": "SPECI KMDT 120636Z 24003KT 1/4SM R13/1800V6000FT FG BKN002 OVC110 13/13 A2959 RMK AO2 T01280128",
      "metarObsTime": 1773297360
    },
    "KCXY": {
      "status": "OK",
      "delay": "—",
      "metarCat": "LIFR",
      "metarRaw": "SPECI KCXY 120636Z AUTO 31004KT 1 1/2SM R08/3000VP6000FT BR BKN002 OVC100 16/16 A2960 RMK AO2 VIS 3/4V5 T01560156",
      "metarObsTime": 1773297360
    },
    "KMUI": {
      "status": "OK",
      "delay": "—",
      "metarCat": "IFR",
      "metarRaw": "SPECI KMUI 120635Z AUTO 00000KT 1SM BR FEW006 SCT033 BKN043 OVC055 16/16 A2959 RMK AO2 VIS 1V1 3/4 SLP021 RVRNO",
      "metarObsTime": 1773297300
    },
    "KUNV": {
      "status": "OK",
      "delay": "—",
      "metarCat": "MVFR",
      "metarRaw": "METAR KUNV 120635Z AUTO 28013G20KT 10SM BKN020 BKN026 OVC049 11/08 A2968 RMK AO2 T01100078",
      "metarObsTime": 1773297300
    },
    "KAOO": {
      "status": "OK",
      "delay": "—",
      "metarCat": "VFR",
      "metarRaw": "SPECI KAOO 120621Z AUTO 31013G26KT 10SM FEW015 BKN042 OVC050 09/06 A2971 RMK AO2 PK WND 32033/0556 WSHFT 0542 RAE0558 P0000 T00940061",
      "metarObsTime": 1773296460
    },
    "KLNS": {
      "status": "OK",
      "delay": "—",
      "metarCat": "IFR",
      "metarRaw": "SPECI KLNS 120633Z AUTO 05004KT 1 1/2SM BR OVC090 16/16 A2958 RMK AO2 T01610161",
      "metarObsTime": 1773297180
    },
    "KIPT": {
      "status": "OK",
      "delay": "—",
      "metarCat": "VFR",
      "metarRaw": "METAR KIPT 120554Z AUTO 21003KT 10SM FEW029 FEW060 OVC100 18/13 A2956 RMK AO2 SLP008 60016 T01780133 10194 20167 55018 $",
      "metarObsTime": 1773294840
    },
    "KPHL": {
      "status": "OK",
      "delay": "—",
      "metarCat": "VFR",
      "metarRaw": "METAR KPHL 120554Z 31013G19KT 10SM BKN190 19/16 A2959 RMK AO2 SLP021 60001 T01940156 10233 20161 55018 $",
      "metarObsTime": 1773294840
    },
    "KABE": {
      "status": "OK",
      "delay": "—",
      "metarCat": "IFR",
      "metarRaw": "SPECI KABE 120616Z 19004KT 2 1/2SM -RA BR FEW021 BKN046 OVC090 17/16 A2959 RMK AO2 SFC VIS 4 RAE0556B06 P0000 T01670161 $",
      "metarObsTime": 1773296160
    },
    "KAVP": {
      "status": "OK",
      "delay": "—",
      "metarCat": "VFR",
      "metarRaw": "METAR KAVP 120554Z AUTO 23007KT 10SM SCT055 OVC070 17/14 A2958 RMK AO2 RAB11E26 SLP011 P0000 60039 T01670139 10183 20161 56026",
      "metarObsTime": 1773294840
    },
    "KHZL": {
      "status": "OK",
      "delay": "—",
      "metarCat": "VFR",
      "metarRaw": "METAR KHZL 120635Z AUTO 23004KT 10SM SCT038 BKN070 OVC085 16/13 A2963 RMK AO2",
      "metarObsTime": 1773297300
    }
  }
}