{
  "generatedAt": "2026-04-18T20:00:53.514Z",
  "airports": {
    "KPIT": {
      "status": "OK",
      "delay": "—",
      "metarCat": "VFR",
      "metarRaw": "METAR KPIT 181951Z 20014G25KT 9SM -RA SCT046 BKN070 OVC120 27/12 A2972 RMK AO2 PK WND 21026/1940 RAB46 SLP061 P0000 T02720117",
      "metarObsTime": 1776541860
    },
    "KAGC": {
      "status": "OK",
      "delay": "—",
      "metarCat": "VFR",
      "metarRaw": "METAR KAGC 181953Z 21019G28KT 10SM SCT080 BKN095 27/11 A2973 RMK AO2 PK WND 20028/1952 SLP064 T02720111",
      "metarObsTime": 1776541980
    },
    "KLBE": {
      "status": "OK",
      "delay": "—",
      "metarCat": "VFR",
      "metarRaw": "METAR KLBE 181947Z 20012G25KT 10SM SCT045 27/13 A2978",
      "metarObsTime": 1776541620
    },
    "KJST": {
      "status": "OK",
      "delay": "—",
      "metarCat": "VFR",
      "metarRaw": "METAR KJST 181954Z AUTO 16016G24KT 10SM CLR 24/09 A2982 RMK AO2 SLP084 T02440094",
      "metarObsTime": 1776542040
    },
    "KERI": {
      "status": "OK",
      "delay": "—",
      "metarCat": "IFR",
      "metarRaw": "METAR KERI 181951Z 25012G21KT 2SM RA BR BKN005 BKN038 OVC055 14/14 A2972 RMK AO2 SLP062 P0021 T01440139 $",
      "metarObsTime": 1776541860
    },
    "KDUJ": {
      "status": "OK",
      "delay": "—",
      "metarCat": "VFR",
      "metarRaw": "METAR KDUJ 181953Z AUTO 20015G27KT 180V240 10SM FEW075 25/09 A2974 RMK AO2 PK WND 22032/1912 SLP061 T02500094",
      "metarObsTime": 1776541980
    },
    "KBFD": {
      "status": "OK",
      "delay": "—",
      "metarCat": "VFR",
      "metarRaw": "METAR KBFD 181953Z AUTO 21010G28KT 10SM FEW070 24/08 A2974 RMK AO2 PK WND 20028/1945 SLP059 T02440083",
      "metarObsTime": 1776541980
    },
    "KBTP": {
      "status": "OK",
      "delay": "—",
      "metarCat": "VFR",
      "metarRaw": "METAR KBTP 181956Z AUTO 20012G24KT 10SM FEW070 26/13 A2973 RMK AO2 PK WND 21026/1932 SLP063 T02610128 PNO $",
      "metarObsTime": 1776542160
    },
    "KFKL": {
      "status": "OK",
      "delay": "—",
      "metarCat": "—",
      "metarRaw": "—",
      "metarObsTime": null
    },
    "KIDI": {
      "status": "OK",
      "delay": "—",
      "metarCat": "VFR",
      "metarRaw": "METAR KIDI 181955Z AUTO 21012G22KT 10SM CLR 26/12 A2976 RMK A01",
      "metarObsTime": 1776542100
    },
    "KMDT": {
      "status": "OK",
      "delay": "—",
      "metarCat": "VFR",
      "metarRaw": "METAR KMDT 181956Z 12015KT 10SM FEW025 SCT150 BKN250 23/15 A2986 RMK AO2 SLP112 T02280150",
      "metarObsTime": 1776542160
    },
    "KCXY": {
      "status": "OK",
      "delay": "—",
      "metarCat": "VFR",
      "metarRaw": "METAR KCXY 181956Z 10015G21KT 10SM CLR 22/15 A2986 RMK AO2 PRESFR SLP111 T02220150 $",
      "metarObsTime": 1776542160
    },
    "KMUI": {
      "status": "OK",
      "delay": "—",
      "metarCat": "VFR",
      "metarRaw": "METAR KMUI 181855Z AUTO 17007KT 10SM SCT030 BKN190 24/17 A2991 RMK AO2 SLP129 T02400165",
      "metarObsTime": 1776538500
    },
    "KUNV": {
      "status": "OK",
      "delay": "—",
      "metarCat": "VFR",
      "metarRaw": "METAR KUNV 181953Z 17010G17KT 140V200 10SM SCT070 25/14 A2981",
      "metarObsTime": 1776541980
    },
    "KAOO": {
      "status": "OK",
      "delay": "—",
      "metarCat": "VFR",
      "metarRaw": "METAR KAOO 181953Z AUTO 15017G24KT 10SM CLR 26/11 A2981 RMK AO2 SLP085 T02560111",
      "metarObsTime": 1776541980
    },
    "KLNS": {
      "status": "OK",
      "delay": "—",
      "metarCat": "VFR",
      "metarRaw": "METAR KLNS 181953Z 15011KT 10SM CLR 21/14 A2991 RMK AO2 SLP126 T02110144",
      "metarObsTime": 1776541980
    },
    "KIPT": {
      "status": "OK",
      "delay": "—",
      "metarCat": "VFR",
      "metarRaw": "METAR KIPT 181954Z 17017G31KT 10SM CLR 23/14 A2980 RMK AO2 PK WND 17032/1927 PRESFR SLP089 T02330139 $",
      "metarObsTime": 1776542040
    },
    "KPHL": {
      "status": "OK",
      "delay": "—",
      "metarCat": "VFR",
      "metarRaw": "METAR KPHL 181954Z 14008KT 10SM FEW038 SCT130 SCT300 25/13 A2995 RMK AO2 SLP140 T02500128 $",
      "metarObsTime": 1776542040
    },
    "KABE": {
      "status": "OK",
      "delay": "—",
      "metarCat": "VFR",
      "metarRaw": "METAR KABE 181951Z 14009G18KT 10SM CLR 24/12 A2993 RMK AO2 SLP132 T02390122 $",
      "metarObsTime": 1776541860
    },
    "KAVP": {
      "status": "OK",
      "delay": "—",
      "metarCat": "VFR",
      "metarRaw": "METAR KAVP 181954Z VRB06G16KT 10SM CLR 24/11 A2988 RMK AO2 SLP113 T02390106",
      "metarObsTime": 1776542040
    },
    "KHZL": {
      "status": "OK",
      "delay": "—",
      "metarCat": "VFR",
      "metarRaw": "METAR KHZL 181955Z AUTO 15004G14KT 10SM CLR 23/11 A2994 RMK AO2",
      "metarObsTime": 1776542100
    }
  }
}