{
  "generatedAt": "2026-03-12T10:10:16.477Z",
  "airports": {
    "KPIT": {
      "status": "OK",
      "delay": "—",
      "metarCat": "MVFR",
      "metarRaw": "METAR KPIT 120951Z 31010KT 10SM OVC021 01/M03 A2996 RMK AO2 SNB03E50 SLP156 P0000 T00111028 $",
      "metarObsTime": 1773309060
    },
    "KAGC": {
      "status": "OK",
      "delay": "—",
      "metarCat": "MVFR",
      "metarRaw": "METAR KAGC 120953Z 33013G26KT 10SM OVC018 00/M03 A2995 RMK AO2 PK WND 33026/0953 SLP148 T00001028",
      "metarObsTime": 1773309180
    },
    "KLBE": {
      "status": "OK",
      "delay": "—",
      "metarCat": "MVFR",
      "metarRaw": "METAR KLBE 120955Z AUTO 28014KT 6SM -RA BR OVC014 01/00 A2996 RMK AO2",
      "metarObsTime": 1773309300
    },
    "KJST": {
      "status": "OK",
      "delay": "—",
      "metarCat": "MVFR",
      "metarRaw": "METAR KJST 120954Z AUTO 30022G32KT 10SM UP FEW007 OVC014 M01/M02 A2983 RMK AO2 PK WND 30032/0925 UPB47SNE47B52E53 SLP109 P0001 T10061022",
      "metarObsTime": 1773309240
    },
    "KERI": {
      "status": "OK",
      "delay": "—",
      "metarCat": "VFR",
      "metarRaw": "METAR KERI 120951Z 30015G29KT 10SM OVC033 00/M06 A2998 RMK AO2 PK WND 30029/0946 SLP155 T00001056",
      "metarObsTime": 1773309060
    },
    "KDUJ": {
      "status": "OK",
      "delay": "—",
      "metarCat": "MVFR",
      "metarRaw": "METAR KDUJ 120953Z AUTO 30015G26KT 10SM OVC012 M02/M04 A2987 RMK AO2 PK WND 29027/0925 SNE32 SLP117 P0001 T10171044",
      "metarObsTime": 1773309180
    },
    "KBFD": {
      "status": "OK",
      "delay": "—",
      "metarCat": "MVFR",
      "metarRaw": "METAR KBFD 120953Z AUTO 30014G31KT 10SM OVC010 M03/M05 A2983 RMK AO2 PK WND 30031/0945 CIG 007V013 SLP107 T10331050",
      "metarObsTime": 1773309180
    },
    "KBTP": {
      "status": "OK",
      "delay": "—",
      "metarCat": "MVFR",
      "metarRaw": "METAR KBTP 120956Z AUTO 31006KT 10SM OVC019 M01/M01 A2997 RMK AO2 SLP157 T10061006 FZRANO $",
      "metarObsTime": 1773309360
    },
    "KFKL": {
      "status": "OK",
      "delay": "—",
      "metarCat": "MVFR",
      "metarRaw": "METAR KFKL 120956Z AUTO 32005KT 10SM OVC017 A2994 RMK AO2 SLPNO FZRANO $",
      "metarObsTime": 1773309360
    },
    "KIDI": {
      "status": "OK",
      "delay": "—",
      "metarCat": "—",
      "metarRaw": "—",
      "metarObsTime": null
    },
    "KMDT": {
      "status": "OK",
      "delay": "—",
      "metarCat": "VFR",
      "metarRaw": "METAR KMDT 120956Z 32028G46KT 10SM -RA FEW050 OVC065 09/04 A2971 RMK AO2 PK WND 34046/0950 PRESRR SLP060 P0000 T00940044",
      "metarObsTime": 1773309360
    },
    "KCXY": {
      "status": "OK",
      "delay": "—",
      "metarCat": "VFR",
      "metarRaw": "METAR KCXY 120956Z AUTO 32021G37KT 10SM -RA FEW026 SCT055 OVC065 09/04 A2973 RMK AO2 PK WND 30037/0950 RAB01 PRESRR SLP066 P0001 T00940044",
      "metarObsTime": 1773309360
    },
    "KMUI": {
      "status": "OK",
      "delay": "—",
      "metarCat": "MVFR",
      "metarRaw": "SPECI KMUI 120957Z AUTO 31013G19KT 10SM -RA BKN020 OVC055 11/08 A2967 RMK AO2 WSHFT 56 CIG 020V055 SLP049",
      "metarObsTime": 1773309420
    },
    "KUNV": {
      "status": "OK",
      "delay": "—",
      "metarCat": "VFR",
      "metarRaw": "METAR KUNV 120953Z 30012G19KT 10SM SCT025 OVC110 03/M01 A2982",
      "metarObsTime": 1773309180
    },
    "KAOO": {
      "status": "OK",
      "delay": "—",
      "metarCat": "VFR",
      "metarRaw": "SPECI KAOO 121000Z AUTO 30013G26KT 10SM SCT025 BKN100 03/M02 A2983 RMK AO2 PK WND 32026/0957 T00281017",
      "metarObsTime": 1773309600
    },
    "KLNS": {
      "status": "OK",
      "delay": "—",
      "metarCat": "VFR",
      "metarRaw": "METAR KLNS 120953Z 30016G27KT 10SM SCT035 OVC044 13/09 A2964 RMK AO2 PK WND 29035/0903 SLP034 T01280089",
      "metarObsTime": 1773309180
    },
    "KIPT": {
      "status": "OK",
      "delay": "—",
      "metarCat": "VFR",
      "metarRaw": "METAR KIPT 120954Z AUTO 32013G21KT 10SM -RA BKN036 OVC095 06/01 A2978 RMK AO2 PK WND 28028/0912 RAB05E16B46 SLP083 P0000 T00610011 $",
      "metarObsTime": 1773309240
    },
    "KPHL": {
      "status": "OK",
      "delay": "—",
      "metarCat": "VFR",
      "metarRaw": "METAR KPHL 120954Z 25007KT 10SM SCT110 BKN210 BKN250 17/14 A2956 RMK AO2 SLP011 T01670139 $",
      "metarObsTime": 1773309240
    },
    "KABE": {
      "status": "OK",
      "delay": "—",
      "metarCat": "IFR",
      "metarRaw": "SPECI KABE 120959Z 31012G22KT 2 1/2SM -RA FEW023 BKN032 OVC049 13/11 A2960 RMK AO2 WSHFT 0939 SFC VIS 10 P0001 T01280111 $",
      "metarObsTime": 1773309540
    },
    "KAVP": {
      "status": "OK",
      "delay": "—",
      "metarCat": "VFR",
      "metarRaw": "METAR KAVP 120954Z 33018G26KT 10SM -RA SCT023 BKN031 OVC043 07/04 A2969 RMK AO2 PK WND 34026/0932 SLP051 P0003 T00720044",
      "metarObsTime": 1773309240
    },
    "KHZL": {
      "status": "OK",
      "delay": "—",
      "metarCat": "MVFR",
      "metarRaw": "METAR KHZL 120955Z AUTO 30009G16KT 250V320 10SM -RA BKN010 BKN014 OVC045 08/06 A2967 RMK AO2 P0001",
      "metarObsTime": 1773309300
    }
  }
}