{
  "generatedAt": "2026-03-16T00:10:14.990Z",
  "airports": {
    "KPIT": {
      "status": "OK",
      "delay": "—",
      "metarCat": "VFR",
      "metarRaw": "METAR KPIT 152351Z 14017G23KT 10SM BKN150 OVC230 19/06 A2973 RMK AO2 SLP074 T01890061 10217 20189 56008 CHINO SE VISNO SE $",
      "metarObsTime": 1773618660
    },
    "KAGC": {
      "status": "OK",
      "delay": "—",
      "metarCat": "VFR",
      "metarRaw": "METAR KAGC 152353Z 14021G34KT 10SM CLR 14/04 A2977 RMK AO2 PK WND 16034/2346 SLP086 T01390044 10206 20139 56007",
      "metarObsTime": 1773618780
    },
    "KLBE": {
      "status": "OK",
      "delay": "—",
      "metarCat": "VFR",
      "metarRaw": "METAR KLBE 152347Z 14016G35KT 10SM SCT070 12/04 A2985",
      "metarObsTime": 1773618420
    },
    "KJST": {
      "status": "OK",
      "delay": "—",
      "metarCat": "VFR",
      "metarRaw": "METAR KJST 152354Z AUTO 15015G27KT 10SM FEW026 07/01 A2990 RMK AO2 PK WND 16034/2318 SLP139 T00670006 10122 20061 58019",
      "metarObsTime": 1773618840
    },
    "KERI": {
      "status": "OK",
      "delay": "—",
      "metarCat": "VFR",
      "metarRaw": "METAR KERI 152351Z 16028G49KT 10SM CLR 14/02 A2957 RMK AO2 PK WND 15051/2323 SLP015 T01440017 10211 20144 56025 $",
      "metarObsTime": 1773618660
    },
    "KDUJ": {
      "status": "OK",
      "delay": "—",
      "metarCat": "VFR",
      "metarRaw": "METAR KDUJ 152353Z AUTO 13011G28KT 10SM CLR 08/01 A2986 RMK AO2 PK WND 16030/2307 SLP120 T00780006 10139 20078 58012 $",
      "metarObsTime": 1773618780
    },
    "KBFD": {
      "status": "OK",
      "delay": "—",
      "metarCat": "VFR",
      "metarRaw": "METAR KBFD 152353Z AUTO 15016G36KT 10SM CLR 06/01 A2984 RMK AO2 PK WND 14042/2315 SLP117 60000 T00610006 10122 20061 58014",
      "metarObsTime": 1773618780
    },
    "KBTP": {
      "status": "OK",
      "delay": "—",
      "metarCat": "—",
      "metarRaw": "—",
      "metarObsTime": null
    },
    "KFKL": {
      "status": "OK",
      "delay": "—",
      "metarCat": "VFR",
      "metarRaw": "METAR KFKL 152356Z AUTO 14018G24KT 10SM CLR 11/02 A2975 RMK AO2 PK WND 13029/2332 SLPNO 6//// T01060022 56007",
      "metarObsTime": 1773618960
    },
    "KIDI": {
      "status": "OK",
      "delay": "—",
      "metarCat": "VFR",
      "metarRaw": "METAR KIDI 152355Z AUTO 13018G26KT 10SM CLR 10/02 A2986 RMK A01",
      "metarObsTime": 1773618900
    },
    "KMDT": {
      "status": "OK",
      "delay": "—",
      "metarCat": "MVFR",
      "metarRaw": "METAR KMDT 152356Z 11012KT 10SM -RA OVC029 09/02 A3013 RMK AO2 RAB54 SLP205 PCPN VRY LGT P0000 60000 T00890022 10089 20078 57023 $",
      "metarObsTime": 1773618960
    },
    "KCXY": {
      "status": "OK",
      "delay": "—",
      "metarCat": "MVFR",
      "metarRaw": "METAR KCXY 152356Z 11011KT 10SM OVC028 08/02 A3013 RMK AO2 SLP205 T00830022 10094 20078 58024",
      "metarObsTime": 1773618960
    },
    "KMUI": {
      "status": "OK",
      "delay": "—",
      "metarCat": "MVFR",
      "metarRaw": "METAR KMUI 152355Z AUTO 07007KT 10SM OVC027 07/02 A3014 RMK AO2 SLP213 60000 T00700015 10110 20070 57021 $",
      "metarObsTime": 1773618900
    },
    "KUNV": {
      "status": "OK",
      "delay": "—",
      "metarCat": "MVFR",
      "metarRaw": "METAR KUNV 152353Z 16011G19KT 130V200 10SM OVC028 08/01 A3002",
      "metarObsTime": 1773618780
    },
    "KAOO": {
      "status": "OK",
      "delay": "—",
      "metarCat": "MVFR",
      "metarRaw": "METAR KAOO 152353Z AUTO 15013G27KT 10SM BKN024 OVC055 08/02 A2999 RMK AO2 PK WND 15027/2347 SLP164 T00830017 10117 20078 56014",
      "metarObsTime": 1773618780
    },
    "KLNS": {
      "status": "OK",
      "delay": "—",
      "metarCat": "VFR",
      "metarRaw": "SPECI KLNS 152359Z 11015KT 10SM SCT033 OVC044 08/02 A3014 RMK AO2 T00780022",
      "metarObsTime": 1773619140
    },
    "KIPT": {
      "status": "OK",
      "delay": "—",
      "metarCat": "VFR",
      "metarRaw": "METAR KIPT 152354Z 09015G30KT 10SM OVC032 07/M02 A3009 RMK AO2 PK WND 11032/2330 SLP192 T00721017 10106 20072 58021 $",
      "metarObsTime": 1773618840
    },
    "KPHL": {
      "status": "OK",
      "delay": "—",
      "metarCat": "VFR",
      "metarRaw": "METAR KPHL 152354Z 11008KT 10SM OVC040 09/03 A3022 RMK AO2 RAB27E37 SLP232 P0000 60000 T00940033 10100 20094 56023 $",
      "metarObsTime": 1773618840
    },
    "KABE": {
      "status": "OK",
      "delay": "—",
      "metarCat": "MVFR",
      "metarRaw": "METAR KABE 152351Z 08006KT 10SM OVC027 04/M01 A3024 RMK AO2 RAB2259E11 SLP242 P0000 60000 T00441006 10067 20044 55009 $",
      "metarObsTime": 1773618660
    },
    "KAVP": {
      "status": "OK",
      "delay": "—",
      "metarCat": "VFR",
      "metarRaw": "METAR KAVP 152354Z 12009G18KT 090V160 10SM BKN035 OVC050 04/M01 A3014 RMK AO2 SLP212 T00391006 10061 20039 58023",
      "metarObsTime": 1773618840
    },
    "KHZL": {
      "status": "OK",
      "delay": "—",
      "metarCat": "IFR",
      "metarRaw": "METAR KHZL 152355Z AUTO 12007G16KT 090V150 10SM OVC009 02/00 A3015 RMK AO2",
      "metarObsTime": 1773618900
    }
  }
}