{
  "generatedAt": "2026-03-28T05:00:28.231Z",
  "airports": {
    "KPIT": {
      "status": "OK",
      "delay": "—",
      "metarCat": "VFR",
      "metarRaw": "METAR KPIT 280451Z 30009KT 10SM FEW040 M02/M08 A3036 RMK AO2 SLP301 T10171083 401111017",
      "metarObsTime": 1774673460
    },
    "KAGC": {
      "status": "OK",
      "delay": "—",
      "metarCat": "VFR",
      "metarRaw": "METAR KAGC 280453Z 32007KT 10SM CLR M02/M09 A3035 RMK AO2 SLP294 T10221089 401111022",
      "metarObsTime": 1774673580
    },
    "KLBE": {
      "status": "OK",
      "delay": "—",
      "metarCat": "VFR",
      "metarRaw": "METAR KLBE 280455Z AUTO 00000KT 10SM CLR M01/M09 A3037 RMK AO2",
      "metarObsTime": 1774673700
    },
    "KJST": {
      "status": "OK",
      "delay": "—",
      "metarCat": "VFR",
      "metarRaw": "METAR KJST 280454Z AUTO 31018G27KT 10SM BKN041 M03/M09 A3022 RMK AO2 PK WND 29028/0400 SLP260 T10331089 401171033",
      "metarObsTime": 1774673640
    },
    "KERI": {
      "status": "OK",
      "delay": "—",
      "metarCat": "VFR",
      "metarRaw": "METAR KERI 280451Z AUTO 32009G18KT 10SM CLR M02/M07 A3038 RMK AO2 SLP297 T10171067 400441028 $",
      "metarObsTime": 1774673460
    },
    "KDUJ": {
      "status": "OK",
      "delay": "—",
      "metarCat": "VFR",
      "metarRaw": "METAR KDUJ 280453Z AUTO 32005KT 10SM CLR M04/M11 A3027 RMK AO2 SLP271 T10441106 401001044",
      "metarObsTime": 1774673580
    },
    "KBFD": {
      "status": "OK",
      "delay": "—",
      "metarCat": "VFR",
      "metarRaw": "METAR KBFD 280453Z AUTO 31006KT 10SM CLR M07/M09 A3025 RMK AO2 SLP268 T10671094 400831067",
      "metarObsTime": 1774673580
    },
    "KBTP": {
      "status": "OK",
      "delay": "—",
      "metarCat": "VFR",
      "metarRaw": "METAR KBTP 280456Z AUTO 31007KT 10SM CLR M03/M07 A3036 RMK AO2 SLP302 T10281072 FZRANO $",
      "metarObsTime": 1774673760
    },
    "KFKL": {
      "status": "OK",
      "delay": "—",
      "metarCat": "MVFR",
      "metarRaw": "METAR KFKL 280456Z AUTO 30004KT 10SM BKN022 M04/M07 A3033 RMK AO2 SLP289 T10391067 400891039 FZRANO",
      "metarObsTime": 1774673760
    },
    "KIDI": {
      "status": "OK",
      "delay": "—",
      "metarCat": "VFR",
      "metarRaw": "METAR KIDI 280455Z AUTO 32008KT 10SM CLR M03/M09 A3033 RMK A01",
      "metarObsTime": 1774673700
    },
    "KMDT": {
      "status": "OK",
      "delay": "—",
      "metarCat": "VFR",
      "metarRaw": "METAR KMDT 280456Z 32005KT 10SM CLR 00/M04 A3024 RMK AO2 SLP242 T00001039 401721006",
      "metarObsTime": 1774673760
    },
    "KCXY": {
      "status": "OK",
      "delay": "—",
      "metarCat": "VFR",
      "metarRaw": "METAR KCXY 280456Z AUTO 24004KT 10SM CLR M01/M03 A3024 RMK AO2 SLP245 T10061028 401671006",
      "metarObsTime": 1774673760
    },
    "KMUI": {
      "status": "OK",
      "delay": "—",
      "metarCat": "VFR",
      "metarRaw": "METAR KMUI 280355Z AUTO 00000KT 10SM CLR 02/M06 A3019 RMK AO2 SLP230 T00161056",
      "metarObsTime": 1774670100
    },
    "KUNV": {
      "status": "OK",
      "delay": "—",
      "metarCat": "VFR",
      "metarRaw": "METAR KUNV 280455Z AUTO 31006KT 10SM OVC047 02/M06 A3024 RMK AO2 T00161060",
      "metarObsTime": 1774673700
    },
    "KAOO": {
      "status": "OK",
      "delay": "—",
      "metarCat": "VFR",
      "metarRaw": "METAR KAOO 280453Z AUTO 29007KT 10SM CLR 00/M07 A3025 RMK AO2 SLP257 T00001072 401440000",
      "metarObsTime": 1774673580
    },
    "KLNS": {
      "status": "OK",
      "delay": "—",
      "metarCat": "VFR",
      "metarRaw": "METAR KLNS 280453Z AUTO 35007KT 10SM CLR 01/M07 A3022 RMK AO2 SLP237 T00061067 401670000",
      "metarObsTime": 1774673580
    },
    "KIPT": {
      "status": "OK",
      "delay": "—",
      "metarCat": "VFR",
      "metarRaw": "METAR KIPT 280454Z AUTO 31003KT 10SM FEW065 M02/M11 A3029 RMK AO2 SLP262 T10171106 401171017",
      "metarObsTime": 1774673640
    },
    "KPHL": {
      "status": "OK",
      "delay": "—",
      "metarCat": "VFR",
      "metarRaw": "METAR KPHL 280454Z 01008KT 10SM BKN055 BKN120 05/M06 A3022 RMK AO2 SLP231 T00501061 402110044 $",
      "metarObsTime": 1774673640
    },
    "KABE": {
      "status": "OK",
      "delay": "—",
      "metarCat": "VFR",
      "metarRaw": "METAR KABE 280451Z 32003KT 10SM CLR 01/M08 A3022 RMK AO2 SLP234 T00061083 401501011 $",
      "metarObsTime": 1774673460
    },
    "KAVP": {
      "status": "OK",
      "delay": "—",
      "metarCat": "VFR",
      "metarRaw": "METAR KAVP 280454Z 01007KT 10SM CLR M03/M12 A3023 RMK AO2 SLP244 T10281117 401111028",
      "metarObsTime": 1774673640
    },
    "KHZL": {
      "status": "OK",
      "delay": "—",
      "metarCat": "VFR",
      "metarRaw": "METAR KHZL 280455Z AUTO 34003KT 10SM CLR M02/M13 A3022 RMK AO2",
      "metarObsTime": 1774673700
    }
  }
}