{
  "generatedAt": "2026-03-17T21:40:15.479Z",
  "airports": {
    "KPIT": {
      "status": "OK",
      "delay": "—",
      "metarCat": "VFR",
      "metarRaw": "SPECI KPIT 172131Z 26010G22KT 6SM -SN SCT022 BKN040 BKN070 M05/M11 A3007 RMK AO2 SNB06 P0000 T10501111",
      "metarObsTime": 1773783060
    },
    "KAGC": {
      "status": "OK",
      "delay": "—",
      "metarCat": "IFR",
      "metarRaw": "SPECI KAGC 172112Z 30005G23KT 2 1/2SM R28/3500VP6000FT -SN BR SCT018 BKN029 OVC050 M06/M08 A3006 RMK AO2 PK WND 29026/2055 SNB02 P0000 T10611083",
      "metarObsTime": 1773781920
    },
    "KLBE": {
      "status": "OK",
      "delay": "—",
      "metarCat": "MVFR",
      "metarRaw": "SPECI KLBE 172114Z 26016G26KT 3SM -SN BR SCT008 BKN019 OVC080 M04/M09 A3007",
      "metarObsTime": 1773782040
    },
    "KJST": {
      "status": "OK",
      "delay": "—",
      "metarCat": "LIFR",
      "metarRaw": "SPECI KJST 172132Z AUTO 26014G22KT 3/4SM -SN BKN016 BKN027 OVC060 M07/M10 A2994 RMK AO2 PK WND 29028/2057 P0000 T10721100",
      "metarObsTime": 1773783120
    },
    "KERI": {
      "status": "OK",
      "delay": "—",
      "metarCat": "MVFR",
      "metarRaw": "SPECI KERI 172116Z 27011G23KT 250V320 4SM HZ SCT037 BKN043 OVC055 M05/M12 A3008 RMK AO2 T10501122",
      "metarObsTime": 1773782160
    },
    "KDUJ": {
      "status": "OK",
      "delay": "—",
      "metarCat": "MVFR",
      "metarRaw": "SPECI KDUJ 172132Z AUTO 29013G22KT 3SM -SN SCT023 BKN041 OVC070 M07/M11 A2996 RMK AO2 SNE04B17 P0000 T10671111",
      "metarObsTime": 1773783120
    },
    "KBFD": {
      "status": "OK",
      "delay": "—",
      "metarCat": "VFR",
      "metarRaw": "METAR KBFD 172053Z AUTO 31018G26KT 10SM OVC045 M07/M16 A2990 RMK AO2 PK WND 28029/1958 SNB23E32 SLP157 P0000 60000 T10721156 51016",
      "metarObsTime": 1773780780
    },
    "KBTP": {
      "status": "OK",
      "delay": "—",
      "metarCat": "VFR",
      "metarRaw": "SPECI KBTP 172127Z AUTO 27009G21KT 9SM BKN045 BKN055 M04/M13 A3006 RMK AO2 PK WND 27026/2110 SNB12E23 P0000 FZRANO $",
      "metarObsTime": 1773782820
    },
    "KFKL": {
      "status": "OK",
      "delay": "—",
      "metarCat": "IFR",
      "metarRaw": "SPECI KFKL 172136Z AUTO 30010G16KT 280V340 2SM -SN FEW011 BKN024 OVC060 M06/M10 A3003 RMK AO2 P0000 FZRANO",
      "metarObsTime": 1773783360
    },
    "KIDI": {
      "status": "OK",
      "delay": "—",
      "metarCat": "IFR",
      "metarRaw": "METAR KIDI 172135Z AUTO 28011G19KT 1 1/2SM HZ SCT003 BKN022 OVC039 M06/M08 A3003 RMK A01",
      "metarObsTime": 1773783300
    },
    "KMDT": {
      "status": "OK",
      "delay": "—",
      "metarCat": "VFR",
      "metarRaw": "METAR KMDT 172056Z 29015G23KT 10SM BKN045 BKN080 02/M11 A2999 RMK AO2 SLP158 T00221106 53011",
      "metarObsTime": 1773780960
    },
    "KCXY": {
      "status": "OK",
      "delay": "—",
      "metarCat": "VFR",
      "metarRaw": "METAR KCXY 172056Z 26011G19KT 10SM FEW046 OVC070 02/M13 A2999 RMK AO2 PK WND 32027/2031 SLP161 T00171128 53012",
      "metarObsTime": 1773780960
    },
    "KMUI": {
      "status": "OK",
      "delay": "—",
      "metarCat": "VFR",
      "metarRaw": "METAR KMUI 172055Z 28009G17KT 10SM SCT040 BKN075 01/M09 A2996 RMK AO2A PK WND 29026/15 SNB10E32 SLP153 60000 T00091092 52015",
      "metarObsTime": 1773780900
    },
    "KUNV": {
      "status": "OK",
      "delay": "—",
      "metarCat": "MVFR",
      "metarRaw": "SPECI KUNV 172114Z 32008G14KT 5SM VCSH SCT009 BKN018 BKN050 M03/M08 A2997",
      "metarObsTime": 1773782040
    },
    "KAOO": {
      "status": "OK",
      "delay": "—",
      "metarCat": "VFR",
      "metarRaw": "SPECI KAOO 172105Z AUTO 25011KT 9SM FEW023 SCT037 BKN050 M04/M09 A2997 RMK AO2 SNE03 P0000 T10391094",
      "metarObsTime": 1773781500
    },
    "KLNS": {
      "status": "OK",
      "delay": "—",
      "metarCat": "VFR",
      "metarRaw": "METAR KLNS 172053Z 29017KT 10SM BKN080 01/M11 A2998 RMK AO2 PK WND 29029/2018 SLP155 T00111106 53012",
      "metarObsTime": 1773780780
    },
    "KIPT": {
      "status": "OK",
      "delay": "—",
      "metarCat": "VFR",
      "metarRaw": "SPECI KIPT 172114Z 31013KT 10SM SCT043 BKN055 M02/M07 A2997 RMK AO2 WSHFT 2054 T10171072",
      "metarObsTime": 1773782040
    },
    "KPHL": {
      "status": "OK",
      "delay": "—",
      "metarCat": "VFR",
      "metarRaw": "METAR KPHL 172054Z 29021G26KT 10SM BKN070 05/M12 A2998 RMK AO2 PK WND 29026/2047 SLP152 T00501117 53013 $",
      "metarObsTime": 1773780840
    },
    "KABE": {
      "status": "OK",
      "delay": "—",
      "metarCat": "VFR",
      "metarRaw": "METAR KABE 172051Z 30011G22KT 10SM BKN050 02/M09 A2995 RMK AO2 PK WND 30026/2017 SLP145 T00221094 53010 $",
      "metarObsTime": 1773780660
    },
    "KAVP": {
      "status": "OK",
      "delay": "—",
      "metarCat": "VFR",
      "metarRaw": "METAR KAVP 172054Z 27014G26KT 10SM FEW041 FEW050 BKN075 00/M09 A2991 RMK AO2 PK WND 26026/2049 SNB1955E09 SLP135 P0000 60000 T00001094 53013",
      "metarObsTime": 1773780840
    },
    "KHZL": {
      "status": "OK",
      "delay": "—",
      "metarCat": "VFR",
      "metarRaw": "METAR KHZL 172135Z AUTO 28006KT 10SM SCT007 BKN050 OVC065 M02/M07 RMK AO2",
      "metarObsTime": 1773783300
    }
  }
}