{
  "generatedAt": "2026-04-07T17:30:51.538Z",
  "airports": {
    "KPIT": {
      "status": "OK",
      "delay": "—",
      "metarCat": "VFR",
      "metarRaw": "METAR KPIT 071651Z 31011G17KT 10SM FEW038 02/M09 A3043 RMK AO2 SLP322 T00221089",
      "metarObsTime": 1775580660
    },
    "KAGC": {
      "status": "OK",
      "delay": "—",
      "metarCat": "VFR",
      "metarRaw": "METAR KAGC 071653Z 34009G16KT 10SM CLR 02/M11 A3041 RMK AO2 SLP313 T00221106",
      "metarObsTime": 1775580780
    },
    "KLBE": {
      "status": "OK",
      "delay": "—",
      "metarCat": "VFR",
      "metarRaw": "METAR KLBE 071647Z 32010G20KT 20SM CLR 03/M08 A3043",
      "metarObsTime": 1775580420
    },
    "KJST": {
      "status": "OK",
      "delay": "—",
      "metarCat": "VFR",
      "metarRaw": "METAR KJST 071654Z AUTO 28013G26KT 10SM CLR 01/M09 A3030 RMK AO2 PK WND 28026/1647 SLP281 T00061089",
      "metarObsTime": 1775580840
    },
    "KERI": {
      "status": "OK",
      "delay": "—",
      "metarCat": "VFR",
      "metarRaw": "METAR KERI 071651Z 31011KT 10SM OVC032 M02/M09 A3051 RMK AO2 SLP340 T10221094 $",
      "metarObsTime": 1775580660
    },
    "KDUJ": {
      "status": "OK",
      "delay": "—",
      "metarCat": "VFR",
      "metarRaw": "METAR KDUJ 071653Z AUTO 33011G22KT 10SM FEW037 M01/M11 A3035 RMK AO2 SLP295 T10061106",
      "metarObsTime": 1775580780
    },
    "KBFD": {
      "status": "OK",
      "delay": "—",
      "metarCat": "MVFR",
      "metarRaw": "SPECI KBFD 071709Z AUTO 29014G25KT 10SM BKN030 OVC037 M04/M09 A3034 RMK AO2 T10391094",
      "metarObsTime": 1775581740
    },
    "KBTP": {
      "status": "OK",
      "delay": "—",
      "metarCat": "VFR",
      "metarRaw": "METAR KBTP 071656Z AUTO 32011G18KT 10SM FEW039 01/M09 A3044 RMK AO2 SLP326 T00111089 FZRANO $",
      "metarObsTime": 1775580960
    },
    "KFKL": {
      "status": "OK",
      "delay": "—",
      "metarCat": "VFR",
      "metarRaw": "METAR KFKL 071656Z AUTO VRB06G17KT 10SM BKN032 M01/M08 A3043 RMK AO2 SNE18 SLP322 P0000 T10061078 FZRANO",
      "metarObsTime": 1775580960
    },
    "KIDI": {
      "status": "OK",
      "delay": "—",
      "metarCat": "VFR",
      "metarRaw": "METAR KIDI 071715Z AUTO 28010G17KT 10SM FEW046 02/M08 A3040 RMK A01",
      "metarObsTime": 1775582100
    },
    "KMDT": {
      "status": "OK",
      "delay": "—",
      "metarCat": "VFR",
      "metarRaw": "METAR KMDT 071656Z 34016G27KT 10SM FEW055 FEW250 09/M09 A3029 RMK AO2 PK WND 30034/1600 SLP260 T00941094",
      "metarObsTime": 1775580960
    },
    "KCXY": {
      "status": "OK",
      "delay": "—",
      "metarCat": "VFR",
      "metarRaw": "METAR KCXY 071656Z 32022G30KT 10SM CLR 08/M12 A3029 RMK AO2 PK WND 31035/1603 RAB04E11B48E55 SLP260 P0000 T00831122 $",
      "metarObsTime": 1775580960
    },
    "KMUI": {
      "status": "OK",
      "delay": "—",
      "metarCat": "VFR",
      "metarRaw": "METAR KMUI 071655Z 30016G26KT 10SM FEW060 SCT250 09/M10 A3026 RMK AO2A PK WND 31028/04 PRESRR SLP252 T00861103",
      "metarObsTime": 1775580900
    },
    "KUNV": {
      "status": "OK",
      "delay": "—",
      "metarCat": "VFR",
      "metarRaw": "METAR KUNV 071653Z 29012G16KT 10SM FEW050 03/M10 A3034",
      "metarObsTime": 1775580780
    },
    "KAOO": {
      "status": "OK",
      "delay": "—",
      "metarCat": "VFR",
      "metarRaw": "METAR KAOO 071653Z AUTO 32011G24KT 280V020 10SM CLR 03/M09 A3033 RMK AO2 PK WND 32027/1641 SLP283 T00331089 $",
      "metarObsTime": 1775580780
    },
    "KLNS": {
      "status": "OK",
      "delay": "—",
      "metarCat": "VFR",
      "metarRaw": "METAR KLNS 071653Z 29017G28KT 10SM CLR 09/M06 A3027 RMK AO2 PK WND 28031/1614 SLP251 T00891056",
      "metarObsTime": 1775580780
    },
    "KIPT": {
      "status": "OK",
      "delay": "—",
      "metarCat": "VFR",
      "metarRaw": "METAR KIPT 071654Z 31016G24KT 10SM FEW065 06/M10 A3033 RMK AO2 PK WND 31028/1555 SLP272 T00611100",
      "metarObsTime": 1775580840
    },
    "KPHL": {
      "status": "OK",
      "delay": "—",
      "metarCat": "VFR",
      "metarRaw": "METAR KPHL 071654Z 27020G31KT 10SM SCT065 SCT300 13/M07 A3024 RMK AO2 PK WND 31031/1647 SLP240 T01281067",
      "metarObsTime": 1775580840
    },
    "KABE": {
      "status": "OK",
      "delay": "—",
      "metarCat": "VFR",
      "metarRaw": "METAR KABE 071651Z 30013G25KT 10SM CLR 10/M07 A3022 RMK AO2 PK WND 26029/1636 SLP236 T01001067 $",
      "metarObsTime": 1775580660
    },
    "KAVP": {
      "status": "OK",
      "delay": "—",
      "metarCat": "VFR",
      "metarRaw": "SPECI KAVP 071728Z 31014G27KT 10SM FEW055 04/M10 A3029 RMK AO2 PK WND 33029/1710 T00441100",
      "metarObsTime": 1775582880
    },
    "KHZL": {
      "status": "OK",
      "delay": "—",
      "metarCat": "VFR",
      "metarRaw": "METAR KHZL 071715Z AUTO 32014G25KT 280V340 10SM CLR 04/M13 A3026 RMK AO2",
      "metarObsTime": 1775582100
    }
  }
}