{
  "generatedAt": "2026-04-01T21:50:33.452Z",
  "airports": {
    "KPIT": {
      "status": "OK",
      "delay": "—",
      "metarCat": "IFR",
      "metarRaw": "METAR KPIT 012051Z 33011KT 10SM BKN009 OVC032 13/10 A3008 RMK AO2 SLP191 T01330100 55014",
      "metarObsTime": 1775076660
    },
    "KAGC": {
      "status": "OK",
      "delay": "—",
      "metarCat": "VFR",
      "metarRaw": "METAR KAGC 012053Z 34005KT 10SM BKN110 19/14 A3004 RMK AO2 SLP172 T01890144 56017",
      "metarObsTime": 1775076780
    },
    "KLBE": {
      "status": "OK",
      "delay": "—",
      "metarCat": "VFR",
      "metarRaw": "METAR KLBE 012053Z 00000KT 10SM SCT043 OVC090 22/16 A3006",
      "metarObsTime": 1775076780
    },
    "KJST": {
      "status": "OK",
      "delay": "—",
      "metarCat": "VFR",
      "metarRaw": "METAR KJST 012054Z AUTO VRB04KT 10SM BKN038 BKN050 OVC085 21/13 A3007 RMK AO2 SLP175 T02110128 56017",
      "metarObsTime": 1775076840
    },
    "KERI": {
      "status": "OK",
      "delay": "—",
      "metarCat": "IFR",
      "metarRaw": "METAR KERI 012051Z 05010KT 4SM -RA BR OVC008 02/01 A3021 RMK AO2 PK WND 05027/1953 SLP237 P0003 60016 T00220011 55004 $",
      "metarObsTime": 1775076660
    },
    "KDUJ": {
      "status": "OK",
      "delay": "—",
      "metarCat": "LIFR",
      "metarRaw": "METAR KDUJ 012053Z AUTO 02008KT 10SM OVC004 11/10 A3011 RMK AO2 SLP195 60001 T01110100 58004",
      "metarObsTime": 1775076780
    },
    "KBFD": {
      "status": "OK",
      "delay": "—",
      "metarCat": "IFR",
      "metarRaw": "SPECI KBFD 012122Z AUTO 05006KT 7SM -RA BKN006 BKN011 OVC060 05/04 A3016 RMK AO2 P0001 T00500044",
      "metarObsTime": 1775078520
    },
    "KBTP": {
      "status": "OK",
      "delay": "—",
      "metarCat": "IFR",
      "metarRaw": "METAR KBTP 012056Z AUTO 04008KT 10SM OVC006 12/12 A3008 RMK AO2 SLP192 T01170117 58020 $",
      "metarObsTime": 1775076960
    },
    "KFKL": {
      "status": "OK",
      "delay": "—",
      "metarCat": "IFR",
      "metarRaw": "SPECI KFKL 012144Z AUTO 04008KT 10SM -RA BKN005 OVC034 07/06 A3013 RMK AO2 LTG DSNT SE CIG 003V008 P0010",
      "metarObsTime": 1775079840
    },
    "KIDI": {
      "status": "OK",
      "delay": "—",
      "metarCat": "VFR",
      "metarRaw": "METAR KIDI 012135Z AUTO VRB06KT 10SM BKN100 20/16 A3005 RMK A01",
      "metarObsTime": 1775079300
    },
    "KMDT": {
      "status": "OK",
      "delay": "—",
      "metarCat": "VFR",
      "metarRaw": "METAR KMDT 012056Z 01005KT 10SM FEW045 SCT060 25/13 A3003 RMK AO2 SLP169 T02500128 58013 $",
      "metarObsTime": 1775076960
    },
    "KCXY": {
      "status": "OK",
      "delay": "—",
      "metarCat": "VFR",
      "metarRaw": "METAR KCXY 012056Z 34005KT 10SM SCT065 26/12 A3004 RMK AO2 SLP171 T02560122 58013",
      "metarObsTime": 1775076960
    },
    "KMUI": {
      "status": "OK",
      "delay": "—",
      "metarCat": "—",
      "metarRaw": "—",
      "metarObsTime": null
    },
    "KUNV": {
      "status": "OK",
      "delay": "—",
      "metarCat": "VFR",
      "metarRaw": "METAR KUNV 012053Z 05013G17KT 10SM SCT028 BKN039 BKN065 17/13 A3010",
      "metarObsTime": 1775076780
    },
    "KAOO": {
      "status": "OK",
      "delay": "—",
      "metarCat": "VFR",
      "metarRaw": "METAR KAOO 012053Z AUTO 06003KT 10SM BKN090 OVC110 22/13 A3005 RMK AO2 SLP171 T02220128 56018",
      "metarObsTime": 1775076780
    },
    "KLNS": {
      "status": "OK",
      "delay": "—",
      "metarCat": "VFR",
      "metarRaw": "SPECI KLNS 012123Z 05007KT 10SM CLR 24/13 A3004 RMK AO2 T02390133",
      "metarObsTime": 1775078580
    },
    "KIPT": {
      "status": "OK",
      "delay": "—",
      "metarCat": "MVFR",
      "metarRaw": "METAR KIPT 012054Z 36009KT 10SM OVC026 12/07 A3016 RMK AO2 SLP212 T01170067 51017 $",
      "metarObsTime": 1775076840
    },
    "KPHL": {
      "status": "OK",
      "delay": "—",
      "metarCat": "VFR",
      "metarRaw": "METAR KPHL 012054Z 29008G14KT 10SM FEW070 FEW120 SCT210 BKN280 28/12 A3004 RMK AO2 SLP170 T02830117 56004 $",
      "metarObsTime": 1775076840
    },
    "KABE": {
      "status": "OK",
      "delay": "—",
      "metarCat": "VFR",
      "metarRaw": "METAR KABE 012051Z 01013KT 10SM FEW050 OVC080 21/13 A3008 RMK AO2 SLP184 T02110128 53008 $",
      "metarObsTime": 1775076660
    },
    "KAVP": {
      "status": "OK",
      "delay": "—",
      "metarCat": "MVFR",
      "metarRaw": "METAR KAVP 012054Z AUTO 34007KT 10SM BKN012 OVC028 09/08 A3019 RMK AO2 RAE42 SLP221 P0000 60001 T00940083 51017",
      "metarObsTime": 1775076840
    },
    "KHZL": {
      "status": "OK",
      "delay": "—",
      "metarCat": "VFR",
      "metarRaw": "METAR KHZL 012135Z AUTO 01004KT 10SM CLR 12/07 A3018 RMK AO2",
      "metarObsTime": 1775079300
    }
  }
}