{
  "generatedAt": "2026-04-05T00:40:34.802Z",
  "airports": {
    "KPIT": {
      "status": "OK",
      "delay": "—",
      "metarCat": "VFR",
      "metarRaw": "METAR KPIT 042351Z 19006KT 10SM FEW070 BKN120 BKN250 27/11 A2984 RMK AO2 SLP106 T02670106 10283 20267 56023 $",
      "metarObsTime": 1775346660
    },
    "KAGC": {
      "status": "OK",
      "delay": "—",
      "metarCat": "VFR",
      "metarRaw": "METAR KAGC 042353Z 18008KT 10SM FEW120 26/11 A2985 RMK AO2 SLP106 T02560106 10278 20256 56024",
      "metarObsTime": 1775346780
    },
    "KLBE": {
      "status": "OK",
      "delay": "—",
      "metarCat": "VFR",
      "metarRaw": "METAR KLBE 042350Z 19008KT 10SM SCT070 26/12 A2989",
      "metarObsTime": 1775346600
    },
    "KJST": {
      "status": "OK",
      "delay": "—",
      "metarCat": "VFR",
      "metarRaw": "METAR KJST 042354Z AUTO 16009KT 10SM CLR 20/12 A2995 RMK AO2 SLP132 60000 T02000117 10261 20200 58019",
      "metarObsTime": 1775346840
    },
    "KERI": {
      "status": "OK",
      "delay": "—",
      "metarCat": "VFR",
      "metarRaw": "SPECI KERI 050036Z 33003KT 10SM -RA FEW022 BKN080 OVC100 16/14 A2977 RMK AO2 PK WND 28032/0010 WSHFT 2359 RAB06 P0009 T01610144",
      "metarObsTime": 1775349360
    },
    "KDUJ": {
      "status": "OK",
      "delay": "—",
      "metarCat": "VFR",
      "metarRaw": "METAR KDUJ 042353Z AUTO 14006G15KT 10SM FEW100 23/12 A2988 RMK AO2 SLP109 T02280122 10261 20228 56024",
      "metarObsTime": 1775346780
    },
    "KBFD": {
      "status": "OK",
      "delay": "—",
      "metarCat": "VFR",
      "metarRaw": "METAR KBFD 042353Z AUTO 14008KT 10SM BKN120 22/11 A2988 RMK AO2 SLP109 T02220111 10250 20222 56026",
      "metarObsTime": 1775346780
    },
    "KBTP": {
      "status": "OK",
      "delay": "—",
      "metarCat": "VFR",
      "metarRaw": "METAR KBTP 042356Z AUTO 18004KT 10SM OVC110 24/12 A2986 RMK AO2 SLP109 T02440122 10283 20244 56023 $",
      "metarObsTime": 1775346960
    },
    "KFKL": {
      "status": "OK",
      "delay": "—",
      "metarCat": "VFR",
      "metarRaw": "METAR KFKL 042356Z AUTO 18012KT 10SM FEW090 BKN110 24/12 A2984 RMK AO2 SLP099 T02390117 10267 20239 56023",
      "metarObsTime": 1775346960
    },
    "KIDI": {
      "status": "OK",
      "delay": "—",
      "metarCat": "VFR",
      "metarRaw": "METAR KIDI 050035Z AUTO 16005KT 10SM CLR 24/12 A2988 RMK A01",
      "metarObsTime": 1775349300
    },
    "KMDT": {
      "status": "OK",
      "delay": "—",
      "metarCat": "VFR",
      "metarRaw": "METAR KMDT 042356Z 10013KT 10SM BKN080 OVC250 23/16 A2997 RMK AO2 SLP148 T02330156 10283 20217 56006 $",
      "metarObsTime": 1775346960
    },
    "KCXY": {
      "status": "OK",
      "delay": "—",
      "metarCat": "VFR",
      "metarRaw": "SPECI KCXY 050022Z 10015G23KT 10SM BKN075 BKN090 22/16 A2997 RMK AO2 WSHFT 0002 T02170156 $",
      "metarObsTime": 1775348520
    },
    "KMUI": {
      "status": "OK",
      "delay": "—",
      "metarCat": "VFR",
      "metarRaw": "METAR KMUI 042355Z AUTO 08013G19KT 10SM BKN033 BKN048 OVC055 19/14 A3001 RMK AO2 SLP165 T01920142 10285 20192 53006",
      "metarObsTime": 1775346900
    },
    "KUNV": {
      "status": "OK",
      "delay": "—",
      "metarCat": "VFR",
      "metarRaw": "METAR KUNV 042353Z 00000KT 10SM SCT033 21/15 A2993",
      "metarObsTime": 1775346780
    },
    "KAOO": {
      "status": "OK",
      "delay": "—",
      "metarCat": "VFR",
      "metarRaw": "METAR KAOO 042353Z AUTO 18008KT 10SM FEW037 SCT070 SCT100 19/14 A2995 RMK AO2 PK WND 20028/2334 RAE11B33E49 SLP136 P0000 60002 T01890144 10267 20189 56014",
      "metarObsTime": 1775346780
    },
    "KLNS": {
      "status": "OK",
      "delay": "—",
      "metarCat": "VFR",
      "metarRaw": "METAR KLNS 042353Z 11015G24KT 10SM CLR 19/14 A3003 RMK AO2 SLP168 T01890139 10267 20189 53002",
      "metarObsTime": 1775346780
    },
    "KIPT": {
      "status": "OK",
      "delay": "—",
      "metarCat": "VFR",
      "metarRaw": "METAR KIPT 042354Z 13014G24KT 10SM CLR 22/16 A2992 RMK AO2 LTG DSNT NE RAE02 TSE00 SLP129 P0000 60053 T02220156 10244 20183 56020",
      "metarObsTime": 1775346840
    },
    "KPHL": {
      "status": "OK",
      "delay": "—",
      "metarCat": "MVFR",
      "metarRaw": "METAR KPHL 042354Z 09015G23KT 10SM BKN015 13/09 A3013 RMK AO2 PK WND 09027/2327 SLP203 T01330094 10283 20133 53010 $",
      "metarObsTime": 1775346840
    },
    "KABE": {
      "status": "OK",
      "delay": "—",
      "metarCat": "MVFR",
      "metarRaw": "METAR KABE 042351Z 09015G22KT 10SM OVC023 11/07 A3014 RMK AO2 PK WND 08029/2257 SLP208 T01110067 10261 20111 51016 $",
      "metarObsTime": 1775346660
    },
    "KAVP": {
      "status": "OK",
      "delay": "—",
      "metarCat": "MVFR",
      "metarRaw": "SPECI KAVP 050016Z AUTO 10007KT 050V140 10SM BKN025 14/08 A3005 RMK AO2 T01390083",
      "metarObsTime": 1775348160
    },
    "KHZL": {
      "status": "OK",
      "delay": "—",
      "metarCat": "MVFR",
      "metarRaw": "METAR KHZL 050035Z AUTO 12014G24KT 10SM OVC012 11/07 A3009 RMK AO2 LTG DSNT N",
      "metarObsTime": 1775349300
    }
  }
}