{
  "generatedAt": "2026-04-04T12:30:32.972Z",
  "airports": {
    "KPIT": {
      "status": "OK",
      "delay": "—",
      "metarCat": "MVFR",
      "metarRaw": "METAR KPIT 041151Z 17003KT 4SM BR FEW001 SCT040 BKN090 16/16 A3013 RMK AO2 RAE06 SLP206 P0000 60034 70050 T01560156 10167 20156 53000 $",
      "metarObsTime": 1775303460
    },
    "KAGC": {
      "status": "OK",
      "delay": "—",
      "metarCat": "MVFR",
      "metarRaw": "METAR KAGC 041153Z 16006KT 5SM BR FEW002 FEW070 BKN120 16/16 A3014 RMK AO2 SLP206 60007 70024 T01560156 10167 20156 50000",
      "metarObsTime": 1775303580
    },
    "KLBE": {
      "status": "OK",
      "delay": "—",
      "metarCat": "—",
      "metarRaw": "—",
      "metarObsTime": null
    },
    "KJST": {
      "status": "OK",
      "delay": "—",
      "metarCat": "VFR",
      "metarRaw": "METAR KJST 041154Z AUTO 10003KT 8SM BKN110 14/14 A3018 RMK AO2 RAE19 SLP213 P0001 60014 70017 T01440139 10161 20144 50004",
      "metarObsTime": 1775303640
    },
    "KERI": {
      "status": "OK",
      "delay": "—",
      "metarCat": "VFR",
      "metarRaw": "METAR KERI 041151Z 05007KT 10SM OVC100 07/04 A3010 RMK AO2 SLP194 60000 T00670039 10072 20056 58019",
      "metarObsTime": 1775303460
    },
    "KDUJ": {
      "status": "OK",
      "delay": "—",
      "metarCat": "LIFR",
      "metarRaw": "SPECI KDUJ 041207Z AUTO 19005KT 4SM -RA BR OVC002 15/15 A3015 RMK AO2 P0000 T01500150",
      "metarObsTime": 1775304420
    },
    "KBFD": {
      "status": "OK",
      "delay": "—",
      "metarCat": "LIFR",
      "metarRaw": "METAR KBFD 041153Z AUTO 11005KT 3SM BR OVC003 11/11 A3017 RMK AO2 SLP211 70031 T01060106 10111 20106 53001",
      "metarObsTime": 1775303580
    },
    "KBTP": {
      "status": "OK",
      "delay": "—",
      "metarCat": "VFR",
      "metarRaw": "SPECI KBTP 041209Z AUTO 15006KT 10SM SCT002 SCT070 SCT120 16/ A3014 RMK AO2 $",
      "metarObsTime": 1775304540
    },
    "KFKL": {
      "status": "OK",
      "delay": "—",
      "metarCat": "LIFR",
      "metarRaw": "SPECI KFKL 041223Z AUTO 16007KT 3SM BR OVC001 14/13 A3012 RMK AO2 RAE05 P0000",
      "metarObsTime": 1775305380
    },
    "KIDI": {
      "status": "OK",
      "delay": "—",
      "metarCat": "VFR",
      "metarRaw": "METAR KIDI 041215Z AUTO 14004KT 9SM SCT075 BKN120 15/15 A3016 RMK A01",
      "metarObsTime": 1775304900
    },
    "KMDT": {
      "status": "OK",
      "delay": "—",
      "metarCat": "MVFR",
      "metarRaw": "METAR KMDT 041156Z 11004KT 3SM BR FEW120 BKN250 12/11 A3016 RMK AO2 SLP214 T01170111 10117 20100 53010 $",
      "metarObsTime": 1775303760
    },
    "KCXY": {
      "status": "OK",
      "delay": "—",
      "metarCat": "MVFR",
      "metarRaw": "METAR KCXY 041156Z 00000KT 3SM BR BKN065 12/11 A3017 RMK AO2 SLP217 T01220111 10122 20100 53010",
      "metarObsTime": 1775303760
    },
    "KMUI": {
      "status": "OK",
      "delay": "—",
      "metarCat": "MVFR",
      "metarRaw": "METAR KMUI 041155Z AUTO 00000KT 4SM BR SCT090 OVC110 12/11 A3014 RMK AO2 SLP209 T01150112 10132 20094 53009",
      "metarObsTime": 1775303700
    },
    "KUNV": {
      "status": "OK",
      "delay": "—",
      "metarCat": "LIFR",
      "metarRaw": "SPECI KUNV 041221Z 00000KT 1/2SM FG BKN001 OVC100 14/14 A3018",
      "metarObsTime": 1775305260
    },
    "KAOO": {
      "status": "OK",
      "delay": "—",
      "metarCat": "MVFR",
      "metarRaw": "METAR KAOO 041153Z AUTO 13004KT 4SM -RA BR FEW060 BKN085 OVC110 14/14 A3018 RMK AO2 RAB10 SLP215 P0004 60004 70004 T01440139 10167 20139 53008",
      "metarObsTime": 1775303580
    },
    "KLNS": {
      "status": "OK",
      "delay": "—",
      "metarCat": "IFR",
      "metarRaw": "METAR KLNS 041153Z 25004KT 2 1/2SM BR CLR 12/12 A3017 RMK AO2 SLP216 T01170117 10122 20089 53012",
      "metarObsTime": 1775303580
    },
    "KIPT": {
      "status": "OK",
      "delay": "—",
      "metarCat": "MVFR",
      "metarRaw": "METAR KIPT 041154Z 35004KT 10SM OVC012 11/09 A3021 RMK AO2 SLP228 T01110089 10122 20100 53020",
      "metarObsTime": 1775303640
    },
    "KPHL": {
      "status": "OK",
      "delay": "—",
      "metarCat": "VFR",
      "metarRaw": "METAR KPHL 041154Z 26003KT 10SM FEW100 FEW150 BKN270 BKN350 17/14 A3016 RMK AO2 SLP214 T01720139 10178 20139 53013 $",
      "metarObsTime": 1775303640
    },
    "KABE": {
      "status": "OK",
      "delay": "—",
      "metarCat": "MVFR",
      "metarRaw": "METAR KABE 041151Z 23004KT 5SM BR CLR 12/11 A3018 RMK AO2 SLP220 T01220111 10122 20089 52021 $",
      "metarObsTime": 1775303460
    },
    "KAVP": {
      "status": "OK",
      "delay": "—",
      "metarCat": "MVFR",
      "metarRaw": "METAR KAVP 041154Z 34006KT 10SM OVC012 09/07 A3023 RMK AO2 SLP233 T00940072 10150 20094 53017",
      "metarObsTime": 1775303640
    },
    "KHZL": {
      "status": "OK",
      "delay": "—",
      "metarCat": "IFR",
      "metarRaw": "METAR KHZL 041215Z AUTO 00000KT 10SM OVC006 11/09 A3023 RMK AO2",
      "metarObsTime": 1775304900
    }
  }
}