{
  "generatedAt": "2026-03-20T06:30:22.545Z",
  "airports": {
    "KPIT": {
      "status": "OK",
      "delay": "—",
      "metarCat": "VFR",
      "metarRaw": "METAR KPIT 200551Z 00000KT 10SM FEW080 04/02 A3009 RMK AO2 SLP199 T00440022 10122 20039 58014",
      "metarObsTime": 1773985860
    },
    "KAGC": {
      "status": "OK",
      "delay": "—",
      "metarCat": "VFR",
      "metarRaw": "METAR KAGC 200553Z 16005KT 10SM CLR 08/03 A3008 RMK AO2 SLP195 T00780033 10122 20078 58012",
      "metarObsTime": 1773985980
    },
    "KLBE": {
      "status": "OK",
      "delay": "—",
      "metarCat": "VFR",
      "metarRaw": "METAR KLBE 200615Z AUTO 00000KT 10SM CLR 03/02 A3010 RMK AO2",
      "metarObsTime": 1773987300
    },
    "KJST": {
      "status": "OK",
      "delay": "—",
      "metarCat": "VFR",
      "metarRaw": "METAR KJST 200554Z AUTO 21004KT 10SM CLR 07/03 A3008 RMK AO2 SLP196 T00720028 10094 20056 58010",
      "metarObsTime": 1773986040
    },
    "KERI": {
      "status": "OK",
      "delay": "—",
      "metarCat": "MVFR",
      "metarRaw": "METAR KERI 200551Z AUTO 16005KT 4SM BR CLR M01/M02 A3007 RMK AO2 SLP190 T10061017 10044 21011 58027",
      "metarObsTime": 1773985860
    },
    "KDUJ": {
      "status": "OK",
      "delay": "—",
      "metarCat": "VFR",
      "metarRaw": "METAR KDUJ 200553Z AUTO 16003KT 10SM FEW042 02/01 A3006 RMK AO2 SLP190 T00220006 10061 20017 58020",
      "metarObsTime": 1773985980
    },
    "KBFD": {
      "status": "OK",
      "delay": "—",
      "metarCat": "MVFR",
      "metarRaw": "METAR KBFD 200553Z AUTO 00000KT 5SM BR CLR M03/M03 A3006 RMK AO2 SLP196 I1001 I6001 T10281028 10044 21028 58019",
      "metarObsTime": 1773985980
    },
    "KBTP": {
      "status": "OK",
      "delay": "—",
      "metarCat": "VFR",
      "metarRaw": "METAR KBTP 200556Z AUTO 16003KT 10SM CLR 03/03 A3009 RMK AO2 SLP202 T00330033 10106 20028 58017 $",
      "metarObsTime": 1773986160
    },
    "KFKL": {
      "status": "OK",
      "delay": "—",
      "metarCat": "VFR",
      "metarRaw": "METAR KFKL 200556Z AUTO 13004KT 10SM CLR 02/01 A3008 RMK AO2 SLP195 T00170006 10067 20017 56023 FZRANO",
      "metarObsTime": 1773986160
    },
    "KIDI": {
      "status": "OK",
      "delay": "—",
      "metarCat": "VFR",
      "metarRaw": "METAR KIDI 200615Z AUTO 00000KT 10SM SCT047 SCT050 02/01 A3009 RMK A01",
      "metarObsTime": 1773987300
    },
    "KMDT": {
      "status": "OK",
      "delay": "—",
      "metarCat": "VFR",
      "metarRaw": "METAR KMDT 200556Z 08003KT 10SM OVC065 04/01 A3015 RMK AO2 SLP211 60000 T00440006 10100 20039 58004",
      "metarObsTime": 1773986160
    },
    "KCXY": {
      "status": "OK",
      "delay": "—",
      "metarCat": "VFR",
      "metarRaw": "METAR KCXY 200556Z AUTO 00000KT 10SM OVC065 05/01 A3015 RMK AO2 SLP211 T00500006 10100 20044 58006",
      "metarObsTime": 1773986160
    },
    "KMUI": {
      "status": "OK",
      "delay": "—",
      "metarCat": "VFR",
      "metarRaw": "METAR KMUI 200555Z AUTO 00000KT 10SM FEW065 05/04 A3012 RMK AO2 SLP206 60000 T00460040 10089 20046 58005",
      "metarObsTime": 1773986100
    },
    "KUNV": {
      "status": "OK",
      "delay": "—",
      "metarCat": "VFR",
      "metarRaw": "METAR KUNV 200615Z AUTO 25003KT 10SM CLR 04/01 A3009 RMK AO2 T00380007",
      "metarObsTime": 1773987300
    },
    "KAOO": {
      "status": "OK",
      "delay": "—",
      "metarCat": "VFR",
      "metarRaw": "METAR KAOO 200553Z AUTO 21003KT 10SM CLR 03/01 A3010 RMK AO2 SLP202 T00330006 10106 20028 58009",
      "metarObsTime": 1773985980
    },
    "KLNS": {
      "status": "OK",
      "delay": "—",
      "metarCat": "VFR",
      "metarRaw": "METAR KLNS 200553Z AUTO 14004KT 10SM CLR 02/M01 A3015 RMK AO2 SLP214 T00221006 10078 20017 58005",
      "metarObsTime": 1773985980
    },
    "KIPT": {
      "status": "OK",
      "delay": "—",
      "metarCat": "VFR",
      "metarRaw": "METAR KIPT 200554Z AUTO 35004KT 10SM CLR 01/M01 A3012 RMK AO2 SLP204 T00061011 10083 20006 58005",
      "metarObsTime": 1773986040
    },
    "KPHL": {
      "status": "OK",
      "delay": "—",
      "metarCat": "VFR",
      "metarRaw": "METAR KPHL 200554Z 19006KT 10SM BKN065 05/M01 A3018 RMK AO2 SLP221 T00501006 10094 20050 58007 $",
      "metarObsTime": 1773986040
    },
    "KABE": {
      "status": "OK",
      "delay": "—",
      "metarCat": "VFR",
      "metarRaw": "METAR KABE 200551Z 20003KT 10SM BKN050 BKN070 04/M01 A3015 RMK AO2 SLP212 T00441011 10078 20044 58003 $",
      "metarObsTime": 1773985860
    },
    "KAVP": {
      "status": "OK",
      "delay": "—",
      "metarCat": "VFR",
      "metarRaw": "METAR KAVP 200554Z 00000KT 10SM CLR 02/M01 A3011 RMK AO2 SLP201 T00221011 10067 20022 58006",
      "metarObsTime": 1773986040
    },
    "KHZL": {
      "status": "OK",
      "delay": "—",
      "metarCat": "VFR",
      "metarRaw": "METAR KHZL 200615Z AUTO 00000KT 10SM CLR 02/M01 RMK AO2",
      "metarObsTime": 1773987300
    }
  }
}