{
  "generatedAt": "2026-03-07T05:10:12.018Z",
  "airports": {
    "KPIT": {
      "status": "OK",
      "delay": "—",
      "metarCat": "VFR",
      "metarRaw": "METAR KPIT 070451Z 00000KT 10SM BKN070 17/14 A3008 RMK AO2 SLP191 T01670139 402170117",
      "metarObsTime": 1772859060
    },
    "KAGC": {
      "status": "OK",
      "delay": "—",
      "metarCat": "VFR",
      "metarRaw": "METAR KAGC 070453Z 15004KT 9SM BKN075 16/13 A3009 RMK AO2 SLP190 T01560133 402110122",
      "metarObsTime": 1772859180
    },
    "KLBE": {
      "status": "OK",
      "delay": "—",
      "metarCat": "VFR",
      "metarRaw": "METAR KLBE 070455Z AUTO 15005KT 10SM CLR 19/14 A3012 RMK AO2",
      "metarObsTime": 1772859300
    },
    "KJST": {
      "status": "OK",
      "delay": "—",
      "metarCat": "LIFR",
      "metarRaw": "METAR KJST 070454Z AUTO 17008KT 1SM BR VV002 09/09 A3018 RMK AO2 SLP219 T00890089 401940089",
      "metarObsTime": 1772859240
    },
    "KERI": {
      "status": "OK",
      "delay": "—",
      "metarCat": "VFR",
      "metarRaw": "METAR KERI 070451Z AUTO 18015G27KT 10SM CLR 19/14 A2997 RMK AO2 PK WND 18027/0451 SLP151 T01890139 401890000 $",
      "metarObsTime": 1772859060
    },
    "KDUJ": {
      "status": "OK",
      "delay": "—",
      "metarCat": "LIFR",
      "metarRaw": "SPECI KDUJ 070502Z AUTO 12012G18KT 2 1/2SM BR OVC002 10/09 A3013 RMK AO2 T01000094",
      "metarObsTime": 1772859720
    },
    "KBFD": {
      "status": "OK",
      "delay": "—",
      "metarCat": "LIFR",
      "metarRaw": "SPECI KBFD 070503Z AUTO 15007KT 3SM BR OVC002 09/09 A3011 RMK AO2 T00940089",
      "metarObsTime": 1772859780
    },
    "KBTP": {
      "status": "OK",
      "delay": "—",
      "metarCat": "VFR",
      "metarRaw": "METAR KBTP 070456Z AUTO 16008KT 10SM BKN070 OVC095 17/15 A3010 RMK AO2 SLP193 T01670150 $",
      "metarObsTime": 1772859360
    },
    "KFKL": {
      "status": "OK",
      "delay": "—",
      "metarCat": "VFR",
      "metarRaw": "METAR KFKL 070456Z AUTO 17009KT 10SM FEW060 16/13 A3007 RMK AO2 SLP183 T01560133 402060078",
      "metarObsTime": 1772859360
    },
    "KIDI": {
      "status": "OK",
      "delay": "—",
      "metarCat": "VFR",
      "metarRaw": "METAR KIDI 070455Z AUTO 16006G13KT 10SM BKN080 15/13 A3013 RMK A01",
      "metarObsTime": 1772859300
    },
    "KMDT": {
      "status": "OK",
      "delay": "—",
      "metarCat": "LIFR",
      "metarRaw": "METAR KMDT 070456Z 11004KT 1SM R13/P6000FT -DZ BR OVC004 05/05 A3034 RMK AO2 TWR VIS 2 SLP276 P0001 T00500050 400670044",
      "metarObsTime": 1772859360
    },
    "KCXY": {
      "status": "OK",
      "delay": "—",
      "metarCat": "LIFR",
      "metarRaw": "METAR KCXY 070456Z AUTO 10006KT 1 1/2SM BR OVC004 05/04 A3034 RMK AO2 CIG 002V007 SLP277 T00500044 400670044",
      "metarObsTime": 1772859360
    },
    "KMUI": {
      "status": "OK",
      "delay": "—",
      "metarCat": "LIFR",
      "metarRaw": "METAR KMUI 070455Z AUTO 00000KT 1 1/8SM BR OVC002 05/05 A3032 RMK AO2 SLP274 T00500047 400820043",
      "metarObsTime": 1772859300
    },
    "KUNV": {
      "status": "OK",
      "delay": "—",
      "metarCat": "LIFR",
      "metarRaw": "METAR KUNV 070455Z AUTO 00000KT 2SM BR OVC003 06/06 A3025 RMK AO2 T00570056",
      "metarObsTime": 1772859300
    },
    "KAOO": {
      "status": "OK",
      "delay": "—",
      "metarCat": "LIFR",
      "metarRaw": "METAR KAOO 070453Z AUTO 16012KT 1 1/4SM BR OVC002 07/07 A3024 RMK AO2 SLP241 T00720072 401780072",
      "metarObsTime": 1772859180
    },
    "KLNS": {
      "status": "OK",
      "delay": "—",
      "metarCat": "LIFR",
      "metarRaw": "SPECI KLNS 070505Z AUTO 13007KT 2SM BR OVC003 04/04 A3034 RMK AO2 T00440039",
      "metarObsTime": 1772859900
    },
    "KIPT": {
      "status": "OK",
      "delay": "—",
      "metarCat": "IFR",
      "metarRaw": "METAR KIPT 070454Z AUTO 06008G18KT 340V090 3SM BR OVC008 05/04 A3029 RMK AO2 SLP260 T00500039 400720050",
      "metarObsTime": 1772859240
    },
    "KPHL": {
      "status": "OK",
      "delay": "—",
      "metarCat": "MVFR",
      "metarRaw": "METAR KPHL 070454Z 11005KT 10SM OVC011 05/02 A3038 RMK AO2 SLP288 T00500022 400720044 $",
      "metarObsTime": 1772859240
    },
    "KABE": {
      "status": "OK",
      "delay": "—",
      "metarCat": "IFR",
      "metarRaw": "METAR KABE 070451Z 11004KT 3SM BR OVC006 03/03 A3037 RMK AO2 SLP286 T00330028 400500022",
      "metarObsTime": 1772859060
    },
    "KAVP": {
      "status": "OK",
      "delay": "—",
      "metarCat": "MVFR",
      "metarRaw": "METAR KAVP 070454Z 00000KT 10SM OVC012 04/02 A3030 RMK AO2 SLP267 T00390017 400610022",
      "metarObsTime": 1772859240
    },
    "KHZL": {
      "status": "OK",
      "delay": "—",
      "metarCat": "LIFR",
      "metarRaw": "METAR KHZL 070455Z AUTO 14003KT 1SM BR OVC002 02/01 A3032 RMK AO2",
      "metarObsTime": 1772859300
    }
  }
}