{
  "generatedAt": "2026-04-17T06:30:54.976Z",
  "airports": {
    "KPIT": {
      "status": "OK",
      "delay": "—",
      "metarCat": "VFR",
      "metarRaw": "METAR KPIT 170551Z 30010KT 10SM SCT075 SCT100 17/13 A2990 RMK AO2 SLP125 60001 T01670128 10194 20156 53005",
      "metarObsTime": 1776405060
    },
    "KAGC": {
      "status": "OK",
      "delay": "—",
      "metarCat": "VFR",
      "metarRaw": "METAR KAGC 170553Z 30003KT 10SM FEW065 BKN090 OVC110 17/15 A2990 RMK AO2 SLP120 T01670150 10194 20167 53002",
      "metarObsTime": 1776405180
    },
    "KLBE": {
      "status": "OK",
      "delay": "—",
      "metarCat": "MVFR",
      "metarRaw": "METAR KLBE 170615Z AUTO VRB06KT 10SM FEW015 BKN021 OVC075 17/16 A2993 RMK AO2",
      "metarObsTime": 1776406500
    },
    "KJST": {
      "status": "OK",
      "delay": "—",
      "metarCat": "LIFR",
      "metarRaw": "SPECI KJST 170617Z AUTO 25006KT 6SM BR BKN004 BKN021 BKN034 14/14 A2991 RMK AO2 LTG DSNT NE T01440144",
      "metarObsTime": 1776406620
    },
    "KERI": {
      "status": "OK",
      "delay": "—",
      "metarCat": "LIFR",
      "metarRaw": "METAR KERI 170551Z AUTO 22007KT 6SM BR OVC004 13/12 A2988 RMK AO2 SLP117 T01280122 10167 20128 50005 $",
      "metarObsTime": 1776405060
    },
    "KDUJ": {
      "status": "OK",
      "delay": "—",
      "metarCat": "MVFR",
      "metarRaw": "METAR KDUJ 170553Z AUTO 22004KT 3SM BR SCT050 SCT065 OVC080 14/13 A2989 RMK AO2 LTG DSNT S RAE08 SLP110 P0000 60011 T01390133 10161 20128 56002",
      "metarObsTime": 1776405180
    },
    "KBFD": {
      "status": "OK",
      "delay": "—",
      "metarCat": "VFR",
      "metarRaw": "METAR KBFD 170553Z AUTO 00000KT 10SM FEW019 SCT026 BKN033 12/12 A2989 RMK AO2 SLP109 60004 T01220117 10150 20111 56001",
      "metarObsTime": 1776405180
    },
    "KBTP": {
      "status": "OK",
      "delay": "—",
      "metarCat": "VFR",
      "metarRaw": "METAR KBTP 170556Z AUTO 24006KT 10SM FEW065 14/14 A2991 RMK AO2 SLP127 6//// T01390139 10178 20139 51004 PNO $",
      "metarObsTime": 1776405360
    },
    "KFKL": {
      "status": "OK",
      "delay": "—",
      "metarCat": "—",
      "metarRaw": "—",
      "metarObsTime": null
    },
    "KIDI": {
      "status": "OK",
      "delay": "—",
      "metarCat": "VFR",
      "metarRaw": "METAR KIDI 170615Z AUTO 20006KT 10SM FEW050 BKN065 OVC075 14/14 A2991 RMK A01",
      "metarObsTime": 1776406500
    },
    "KMDT": {
      "status": "OK",
      "delay": "—",
      "metarCat": "VFR",
      "metarRaw": "METAR KMDT 170556Z 28007KT 10SM BKN160 OVC250 19/15 A2983 RMK AO2 RAE0459 SLP100 P0000 60000 T01940150 10272 20183 51009",
      "metarObsTime": 1776405360
    },
    "KCXY": {
      "status": "OK",
      "delay": "—",
      "metarCat": "VFR",
      "metarRaw": "METAR KCXY 170556Z AUTO 24004KT 10SM CLR 19/14 A2984 RMK AO2 SLP104 60000 T01890144 10283 20183 51007 $",
      "metarObsTime": 1776405360
    },
    "KMUI": {
      "status": "OK",
      "delay": "—",
      "metarCat": "VFR",
      "metarRaw": "METAR KMUI 170555Z AUTO 27004KT 10SM BKN140 21/14 A2980 RMK AO2 RAB05E10 SLP090 P0000 60000 T02080144 10284 20205 50003",
      "metarObsTime": 1776405300
    },
    "KUNV": {
      "status": "OK",
      "delay": "—",
      "metarCat": "VFR",
      "metarRaw": "METAR KUNV 170615Z AUTO 23004KT 10SM SCT046 BKN065 OVC100 16/16 A2988 RMK AO2 LTG DSNT SW T01550155",
      "metarObsTime": 1776406500
    },
    "KAOO": {
      "status": "OK",
      "delay": "—",
      "metarCat": "VFR",
      "metarRaw": "METAR KAOO 170553Z AUTO 20004KT 10SM FEW032 BKN055 OVC080 16/15 A2989 RMK AO2 LTG DSNT NW SLP113 60029 T01560150 10206 20156 56009",
      "metarObsTime": 1776405180
    },
    "KLNS": {
      "status": "OK",
      "delay": "—",
      "metarCat": "VFR",
      "metarRaw": "METAR KLNS 170553Z AUTO 27005KT 10SM SCT110 20/14 A2982 RMK AO2 SLP093 60000 T02000144 10261 20200 51019 $",
      "metarObsTime": 1776405180
    },
    "KIPT": {
      "status": "OK",
      "delay": "—",
      "metarCat": "—",
      "metarRaw": "—",
      "metarObsTime": null
    },
    "KPHL": {
      "status": "OK",
      "delay": "—",
      "metarCat": "VFR",
      "metarRaw": "METAR KPHL 170554Z 34010KT 10SM FEW060 BKN130 24/13 A2978 RMK AO2 PK WND 33026/0507 SLP083 T02440133 10289 20239 50014 $",
      "metarObsTime": 1776405240
    },
    "KABE": {
      "status": "OK",
      "delay": "—",
      "metarCat": "VFR",
      "metarRaw": "METAR KABE 170551Z 13003KT 10SM CLR 19/16 A2979 RMK AO2 SLP083 60013 T01890161 10278 20183 50004",
      "metarObsTime": 1776405060
    },
    "KAVP": {
      "status": "OK",
      "delay": "—",
      "metarCat": "VFR",
      "metarRaw": "METAR KAVP 170554Z 26003KT 10SM -RA FEW055 BKN110 17/16 A2981 RMK AO2 SLP086 P0008 60012 T01720161 10272 20172 58005",
      "metarObsTime": 1776405240
    },
    "KHZL": {
      "status": "OK",
      "delay": "—",
      "metarCat": "VFR",
      "metarRaw": "METAR KHZL 170615Z AUTO 30003KT 10SM SCT004 BKN100 16/15 A2985 RMK AO2",
      "metarObsTime": 1776406500
    }
  }
}