{
  "generatedAt": "2026-04-15T05:20:49.439Z",
  "airports": {
    "KPIT": {
      "status": "OK",
      "delay": "—",
      "metarCat": "VFR",
      "metarRaw": "METAR KPIT 150451Z 21007KT 10SM -RA SCT050 BKN070 OVC110 20/16 A2990 RMK AO2 RAB02 SLP123 P0000 T02000161 402500178 $",
      "metarObsTime": 1776228660
    },
    "KAGC": {
      "status": "OK",
      "delay": "—",
      "metarCat": "VFR",
      "metarRaw": "METAR KAGC 150453Z 19009KT 10SM FEW110 19/16 A2992 RMK AO2 RAE0357 SLP129 P0000 T01890161 402610172",
      "metarObsTime": 1776228780
    },
    "KLBE": {
      "status": "OK",
      "delay": "—",
      "metarCat": "VFR",
      "metarRaw": "METAR KLBE 150515Z AUTO 21006KT 10SM CLR 18/17 A2993 RMK AO2",
      "metarObsTime": 1776230100
    },
    "KJST": {
      "status": "OK",
      "delay": "—",
      "metarCat": "VFR",
      "metarRaw": "METAR KJST 150454Z AUTO 22007KT 10SM SCT040 SCT050 BKN060 17/14 A2999 RMK AO2 SLP146 T01720144 402330139",
      "metarObsTime": 1776228840
    },
    "KERI": {
      "status": "OK",
      "delay": "—",
      "metarCat": "VFR",
      "metarRaw": "METAR KERI 150451Z AUTO 16008KT 10SM CLR 19/16 A2986 RMK AO2 SLP109 T01890156 402560144 $",
      "metarObsTime": 1776228660
    },
    "KDUJ": {
      "status": "OK",
      "delay": "—",
      "metarCat": "VFR",
      "metarRaw": "SPECI KDUJ 150505Z AUTO 16003KT 7SM VCTS -RA OVC044 16/15 A2995 RMK AO2 TSE0459 P0001 T01560150",
      "metarObsTime": 1776229500
    },
    "KBFD": {
      "status": "OK",
      "delay": "—",
      "metarCat": "LIFR",
      "metarRaw": "SPECI KBFD 150513Z AUTO 14003KT 1/2SM FG BKN001 BKN043 BKN060 12/12 A2995 RMK AO2 LTG DSNT S T01220117",
      "metarObsTime": 1776229980
    },
    "KBTP": {
      "status": "OK",
      "delay": "—",
      "metarCat": "VFR",
      "metarRaw": "METAR KBTP 150456Z AUTO 00000KT 10SM CLR 18/18 A2991 RMK AO2 SLP125 T01830183 PNO $",
      "metarObsTime": 1776228960
    },
    "KFKL": {
      "status": "OK",
      "delay": "—",
      "metarCat": "VFR",
      "metarRaw": "METAR KFKL 150456Z AUTO 18005KT 10SM CLR 17/16 A2994 RMK AO2 TSE45RAB01E41 SLP132 P0000 T01670161 402500144",
      "metarObsTime": 1776228960
    },
    "KIDI": {
      "status": "OK",
      "delay": "—",
      "metarCat": "VFR",
      "metarRaw": "METAR KIDI 150515Z AUTO 00000KT 8SM FEW042 BKN049 BKN065 15/15 A2993 RMK A01",
      "metarObsTime": 1776230100
    },
    "KMDT": {
      "status": "OK",
      "delay": "—",
      "metarCat": "VFR",
      "metarRaw": "METAR KMDT 150456Z 13004KT 10SM FEW120 16/16 A2994 RMK AO2 SLP139 T01610156 402890133",
      "metarObsTime": 1776228960
    },
    "KCXY": {
      "status": "OK",
      "delay": "—",
      "metarCat": "VFR",
      "metarRaw": "METAR KCXY 150456Z AUTO 00000KT 10SM BKN070 17/16 A2995 RMK AO2 SLP141 T01670161 403000139",
      "metarObsTime": 1776228960
    },
    "KMUI": {
      "status": "OK",
      "delay": "—",
      "metarCat": "VFR",
      "metarRaw": "METAR KMUI 150455Z AUTO 00000KT 10SM CLR 18/17 A2992 RMK AO2 LTG DSNT SE SLP132 T01750172 403110119",
      "metarObsTime": 1776228900
    },
    "KUNV": {
      "status": "OK",
      "delay": "—",
      "metarCat": "VFR",
      "metarRaw": "METAR KUNV 150515Z AUTO 00000KT 10SM CLR 16/16 A2996 RMK AO2 LTG DSNT W T01630161",
      "metarObsTime": 1776230100
    },
    "KAOO": {
      "status": "OK",
      "delay": "—",
      "metarCat": "VFR",
      "metarRaw": "METAR KAOO 150453Z AUTO 28003KT 10SM FEW110 14/13 A2998 RMK AO2 SLP146 T01390133 402720139",
      "metarObsTime": 1776228780
    },
    "KLNS": {
      "status": "OK",
      "delay": "—",
      "metarCat": "VFR",
      "metarRaw": "METAR KLNS 150453Z AUTO 00000KT 9SM CLR 16/16 A2995 RMK AO2 SLP139 T01610156 402890111",
      "metarObsTime": 1776228780
    },
    "KIPT": {
      "status": "OK",
      "delay": "—",
      "metarCat": "LIFR",
      "metarRaw": "METAR KIPT 150454Z AUTO 00000KT 3/4SM BR VV003 16/16 A2994 RMK AO2 SLP135 T01560156 402940128 $",
      "metarObsTime": 1776228840
    },
    "KPHL": {
      "status": "OK",
      "delay": "—",
      "metarCat": "VFR",
      "metarRaw": "METAR KPHL 150454Z 26007KT 10SM -RA FEW065 SCT095 BKN120 20/17 A2994 RMK AO2 SLP137 RAE28B37 P0001 T02000167 403110156 $",
      "metarObsTime": 1776228840
    },
    "KABE": {
      "status": "OK",
      "delay": "—",
      "metarCat": "VFR",
      "metarRaw": "METAR KABE 150451Z 28004KT 10SM FEW075 20/15 A2993 RMK AO2 SLP133 T02000150 402890128 $",
      "metarObsTime": 1776228660
    },
    "KAVP": {
      "status": "OK",
      "delay": "—",
      "metarCat": "VFR",
      "metarRaw": "METAR KAVP 150454Z AUTO 00000KT 10SM CLR 17/16 A2995 RMK AO2 SLP135 T01670156 402830133",
      "metarObsTime": 1776228840
    },
    "KHZL": {
      "status": "OK",
      "delay": "—",
      "metarCat": "MVFR",
      "metarRaw": "METAR KHZL 150515Z AUTO 00000KT 3SM BR SCT110 15/13 A3001 RMK AO2",
      "metarObsTime": 1776230100
    }
  }
}