{
  "generatedAt": "2026-04-04T11:20:31.343Z",
  "airports": {
    "KPIT": {
      "status": "OK",
      "delay": "—",
      "metarCat": "MVFR",
      "metarRaw": "METAR KPIT 041051Z 00000KT 5SM -RA BR SCT003 BKN040 BKN090 16/15 A3013 RMK AO2 RAB31 SLP206 P0000 T01560150 $",
      "metarObsTime": 1775299860
    },
    "KAGC": {
      "status": "OK",
      "delay": "—",
      "metarCat": "IFR",
      "metarRaw": "SPECI KAGC 041105Z 16005KT 2 1/2SM R28/6000VP6000FT BR FEW003 SCT055 BKN110 16/16 A3014 RMK AO2 T01560156",
      "metarObsTime": 1775300700
    },
    "KLBE": {
      "status": "OK",
      "delay": "—",
      "metarCat": "VFR",
      "metarRaw": "METAR KLBE 041055Z 00000KT 6SM BR FEW023 BKN065 16/16 A3016",
      "metarObsTime": 1775300100
    },
    "KJST": {
      "status": "OK",
      "delay": "—",
      "metarCat": "VFR",
      "metarRaw": "SPECI KJST 041102Z AUTO 27003KT 7SM -RA FEW042 BKN055 OVC075 15/14 A3018 RMK AO2 P0000 T01500139",
      "metarObsTime": 1775300520
    },
    "KERI": {
      "status": "OK",
      "delay": "—",
      "metarCat": "MVFR",
      "metarRaw": "SPECI KERI 041103Z 05009KT 10SM BKN014 BKN019 OVC028 06/04 A3011 RMK AO2 T00610039",
      "metarObsTime": 1775300580
    },
    "KDUJ": {
      "status": "OK",
      "delay": "—",
      "metarCat": "LIFR",
      "metarRaw": "SPECI KDUJ 041108Z AUTO 18003KT 1SM -RA BR OVC002 15/14 A3015 RMK AO2 RAB1055 P0000 T01500144",
      "metarObsTime": 1775300880
    },
    "KBFD": {
      "status": "OK",
      "delay": "—",
      "metarCat": "LIFR",
      "metarRaw": "METAR KBFD 041053Z AUTO 12004KT 1SM BR VV002 11/11 A3016 RMK AO2 SLP210 T01060106",
      "metarObsTime": 1775299980
    },
    "KBTP": {
      "status": "OK",
      "delay": "—",
      "metarCat": "LIFR",
      "metarRaw": "SPECI KBTP 041111Z AUTO 14006KT 7SM BKN002 BKN065 OVC100 16/ A3015 RMK AO2 $",
      "metarObsTime": 1775301060
    },
    "KFKL": {
      "status": "OK",
      "delay": "—",
      "metarCat": "LIFR",
      "metarRaw": "METAR KFKL 041056Z AUTO 00000KT 9SM BKN003 OVC095 12/12 A3014 RMK AO2 RAE50 SLP203 P0002 T01170117",
      "metarObsTime": 1775300160
    },
    "KIDI": {
      "status": "OK",
      "delay": "—",
      "metarCat": "MVFR",
      "metarRaw": "METAR KIDI 041115Z AUTO 00000KT 3SM BR FEW005 BKN047 OVC055 15/15 A3017 RMK A01",
      "metarObsTime": 1775301300
    },
    "KMDT": {
      "status": "OK",
      "delay": "—",
      "metarCat": "MVFR",
      "metarRaw": "METAR KMDT 041056Z 28003KT 3SM BR SCT100 BKN250 11/11 A3015 RMK AO2 SLP211 T01110111 $",
      "metarObsTime": 1775300160
    },
    "KCXY": {
      "status": "OK",
      "delay": "—",
      "metarCat": "MVFR",
      "metarRaw": "METAR KCXY 041056Z 00000KT 3SM BR SCT095 OVC120 11/10 A3016 RMK AO2 SLP214 T01110100",
      "metarObsTime": 1775300160
    },
    "KMUI": {
      "status": "OK",
      "delay": "—",
      "metarCat": "MVFR",
      "metarRaw": "METAR KMUI 041055Z AUTO 00000KT 3SM BR OVC100 11/11 A3014 RMK AO2 SLP209 T01080105",
      "metarObsTime": 1775300100
    },
    "KUNV": {
      "status": "OK",
      "delay": "—",
      "metarCat": "MVFR",
      "metarRaw": "METAR KUNV 041053Z 34003KT 4SM 1V5 BR MIFG BKN120 14/14 A3017",
      "metarObsTime": 1775299980
    },
    "KAOO": {
      "status": "OK",
      "delay": "—",
      "metarCat": "VFR",
      "metarRaw": "METAR KAOO 041053Z AUTO 00000KT 10SM OVC100 14/13 A3017 RMK AO2 RAB27E48 SLP210 P0000 T01390128",
      "metarObsTime": 1775299980
    },
    "KLNS": {
      "status": "OK",
      "delay": "—",
      "metarCat": "LIFR",
      "metarRaw": "SPECI KLNS 041114Z 00000KT 1/2SM FG SCT002 BKN110 11/11 A3016 RMK AO2 T01060106",
      "metarObsTime": 1775301240
    },
    "KIPT": {
      "status": "OK",
      "delay": "—",
      "metarCat": "MVFR",
      "metarRaw": "SPECI KIPT 041115Z VRB03KT 10SM OVC014 12/10 A3020 RMK AO2 T01170100",
      "metarObsTime": 1775301300
    },
    "KPHL": {
      "status": "OK",
      "delay": "—",
      "metarCat": "VFR",
      "metarRaw": "METAR KPHL 041054Z 00000KT 10SM FEW100 SCT150 BKN280 16/13 A3015 RMK AO2 SLP208 T01610133 $",
      "metarObsTime": 1775300040
    },
    "KABE": {
      "status": "OK",
      "delay": "—",
      "metarCat": "MVFR",
      "metarRaw": "METAR KABE 041051Z 34003KT 4SM BR CLR 10/10 A3016 RMK AO2 SLP212 T01000100 $",
      "metarObsTime": 1775299860
    },
    "KAVP": {
      "status": "OK",
      "delay": "—",
      "metarCat": "MVFR",
      "metarRaw": "METAR KAVP 041054Z 36003KT 10SM OVC013 11/08 A3021 RMK AO2 SLP227 T01060083",
      "metarObsTime": 1775300040
    },
    "KHZL": {
      "status": "OK",
      "delay": "—",
      "metarCat": "IFR",
      "metarRaw": "METAR KHZL 041115Z AUTO 34004KT 10SM OVC006 11/10 A3023 RMK AO2",
      "metarObsTime": 1775301300
    }
  }
}