{
  "generatedAt": "2026-04-17T00:00:54.224Z",
  "airports": {
    "KPIT": {
      "status": "OK",
      "delay": "—",
      "metarCat": "VFR",
      "metarRaw": "METAR KPIT 162351Z 22003KT 10SM SCT060 BKN090 19/17 A2986 RMK AO2 SLP112 60001 T01940167 10278 20194 51017",
      "metarObsTime": 1776383460
    },
    "KAGC": {
      "status": "OK",
      "delay": "—",
      "metarCat": "VFR",
      "metarRaw": "METAR KAGC 162353Z 26006KT 10SM SCT065 BKN075 OVC100 19/16 A2986 RMK AO2 SLP109 60004 T01940161 10278 20189 50023",
      "metarObsTime": 1776383580
    },
    "KLBE": {
      "status": "OK",
      "delay": "—",
      "metarCat": "VFR",
      "metarRaw": "METAR KLBE 162347Z 25008G23KT 10SM -DZ FEW042 SCT050 OVC060 20/17 A2989",
      "metarObsTime": 1776383220
    },
    "KJST": {
      "status": "OK",
      "delay": "—",
      "metarCat": "VFR",
      "metarRaw": "METAR KJST 162354Z AUTO 29014KT 10SM BKN060 OVC080 19/13 A2989 RMK AO2 PK WND 28030/2327 RAB25E34 SLP111 P0000 60000 T01890128 10261 20189 53015",
      "metarObsTime": 1776383640
    },
    "KERI": {
      "status": "OK",
      "delay": "—",
      "metarCat": "VFR",
      "metarRaw": "METAR KERI 162351Z 21005KT 10SM FEW041 BKN050 17/14 A2983 RMK AO2 RAE17 SLP098 P0000 60036 T01670144 10172 20144 50000 $",
      "metarObsTime": 1776383460
    },
    "KDUJ": {
      "status": "OK",
      "delay": "—",
      "metarCat": "MVFR",
      "metarRaw": "METAR KDUJ 162353Z AUTO 29007G16KT 7SM -RA SCT006 BKN014 OVC035 16/15 A2988 RMK AO2 SLP114 P0020 60023 T01610150 10261 20161 51019",
      "metarObsTime": 1776383580
    },
    "KBFD": {
      "status": "OK",
      "delay": "—",
      "metarCat": "MVFR",
      "metarRaw": "METAR KBFD 162353Z AUTO 29010G19KT 6SM -RA BR SCT007 BKN020 OVC055 15/14 A2989 RMK AO2 SLP113 P0017 60049 T01500139 10250 20150 51035",
      "metarObsTime": 1776383580
    },
    "KBTP": {
      "status": "OK",
      "delay": "—",
      "metarCat": "MVFR",
      "metarRaw": "METAR KBTP 162356Z AUTO 02005KT 10SM FEW018 BKN028 OVC036 18/18 A2988 RMK AO2 RAB08E32 SLP118 6//// T01780178 10272 20178 51025 PNO $",
      "metarObsTime": 1776383760
    },
    "KFKL": {
      "status": "OK",
      "delay": "—",
      "metarCat": "—",
      "metarRaw": "—",
      "metarObsTime": null
    },
    "KIDI": {
      "status": "OK",
      "delay": "—",
      "metarCat": "MVFR",
      "metarRaw": "METAR KIDI 162355Z AUTO 00000KT 10SM SCT018 BKN022 OVC055 17/16 A2989 RMK A01 P0013",
      "metarObsTime": 1776383700
    },
    "KMDT": {
      "status": "OK",
      "delay": "—",
      "metarCat": "VFR",
      "metarRaw": "METAR KMDT 162356Z 15006KT 10SM FEW070 SCT250 27/14 A2972 RMK AO2 SLP061 T02670144 10311 20256 56008",
      "metarObsTime": 1776383760
    },
    "KCXY": {
      "status": "OK",
      "delay": "—",
      "metarCat": "VFR",
      "metarRaw": "METAR KCXY 162356Z 18004KT 10SM CLR 28/13 A2972 RMK AO2 SLP061 T02830128 10317 20283 56008 $",
      "metarObsTime": 1776383760
    },
    "KMUI": {
      "status": "OK",
      "delay": "—",
      "metarCat": "VFR",
      "metarRaw": "METAR KMUI 162255Z 23009KT 10SM FEW070 BKN250 31/13 A2971 RMK AO2A SLP060 T03060129",
      "metarObsTime": 1776380100
    },
    "KUNV": {
      "status": "OK",
      "delay": "—",
      "metarCat": "VFR",
      "metarRaw": "METAR KUNV 162353Z 29015G19KT 10SM OVC090 26/07 A2979",
      "metarObsTime": 1776383580
    },
    "KAOO": {
      "status": "OK",
      "delay": "—",
      "metarCat": "VFR",
      "metarRaw": "METAR KAOO 162353Z AUTO 28015G24KT 10SM OVC080 25/08 A2982 RMK AO2 SLP087 T02500078 10294 20250 52009",
      "metarObsTime": 1776383580
    },
    "KLNS": {
      "status": "OK",
      "delay": "—",
      "metarCat": "VFR",
      "metarRaw": "METAR KLNS 162353Z 18006KT 10SM CLR 26/12 A2974 RMK AO2 SLP067 T02610122 10317 20261 55005 $",
      "metarObsTime": 1776383580
    },
    "KIPT": {
      "status": "OK",
      "delay": "—",
      "metarCat": "VFR",
      "metarRaw": "METAR KIPT 162354Z 27006KT 10SM CLR 28/09 A2971 RMK AO2 SLP056 T02780094 10322 20272 53006 $",
      "metarObsTime": 1776383640
    },
    "KPHL": {
      "status": "OK",
      "delay": "—",
      "metarCat": "VFR",
      "metarRaw": "METAR KPHL 162354Z 19008KT 10SM SCT170 BKN280 28/13 A2974 RMK AO2 SLP069 T02830133 10328 20283 55004 $",
      "metarObsTime": 1776383640
    },
    "KABE": {
      "status": "OK",
      "delay": "—",
      "metarCat": "VFR",
      "metarRaw": "METAR KABE 162351Z 23010KT 10SM CLR 28/12 A2973 RMK AO2 SLP064 T02780122 10317 20278 55005",
      "metarObsTime": 1776383460
    },
    "KAVP": {
      "status": "OK",
      "delay": "—",
      "metarCat": "VFR",
      "metarRaw": "METAR KAVP 162354Z 21003KT 10SM FEW100 27/11 A2973 RMK AO2 SLP057 T02720111 10306 20272 55004",
      "metarObsTime": 1776383640
    },
    "KHZL": {
      "status": "OK",
      "delay": "—",
      "metarCat": "VFR",
      "metarRaw": "METAR KHZL 162355Z AUTO 19005KT 10SM CLR 26/10 A2981 RMK AO2",
      "metarObsTime": 1776383700
    }
  }
}