{
  "generatedAt": "2026-03-13T12:50:15.672Z",
  "airports": {
    "KPIT": {
      "status": "OK",
      "delay": "—",
      "metarCat": "VFR",
      "metarRaw": "METAR KPIT 131151Z 17004KT 10SM BKN090 OVC150 00/M06 A2995 RMK AO2 SLP161 T00001056 10000 21022 58013 $",
      "metarObsTime": 1773402660
    },
    "KAGC": {
      "status": "OK",
      "delay": "—",
      "metarCat": "VFR",
      "metarRaw": "METAR KAGC 131153Z 17007KT 10SM OVC100 M01/M06 A2996 RMK AO2 SLP161 T10111061 11006 21028 58012",
      "metarObsTime": 1773402780
    },
    "KLBE": {
      "status": "OK",
      "delay": "—",
      "metarCat": "VFR",
      "metarRaw": "METAR KLBE 131147Z 18010KT 10SM CLR 01/M05 A3000",
      "metarObsTime": 1773402420
    },
    "KJST": {
      "status": "OK",
      "delay": "—",
      "metarCat": "VFR",
      "metarRaw": "METAR KJST 131154Z AUTO 19006KT 10SM CLR M02/M08 A2996 RMK AO2 SLP170 T10221078 11022 21039 58007",
      "metarObsTime": 1773402840
    },
    "KERI": {
      "status": "OK",
      "delay": "—",
      "metarCat": "VFR",
      "metarRaw": "METAR KERI 131151Z 17011G19KT 10SM OVC090 01/M06 A2988 RMK AO2 SLP124 T00061056 10006 21017 58034",
      "metarObsTime": 1773402660
    },
    "KDUJ": {
      "status": "OK",
      "delay": "—",
      "metarCat": "VFR",
      "metarRaw": "METAR KDUJ 131153Z AUTO 14005KT 10SM CLR M04/M08 A2993 RMK AO2 SLP157 T10391078 11033 21072 58011",
      "metarObsTime": 1773402780
    },
    "KBFD": {
      "status": "OK",
      "delay": "—",
      "metarCat": "VFR",
      "metarRaw": "METAR KBFD 131153Z AUTO 14003KT 10SM CLR M07/M08 A2991 RMK AO2 SLP152 I6000 T10671083 11056 21094 58010 $",
      "metarObsTime": 1773402780
    },
    "KBTP": {
      "status": "OK",
      "delay": "—",
      "metarCat": "VFR",
      "metarRaw": "METAR KBTP 131156Z AUTO 16006KT 10SM OVC090 M01/M04 A2996 RMK AO2 SLP163 T10111044 11006 21028 58014 FZRANO $",
      "metarObsTime": 1773402960
    },
    "KFKL": {
      "status": "OK",
      "delay": "—",
      "metarCat": "VFR",
      "metarRaw": "METAR KFKL 131156Z AUTO 18010KT 10SM OVC095 A2992 RMK AO2 SLPNO 57019 FZRANO $",
      "metarObsTime": 1773402960
    },
    "KIDI": {
      "status": "OK",
      "delay": "—",
      "metarCat": "VFR",
      "metarRaw": "METAR KIDI 131235Z AUTO 16007KT 10SM FEW070 BKN085 BKN120 00/M05 A2999 RMK A01",
      "metarObsTime": 1773405300
    },
    "KMDT": {
      "status": "OK",
      "delay": "—",
      "metarCat": "VFR",
      "metarRaw": "METAR KMDT 131156Z 17006KT 10SM BKN250 00/M07 A3013 RMK AO2 SLP206 70003 T00001072 10017 21033 53006 $",
      "metarObsTime": 1773402960
    },
    "KCXY": {
      "status": "OK",
      "delay": "—",
      "metarCat": "VFR",
      "metarRaw": "METAR KCXY 131156Z 00000KT 10SM CLR M03/M06 A3013 RMK AO2 SLP207 70004 T10281061 11006 21033 53004",
      "metarObsTime": 1773402960
    },
    "KMUI": {
      "status": "OK",
      "delay": "—",
      "metarCat": "VFR",
      "metarRaw": "METAR KMUI 131155Z 00000KT 10SM BKN250 M03/M04 A3011 RMK AO2A SLP204 70004 T10291043 10015 21050 51007",
      "metarObsTime": 1773402900
    },
    "KUNV": {
      "status": "OK",
      "delay": "—",
      "metarCat": "—",
      "metarRaw": "—",
      "metarObsTime": null
    },
    "KAOO": {
      "status": "OK",
      "delay": "—",
      "metarCat": "VFR",
      "metarRaw": "METAR KAOO 131153Z AUTO 22004KT 10SM SCT095 M02/M07 A3002 RMK AO2 SLP184 T10221067 11006 21039 58006",
      "metarObsTime": 1773402780
    },
    "KLNS": {
      "status": "OK",
      "delay": "—",
      "metarCat": "VFR",
      "metarRaw": "METAR KLNS 131153Z 11003KT 10SM CLR M03/M06 A3015 RMK AO2 SLP212 70011 T10331061 10000 21039 51009",
      "metarObsTime": 1773402780
    },
    "KIPT": {
      "status": "OK",
      "delay": "—",
      "metarCat": "VFR",
      "metarRaw": "METAR KIPT 131154Z 04003KT 10SM CLR M05/M07 A3008 RMK AO2 SLP191 T10501072 11028 21056 58002 $",
      "metarObsTime": 1773402840
    },
    "KPHL": {
      "status": "OK",
      "delay": "—",
      "metarCat": "VFR",
      "metarRaw": "METAR KPHL 131154Z 20006KT 10SM FEW070 SCT220 SCT280 01/M06 A3019 RMK AO2 SLP222 70016 T00061061 10028 21006 51011 $",
      "metarObsTime": 1773402840
    },
    "KABE": {
      "status": "OK",
      "delay": "—",
      "metarCat": "VFR",
      "metarRaw": "METAR KABE 131151Z 28003KT 10SM CLR M03/M08 A3014 RMK AO2 SLP209 70019 T10281078 10000 21039 51010 $",
      "metarObsTime": 1773402660
    },
    "KAVP": {
      "status": "OK",
      "delay": "—",
      "metarCat": "VFR",
      "metarRaw": "METAR KAVP 131154Z AUTO 00000KT 10SM CLR M05/M08 A3007 RMK AO2 SLP193 T10501083 11017 21050 53006",
      "metarObsTime": 1773402840
    },
    "KHZL": {
      "status": "OK",
      "delay": "—",
      "metarCat": "VFR",
      "metarRaw": "METAR KHZL 131235Z AUTO 16003KT 10SM CLR M02/M08 A3008 RMK AO2",
      "metarObsTime": 1773405300
    }
  }
}