{
  "generatedAt": "2026-03-13T06:40:14.403Z",
  "airports": {
    "KPIT": {
      "status": "OK",
      "delay": "—",
      "metarCat": "VFR",
      "metarRaw": "METAR KPIT 130551Z 00000KT 10SM FEW200 M02/M04 A3008 RMK AO2 SLP206 60000 T10171039 10011 21017 58006 $",
      "metarObsTime": 1773381060
    },
    "KAGC": {
      "status": "OK",
      "delay": "—",
      "metarCat": "VFR",
      "metarRaw": "METAR KAGC 130553Z 19006KT 10SM CLR M01/M06 A3008 RMK AO2 SLP203 T10111056 10028 21011 58006",
      "metarObsTime": 1773381180
    },
    "KLBE": {
      "status": "OK",
      "delay": "—",
      "metarCat": "VFR",
      "metarRaw": "METAR KLBE 130635Z AUTO 00000KT 10SM CLR M02/M05 A3009 RMK AO2",
      "metarObsTime": 1773383700
    },
    "KJST": {
      "status": "OK",
      "delay": "—",
      "metarCat": "VFR",
      "metarRaw": "METAR KJST 130554Z AUTO 28007KT 10SM CLR M03/M08 A3002 RMK AO2 SLP190 T10281078 11017 21028 58007",
      "metarObsTime": 1773381240
    },
    "KERI": {
      "status": "OK",
      "delay": "—",
      "metarCat": "VFR",
      "metarRaw": "METAR KERI 130551Z AUTO 19005KT 10SM CLR M02/M06 A3006 RMK AO2 SLP186 T10171061 11006 21022 58009",
      "metarObsTime": 1773381060
    },
    "KDUJ": {
      "status": "OK",
      "delay": "—",
      "metarCat": "VFR",
      "metarRaw": "METAR KDUJ 130553Z AUTO 23004KT 10SM CLR M06/M09 A3003 RMK AO2 SLP191 T10561094 11017 21056 58005",
      "metarObsTime": 1773381180
    },
    "KBFD": {
      "status": "OK",
      "delay": "—",
      "metarCat": "VFR",
      "metarRaw": "METAR KBFD 130553Z AUTO 22004KT 10SM CLR M06/M08 A3000 RMK AO2 SLP184 I1000 I6000 T10561083 11028 21072 58006 $",
      "metarObsTime": 1773381180
    },
    "KBTP": {
      "status": "OK",
      "delay": "—",
      "metarCat": "VFR",
      "metarRaw": "METAR KBTP 130556Z AUTO 18003KT 10SM CLR M02/M04 A3009 RMK AO2 SLP206 T10171044 10017 21022 58005 FZRANO $",
      "metarObsTime": 1773381360
    },
    "KFKL": {
      "status": "OK",
      "delay": "—",
      "metarCat": "VFR",
      "metarRaw": "METAR KFKL 130556Z AUTO 22006KT 10SM CLR A3005 RMK AO2 SLPNO 58006 FZRANO $",
      "metarObsTime": 1773381360
    },
    "KIDI": {
      "status": "OK",
      "delay": "—",
      "metarCat": "VFR",
      "metarRaw": "METAR KIDI 130635Z AUTO 21003KT 10SM CLR M04/M06 A3006 RMK A01",
      "metarObsTime": 1773383700
    },
    "KMDT": {
      "status": "OK",
      "delay": "—",
      "metarCat": "VFR",
      "metarRaw": "METAR KMDT 130556Z 31003KT 10SM CLR 01/M08 A3010 RMK AO2 SLP197 T00061083 10044 20000 55003 $",
      "metarObsTime": 1773381360
    },
    "KCXY": {
      "status": "OK",
      "delay": "—",
      "metarCat": "VFR",
      "metarRaw": "METAR KCXY 130556Z AUTO 26004KT 10SM CLR M01/M08 A3011 RMK AO2 SLP199 T10111078 10044 21011 57005",
      "metarObsTime": 1773381360
    },
    "KMUI": {
      "status": "OK",
      "delay": "—",
      "metarCat": "VFR",
      "metarRaw": "METAR KMUI 130555Z AUTO 16004KT 10SM CLR 01/M10 A3006 RMK AO2 SLP186 T00141104 10048 20014 57010",
      "metarObsTime": 1773381300
    },
    "KUNV": {
      "status": "OK",
      "delay": "—",
      "metarCat": "VFR",
      "metarRaw": "METAR KUNV 130635Z AUTO 28003KT 10SM CLR M03/M10 A3006 RMK AO2 T10301100",
      "metarObsTime": 1773383700
    },
    "KAOO": {
      "status": "OK",
      "delay": "—",
      "metarCat": "VFR",
      "metarRaw": "METAR KAOO 130553Z AUTO 00000KT 10SM CLR M03/M08 A3006 RMK AO2 SLP198 T10281078 10011 21033 58007",
      "metarObsTime": 1773381180
    },
    "KLNS": {
      "status": "OK",
      "delay": "—",
      "metarCat": "VFR",
      "metarRaw": "METAR KLNS 130553Z AUTO 00000KT 10SM CLR 00/M10 A3009 RMK AO2 SLP195 T00001100 10039 21011 58004",
      "metarObsTime": 1773381180
    },
    "KIPT": {
      "status": "OK",
      "delay": "—",
      "metarCat": "VFR",
      "metarRaw": "METAR KIPT 130554Z AUTO 00000KT 10SM CLR M03/M08 A3009 RMK AO2 SLP194 T10281083 10022 21028 58001 $",
      "metarObsTime": 1773381240
    },
    "KPHL": {
      "status": "OK",
      "delay": "—",
      "metarCat": "VFR",
      "metarRaw": "METAR KPHL 130554Z 32009KT 10SM CLR 03/M09 A3011 RMK AO2 SLP195 T00281089 10050 20028 51004",
      "metarObsTime": 1773381240
    },
    "KABE": {
      "status": "OK",
      "delay": "—",
      "metarCat": "VFR",
      "metarRaw": "METAR KABE 130551Z 31009KT 10SM CLR 00/M10 A3008 RMK AO2 SLP190 T00001100 10033 20000 51007 $",
      "metarObsTime": 1773381060
    },
    "KAVP": {
      "status": "OK",
      "delay": "—",
      "metarCat": "VFR",
      "metarRaw": "METAR KAVP 130554Z 30005KT 10SM CLR M02/M12 A3007 RMK AO2 SLP189 T10221117 10011 21022 51010",
      "metarObsTime": 1773381240
    },
    "KHZL": {
      "status": "OK",
      "delay": "—",
      "metarCat": "VFR",
      "metarRaw": "METAR KHZL 130635Z AUTO 30003KT 10SM CLR M02/M10 A3005 RMK AO2",
      "metarObsTime": 1773383700
    }
  }
}