{
  "generatedAt": "2026-03-23T06:00:23.056Z",
  "airports": {
    "KPIT": {
      "status": "OK",
      "delay": "—",
      "metarCat": "LIFR",
      "metarRaw": "METAR KPIT 230551Z 15003KT 2SM -RA BR OVC002 09/08 A2972 RMK AO2 SLP066 OCNL LTG DSNT S P0022 60072 T00890083 10144 20083 50001",
      "metarObsTime": 1774245060
    },
    "KAGC": {
      "status": "OK",
      "delay": "—",
      "metarCat": "IFR",
      "metarRaw": "METAR KAGC 230553Z 2SM RA BR FEW010 SCT055 OVC070 11/11 A2971 RMK AO2 LTG DSNT S PRESFR SLP059 P0030 60090 T01110106 10161 20106 58022",
      "metarObsTime": 1774245180
    },
    "KLBE": {
      "status": "OK",
      "delay": "—",
      "metarCat": "MVFR",
      "metarRaw": "METAR KLBE 230555Z AUTO 00000KT 5SM -RA BR FEW019 BKN037 OVC065 12/12 A2975 RMK AO2 LTG DSNT SE-W P0020",
      "metarObsTime": 1774245300
    },
    "KJST": {
      "status": "OK",
      "delay": "—",
      "metarCat": "IFR",
      "metarRaw": "METAR KJST 230554Z AUTO VRB06G15KT 2SM RA BR FEW009 BKN055 OVC070 10/09 A2974 RMK AO2 SLP064 P0026 60043 T01000094 10161 20094 58002",
      "metarObsTime": 1774245240
    },
    "KERI": {
      "status": "OK",
      "delay": "—",
      "metarCat": "IFR",
      "metarRaw": "METAR KERI 230551Z AUTO 04011KT 6SM BR OVC005 02/01 A2983 RMK AO2 SLP104 60002 T00220011 10039 20022 53002",
      "metarObsTime": 1774245060
    },
    "KDUJ": {
      "status": "OK",
      "delay": "—",
      "metarCat": "IFR",
      "metarRaw": "METAR KDUJ 230553Z AUTO 00000KT 1SM -RA BR FEW002 BKN024 OVC060 08/08 A2970 RMK AO2 SLP051 P0004 60037 T00830083 10111 20078 56011",
      "metarObsTime": 1774245180
    },
    "KBFD": {
      "status": "OK",
      "delay": "—",
      "metarCat": "LIFR",
      "metarRaw": "METAR KBFD 230553Z AUTO 02006KT 9SM -RA OVC002 02/01 A2976 RMK AO2 RAB53 SLP080 P0000 60011 T00170011 10067 20017 53006 $",
      "metarObsTime": 1774245180
    },
    "KBTP": {
      "status": "OK",
      "delay": "—",
      "metarCat": "LIFR",
      "metarRaw": "METAR KBTP 230556Z AUTO 00000KT 3SM -RA OVC003 08/ A2973 RMK AO2 SLP070 P0010 60070 T0083 10139 20083 58019 $",
      "metarObsTime": 1774245360
    },
    "KFKL": {
      "status": "OK",
      "delay": "—",
      "metarCat": "LIFR",
      "metarRaw": "METAR KFKL 230556Z AUTO VRB04KT 3SM BR OVC002 04/04 A2977 RMK AO2 RAE53 SLP082 P0001 60017 T00440039 10072 20044 53002",
      "metarObsTime": 1774245360
    },
    "KIDI": {
      "status": "OK",
      "delay": "—",
      "metarCat": "IFR",
      "metarRaw": "METAR KIDI 230555Z AUTO 00000KT 2 1/2SM BR SCT030 BKN035 OVC065 11/11 A2974 RMK A01 P0014",
      "metarObsTime": 1774245300
    },
    "KMDT": {
      "status": "OK",
      "delay": "—",
      "metarCat": "VFR",
      "metarRaw": "SPECI KMDT 230546Z 04005KT 10SM FEW027 BKN043 OVC050 14/12 A2967 RMK AO2 LTG DSNT NW T01440122 $",
      "metarObsTime": 1774244760
    },
    "KCXY": {
      "status": "OK",
      "delay": "—",
      "metarCat": "MVFR",
      "metarRaw": "METAR KCXY 230456Z AUTO 34007KT 10SM BKN011 BKN018 OVC026 15/14 A2970 RMK AO2 SLP058 T01500139 402780083",
      "metarObsTime": 1774241760
    },
    "KMUI": {
      "status": "OK",
      "delay": "—",
      "metarCat": "VFR",
      "metarRaw": "METAR KMUI 230555Z AUTO 02008KT 10SM SCT012 OVC055 13/13 A2967 RMK AO2 LTG DSNT NW RAB26E44 SLP049 P0001 60005 T01280125 10179 20128 53006",
      "metarObsTime": 1774245300
    },
    "KUNV": {
      "status": "OK",
      "delay": "—",
      "metarCat": "IFR",
      "metarRaw": "METAR KUNV 230535Z AUTO 04006KT 4SM +RA OVC005 08/08 A2973 RMK AO2 LTG DSNT SW P0011 T00830082",
      "metarObsTime": 1774244100
    },
    "KAOO": {
      "status": "OK",
      "delay": "—",
      "metarCat": "MVFR",
      "metarRaw": "METAR KAOO 230553Z AUTO 28004KT 3SM RA BR SCT011 BKN055 OVC095 12/11 A2975 RMK AO2 SLP066 P0014 60020 T01170106 10189 20117 51007",
      "metarObsTime": 1774245180
    },
    "KLNS": {
      "status": "OK",
      "delay": "—",
      "metarCat": "IFR",
      "metarRaw": "METAR KLNS 230553Z AUTO 02008KT 7SM BKN009 BKN017 OVC100 14/13 A2969 RMK AO2 SLP052 60009 T01440133 10194 20133 53012",
      "metarObsTime": 1774245180
    },
    "KIPT": {
      "status": "OK",
      "delay": "—",
      "metarCat": "MVFR",
      "metarRaw": "METAR KIPT 230554Z AUTO 31004KT 8SM -RA BKN015 OVC085 06/04 A2975 RMK AO2 SLP075 P0006 60041 T00560044 10133 20056 58000 $",
      "metarObsTime": 1774245240
    },
    "KPHL": {
      "status": "OK",
      "delay": "—",
      "metarCat": "VFR",
      "metarRaw": "METAR KPHL 230554Z 02010KT 7SM BKN110 14/09 A2967 RMK AO2 SLP045 60000 T01440094 10217 20139 55009 $",
      "metarObsTime": 1774245240
    },
    "KABE": {
      "status": "OK",
      "delay": "—",
      "metarCat": "MVFR",
      "metarRaw": "METAR KABE 230551Z 35009KT 10SM OVC013 12/11 A2974 RMK AO2 RAB15E34 PRESRR SLP071 P0005 60023 T01220106 10156 20122 53016 $",
      "metarObsTime": 1774245060
    },
    "KAVP": {
      "status": "OK",
      "delay": "—",
      "metarCat": "IFR",
      "metarRaw": "METAR KAVP 230554Z 00000KT 4SM R04/5000VP6000FT RA BR OVC005 05/04 A2974 RMK AO2 CIG 003V008 SLP069 P0016 60050 T00500044 10117 20050 58003",
      "metarObsTime": 1774245240
    },
    "KHZL": {
      "status": "OK",
      "delay": "—",
      "metarCat": "LIFR",
      "metarRaw": "METAR KHZL 230535Z AUTO 36004KT 4SM -RA OVC003 06/05 A2975 RMK AO2 P0005",
      "metarObsTime": 1774244100
    }
  }
}