{
  "generatedAt": "2026-04-06T06:50:34.474Z",
  "airports": {
    "KPIT": {
      "status": "OK",
      "delay": "—",
      "metarCat": "VFR",
      "metarRaw": "METAR KPIT 060551Z 32009KT 10SM BKN033 OVC048 05/M02 A3015 RMK AO2 SLP225 T00501022 10067 20050 51011 $",
      "metarObsTime": 1775454660
    },
    "KAGC": {
      "status": "OK",
      "delay": "—",
      "metarCat": "VFR",
      "metarRaw": "METAR KAGC 060553Z 33009KT 10SM OVC033 04/M02 A3014 RMK AO2 SLP218 T00441017 10061 20044 51010",
      "metarObsTime": 1775454780
    },
    "KLBE": {
      "status": "OK",
      "delay": "—",
      "metarCat": "VFR",
      "metarRaw": "METAR KLBE 060635Z AUTO 30007G12KT 10SM SCT034 BKN041 OVC050 05/M01 A3016 RMK AO2",
      "metarObsTime": 1775457300
    },
    "KJST": {
      "status": "OK",
      "delay": "—",
      "metarCat": "VFR",
      "metarRaw": "SPECI KJST 060601Z AUTO 30021G30KT 10SM SCT027 SCT031 OVC040 02/M03 A3005 RMK AO2 PK WND 31030/0555 T00171033",
      "metarObsTime": 1775455260
    },
    "KERI": {
      "status": "OK",
      "delay": "—",
      "metarCat": "VFR",
      "metarRaw": "METAR KERI 060551Z AUTO 28006KT 10SM OVC049 03/M03 A3013 RMK AO2 SLP211 T00281028 10039 20028 50001 $",
      "metarObsTime": 1775454660
    },
    "KDUJ": {
      "status": "OK",
      "delay": "—",
      "metarCat": "VFR",
      "metarRaw": "METAR KDUJ 060553Z AUTO 28011G27KT 10SM OVC041 02/M05 A3007 RMK AO2 PK WND 28028/0511 SLP195 T00171050 10039 20017 51008",
      "metarObsTime": 1775454780
    },
    "KBFD": {
      "status": "OK",
      "delay": "—",
      "metarCat": "MVFR",
      "metarRaw": "METAR KBFD 060553Z AUTO 29012G23KT 10SM BKN026 OVC032 M01/M06 A3004 RMK AO2 SLP189 60000 T10111056 10017 21011 50008",
      "metarObsTime": 1775454780
    },
    "KBTP": {
      "status": "OK",
      "delay": "—",
      "metarCat": "VFR",
      "metarRaw": "METAR KBTP 060556Z AUTO 29008KT 10SM OVC047 04/M03 A3015 RMK AO2 SLP225 T00391033 10061 20039 51009 $",
      "metarObsTime": 1775454960
    },
    "KFKL": {
      "status": "OK",
      "delay": "—",
      "metarCat": "VFR",
      "metarRaw": "METAR KFKL 060556Z AUTO 30006G15KT 10SM OVC033 02/M04 A3013 RMK AO2 SLP217 60000 T00171039 10033 20017 51011 FZRANO",
      "metarObsTime": 1775454960
    },
    "KIDI": {
      "status": "OK",
      "delay": "—",
      "metarCat": "VFR",
      "metarRaw": "METAR KIDI 060635Z AUTO 28016KT 10SM OVC043 04/M03 A3012 RMK A01",
      "metarObsTime": 1775457300
    },
    "KMDT": {
      "status": "OK",
      "delay": "—",
      "metarCat": "VFR",
      "metarRaw": "METAR KMDT 060556Z 32024G34KT 10SM SCT050 08/M02 A3002 RMK AO2 PK WND 31034/0556 SLP167 T00781022 10106 20078 53006 $",
      "metarObsTime": 1775454960
    },
    "KCXY": {
      "status": "OK",
      "delay": "—",
      "metarCat": "VFR",
      "metarRaw": "METAR KCXY 060556Z AUTO 32018G33KT 10SM -RA BKN050 08/M03 A3004 RMK AO2 PK WND 32033/0554 RAB05E17B56 SLP175 P0000 60000 T00781033 10106 20078 53010 $",
      "metarObsTime": 1775454960
    },
    "KMUI": {
      "status": "OK",
      "delay": "—",
      "metarCat": "VFR",
      "metarRaw": "METAR KMUI 060555Z AUTO 28017G28KT 10SM FEW049 08/M04 A3000 RMK AO2 PK WND 29034/28 SLP163 T00791036 10134 20079 53005",
      "metarObsTime": 1775454900
    },
    "KUNV": {
      "status": "OK",
      "delay": "—",
      "metarCat": "VFR",
      "metarRaw": "METAR KUNV 060635Z AUTO 28015G19KT 10SM SCT041 OVC047 04/M04 A3007 RMK AO2 T00381044",
      "metarObsTime": 1775457300
    },
    "KAOO": {
      "status": "OK",
      "delay": "—",
      "metarCat": "VFR",
      "metarRaw": "METAR KAOO 060553Z AUTO 30009G18KT 10SM BKN039 OVC050 04/M04 A3009 RMK AO2 SLP197 60000 T00391039 10067 20039 51017",
      "metarObsTime": 1775454780
    },
    "KLNS": {
      "status": "OK",
      "delay": "—",
      "metarCat": "VFR",
      "metarRaw": "METAR KLNS 060553Z AUTO 30016G31KT 10SM BKN055 08/M02 A3001 RMK AO2 PK WND 29031/0548 SLP162 T00831017 10100 20083 53004",
      "metarObsTime": 1775454780
    },
    "KIPT": {
      "status": "OK",
      "delay": "—",
      "metarCat": "VFR",
      "metarRaw": "METAR KIPT 060554Z AUTO 29013G20KT 10SM OVC047 05/M04 A3004 RMK AO2 PK WND 29030/0506 SLP173 T00501044 10083 20050 51018",
      "metarObsTime": 1775454840
    },
    "KPHL": {
      "status": "OK",
      "delay": "—",
      "metarCat": "VFR",
      "metarRaw": "METAR KPHL 060554Z 29013G27KT 10SM BKN055 11/M02 A3000 RMK AO2 PK WND 29027/0549 SLP157 T01061017 10133 20106 53005 $",
      "metarObsTime": 1775454840
    },
    "KABE": {
      "status": "OK",
      "delay": "—",
      "metarCat": "VFR",
      "metarRaw": "METAR KABE 060551Z 29014G25KT 10SM BKN049 OVC060 08/M02 A2996 RMK AO2 SLP147 T00781017 10111 20078 51004 $",
      "metarObsTime": 1775454660
    },
    "KAVP": {
      "status": "OK",
      "delay": "—",
      "metarCat": "VFR",
      "metarRaw": "METAR KAVP 060554Z AUTO 32013G25KT 10SM BKN041 OVC049 03/M03 A2999 RMK AO2 PK WND 31027/0522 SLP157 T00331028 10083 20033 53013",
      "metarObsTime": 1775454840
    },
    "KHZL": {
      "status": "OK",
      "delay": "—",
      "metarCat": "MVFR",
      "metarRaw": "METAR KHZL 060635Z AUTO 31010G19KT 10SM OVC030 03/M04 A3000 RMK AO2",
      "metarObsTime": 1775457300
    }
  }
}