{
  "generatedAt": "2026-04-01T09:40:29.504Z",
  "airports": {
    "KPIT": {
      "status": "OK",
      "delay": "—",
      "metarCat": "VFR",
      "metarRaw": "SPECI KPIT 010901Z 19007KT 7SM -RA FEW005 BKN050 OVC070 14/14 A3002 RMK AO2 P0000 T01440139 $",
      "metarObsTime": 1775034060
    },
    "KAGC": {
      "status": "OK",
      "delay": "—",
      "metarCat": "MVFR",
      "metarRaw": "METAR KAGC 010853Z 21007KT 5SM -RA BR OVC065 14/13 A3003 RMK AO2 SLP167 P0012 60022 T01440133 51013",
      "metarObsTime": 1775033580
    },
    "KLBE": {
      "status": "OK",
      "delay": "—",
      "metarCat": "MVFR",
      "metarRaw": "METAR KLBE 010935Z AUTO 19008KT 3SM RA BR SCT010 BKN029 OVC060 15/15 A3006 RMK AO2",
      "metarObsTime": 1775036100
    },
    "KJST": {
      "status": "OK",
      "delay": "—",
      "metarCat": "IFR",
      "metarRaw": "METAR KJST 010854Z AUTO 23008KT 8SM -RA BKN005 OVC010 13/12 A3004 RMK AO2 RAE13B29 SLP164 P0004 60033 T01280122 53007",
      "metarObsTime": 1775033640
    },
    "KERI": {
      "status": "OK",
      "delay": "—",
      "metarCat": "LIFR",
      "metarRaw": "METAR KERI 010851Z AUTO 26009KT 4SM -RA BR OVC003 06/05 A3003 RMK AO2 SLP170 P0002 60009 T00560050 53037 $",
      "metarObsTime": 1775033460
    },
    "KDUJ": {
      "status": "OK",
      "delay": "—",
      "metarCat": "IFR",
      "metarRaw": "SPECI KDUJ 010935Z AUTO 25010KT 10SM BKN009 BKN015 BKN120 13/12 A2999 RMK AO2 RAE03 CIG 007V012 P0000 T01330122 $",
      "metarObsTime": 1775036100
    },
    "KBFD": {
      "status": "OK",
      "delay": "—",
      "metarCat": "IFR",
      "metarRaw": "METAR KBFD 010853Z AUTO 25007KT 220V290 10SM OVC005 13/13 A2994 RMK AO2 SLP130 60001 T01330128 51004",
      "metarObsTime": 1775033580
    },
    "KBTP": {
      "status": "OK",
      "delay": "—",
      "metarCat": "MVFR",
      "metarRaw": "SPECI KBTP 010937Z AUTO 21009KT 10SM -RA FEW007 BKN013 OVC090 14/ A3003 RMK AO2 P0001 $",
      "metarObsTime": 1775036220
    },
    "KFKL": {
      "status": "OK",
      "delay": "—",
      "metarCat": "IFR",
      "metarRaw": "METAR KFKL 010856Z AUTO 27008KT 10SM OVC007 14/13 A2999 RMK AO2 RAE17B33E50 SLP150 P0000 60000 T01440133 53010",
      "metarObsTime": 1775033760
    },
    "KIDI": {
      "status": "OK",
      "delay": "—",
      "metarCat": "MVFR",
      "metarRaw": "METAR KIDI 010935Z AUTO 21010KT 7SM SCT007 OVC012 14/14 A3003 RMK A01",
      "metarObsTime": 1775036100
    },
    "KMDT": {
      "status": "OK",
      "delay": "—",
      "metarCat": "VFR",
      "metarRaw": "METAR KMDT 010856Z 27010G20KT 10SM FEW050 BKN100 OVC110 19/12 A2995 RMK AO2 RAB40E56 SLP140 P0000 60000 T01940122 51008",
      "metarObsTime": 1775033760
    },
    "KCXY": {
      "status": "OK",
      "delay": "—",
      "metarCat": "VFR",
      "metarRaw": "METAR KCXY 010856Z AUTO 26011KT 10SM BKN100 OVC120 20/13 A2995 RMK AO2 RAB36E45 SLP142 P0000 60000 T02000128 51009",
      "metarObsTime": 1775033760
    },
    "KMUI": {
      "status": "OK",
      "delay": "—",
      "metarCat": "VFR",
      "metarRaw": "METAR KMUI 010855Z AUTO 26006KT 10SM OVC100 20/14 A2993 RMK AO2 SLP135 60000 T01970143 50010",
      "metarObsTime": 1775033700
    },
    "KUNV": {
      "status": "OK",
      "delay": "—",
      "metarCat": "MVFR",
      "metarRaw": "METAR KUNV 010935Z AUTO 16005KT 10SM DZ OVC019 15/14 A2999 RMK AO2 T01540142",
      "metarObsTime": 1775036100
    },
    "KAOO": {
      "status": "OK",
      "delay": "—",
      "metarCat": "VFR",
      "metarRaw": "METAR KAOO 010853Z AUTO 25006KT 10SM FEW026 OVC080 14/13 A3002 RMK AO2 RAE13 PRESRR SLP157 P0001 60002 T01440128 53001",
      "metarObsTime": 1775033580
    },
    "KLNS": {
      "status": "OK",
      "delay": "—",
      "metarCat": "VFR",
      "metarRaw": "METAR KLNS 010853Z AUTO 28007KT 10SM CLR 17/12 A2996 RMK AO2 SLP141 T01720117 53010",
      "metarObsTime": 1775033580
    },
    "KIPT": {
      "status": "OK",
      "delay": "—",
      "metarCat": "LIFR",
      "metarRaw": "SPECI KIPT 010931Z AUTO 11003KT 1/4SM FG VV002 13/13 A2993 RMK AO2 T01330133",
      "metarObsTime": 1775035860
    },
    "KPHL": {
      "status": "OK",
      "delay": "—",
      "metarCat": "VFR",
      "metarRaw": "METAR KPHL 010854Z 22011KT 10SM SCT110 BKN190 BKN250 20/12 A2995 RMK AO2 SLP142 T02000122 53007 $",
      "metarObsTime": 1775033640
    },
    "KABE": {
      "status": "OK",
      "delay": "—",
      "metarCat": "VFR",
      "metarRaw": "METAR KABE 010851Z 26004KT 10SM CLR 18/12 A2992 RMK AO2 SLP130 T01830117 53004 $",
      "metarObsTime": 1775033460
    },
    "KAVP": {
      "status": "OK",
      "delay": "—",
      "metarCat": "VFR",
      "metarRaw": "METAR KAVP 010854Z AUTO 23006KT 10SM SCT013 16/14 A2994 RMK AO2 RAE29 SLP131 P0003 60012 T01560139 53006",
      "metarObsTime": 1775033640
    },
    "KHZL": {
      "status": "OK",
      "delay": "—",
      "metarCat": "VFR",
      "metarRaw": "METAR KHZL 010935Z AUTO 26003KT 10SM SCT120 15/12 A2999 RMK AO2",
      "metarObsTime": 1775036100
    }
  }
}