{
  "generatedAt": "2026-03-06T02:10:11.924Z",
  "airports": {
    "KPIT": {
      "status": "OK",
      "delay": "—",
      "metarCat": "VFR",
      "metarRaw": "METAR KPIT 060151Z 23005KT 10SM SCT028 BKN038 14/13 A3008 RMK AO2 SLP192 T01440128",
      "metarObsTime": 1772761860
    },
    "KAGC": {
      "status": "OK",
      "delay": "—",
      "metarCat": "VFR",
      "metarRaw": "METAR KAGC 060153Z 23007KT 10SM BKN032 OVC060 14/13 A3009 RMK AO2 SLP192 T01440128",
      "metarObsTime": 1772761980
    },
    "KLBE": {
      "status": "OK",
      "delay": "—",
      "metarCat": "MVFR",
      "metarRaw": "METAR KLBE 060153Z 21010KT 10SM SCT019 BKN025 OVC031 15/15 A3012",
      "metarObsTime": 1772761980
    },
    "KJST": {
      "status": "OK",
      "delay": "—",
      "metarCat": "MVFR",
      "metarRaw": "METAR KJST 060154Z AUTO 26012G20KT 10SM BKN013 BKN020 OVC025 13/12 A3009 RMK AO2 RAE0058 SLP190 P0000 T01330117",
      "metarObsTime": 1772762040
    },
    "KERI": {
      "status": "OK",
      "delay": "—",
      "metarCat": "LIFR",
      "metarRaw": "METAR KERI 060151Z 03005KT 1 1/2SM BR OVC002 01/01 A3006 RMK AO2 RAE0053 SLP186 P0000 T00110011",
      "metarObsTime": 1772761860
    },
    "KDUJ": {
      "status": "OK",
      "delay": "—",
      "metarCat": "IFR",
      "metarRaw": "METAR KDUJ 060153Z AUTO 24007KT 10SM OVC008 12/12 A3005 RMK AO2 CIG 005V012 SLP178 T01220117",
      "metarObsTime": 1772761980
    },
    "KBFD": {
      "status": "OK",
      "delay": "—",
      "metarCat": "LIFR",
      "metarRaw": "METAR KBFD 060153Z AUTO 00000KT 5SM BR OVC004 06/06 A3004 RMK AO2 RAE47 SLP181 P0001 T00610061",
      "metarObsTime": 1772761980
    },
    "KBTP": {
      "status": "OK",
      "delay": "—",
      "metarCat": "MVFR",
      "metarRaw": "METAR KBTP 060156Z AUTO 24006KT 10SM OVC013 14/14 A3009 RMK AO2 SLP195 T01390139 $",
      "metarObsTime": 1772762160
    },
    "KFKL": {
      "status": "OK",
      "delay": "—",
      "metarCat": "IFR",
      "metarRaw": "METAR KFKL 060156Z AUTO 26007KT 10SM OVC005 13/12 A3006 RMK AO2 SLP184 T01280122",
      "metarObsTime": 1772762160
    },
    "KIDI": {
      "status": "OK",
      "delay": "—",
      "metarCat": "MVFR",
      "metarRaw": "METAR KIDI 060155Z AUTO 24006KT 6SM BR BKN012 OVC018 14/14 A3009 RMK A01",
      "metarObsTime": 1772762100
    },
    "KMDT": {
      "status": "OK",
      "delay": "—",
      "metarCat": "IFR",
      "metarRaw": "SPECI KMDT 060203Z 13007KT 2 1/2SM +RA BR FEW006 BKN035 OVC042 07/07 A3015 RMK AO2 TWR VIS 3 LTG DSNT SE P0004 T00670067",
      "metarObsTime": 1772762580
    },
    "KCXY": {
      "status": "OK",
      "delay": "—",
      "metarCat": "MVFR",
      "metarRaw": "SPECI KCXY 060201Z 04005KT 3SM +RA BR FEW006 BKN028 OVC045 08/07 A3017 RMK AO2 LTG DSNT SE P0002 T00780072",
      "metarObsTime": 1772762460
    },
    "KMUI": {
      "status": "OK",
      "delay": "—",
      "metarCat": "LIFR",
      "metarRaw": "METAR KMUI 060158Z 06007KT 3SM -RA BR OVC004 07/07 A3015 RMK AO2A LTG DSNT S SLP215 T00680065",
      "metarObsTime": 1772762280
    },
    "KUNV": {
      "status": "OK",
      "delay": "—",
      "metarCat": "MVFR",
      "metarRaw": "METAR KUNV 060153Z 00000KT 7SM BKN010 OVC019 07/07 A3010",
      "metarObsTime": 1772761980
    },
    "KAOO": {
      "status": "OK",
      "delay": "—",
      "metarCat": "MVFR",
      "metarRaw": "METAR KAOO 060153Z AUTO 00000KT 3SM BR FEW007 FEW031 SCT039 08/07 A3010 RMK AO2 RAE17 SLP198 P0001 T00780072",
      "metarObsTime": 1772761980
    },
    "KLNS": {
      "status": "OK",
      "delay": "—",
      "metarCat": "IFR",
      "metarRaw": "METAR KLNS 060153Z 05008KT 6SM -RA BR OVC005 07/06 A3017 RMK AO2 LTG DSNT SW RAE21B41 CIG 003V007 SLP219 P0009 T00670061",
      "metarObsTime": 1772761980
    },
    "KIPT": {
      "status": "OK",
      "delay": "—",
      "metarCat": "MVFR",
      "metarRaw": "METAR KIPT 060154Z 08006G15KT 5SM -RA BR BKN012 OVC024 08/07 A3013 RMK AO2 RAB11 SLP206 P0002 T00830072 $",
      "metarObsTime": 1772762040
    },
    "KPHL": {
      "status": "OK",
      "delay": "—",
      "metarCat": "LIFR",
      "metarRaw": "METAR KPHL 060154Z 06007KT 2SM BR OVC002 07/06 A3019 RMK AO2 SLP221 T00670061 $",
      "metarObsTime": 1772762040
    },
    "KABE": {
      "status": "OK",
      "delay": "—",
      "metarCat": "IFR",
      "metarRaw": "METAR KABE 060151Z 05007KT 8SM -RA BKN007 OVC013 06/04 A3018 RMK AO2 SLP223 P0020 T00560044",
      "metarObsTime": 1772761860
    },
    "KAVP": {
      "status": "OK",
      "delay": "—",
      "metarCat": "MVFR",
      "metarRaw": "METAR KAVP 060154Z 07005KT 9SM -RA BKN016 OVC025 06/04 A3015 RMK AO2 SLP211 P0003 T00560039",
      "metarObsTime": 1772762040
    },
    "KHZL": {
      "status": "OK",
      "delay": "—",
      "metarCat": "LIFR",
      "metarRaw": "METAR KHZL 060155Z AUTO 12006KT 090V150 4SM RA OVC004 04/03 A3017 RMK AO2 P0007",
      "metarObsTime": 1772762100
    }
  }
}