{
  "generatedAt": "2026-04-19T23:30:54.397Z",
  "airports": {
    "KPIT": {
      "status": "OK",
      "delay": "—",
      "metarCat": "VFR",
      "metarRaw": "METAR KPIT 192251Z 26015G26KT 10SM FEW035 BKN070 09/M06 A3004 RMK AO2 PK WND 28027/2241 SLP186 T00941061 $",
      "metarObsTime": 1776639060
    },
    "KAGC": {
      "status": "OK",
      "delay": "—",
      "metarCat": "VFR",
      "metarRaw": "METAR KAGC 192253Z 28010G19KT 10SM OVC070 09/M05 A3005 RMK AO2 SLP185 T00891050",
      "metarObsTime": 1776639180
    },
    "KLBE": {
      "status": "OK",
      "delay": "—",
      "metarCat": "VFR",
      "metarRaw": "METAR KLBE 192253Z 29010KT 10SM BKN043 BKN050 08/M04 A3007",
      "metarObsTime": 1776639180
    },
    "KJST": {
      "status": "OK",
      "delay": "—",
      "metarCat": "VFR",
      "metarRaw": "METAR KJST 192254Z AUTO 26012G20KT 10SM BKN070 OVC085 06/M07 A3001 RMK AO2 PK WND 29028/2159 SLP176 T00561067",
      "metarObsTime": 1776639240
    },
    "KERI": {
      "status": "OK",
      "delay": "—",
      "metarCat": "VFR",
      "metarRaw": "METAR KERI 192251Z 28012G20KT 10SM BKN110 07/M02 A3005 RMK AO2 SLP178 T00671022 $",
      "metarObsTime": 1776639060
    },
    "KDUJ": {
      "status": "OK",
      "delay": "—",
      "metarCat": "VFR",
      "metarRaw": "METAR KDUJ 192253Z AUTO 32007KT 10SM FEW055 SCT110 04/M04 A3002 RMK AO2 PK WND 28026/2201 SLP178 T00391039 $",
      "metarObsTime": 1776639180
    },
    "KBFD": {
      "status": "OK",
      "delay": "—",
      "metarCat": "VFR",
      "metarRaw": "METAR KBFD 192253Z AUTO 28013G19KT 10SM BKN065 03/M06 A2999 RMK AO2 SLP170 T00331056",
      "metarObsTime": 1776639180
    },
    "KBTP": {
      "status": "OK",
      "delay": "—",
      "metarCat": "VFR",
      "metarRaw": "METAR KBTP 192256Z AUTO 29009G15KT 10SM FEW028 BKN043 OVC050 06/M01 A3008 RMK AO2 SLP198 T00561011 $",
      "metarObsTime": 1776639360
    },
    "KFKL": {
      "status": "OK",
      "delay": "—",
      "metarCat": "—",
      "metarRaw": "—",
      "metarObsTime": null
    },
    "KIDI": {
      "status": "OK",
      "delay": "—",
      "metarCat": "MVFR",
      "metarRaw": "METAR KIDI 192315Z AUTO 31015G21KT 10SM SCT023 BKN027 OVC050 05/M01 A3008 RMK A01",
      "metarObsTime": 1776640500
    },
    "KMDT": {
      "status": "OK",
      "delay": "—",
      "metarCat": "VFR",
      "metarRaw": "METAR KMDT 192256Z 31015G24KT 10SM FEW040 SCT090 11/M04 A3001 RMK AO2 PK WND 28031/2158 SLP164 T01111044",
      "metarObsTime": 1776639360
    },
    "KCXY": {
      "status": "OK",
      "delay": "—",
      "metarCat": "VFR",
      "metarRaw": "METAR KCXY 192256Z 30011G22KT 10SM FEW080 11/M06 A3002 RMK AO2 RAE2157 SLP169 P0000 T01111056 $",
      "metarObsTime": 1776639360
    },
    "KMUI": {
      "status": "OK",
      "delay": "—",
      "metarCat": "VFR",
      "metarRaw": "SPECI KMUI 192259Z AUTO 32017G26KT 10SM CLR 12/M08 A2999 RMK AO2 WSHFT 44 SLP160",
      "metarObsTime": 1776639540
    },
    "KUNV": {
      "status": "OK",
      "delay": "—",
      "metarCat": "VFR",
      "metarRaw": "METAR KUNV 192253Z 27010G17KT 10SM SCT070 SCT080 08/M06 A3003",
      "metarObsTime": 1776639180
    },
    "KAOO": {
      "status": "OK",
      "delay": "—",
      "metarCat": "VFR",
      "metarRaw": "METAR KAOO 192253Z AUTO 30010G20KT 10SM SCT070 07/M07 A3003 RMK AO2 SLP178 T00721067",
      "metarObsTime": 1776639180
    },
    "KLNS": {
      "status": "OK",
      "delay": "—",
      "metarCat": "VFR",
      "metarRaw": "METAR KLNS 192253Z 30018G31KT 10SM FEW090 11/M03 A3000 RMK AO2 PK WND 30031/2246 SLP158 T01061033",
      "metarObsTime": 1776639180
    },
    "KIPT": {
      "status": "OK",
      "delay": "—",
      "metarCat": "VFR",
      "metarRaw": "METAR KIPT 192254Z 27012G21KT 10SM FEW095 10/M08 A3000 RMK AO2 PK WND 29033/2216 SLP160 T01001078 $",
      "metarObsTime": 1776639240
    },
    "KPHL": {
      "status": "OK",
      "delay": "—",
      "metarCat": "VFR",
      "metarRaw": "METAR KPHL 192254Z 30014G24KT 10SM SCT055 SCT070 BKN110 13/M01 A3000 RMK AO2 SLP157 T01331006 $",
      "metarObsTime": 1776639240
    },
    "KABE": {
      "status": "OK",
      "delay": "—",
      "metarCat": "VFR",
      "metarRaw": "METAR KABE 192251Z 36007KT 10SM -RA FEW040 SCT050 OVC070 08/03 A2999 RMK AO2 RAB38 SLP157 P0000 T00780028 $",
      "metarObsTime": 1776639060
    },
    "KAVP": {
      "status": "OK",
      "delay": "—",
      "metarCat": "VFR",
      "metarRaw": "METAR KAVP 192254Z 33014G26KT 10SM -RA FEW044 BKN050 OVC070 07/M01 A2998 RMK AO2 PK WND 33026/2247 RAB46 SLP153 P0000 T00671006",
      "metarObsTime": 1776639240
    },
    "KHZL": {
      "status": "OK",
      "delay": "—",
      "metarCat": "VFR",
      "metarRaw": "METAR KHZL 192315Z AUTO 31003KT 10SM SCT050 SCT070 06/00 A3000 RMK AO2",
      "metarObsTime": 1776640500
    }
  }
}