{
  "generatedAt": "2026-03-22T05:50:21.194Z",
  "airports": {
    "KPIT": {
      "status": "OK",
      "delay": "—",
      "metarCat": "VFR",
      "metarRaw": "METAR KPIT 220451Z 20008KT 10SM FEW120 14/02 A2978 RMK AO2 SLP093 T01390017 401610022 $",
      "metarObsTime": 1774155060
    },
    "KAGC": {
      "status": "OK",
      "delay": "—",
      "metarCat": "VFR",
      "metarRaw": "METAR KAGC 220453Z 19010KT 10SM CLR 13/02 A2979 RMK AO2 SLP093 T01280017 401670061",
      "metarObsTime": 1774155180
    },
    "KLBE": {
      "status": "OK",
      "delay": "—",
      "metarCat": "VFR",
      "metarRaw": "METAR KLBE 220535Z AUTO 21007KT 10SM CLR 12/06 A2981 RMK AO2",
      "metarObsTime": 1774157700
    },
    "KJST": {
      "status": "OK",
      "delay": "—",
      "metarCat": "VFR",
      "metarRaw": "METAR KJST 220454Z AUTO 20007KT 10SM SCT110 12/03 A2983 RMK AO2 SLP103 T01220028 401560050",
      "metarObsTime": 1774155240
    },
    "KERI": {
      "status": "OK",
      "delay": "—",
      "metarCat": "VFR",
      "metarRaw": "METAR KERI 220451Z AUTO 23010G16KT 10SM CLR 13/02 A2971 RMK AO2 SLP065 T01280022 401280017",
      "metarObsTime": 1774155060
    },
    "KDUJ": {
      "status": "OK",
      "delay": "—",
      "metarCat": "VFR",
      "metarRaw": "METAR KDUJ 220453Z AUTO 19003KT 10SM CLR 11/01 A2979 RMK AO2 SLP089 T01060011 401330033",
      "metarObsTime": 1774155180
    },
    "KBFD": {
      "status": "OK",
      "delay": "—",
      "metarCat": "VFR",
      "metarRaw": "METAR KBFD 220453Z AUTO VRB03KT 10SM FEW110 08/01 A2977 RMK AO2 SLP090 T00780006 400940000",
      "metarObsTime": 1774155180
    },
    "KBTP": {
      "status": "OK",
      "delay": "—",
      "metarCat": "VFR",
      "metarRaw": "METAR KBTP 220456Z AUTO 19007KT 10SM CLR 12/02 A2979 RMK AO2 SLP095 T01220022 $",
      "metarObsTime": 1774155360
    },
    "KFKL": {
      "status": "OK",
      "delay": "—",
      "metarCat": "VFR",
      "metarRaw": "METAR KFKL 220456Z AUTO 21007KT 10SM FEW110 12/02 A2977 RMK AO2 SLP084 T01220022 401330028",
      "metarObsTime": 1774155360
    },
    "KIDI": {
      "status": "OK",
      "delay": "—",
      "metarCat": "VFR",
      "metarRaw": "METAR KIDI 220535Z AUTO 21007KT 10SM BKN048 12/05 A2980 RMK A01",
      "metarObsTime": 1774157700
    },
    "KMDT": {
      "status": "OK",
      "delay": "—",
      "metarCat": "VFR",
      "metarRaw": "METAR KMDT 220456Z 15006KT 10SM OVC110 09/03 A2991 RMK AO2 SLP131 T00890028 401500072",
      "metarObsTime": 1774155360
    },
    "KCXY": {
      "status": "OK",
      "delay": "—",
      "metarCat": "VFR",
      "metarRaw": "METAR KCXY 220456Z AUTO 12006KT 10SM CLR 09/03 A2992 RMK AO2 SLP133 T00940028 401500083",
      "metarObsTime": 1774155360
    },
    "KMUI": {
      "status": "OK",
      "delay": "—",
      "metarCat": "VFR",
      "metarRaw": "SPECI KMUI 220544Z AUTO 36003KT 10SM FEW036 BKN150 06/03 A2991 RMK AO2 RAE44 SLP133",
      "metarObsTime": 1774158240
    },
    "KUNV": {
      "status": "OK",
      "delay": "—",
      "metarCat": "VFR",
      "metarRaw": "METAR KUNV 220535Z AUTO 28006KT 10SM CLR 06/01 A2985 RMK AO2 T00600010",
      "metarObsTime": 1774157700
    },
    "KAOO": {
      "status": "OK",
      "delay": "—",
      "metarCat": "VFR",
      "metarRaw": "METAR KAOO 220453Z AUTO 18011G18KT 10SM CLR 12/02 A2985 RMK AO2 SLP106 T01220022 401780067",
      "metarObsTime": 1774155180
    },
    "KLNS": {
      "status": "OK",
      "delay": "—",
      "metarCat": "VFR",
      "metarRaw": "METAR KLNS 220453Z AUTO 16009KT 10SM CLR 07/03 A2992 RMK AO2 SLP133 T00720028 401440067",
      "metarObsTime": 1774155180
    },
    "KIPT": {
      "status": "OK",
      "delay": "—",
      "metarCat": "VFR",
      "metarRaw": "METAR KIPT 220454Z AUTO 07009KT 10SM FEW090 BKN110 05/M01 A2989 RMK AO2 SLP124 T00501006 401110044 $",
      "metarObsTime": 1774155240
    },
    "KPHL": {
      "status": "OK",
      "delay": "—",
      "metarCat": "VFR",
      "metarRaw": "METAR KPHL 220454Z 17007KT 10SM SCT160 09/03 A2997 RMK AO2 SLP147 T00890033 401670072 $",
      "metarObsTime": 1774155240
    },
    "KABE": {
      "status": "OK",
      "delay": "—",
      "metarCat": "VFR",
      "metarRaw": "METAR KABE 220451Z 04005KT 10SM SCT110 06/01 A2995 RMK AO2 SLP142 T00610011 401170061 $",
      "metarObsTime": 1774155060
    },
    "KAVP": {
      "status": "OK",
      "delay": "—",
      "metarCat": "VFR",
      "metarRaw": "METAR KAVP 220454Z AUTO 08003KT 10SM -RA BKN048 BKN070 OVC080 05/00 A2991 RMK AO2 RAB31 SLP131 P0000 T00500000 401000022",
      "metarObsTime": 1774155240
    },
    "KHZL": {
      "status": "OK",
      "delay": "—",
      "metarCat": "VFR",
      "metarRaw": "METAR KHZL 220535Z AUTO 14004KT 10SM SCT075 BKN100 05/00 A2993 RMK AO2",
      "metarObsTime": 1774157700
    }
  }
}