{
  "generatedAt": "2026-04-11T00:30:49.213Z",
  "airports": {
    "KPIT": {
      "status": "OK",
      "delay": "—",
      "metarCat": "MVFR",
      "metarRaw": "SPECI KPIT 110012Z 28010KT 4SM -RA BR FEW009 BKN044 OVC065 14/13 A3019 RMK AO2 P0004 T01390128 $",
      "metarObsTime": 1775866320
    },
    "KAGC": {
      "status": "OK",
      "delay": "—",
      "metarCat": "MVFR",
      "metarRaw": "METAR KAGC 102353Z 32008G18KT 5SM -RA BR OVC075 14/12 A3018 RMK AO2 RAB05 SLP224 P0002 60002 T01440122 10250 20144 51024",
      "metarObsTime": 1775865180
    },
    "KLBE": {
      "status": "OK",
      "delay": "—",
      "metarCat": "MVFR",
      "metarRaw": "METAR KLBE 102347Z 36007G18KT 7SM -RA BR BKN024 BKN085 16/12 A3020",
      "metarObsTime": 1775864820
    },
    "KJST": {
      "status": "OK",
      "delay": "—",
      "metarCat": "VFR",
      "metarRaw": "METAR KJST 102354Z AUTO 31014G20KT 10SM BKN090 OVC110 14/10 A3017 RMK AO2 SLP214 T01390100 10222 20139 53013",
      "metarObsTime": 1775865240
    },
    "KERI": {
      "status": "OK",
      "delay": "—",
      "metarCat": "IFR",
      "metarRaw": "METAR KERI 102351Z 26009KT 5SM BR OVC006 07/06 A3021 RMK AO2 SLP233 60031 T00720061 10117 20072 53023 $",
      "metarObsTime": 1775865060
    },
    "KDUJ": {
      "status": "OK",
      "delay": "—",
      "metarCat": "IFR",
      "metarRaw": "SPECI KDUJ 110010Z AUTO 25012KT 6SM -RA BR BKN006 BKN012 OVC045 12/11 A3016 RMK AO2 P0002 T01220111",
      "metarObsTime": 1775866200
    },
    "KBFD": {
      "status": "OK",
      "delay": "—",
      "metarCat": "IFR",
      "metarRaw": "METAR KBFD 102353Z AUTO 26008G16KT 10SM OVC007 11/10 A3014 RMK AO2 RAE15 CIG 006V010 SLP207 P0000 60011 T01110100 10206 20111 51002",
      "metarObsTime": 1775865180
    },
    "KBTP": {
      "status": "OK",
      "delay": "—",
      "metarCat": "MVFR",
      "metarRaw": "METAR KBTP 102356Z AUTO 28008G18KT 8SM -RA SCT008 BKN014 OVC075 13/ A3019 RMK AO2 SLP229 P0002 60013 T0133 10244 20133 51005 $",
      "metarObsTime": 1775865360
    },
    "KFKL": {
      "status": "OK",
      "delay": "—",
      "metarCat": "IFR",
      "metarRaw": "SPECI KFKL 110021Z AUTO 30007KT 8SM OVC005 12/11 A3019 RMK AO2 RAE19 CIG 002V008 P0000",
      "metarObsTime": 1775866860
    },
    "KIDI": {
      "status": "OK",
      "delay": "—",
      "metarCat": "MVFR",
      "metarRaw": "METAR KIDI 110015Z AUTO 28007KT 4SM BR OVC012 14/13 A3019 RMK A01",
      "metarObsTime": 1775866500
    },
    "KMDT": {
      "status": "OK",
      "delay": "—",
      "metarCat": "VFR",
      "metarRaw": "METAR KMDT 102356Z 17010KT 10SM BKN120 20/08 A3009 RMK AO2 SLP189 T02000078 10233 20200 53000",
      "metarObsTime": 1775865360
    },
    "KCXY": {
      "status": "OK",
      "delay": "—",
      "metarCat": "VFR",
      "metarRaw": "METAR KCXY 102356Z 17010KT 10SM CLR 21/07 A3009 RMK AO2 SLP189 T02060072 10244 20206 55000 $",
      "metarObsTime": 1775865360
    },
    "KMUI": {
      "status": "OK",
      "delay": "—",
      "metarCat": "VFR",
      "metarRaw": "METAR KMUI 102355Z 15005KT 10SM BKN120 BKN250 19/09 A3008 RMK AO2A SLP189 T01940090 10244 20188 55000",
      "metarObsTime": 1775865300
    },
    "KUNV": {
      "status": "OK",
      "delay": "—",
      "metarCat": "VFR",
      "metarRaw": "METAR KUNV 102353Z 30010G21KT 10SM -RA SCT060 17/10 A3014",
      "metarObsTime": 1775865180
    },
    "KAOO": {
      "status": "OK",
      "delay": "—",
      "metarCat": "VFR",
      "metarRaw": "METAR KAOO 102353Z AUTO 32014G23KT 10SM OVC110 17/09 A3014 RMK AO2 PK WND 29029/2310 WSHFT 2311 SLP207 T01720094 10250 20172 53014",
      "metarObsTime": 1775865180
    },
    "KLNS": {
      "status": "OK",
      "delay": "—",
      "metarCat": "VFR",
      "metarRaw": "METAR KLNS 102353Z 19008KT 10SM CLR 17/05 A3011 RMK AO2 SLP197 T01720050 10217 20172 56004",
      "metarObsTime": 1775865180
    },
    "KIPT": {
      "status": "OK",
      "delay": "—",
      "metarCat": "VFR",
      "metarRaw": "METAR KIPT 102354Z 30008KT 10SM FEW075 OVC100 19/10 A3010 RMK AO2 PK WND 29028/2323 WSHFT 2319 RAB44E54 SLP194 P0000 60000 T01890100 10233 20189 53025",
      "metarObsTime": 1775865240
    },
    "KPHL": {
      "status": "OK",
      "delay": "—",
      "metarCat": "VFR",
      "metarRaw": "METAR KPHL 102354Z 19013G20KT 10SM SCT250 17/07 A3015 RMK AO2 SLP209 T01720067 10222 20172 55005 $",
      "metarObsTime": 1775865240
    },
    "KABE": {
      "status": "OK",
      "delay": "—",
      "metarCat": "VFR",
      "metarRaw": "METAR KABE 102351Z 22010KT 10SM CLR 18/05 A3011 RMK AO2 SLP195 T01830050 10222 20178 55005 $",
      "metarObsTime": 1775865060
    },
    "KAVP": {
      "status": "OK",
      "delay": "—",
      "metarCat": "VFR",
      "metarRaw": "METAR KAVP 102354Z AUTO 21006KT 10SM OVC100 19/06 A3007 RMK AO2 SLP180 T01940061 10233 20194 50002",
      "metarObsTime": 1775865240
    },
    "KHZL": {
      "status": "OK",
      "delay": "—",
      "metarCat": "VFR",
      "metarRaw": "METAR KHZL 110015Z AUTO 16004KT 10SM OVC100 17/07 A3012 RMK AO2",
      "metarObsTime": 1775866500
    }
  }
}