{
  "generatedAt": "2026-04-30T19:21:17.649Z",
  "faaFlow": {
    "updatedAt": "2026-04-30T19:21:16.881Z",
    "source": "https://www.fly.faa.gov/adv/adv_spt",
    "terminal": [
      {
        "time": "—",
        "text": "AFTER",
        "code": "FLOW",
        "label": "FAA flow impact",
        "level": "yellow",
        "section": "Terminal Planned",
        "airports": []
      },
      {
        "time": "1900",
        "text": "DCA GROUND STOP POSSIBLE",
        "code": "GS",
        "label": "Ground stop possible",
        "level": "yellow",
        "section": "Terminal Planned",
        "airports": []
      },
      {
        "time": "—",
        "text": "AFTER",
        "code": "FLOW",
        "label": "FAA flow impact",
        "level": "yellow",
        "section": "Terminal Planned",
        "airports": []
      },
      {
        "time": "1900",
        "text": "BNA GROUND STOP/DELAY PROGRAM POSSIBLE",
        "code": "GS",
        "label": "Ground stop possible",
        "level": "yellow",
        "section": "Terminal Planned",
        "airports": []
      },
      {
        "time": "—",
        "text": "AFTER",
        "code": "FLOW",
        "label": "FAA flow impact",
        "level": "yellow",
        "section": "Terminal Planned",
        "airports": []
      },
      {
        "time": "2300",
        "text": "DEN GROUND STOP/DELAY PROGRAM POSSIBLE",
        "code": "GS",
        "label": "Ground stop possible",
        "level": "yellow",
        "section": "Terminal Planned",
        "airports": []
      },
      {
        "time": "—",
        "text": "UNTIL",
        "code": "FLOW",
        "label": "FAA flow impact",
        "level": "yellow",
        "section": "Terminal Planned",
        "airports": []
      },
      {
        "time": "0200",
        "text": "EWR GROUND STOP/DELAY PROGRAM POSSIBLE",
        "code": "GS",
        "label": "Ground stop possible",
        "level": "yellow",
        "section": "Terminal Planned",
        "airports": []
      }
    ],
    "enroute": [
      {
        "time": "—",
        "text": "AFTER",
        "code": "FLOW",
        "label": "FAA flow impact",
        "level": "yellow",
        "section": "En Route Planned",
        "airports": []
      },
      {
        "time": "0005",
        "text": "STAVE 2 FLORIDA ARRIVALS EXPECTED",
        "code": "FLOW",
        "label": "FAA flow impact",
        "level": "yellow",
        "section": "En Route Planned",
        "airports": []
      },
      {
        "time": "—",
        "text": "AFTER",
        "code": "FLOW",
        "label": "FAA flow impact",
        "level": "yellow",
        "section": "En Route Planned",
        "airports": []
      },
      {
        "time": "0005",
        "text": "STAVE 2 OVERFLIGHTS EXPECTED",
        "code": "FLOW",
        "label": "FAA flow impact",
        "level": "yellow",
        "section": "En Route Planned",
        "airports": []
      },
      {
        "time": "—",
        "text": "UNTIL",
        "code": "FLOW",
        "label": "FAA flow impact",
        "level": "yellow",
        "section": "En Route Planned",
        "airports": []
      },
      {
        "time": "0200",
        "text": "DFW/DAL ARRIVAL ROUTES POSSIBLE CDRS/SWAP/CAPPING/TUNNELING/HOTLINE/DIVERSION RECOVERY:",
        "code": "ROUTE",
        "label": "Route impact possible",
        "level": "blue",
        "section": "En Route Planned",
        "airports": []
      },
      {
        "time": "—",
        "text": "UNTIL",
        "code": "FLOW",
        "label": "FAA flow impact",
        "level": "yellow",
        "section": "En Route Planned",
        "airports": []
      },
      {
        "time": "2000",
        "text": "ZJX CAPPING/TUNNELING",
        "code": "FLOW",
        "label": "FAA flow impact",
        "level": "yellow",
        "section": "En Route Planned",
        "airports": []
      },
      {
        "time": "—",
        "text": "UNTIL",
        "code": "FLOW",
        "label": "FAA flow impact",
        "level": "yellow",
        "section": "En Route Planned",
        "airports": []
      },
      {
        "time": "2000",
        "text": "ZFW SWAP",
        "code": "ROUTE",
        "label": "Route impact possible",
        "level": "blue",
        "section": "En Route Planned",
        "airports": []
      },
      {
        "time": "—",
        "text": "UNTIL",
        "code": "FLOW",
        "label": "FAA flow impact",
        "level": "yellow",
        "section": "En Route Planned",
        "airports": []
      },
      {
        "time": "2000",
        "text": "DFW DAL CDRS",
        "code": "ROUTE",
        "label": "Route impact possible",
        "level": "blue",
        "section": "En Route Planned",
        "airports": []
      },
      {
        "time": "—",
        "text": "UNTIL",
        "code": "FLOW",
        "label": "FAA flow impact",
        "level": "yellow",
        "section": "En Route Planned",
        "airports": []
      },
      {
        "time": "2000",
        "text": "I-90 AUS CDRS",
        "code": "ROUTE",
        "label": "Route impact possible",
        "level": "blue",
        "section": "En Route Planned",
        "airports": []
      },
      {
        "time": "—",
        "text": "UNTIL",
        "code": "FLOW",
        "label": "FAA flow impact",
        "level": "yellow",
        "section": "En Route Planned",
        "airports": []
      },
      {
        "time": "2300",
        "text": "TEXAS HOTLINE",
        "code": "FLOW",
        "label": "FAA flow impact",
        "level": "yellow",
        "section": "En Route Planned",
        "airports": []
      },
      {
        "time": "—",
        "text": "UNTIL",
        "code": "FLOW",
        "label": "FAA flow impact",
        "level": "yellow",
        "section": "En Route Planned",
        "airports": []
      },
      {
        "time": "0200",
        "text": "ZDC SWAP",
        "code": "ROUTE",
        "label": "Route impact possible",
        "level": "blue",
        "section": "En Route Planned",
        "airports": []
      },
      {
        "time": "—",
        "text": "UNTIL",
        "code": "FLOW",
        "label": "FAA flow impact",
        "level": "yellow",
        "section": "En Route Planned",
        "airports": []
      },
      {
        "time": "0200",
        "text": "ZHU_SWAP RUNWAY/EQUIPMENT/POSSIBLE SYSTEM IMPACT REPORTS(SIRs): LAX - RWY 24R/06L CLOSED",
        "code": "CLOSURE",
        "label": "Closure possible",
        "level": "yellow",
        "section": "En Route Planned",
        "airports": []
      },
      {
        "time": "—",
        "text": "2026",
        "code": "FLOW",
        "label": "FAA flow impact",
        "level": "yellow",
        "section": "En Route Planned",
        "airports": []
      },
      {
        "time": "2026",
        "text": "SAN - CONSTRUCTION PHASE 5.2 UNTIL 05/26/26",
        "code": "FLOW",
        "label": "FAA flow impact",
        "level": "yellow",
        "section": "En Route Planned",
        "airports": []
      },
      {
        "time": "—",
        "text": "AFTER",
        "code": "FLOW",
        "label": "FAA flow impact",
        "level": "yellow",
        "section": "En Route Planned",
        "airports": []
      },
      {
        "time": "1700",
        "text": "DEP NKX",
        "code": "FLOW",
        "label": "FAA flow impact",
        "level": "yellow",
        "section": "En Route Planned",
        "airports": []
      },
      {
        "time": "—",
        "text": "AFTER",
        "code": "FLOW",
        "label": "FAA flow impact",
        "level": "yellow",
        "section": "En Route Planned",
        "airports": []
      },
      {
        "time": "2100",
        "text": "ARR ADW NEXT PLANNING WEBINAR:",
        "code": "FLOW",
        "label": "FAA flow impact",
        "level": "yellow",
        "section": "En Route Planned",
        "airports": []
      }
    ],
    "airports": {
      "KPIT": null,
      "KAGC": null,
      "KLBE": null,
      "KJST": null,
      "KERI": null,
      "KDUJ": null,
      "KBFD": null,
      "KBTP": null,
      "KFKL": null,
      "KIDI": null,
      "KMDT": null,
      "KCXY": null,
      "KMUI": null,
      "KUNV": null,
      "KAOO": null,
      "KLNS": null,
      "KIPT": null,
      "KPHL": null,
      "KABE": null,
      "KAVP": null,
      "KHZL": null
    }
  },
  "airports": {
    "KPIT": {
      "status": "OK",
      "delay": "—",
      "metarCat": "VFR",
      "metarRaw": "METAR KPIT 301851Z 28009KT 10SM SCT027 OVC040 09/02 A2993 RMK AO2 SLP146 T00890022",
      "metarObsTime": 1777575060,
      "faaFlow": null
    },
    "KAGC": {
      "status": "OK",
      "delay": "—",
      "metarCat": "VFR",
      "metarRaw": "METAR KAGC 301853Z 30008G14KT 270V340 10SM SCT029 OVC038 08/02 A2992 RMK AO2 SLP139 T00830022",
      "metarObsTime": 1777575180,
      "faaFlow": null
    },
    "KLBE": {
      "status": "OK",
      "delay": "—",
      "metarCat": "MVFR",
      "metarRaw": "METAR KLBE 301853Z 29016KT 10SM BKN026 OVC031 09/04 A2993",
      "metarObsTime": 1777575180,
      "faaFlow": null
    },
    "KJST": {
      "status": "OK",
      "delay": "—",
      "metarCat": "MVFR",
      "metarRaw": "METAR KJST 301854Z AUTO 34013G20KT 10SM SCT008 BKN014 OVC022 05/02 A2986 RMK AO2 RAB12E21 SLP122 P0000 T00500022",
      "metarObsTime": 1777575240,
      "faaFlow": null
    },
    "KERI": {
      "status": "OK",
      "delay": "—",
      "metarCat": "VFR",
      "metarRaw": "METAR KERI 301851Z AUTO 27007KT 10SM FEW033 OVC050 09/03 A2993 RMK AO2 SLP138 T00890033",
      "metarObsTime": 1777575060,
      "faaFlow": null
    },
    "KDUJ": {
      "status": "OK",
      "delay": "—",
      "metarCat": "MVFR",
      "metarRaw": "METAR KDUJ 301853Z AUTO 31009KT 10SM BKN015 BKN024 OVC031 06/03 A2985 RMK AO2 RAE04 SLP117 P0000 T00610033",
      "metarObsTime": 1777575180,
      "faaFlow": null
    },
    "KBFD": {
      "status": "OK",
      "delay": "—",
      "metarCat": "MVFR",
      "metarRaw": "METAR KBFD 301853Z AUTO 30008G17KT 10SM OVC011 04/03 A2984 RMK AO2 RAE03B27E53 SLP116 P0000 T00440033",
      "metarObsTime": 1777575180,
      "faaFlow": null
    },
    "KBTP": {
      "status": "OK",
      "delay": "—",
      "metarCat": "VFR",
      "metarRaw": "SPECI KBTP 301917Z AUTO 29009KT 10SM FEW028 SCT035 OVC048 09/03 A2993 RMK AO2 $",
      "metarObsTime": 1777576620,
      "faaFlow": null
    },
    "KFKL": {
      "status": "OK",
      "delay": "—",
      "metarCat": "MVFR",
      "metarRaw": "METAR KFKL 301856Z AUTO 32007KT 260V350 10SM BKN024 OVC038 07/02 A2991 RMK AO2 SLP136 T00720022",
      "metarObsTime": 1777575360,
      "faaFlow": null
    },
    "KIDI": {
      "status": "OK",
      "delay": "—",
      "metarCat": "MVFR",
      "metarRaw": "METAR KIDI 301915Z AUTO 29011KT 10SM OVC023 08/05 A2990 RMK A01",
      "metarObsTime": 1777576500,
      "faaFlow": null
    },
    "KMDT": {
      "status": "OK",
      "delay": "—",
      "metarCat": "VFR",
      "metarRaw": "METAR KMDT 301856Z 30008KT 10SM BKN060 BKN080 17/04 A2975 RMK AO2 SLP074 T01670044",
      "metarObsTime": 1777575360,
      "faaFlow": null
    },
    "KCXY": {
      "status": "OK",
      "delay": "—",
      "metarCat": "VFR",
      "metarRaw": "METAR KCXY 301856Z 30011KT 10SM BKN060 OVC080 17/04 A2976 RMK AO2 SLP077 T01670044",
      "metarObsTime": 1777575360,
      "faaFlow": null
    },
    "KMUI": {
      "status": "OK",
      "delay": "—",
      "metarCat": "VFR",
      "metarRaw": "METAR KMUI 301855Z 32006KT 10SM FEW045 SCT055 BKN080 20/09 A2973 RMK AO2A SLP069 T01960089",
      "metarObsTime": 1777575300,
      "faaFlow": null
    },
    "KUNV": {
      "status": "OK",
      "delay": "—",
      "metarCat": "VFR",
      "metarRaw": "METAR KUNV 301853Z 30008KT 7SM -RA SCT015 SCT028 OVC042 09/08 A2982",
      "metarObsTime": 1777575180,
      "faaFlow": null
    },
    "KAOO": {
      "status": "OK",
      "delay": "—",
      "metarCat": "MVFR",
      "metarRaw": "METAR KAOO 301853Z AUTO 30014G22KT 10SM FEW020 BKN026 OVC036 09/04 A2984 RMK AO2 RAE12 SLP108 P0000 T00890044",
      "metarObsTime": 1777575180,
      "faaFlow": null
    },
    "KLNS": {
      "status": "OK",
      "delay": "—",
      "metarCat": "VFR",
      "metarRaw": "METAR KLNS 301853Z 31011KT 10SM BKN075 17/05 A2975 RMK AO2 SLP073 T01670050",
      "metarObsTime": 1777575180,
      "faaFlow": null
    },
    "KIPT": {
      "status": "OK",
      "delay": "—",
      "metarCat": "VFR",
      "metarRaw": "METAR KIPT 301854Z 28008KT 10SM BKN048 14/04 A2976 RMK AO2 SLP078 T01440039",
      "metarObsTime": 1777575240,
      "faaFlow": null
    },
    "KPHL": {
      "status": "OK",
      "delay": "—",
      "metarCat": "VFR",
      "metarRaw": "METAR KPHL 301854Z 33014G21KT 10SM BKN043 BKN075 18/07 A2974 RMK AO2 PK WND 33029/1809 SLP070 T01780067 $",
      "metarObsTime": 1777575240,
      "faaFlow": null
    },
    "KABE": {
      "status": "OK",
      "delay": "—",
      "metarCat": "VFR",
      "metarRaw": "METAR KABE 301851Z 32005G15KT 10SM FEW042 OVC060 14/07 A2975 RMK AO2 SLP075 T01440072",
      "metarObsTime": 1777575060,
      "faaFlow": null
    },
    "KAVP": {
      "status": "OK",
      "delay": "—",
      "metarCat": "VFR",
      "metarRaw": "METAR KAVP 301854Z 34009KT 10SM FEW034 BKN043 OVC055 13/06 A2976 RMK AO2 SLP077 T01280056",
      "metarObsTime": 1777575240,
      "faaFlow": null
    },
    "KHZL": {
      "status": "OK",
      "delay": "—",
      "metarCat": "VFR",
      "metarRaw": "METAR KHZL 301915Z AUTO 31005KT 10SM SCT035 BKN048 OVC050 13/05 A2978 RMK AO2",
      "metarObsTime": 1777576500,
      "faaFlow": null
    }
  }
}