{
  "generatedAt": "2026-03-23T04:20:16.469Z",
  "airports": {
    "KPIT": {
      "status": "OK",
      "delay": "—",
      "metarCat": "LIFR",
      "metarRaw": "SPECI KPIT 230417Z 16003KT 4SM -RA BR BKN004 OVC047 09/08 A2976 RMK AO2 TSE16 OCNL LTG DSNT SE-W P0007 T00890083",
      "metarObsTime": 1774239420
    },
    "KAGC": {
      "status": "OK",
      "delay": "—",
      "metarCat": "LIFR",
      "metarRaw": "SPECI KAGC 230412Z 36008KT 3/4SM R28/4500VP6000FT VCTS RA BR FEW008 BKN048 OVC080 11/11 A2974 RMK AO2 LTG DSNT ALQDS TSE06 P0006 T01060106",
      "metarObsTime": 1774239120
    },
    "KLBE": {
      "status": "OK",
      "delay": "—",
      "metarCat": "MVFR",
      "metarRaw": "METAR KLBE 230415Z AUTO VRB04G10KT 4SM VCTS RA BR FEW018 BKN055 OVC090 13/11 A2978 RMK AO2 LTG DSNT ALQDS",
      "metarObsTime": 1774239300
    },
    "KJST": {
      "status": "OK",
      "delay": "—",
      "metarCat": "VFR",
      "metarRaw": "METAR KJST 230354Z AUTO 01010G19KT 6SM RA BR FEW014 SCT060 OVC080 11/09 A2975 RMK AO2 RAB15 SLP065 P0006 T01110089",
      "metarObsTime": 1774238040
    },
    "KERI": {
      "status": "OK",
      "delay": "—",
      "metarCat": "IFR",
      "metarRaw": "METAR KERI 230351Z AUTO 03013KT 5SM BR OVC007 02/01 A2981 RMK AO2 SLP101 T00220011",
      "metarObsTime": 1774237860
    },
    "KDUJ": {
      "status": "OK",
      "delay": "—",
      "metarCat": "MVFR",
      "metarRaw": "SPECI KDUJ 230403Z AUTO 06003KT 4SM -RA BR FEW002 BKN065 OVC080 08/08 A2973 RMK AO2 P0001 T00830078",
      "metarObsTime": 1774238580
    },
    "KBFD": {
      "status": "OK",
      "delay": "—",
      "metarCat": "LIFR",
      "metarRaw": "METAR KBFD 230353Z AUTO 08007KT 10SM -RA OVC004 03/03 A2974 RMK AO2 SLP070 P0003 T00330028 $",
      "metarObsTime": 1774237980
    },
    "KBTP": {
      "status": "OK",
      "delay": "—",
      "metarCat": "IFR",
      "metarRaw": "SPECI KBTP 230415Z AUTO 11004KT 2SM RA BKN005 BKN050 OVC055 08/ A2976 RMK AO2 LTG DSNT SE CIG 003V008 P0007 $",
      "metarObsTime": 1774239300
    },
    "KFKL": {
      "status": "OK",
      "delay": "—",
      "metarCat": "LIFR",
      "metarRaw": "METAR KFKL 230356Z AUTO VRB03KT 6SM -RA BR BKN004 OVC090 05/05 A2976 RMK AO2 CIG 002V008 SLP080 P0003 T00500050",
      "metarObsTime": 1774238160
    },
    "KIDI": {
      "status": "OK",
      "delay": "—",
      "metarCat": "MVFR",
      "metarRaw": "METAR KIDI 230415Z AUTO 07004KT 4SM BR SCT035 BKN050 OVC090 12/11 A2974 RMK A01",
      "metarObsTime": 1774239300
    },
    "KMDT": {
      "status": "OK",
      "delay": "—",
      "metarCat": "MVFR",
      "metarRaw": "METAR KMDT 230356Z 00000KT 3SM -RA BR FEW055 13/13 A2964 RMK AO2 LTG DSNT NW RAB45 SLP037 P0000 T01330133 $",
      "metarObsTime": 1774238160
    },
    "KCXY": {
      "status": "OK",
      "delay": "—",
      "metarCat": "MVFR",
      "metarRaw": "SPECI KCXY 230415Z AUTO 33010KT 10SM SCT009 BKN016 BKN026 15/14 A2970 RMK AO2 LTG DSNT N T01500139",
      "metarObsTime": 1774239300
    },
    "KMUI": {
      "status": "OK",
      "delay": "—",
      "metarCat": "VFR",
      "metarRaw": "METAR KMUI 230355Z AUTO 04006KT 10SM FEW110 15/14 A2963 RMK AO2 LTG DSNT W-NW SLP036 T01460143",
      "metarObsTime": 1774238100
    },
    "KUNV": {
      "status": "OK",
      "delay": "—",
      "metarCat": "IFR",
      "metarRaw": "METAR KUNV 230415Z AUTO 06009KT 4SM +RA BKN005 BKN010 OVC014 11/11 A2977 RMK AO2 LTG DSNT SW AND W P0012 T01110111",
      "metarObsTime": 1774239300
    },
    "KAOO": {
      "status": "OK",
      "delay": "—",
      "metarCat": "VFR",
      "metarRaw": "METAR KAOO 230353Z AUTO 35013G19KT 10SM -RA OVC055 14/10 A2978 RMK AO2 RAB53 PRESRR SLP076 P0000 T01440100",
      "metarObsTime": 1774237980
    },
    "KLNS": {
      "status": "OK",
      "delay": "—",
      "metarCat": "VFR",
      "metarRaw": "METAR KLNS 230353Z AUTO 09006KT 8SM CLR 13/13 A2964 RMK AO2 RAB0256E09 SLP038 P0000 T01330128",
      "metarObsTime": 1774237980
    },
    "KIPT": {
      "status": "OK",
      "delay": "—",
      "metarCat": "MVFR",
      "metarRaw": "SPECI KIPT 230403Z AUTO 29007G15KT 10SM -RA SCT020 OVC029 07/05 A2981 RMK AO2 P0001 T00670050 $",
      "metarObsTime": 1774238580
    },
    "KPHL": {
      "status": "OK",
      "delay": "—",
      "metarCat": "VFR",
      "metarRaw": "SPECI KPHL 230409Z 07011KT 7SM SCT150 BKN190 OVC230 15/09 A2964 RMK AO2 T01500094 $",
      "metarObsTime": 1774238940
    },
    "KABE": {
      "status": "OK",
      "delay": "—",
      "metarCat": "MVFR",
      "metarRaw": "SPECI KABE 230409Z 08006KT 7SM SCT005 OVC013 13/12 A2968 RMK AO2 T01280117 $",
      "metarObsTime": 1774238940
    },
    "KAVP": {
      "status": "OK",
      "delay": "—",
      "metarCat": "MVFR",
      "metarRaw": "METAR KAVP 230354Z 35006KT 10SM OVC013 08/07 A2976 RMK AO2 RAE12 SLP078 P0000 T00780067",
      "metarObsTime": 1774238040
    },
    "KHZL": {
      "status": "OK",
      "delay": "—",
      "metarCat": "IFR",
      "metarRaw": "METAR KHZL 230415Z AUTO 36008G25KT 320V020 10SM -RA BKN005 OVC015 07/06 A2977 RMK AO2",
      "metarObsTime": 1774239300
    }
  }
}