{
  "generatedAt": "2026-04-18T04:40:51.644Z",
  "airports": {
    "KPIT": {
      "status": "OK",
      "delay": "—",
      "metarCat": "VFR",
      "metarRaw": "METAR KPIT 180351Z 16003KT 10SM SCT250 18/11 A2996 RMK AO2 SLP149 T01830106",
      "metarObsTime": 1776484260
    },
    "KAGC": {
      "status": "OK",
      "delay": "—",
      "metarCat": "VFR",
      "metarRaw": "METAR KAGC 180353Z 13005KT 10SM CLR 18/11 A2996 RMK AO2 SLP145 T01780106",
      "metarObsTime": 1776484380
    },
    "KLBE": {
      "status": "OK",
      "delay": "—",
      "metarCat": "VFR",
      "metarRaw": "METAR KLBE 180435Z AUTO 00000KT 10SM CLR 14/12 A2999 RMK AO2",
      "metarObsTime": 1776486900
    },
    "KJST": {
      "status": "OK",
      "delay": "—",
      "metarCat": "VFR",
      "metarRaw": "METAR KJST 180354Z AUTO 00000KT 10SM CLR 17/08 A3001 RMK AO2 SLP156 T01670078",
      "metarObsTime": 1776484440
    },
    "KERI": {
      "status": "OK",
      "delay": "—",
      "metarCat": "VFR",
      "metarRaw": "METAR KERI 180351Z AUTO 16008KT 10SM CLR 16/08 A2992 RMK AO2 SLP132 T01560083 $",
      "metarObsTime": 1776484260
    },
    "KDUJ": {
      "status": "OK",
      "delay": "—",
      "metarCat": "VFR",
      "metarRaw": "METAR KDUJ 180353Z AUTO 21003KT 10SM CLR 17/07 A2998 RMK AO2 SLP147 T01670072",
      "metarObsTime": 1776484380
    },
    "KBFD": {
      "status": "OK",
      "delay": "—",
      "metarCat": "VFR",
      "metarRaw": "METAR KBFD 180353Z AUTO 12004KT 10SM CLR 11/08 A3000 RMK AO2 SLP152 T01110083",
      "metarObsTime": 1776484380
    },
    "KBTP": {
      "status": "OK",
      "delay": "—",
      "metarCat": "VFR",
      "metarRaw": "METAR KBTP 180356Z AUTO 14004KT 10SM CLR 17/09 A2998 RMK AO2 SLP153 T01720094 402390117 PNO $",
      "metarObsTime": 1776484560
    },
    "KFKL": {
      "status": "OK",
      "delay": "—",
      "metarCat": "—",
      "metarRaw": "—",
      "metarObsTime": null
    },
    "KIDI": {
      "status": "OK",
      "delay": "—",
      "metarCat": "VFR",
      "metarRaw": "METAR KIDI 180435Z AUTO 08004KT 10SM CLR 12/10 A2999 RMK A01",
      "metarObsTime": 1776486900
    },
    "KMDT": {
      "status": "OK",
      "delay": "—",
      "metarCat": "VFR",
      "metarRaw": "METAR KMDT 180356Z 08003KT 10SM FEW180 16/13 A2996 RMK AO2 SLP145 T01610128",
      "metarObsTime": 1776484560
    },
    "KCXY": {
      "status": "OK",
      "delay": "—",
      "metarCat": "VFR",
      "metarRaw": "METAR KCXY 180356Z AUTO 27003KT 10SM CLR 16/12 A2997 RMK AO2 SLP150 T01560122 $",
      "metarObsTime": 1776484560
    },
    "KMUI": {
      "status": "OK",
      "delay": "—",
      "metarCat": "VFR",
      "metarRaw": "METAR KMUI 180355Z AUTO 00000KT 10SM CLR 17/14 A2996 RMK AO2 SLP146 T01660144",
      "metarObsTime": 1776484500
    },
    "KUNV": {
      "status": "OK",
      "delay": "—",
      "metarCat": "VFR",
      "metarRaw": "METAR KUNV 180435Z AUTO 00000KT 10SM CLR 16/10 A3001 RMK AO2 T01590095",
      "metarObsTime": 1776486900
    },
    "KAOO": {
      "status": "OK",
      "delay": "—",
      "metarCat": "VFR",
      "metarRaw": "METAR KAOO 180353Z AUTO 00000KT 10SM CLR 13/09 A3001 RMK AO2 SLP158 T01280094",
      "metarObsTime": 1776484380
    },
    "KLNS": {
      "status": "OK",
      "delay": "—",
      "metarCat": "VFR",
      "metarRaw": "METAR KLNS 180353Z AUTO 08003KT 10SM CLR 14/12 A2997 RMK AO2 SLP147 T01390117",
      "metarObsTime": 1776484380
    },
    "KIPT": {
      "status": "OK",
      "delay": "—",
      "metarCat": "VFR",
      "metarRaw": "METAR KIPT 180354Z AUTO 03004KT 10SM CLR 14/10 A2998 RMK AO2 SLP150 T01440100 $",
      "metarObsTime": 1776484440
    },
    "KPHL": {
      "status": "OK",
      "delay": "—",
      "metarCat": "VFR",
      "metarRaw": "METAR KPHL 180354Z 05004KT 10SM FEW070 20/13 A2996 RMK AO2 SLP145 T02000133 $",
      "metarObsTime": 1776484440
    },
    "KABE": {
      "status": "OK",
      "delay": "—",
      "metarCat": "VFR",
      "metarRaw": "METAR KABE 180351Z 00000KT 10SM OVC055 17/14 A2998 RMK AO2 SLP151 T01670139",
      "metarObsTime": 1776484260
    },
    "KAVP": {
      "status": "OK",
      "delay": "—",
      "metarCat": "VFR",
      "metarRaw": "METAR KAVP 180354Z 11004KT 10SM CLR 14/11 A3000 RMK AO2 SLP154 T01390111",
      "metarObsTime": 1776484440
    },
    "KHZL": {
      "status": "OK",
      "delay": "—",
      "metarCat": "VFR",
      "metarRaw": "METAR KHZL 180435Z AUTO 00000KT 10SM CLR 12/08 A3006 RMK AO2",
      "metarObsTime": 1776486900
    }
  }
}