{
  "generatedAt": "2026-04-25T14:10:58.977Z",
  "airports": {
    "KPIT": {
      "status": "OK",
      "delay": "—",
      "metarCat": "MVFR",
      "metarRaw": "METAR KPIT 251351Z 18004KT 7SM -RA FEW002 BKN029 OVC055 16/14 A2977 RMK AO2 RAE24B47 SLP082 P0000 T01560144",
      "metarObsTime": 1777125060
    },
    "KAGC": {
      "status": "OK",
      "delay": "—",
      "metarCat": "IFR",
      "metarRaw": "METAR KAGC 251353Z 16005KT 3SM -RA BR BKN005 BKN060 OVC075 16/14 A2977 RMK AO2 RAE35B52 SLP081 P0001 T01560144",
      "metarObsTime": 1777125180
    },
    "KLBE": {
      "status": "OK",
      "delay": "—",
      "metarCat": "MVFR",
      "metarRaw": "METAR KLBE 251347Z 21011KT 6SM -RA BR BKN027 OVC075 15/14 A2981",
      "metarObsTime": 1777124820
    },
    "KJST": {
      "status": "OK",
      "delay": "—",
      "metarCat": "MVFR",
      "metarRaw": "METAR KJST 251354Z AUTO 15005KT 4SM -RA BR SCT039 BKN047 OVC070 13/11 A2981 RMK AO2 SLP091 P0006 T01280111",
      "metarObsTime": 1777125240
    },
    "KERI": {
      "status": "OK",
      "delay": "—",
      "metarCat": "IFR",
      "metarRaw": "SPECI KERI 251359Z 06010KT 3SM RA BR BKN005 BKN011 OVC018 06/06 A2980 RMK AO2 P0002 T00610056",
      "metarObsTime": 1777125540
    },
    "KDUJ": {
      "status": "OK",
      "delay": "—",
      "metarCat": "VFR",
      "metarRaw": "METAR KDUJ 251353Z AUTO 11008KT 7SM -RA OVC080 10/09 A2978 RMK AO2 SLP084 P0003 T01000089",
      "metarObsTime": 1777125180
    },
    "KBFD": {
      "status": "OK",
      "delay": "—",
      "metarCat": "MVFR",
      "metarRaw": "METAR KBFD 251353Z AUTO 13009KT 5SM -RA BR FEW048 SCT055 OVC085 08/07 A2979 RMK AO2 SLP086 P0009 T00780067",
      "metarObsTime": 1777125180
    },
    "KBTP": {
      "status": "OK",
      "delay": "—",
      "metarCat": "VFR",
      "metarRaw": "METAR KBTP 251356Z AUTO 00000KT 10SM BKN036 BKN042 OVC050 16/ A2978 RMK AO2 RAE31 SLP085 P0001 T0156 $",
      "metarObsTime": 1777125360
    },
    "KFKL": {
      "status": "OK",
      "delay": "—",
      "metarCat": "—",
      "metarRaw": "—",
      "metarObsTime": null
    },
    "KIDI": {
      "status": "OK",
      "delay": "—",
      "metarCat": "MVFR",
      "metarRaw": "METAR KIDI 251355Z AUTO 15003KT 3SM BR CLR 14/13 A2980 RMK A01 P0004",
      "metarObsTime": 1777125300
    },
    "KMDT": {
      "status": "OK",
      "delay": "—",
      "metarCat": "VFR",
      "metarRaw": "METAR KMDT 251356Z 12011KT 10SM BKN035 BKN042 12/05 A2991 RMK AO2 SLP131 T01220050",
      "metarObsTime": 1777125360
    },
    "KCXY": {
      "status": "OK",
      "delay": "—",
      "metarCat": "VFR",
      "metarRaw": "METAR KCXY 251356Z 10008KT 10SM OVC037 12/05 A2992 RMK AO2 SLP133 T01170050",
      "metarObsTime": 1777125360
    },
    "KMUI": {
      "status": "OK",
      "delay": "—",
      "metarCat": "VFR",
      "metarRaw": "SPECI KMUI 251352Z AUTO 08007G14KT 10SM -RA FEW006 SCT021 BKN038 OVC045 12/10 A2992 RMK AO2 RAE1255RAB39 SLP134",
      "metarObsTime": 1777125120
    },
    "KUNV": {
      "status": "OK",
      "delay": "—",
      "metarCat": "MVFR",
      "metarRaw": "SPECI KUNV 251406Z 00000KT 4SM -RA BR OVC015 10/07 A2989",
      "metarObsTime": 1777125960
    },
    "KAOO": {
      "status": "OK",
      "delay": "—",
      "metarCat": "MVFR",
      "metarRaw": "SPECI KAOO 251357Z AUTO 13009KT 3SM -RA BR OVC010 11/10 A2985 RMK AO2 P0001 T01110100",
      "metarObsTime": 1777125420
    },
    "KLNS": {
      "status": "OK",
      "delay": "—",
      "metarCat": "VFR",
      "metarRaw": "METAR KLNS 251353Z 13012KT 10SM FEW038 OVC048 11/06 A2994 RMK AO2 SLP137 T01110061",
      "metarObsTime": 1777125180
    },
    "KIPT": {
      "status": "OK",
      "delay": "—",
      "metarCat": "VFR",
      "metarRaw": "METAR KIPT 251354Z 07015G22KT 10SM OVC041 10/04 A2988 RMK AO2 SLP120 T01000039 $",
      "metarObsTime": 1777125240
    },
    "KPHL": {
      "status": "OK",
      "delay": "—",
      "metarCat": "VFR",
      "metarRaw": "METAR KPHL 251354Z 09013G20KT 10SM FEW022 BKN045 BKN095 OVC250 12/06 A2999 RMK AO2 RAE18 SLP153 P0000 T01220056 $",
      "metarObsTime": 1777125240
    },
    "KABE": {
      "status": "OK",
      "delay": "—",
      "metarCat": "MVFR",
      "metarRaw": "METAR KABE 251351Z 10012KT 10SM BKN019 BKN025 OVC047 09/04 A2998 RMK AO2 SLP152 T00890044 $",
      "metarObsTime": 1777125060
    },
    "KAVP": {
      "status": "OK",
      "delay": "—",
      "metarCat": "VFR",
      "metarRaw": "METAR KAVP 251354Z VRB05KT 10SM -RA OVC040 07/04 A2995 RMK AO2 SLP142 P0002 T00670039 $",
      "metarObsTime": 1777125240
    },
    "KHZL": {
      "status": "OK",
      "delay": "—",
      "metarCat": "MVFR",
      "metarRaw": "METAR KHZL 251355Z AUTO 12009G17KT 100V160 10SM OVC012 07/03 A2995 RMK AO2",
      "metarObsTime": 1777125300
    }
  }
}