{
  "generatedAt": "2026-03-05T13:55:16.959Z",
  "airports": {
    "KPIT": {
      "status": "OK",
      "delay": "—",
      "metarCat": "MVFR",
      "metarRaw": "METAR KPIT 051351Z 20005KT 4SM -RA BR SCT007 BKN014 OVC055 13/13 A3008 RMK AO2 SLP194 P0010 T01330128",
      "metarObsTime": 1772718660
    },
    "KAGC": {
      "status": "OK",
      "delay": "—",
      "metarCat": "IFR",
      "metarRaw": "SPECI KAGC 051329Z 20008KT 1 3/4SM -RA BR BKN009 OVC080 13/13 A3008 RMK AO2 P0006 T01280128",
      "metarObsTime": 1772717340
    },
    "KLBE": {
      "status": "OK",
      "delay": "—",
      "metarCat": "MVFR",
      "metarRaw": "METAR KLBE 051347Z 21010KT 3SM -RA BR BKN015 OVC035 14/14 A3011",
      "metarObsTime": 1772718420
    },
    "KJST": {
      "status": "OK",
      "delay": "—",
      "metarCat": "IFR",
      "metarRaw": "SPECI KJST 051323Z AUTO 21006KT 10SM OVC008 12/11 A3009 RMK AO2 T01170111",
      "metarObsTime": 1772716980
    },
    "KERI": {
      "status": "OK",
      "delay": "—",
      "metarCat": "IFR",
      "metarRaw": "METAR KERI 051351Z 07006KT 1SM R06/P6000FT -RA BR OVC009 03/03 A3009 RMK AO2 RAB16 CIG 008V012 SLP195 P0002 T00330028",
      "metarObsTime": 1772718660
    },
    "KDUJ": {
      "status": "OK",
      "delay": "—",
      "metarCat": "LIFR",
      "metarRaw": "SPECI KDUJ 051336Z AUTO 09005KT 1/2SM FG VV003 06/06 A3009 RMK AO2 T00610061",
      "metarObsTime": 1772717760
    },
    "KBFD": {
      "status": "OK",
      "delay": "—",
      "metarCat": "IFR",
      "metarRaw": "SPECI KBFD 051344Z AUTO 10004KT 1 1/4SM -RA BR OVC006 05/05 A3011 RMK AO2 P0003 T00500050",
      "metarObsTime": 1772718240
    },
    "KBTP": {
      "status": "OK",
      "delay": "—",
      "metarCat": "IFR",
      "metarRaw": "SPECI KBTP 051333Z AUTO 15003KT 2SM BR OVC005 12/12 A3009 RMK AO2 CIG 002V007 $",
      "metarObsTime": 1772717580
    },
    "KFKL": {
      "status": "OK",
      "delay": "—",
      "metarCat": "LIFR",
      "metarRaw": "SPECI KFKL 051334Z AUTO 12005KT 3/4SM -RA BR OVC003 08/08 A3008 RMK AO2 RAB01 P0001",
      "metarObsTime": 1772717640
    },
    "KIDI": {
      "status": "OK",
      "delay": "—",
      "metarCat": "MVFR",
      "metarRaw": "METAR KIDI 051335Z AUTO 00000KT 8SM OVC010 11/11 A3010 RMK A01",
      "metarObsTime": 1772717700
    },
    "KMDT": {
      "status": "OK",
      "delay": "—",
      "metarCat": "LIFR",
      "metarRaw": "SPECI KMDT 051348Z 15004KT 1/4SM R13/1400V2200FT FG VV003 06/06 A3018 RMK AO2 T00560056",
      "metarObsTime": 1772718480
    },
    "KCXY": {
      "status": "OK",
      "delay": "—",
      "metarCat": "LIFR",
      "metarRaw": "SPECI KCXY 051317Z 11005KT 1/2SM R08/1800V3500FT -RA FG VV003 06/06 A3018 RMK AO2 P0000 T00610061",
      "metarObsTime": 1772716620
    },
    "KMUI": {
      "status": "OK",
      "delay": "—",
      "metarCat": "LIFR",
      "metarRaw": "SPECI KMUI 051314Z 00000KT 2SM BR OVC003 07/06 A3016 RMK AO2A RAE14 SLP219",
      "metarObsTime": 1772716440
    },
    "KUNV": {
      "status": "OK",
      "delay": "—",
      "metarCat": "IFR",
      "metarRaw": "METAR KUNV 051353Z 00000KT 2SM BR SCT003 BKN007 OVC009 04/04 A3015",
      "metarObsTime": 1772718780
    },
    "KAOO": {
      "status": "OK",
      "delay": "—",
      "metarCat": "IFR",
      "metarRaw": "METAR KAOO 051253Z AUTO 00000KT 4SM BR OVC007 05/05 A3012 RMK AO2 SLP210 T00500050",
      "metarObsTime": 1772715180
    },
    "KLNS": {
      "status": "OK",
      "delay": "—",
      "metarCat": "IFR",
      "metarRaw": "SPECI KLNS 051349Z 10004KT 2 1/2SM BR OVC006 07/06 A3019 RMK AO2 CIG 003V009",
      "metarObsTime": 1772718540
    },
    "KIPT": {
      "status": "OK",
      "delay": "—",
      "metarCat": "LIFR",
      "metarRaw": "SPECI KIPT 051322Z 00000KT 2SM -RA BR OVC003 04/04 A3017 RMK AO2 RAB15 P0001 T00440044 $",
      "metarObsTime": 1772716920
    },
    "KPHL": {
      "status": "OK",
      "delay": "—",
      "metarCat": "IFR",
      "metarRaw": "SPECI KPHL 051344Z 06004KT 2 1/2SM -RA BR OVC008 07/05 A3022 RMK AO2 P0006 T00720050 $",
      "metarObsTime": 1772718240
    },
    "KABE": {
      "status": "OK",
      "delay": "—",
      "metarCat": "IFR",
      "metarRaw": "METAR KABE 051351Z 09007KT 2 1/2SM RA BR FEW004 BKN027 OVC039 06/06 A3019 RMK AO2 SLP227 P0014 T00610056",
      "metarObsTime": 1772718660
    },
    "KAVP": {
      "status": "OK",
      "delay": "—",
      "metarCat": "IFR",
      "metarRaw": "SPECI KAVP 051342Z AUTO 05003KT 2SM -RA BR FEW002 BKN018 OVC060 06/06 A3016 RMK AO2 P0003 T00610056",
      "metarObsTime": 1772718120
    },
    "KHZL": {
      "status": "OK",
      "delay": "—",
      "metarCat": "LIFR",
      "metarRaw": "METAR KHZL 051335Z AUTO 13004KT 10SM -DZ BKN004 OVC016 05/05 A3018 RMK AO2",
      "metarObsTime": 1772717700
    }
  }
}