{
  "generatedAt": "2026-04-15T13:40:48.918Z",
  "airports": {
    "KPIT": {
      "status": "OK",
      "delay": "—",
      "metarCat": "VFR",
      "metarRaw": "METAR KPIT 151251Z 22010KT 10SM FEW038 FEW065 SCT220 21/15 A2998 RMK AO2 SLP154 T02110150 $",
      "metarObsTime": 1776257460
    },
    "KAGC": {
      "status": "OK",
      "delay": "—",
      "metarCat": "VFR",
      "metarRaw": "METAR KAGC 151253Z 23006KT 10SM BKN040 21/15 A3000 RMK AO2 SLP156 T02060150",
      "metarObsTime": 1776257580
    },
    "KLBE": {
      "status": "OK",
      "delay": "—",
      "metarCat": "—",
      "metarRaw": "METAR KLBE 151253Z 21015G22KT 10SM OVC41 21/16 A3003",
      "metarObsTime": 1776257580
    },
    "KJST": {
      "status": "OK",
      "delay": "—",
      "metarCat": "MVFR",
      "metarRaw": "METAR KJST 151254Z AUTO 23011KT 10SM -RA BKN030 OVC060 18/14 A3004 RMK AO2 RAE22B46 SLP166 P0006 T01780144",
      "metarObsTime": 1776257640
    },
    "KERI": {
      "status": "OK",
      "delay": "—",
      "metarCat": "VFR",
      "metarRaw": "METAR KERI 151251Z 20015KT 10SM -RA FEW095 BKN110 20/13 A2981 RMK AO2 PK WND 20031/1156 RAB24E38B42 SLP091 P0000 T02000128 $",
      "metarObsTime": 1776257460
    },
    "KDUJ": {
      "status": "OK",
      "delay": "—",
      "metarCat": "VFR",
      "metarRaw": "METAR KDUJ 151253Z AUTO 23011KT 10SM CLR 18/16 A2999 RMK AO2 SLP147 T01830156",
      "metarObsTime": 1776257580
    },
    "KBFD": {
      "status": "OK",
      "delay": "—",
      "metarCat": "VFR",
      "metarRaw": "METAR KBFD 151253Z AUTO 20008KT 10SM CLR 16/14 A2994 RMK AO2 SLP133 T01610139",
      "metarObsTime": 1776257580
    },
    "KBTP": {
      "status": "OK",
      "delay": "—",
      "metarCat": "VFR",
      "metarRaw": "METAR KBTP 151256Z AUTO 23005KT 10SM SCT033 BKN055 21/17 A3000 RMK AO2 SLP157 T02110167 PNO $",
      "metarObsTime": 1776257760
    },
    "KFKL": {
      "status": "OK",
      "delay": "—",
      "metarCat": "VFR",
      "metarRaw": "METAR KFKL 151256Z AUTO 22010KT 10SM FEW047 SCT065 18/14 A2997 RMK AO2 SLP143 T01830139",
      "metarObsTime": 1776257760
    },
    "KIDI": {
      "status": "OK",
      "delay": "—",
      "metarCat": "VFR",
      "metarRaw": "METAR KIDI 151335Z AUTO 21010G16KT 10SM BKN032 BKN039 OVC045 20/16 A3001 RMK A01",
      "metarObsTime": 1776260100
    },
    "KMDT": {
      "status": "OK",
      "delay": "—",
      "metarCat": "VFR",
      "metarRaw": "METAR KMDT 151256Z 00000KT 10SM FEW110 BKN250 21/16 A2997 RMK AO2 SLP147 T02060161",
      "metarObsTime": 1776257760
    },
    "KCXY": {
      "status": "OK",
      "delay": "—",
      "metarCat": "VFR",
      "metarRaw": "METAR KCXY 151256Z VRB03KT 10SM CLR 19/16 A2998 RMK AO2 SLP153 T01940161",
      "metarObsTime": 1776257760
    },
    "KMUI": {
      "status": "OK",
      "delay": "—",
      "metarCat": "—",
      "metarRaw": "—",
      "metarObsTime": null
    },
    "KUNV": {
      "status": "OK",
      "delay": "—",
      "metarCat": "VFR",
      "metarRaw": "METAR KUNV 151253Z 21007KT 10SM BKN040 BKN080 18/17 A2998",
      "metarObsTime": 1776257580
    },
    "KAOO": {
      "status": "OK",
      "delay": "—",
      "metarCat": "VFR",
      "metarRaw": "METAR KAOO 151253Z AUTO 26009G19KT 10SM -RA FEW048 SCT065 SCT085 21/15 A3001 RMK AO2 RAB38 SLP154 P0000 T02110150",
      "metarObsTime": 1776257580
    },
    "KLNS": {
      "status": "OK",
      "delay": "—",
      "metarCat": "VFR",
      "metarRaw": "METAR KLNS 151253Z 00000KT 8SM CLR 18/17 A2999 RMK AO2 SLP152 T01830167",
      "metarObsTime": 1776257580
    },
    "KIPT": {
      "status": "OK",
      "delay": "—",
      "metarCat": "LIFR",
      "metarRaw": "SPECI KIPT 151312Z 00000KT 5SM -RA BR BKN002 OVC007 16/16 A2995 RMK AO2 P0001 T01610156 $",
      "metarObsTime": 1776258720
    },
    "KPHL": {
      "status": "OK",
      "delay": "—",
      "metarCat": "VFR",
      "metarRaw": "METAR KPHL 151254Z 24009KT 10SM FEW075 BKN240 BKN280 21/17 A2999 RMK AO2 SLP155 T02110172 $",
      "metarObsTime": 1776257640
    },
    "KABE": {
      "status": "OK",
      "delay": "—",
      "metarCat": "VFR",
      "metarRaw": "METAR KABE 151251Z 00000KT 10SM CLR 20/16 A2997 RMK AO2 SLP147 T02000156 $",
      "metarObsTime": 1776257460
    },
    "KAVP": {
      "status": "OK",
      "delay": "—",
      "metarCat": "VFR",
      "metarRaw": "METAR KAVP 151254Z 22004KT 10SM CLR 18/16 A2997 RMK AO2 SLP142 T01780156",
      "metarObsTime": 1776257640
    },
    "KHZL": {
      "status": "OK",
      "delay": "—",
      "metarCat": "VFR",
      "metarRaw": "METAR KHZL 151335Z AUTO 22004KT 10SM CLR 21/15 A3001 RMK AO2",
      "metarObsTime": 1776260100
    }
  }
}