{
  "generatedAt": "2026-04-03T13:00:39.773Z",
  "airports": {
    "KPIT": {
      "status": "OK",
      "delay": "—",
      "metarCat": "VFR",
      "metarRaw": "METAR KPIT 031251Z 21007KT 10SM SCT060 BKN110 OVC250 18/15 A3012 RMK AO2 RAE42 SLP199 P0003 T01830150",
      "metarObsTime": 1775220660
    },
    "KAGC": {
      "status": "OK",
      "delay": "—",
      "metarCat": "VFR",
      "metarRaw": "METAR KAGC 031253Z 21010KT 7SM -RA FEW050 SCT080 OVC100 18/14 A3013 RMK AO2 RAB15 SLP201 P0005 T01830144",
      "metarObsTime": 1775220780
    },
    "KLBE": {
      "status": "OK",
      "delay": "—",
      "metarCat": "VFR",
      "metarRaw": "METAR KLBE 031253Z 21013G22KT 10SM OVC050 21/14 A3016",
      "metarObsTime": 1775220780
    },
    "KJST": {
      "status": "OK",
      "delay": "—",
      "metarCat": "VFR",
      "metarRaw": "METAR KJST 031254Z AUTO 21005KT 10SM -RA FEW047 BKN095 BKN120 13/10 A3018 RMK AO2 RAB52 SLP222 P0000 T01330100",
      "metarObsTime": 1775220840
    },
    "KERI": {
      "status": "OK",
      "delay": "—",
      "metarCat": "VFR",
      "metarRaw": "METAR KERI 031251Z 19020G30KT 10SM BKN043 20/14 A2997 RMK AO2 PK WND 19032/1234 SLP150 T02000144",
      "metarObsTime": 1775220660
    },
    "KDUJ": {
      "status": "OK",
      "delay": "—",
      "metarCat": "MVFR",
      "metarRaw": "METAR KDUJ 031253Z AUTO VRB03KT 4SM RA BR FEW030 BKN046 OVC070 12/11 A3013 RMK AO2 RAB1157 SLP203 P0009 T01220111",
      "metarObsTime": 1775220780
    },
    "KBFD": {
      "status": "OK",
      "delay": "—",
      "metarCat": "VFR",
      "metarRaw": "METAR KBFD 031253Z AUTO VRB06KT 8SM -RA FEW016 BKN040 OVC090 11/10 A3010 RMK AO2 RAB33 SLP196 P0004 T01110100",
      "metarObsTime": 1775220780
    },
    "KBTP": {
      "status": "OK",
      "delay": "—",
      "metarCat": "VFR",
      "metarRaw": "METAR KBTP 031256Z AUTO 21009KT 10SM -RA FEW038 BKN048 OVC060 17/17 A3012 RMK AO2 SLP201 P0002 T01720172 $",
      "metarObsTime": 1775220960
    },
    "KFKL": {
      "status": "OK",
      "delay": "—",
      "metarCat": "VFR",
      "metarRaw": "METAR KFKL 031256Z AUTO 22014G21KT 10SM SCT020 OVC037 18/15 A3009 RMK AO2 SLP185 T01780150",
      "metarObsTime": 1775220960
    },
    "KIDI": {
      "status": "OK",
      "delay": "—",
      "metarCat": "VFR",
      "metarRaw": "METAR KIDI 031255Z AUTO VRB06KT 10SM OVC046 19/13 A3015 RMK A01",
      "metarObsTime": 1775220900
    },
    "KMDT": {
      "status": "OK",
      "delay": "—",
      "metarCat": "LIFR",
      "metarRaw": "METAR KMDT 031256Z 12006KT 1 1/4SM R13/5000VP6000FT BR OVC004 07/07 A3029 RMK AO2 SLP259 T00670067 $",
      "metarObsTime": 1775220960
    },
    "KCXY": {
      "status": "OK",
      "delay": "—",
      "metarCat": "IFR",
      "metarRaw": "METAR KCXY 031256Z 11005KT 1 3/4SM R08/5500VP6000FT BR OVC005 07/06 A3029 RMK AO2 SLP262 T00670061",
      "metarObsTime": 1775220960
    },
    "KMUI": {
      "status": "OK",
      "delay": "—",
      "metarCat": "LIFR",
      "metarRaw": "METAR KMUI 031156Z 00000KT 1SM BR OVC003 06/06 A3029 RMK AO2A SLP263 70003 T00590056 10060 20054 55001",
      "metarObsTime": 1775217360
    },
    "KUNV": {
      "status": "OK",
      "delay": "—",
      "metarCat": "LIFR",
      "metarRaw": "METAR KUNV 031253Z 23007KT 4SM BR OVC004 08/08 A3021",
      "metarObsTime": 1775220780
    },
    "KAOO": {
      "status": "OK",
      "delay": "—",
      "metarCat": "IFR",
      "metarRaw": "METAR KAOO 031253Z AUTO 20007KT 10SM OVC005 09/09 A3022 RMK AO2 SLP239 T00940089",
      "metarObsTime": 1775220780
    },
    "KLNS": {
      "status": "OK",
      "delay": "—",
      "metarCat": "LIFR",
      "metarRaw": "METAR KLNS 031253Z 11003KT 1 3/4SM BR OVC002 06/06 A3030 RMK AO2 SLP261 T00610061",
      "metarObsTime": 1775220780
    },
    "KIPT": {
      "status": "OK",
      "delay": "—",
      "metarCat": "IFR",
      "metarRaw": "METAR KIPT 031254Z COR 12008KT 4SM BR OVC007 06/05 A3025 RMK AO2 SLP246 T00610050",
      "metarObsTime": 1775220840
    },
    "KPHL": {
      "status": "OK",
      "delay": "—",
      "metarCat": "LIFR",
      "metarRaw": "METAR KPHL 031254Z 10004KT 1 3/4SM BR OVC003 08/07 A3032 RMK AO2 DZE51 SLP266 P0000 T00780067",
      "metarObsTime": 1775220840
    },
    "KABE": {
      "status": "OK",
      "delay": "—",
      "metarCat": "LIFR",
      "metarRaw": "METAR KABE 031251Z 00000KT 2SM BR OVC004 06/05 A3031 RMK AO2 SLP265 T00560050 $",
      "metarObsTime": 1775220660
    },
    "KAVP": {
      "status": "OK",
      "delay": "—",
      "metarCat": "MVFR",
      "metarRaw": "METAR KAVP 031254Z 22007KT 10SM OVC014 07/05 A3024 RMK AO2 RAB12E22 SLP244 P0000 T00720050",
      "metarObsTime": 1775220840
    },
    "KHZL": {
      "status": "OK",
      "delay": "—",
      "metarCat": "LIFR",
      "metarRaw": "METAR KHZL 031235Z AUTO 00000KT 3/4SM BR OVC002 05/04 A3028 RMK AO2",
      "metarObsTime": 1775219700
    }
  }
}