{
  "generatedAt": "2026-03-18T01:00:22.209Z",
  "airports": {
    "KPIT": {
      "status": "OK",
      "delay": "—",
      "metarCat": "VFR",
      "metarRaw": "METAR KPIT 180051Z 25005KT 10SM FEW025 SCT065 M07/M12 A3018 RMK AO2 SLP245 T10671117",
      "metarObsTime": 1773795060
    },
    "KAGC": {
      "status": "OK",
      "delay": "—",
      "metarCat": "VFR",
      "metarRaw": "METAR KAGC 180053Z 27009G16KT 10SM SCT038 BKN070 M07/M12 A3017 RMK AO2 SNB24E41 SLP242 P0000 T10671122",
      "metarObsTime": 1773795180
    },
    "KLBE": {
      "status": "OK",
      "delay": "—",
      "metarCat": "VFR",
      "metarRaw": "METAR KLBE 180050Z 21011KT 10SM CLR M06/M10 A3021",
      "metarObsTime": 1773795000
    },
    "KJST": {
      "status": "OK",
      "delay": "—",
      "metarCat": "IFR",
      "metarRaw": "METAR KJST 180051Z AUTO 28012G22KT 2 1/2SM -SN BR BKN014 BKN018 OVC044 M09/M11 A3007 RMK AO2 PK WND 28027/2359 SNB00E14B33 SLP222 P0000 T10891111",
      "metarObsTime": 1773795060
    },
    "KERI": {
      "status": "OK",
      "delay": "—",
      "metarCat": "VFR",
      "metarRaw": "METAR KERI 180051Z 25006KT 10SM SCT034 BKN050 M05/M12 A3015 RMK AO2 SLP221 T10501122",
      "metarObsTime": 1773795060
    },
    "KDUJ": {
      "status": "OK",
      "delay": "—",
      "metarCat": "MVFR",
      "metarRaw": "METAR KDUJ 180053Z AUTO 26006KT 8SM -SN BKN024 BKN065 M09/M11 A3009 RMK AO2 SNE13B22 SLP218 P0000 T10941111",
      "metarObsTime": 1773795180
    },
    "KBFD": {
      "status": "OK",
      "delay": "—",
      "metarCat": "VFR",
      "metarRaw": "METAR KBFD 180053Z AUTO 28006KT 10SM SCT025 BKN033 OVC055 M09/M14 A3004 RMK AO2 SNB06E17 SLP208 P0000 T10941139",
      "metarObsTime": 1773795180
    },
    "KBTP": {
      "status": "OK",
      "delay": "—",
      "metarCat": "VFR",
      "metarRaw": "METAR KBTP 172356Z AUTO 28008G18KT 10SM CLR M07/M13 A3015 RMK AO2 SNB29E40 SLPNO P0000 60002 T10671128 11006 21067 53035 FZRANO $",
      "metarObsTime": 1773791760
    },
    "KFKL": {
      "status": "OK",
      "delay": "—",
      "metarCat": "VFR",
      "metarRaw": "METAR KFKL 172356Z AUTO 26005KT 9SM -SN SCT060 M09/M11 A3011 RMK AO2 SNB01 SLP224 P0000 60000 T10891111 11039 21089 51031 FZRANO",
      "metarObsTime": 1773791760
    },
    "KIDI": {
      "status": "OK",
      "delay": "—",
      "metarCat": "VFR",
      "metarRaw": "METAR KIDI 180055Z AUTO 26008KT 10SM FEW032 SCT042 BKN060 M07/M13 A3015 RMK A01",
      "metarObsTime": 1773795300
    },
    "KMDT": {
      "status": "OK",
      "delay": "—",
      "metarCat": "VFR",
      "metarRaw": "METAR KMDT 172356Z 30012KT 10SM SCT046 BKN055 BKN065 M01/M09 A3011 RMK AO2 SLP200 T10061089 10028 21006 53041",
      "metarObsTime": 1773791760
    },
    "KCXY": {
      "status": "OK",
      "delay": "—",
      "metarCat": "VFR",
      "metarRaw": "METAR KCXY 172356Z 30011G19KT 10SM BKN055 BKN080 BKN095 M01/M10 A3012 RMK AO2 SLP205 60000 T10061100 10028 21011 53042",
      "metarObsTime": 1773791760
    },
    "KMUI": {
      "status": "OK",
      "delay": "—",
      "metarCat": "VFR",
      "metarRaw": "SPECI KMUI 180037Z 30016G22KT 10SM -SN BKN041 BKN070 M01/M10 A3011 RMK AO2A SNB37 SLP205",
      "metarObsTime": 1773794220
    },
    "KUNV": {
      "status": "OK",
      "delay": "—",
      "metarCat": "VFR",
      "metarRaw": "METAR KUNV 180053Z 30010KT 10SM CLR M05/M13 A3012",
      "metarObsTime": 1773795180
    },
    "KAOO": {
      "status": "OK",
      "delay": "—",
      "metarCat": "IFR",
      "metarRaw": "METAR KAOO 180053Z AUTO 28009G19KT 2SM -SN BKN026 M07/M10 A3013 RMK AO2 SNE10B40 SLP227 P0000 T10671100",
      "metarObsTime": 1773795180
    },
    "KLNS": {
      "status": "OK",
      "delay": "—",
      "metarCat": "VFR",
      "metarRaw": "METAR KLNS 180053Z 27009KT 10SM FEW044 BKN060 OVC075 M01/M08 A3013 RMK AO2 PK WND 29026/0003 SLP208 T10111078",
      "metarObsTime": 1773795180
    },
    "KIPT": {
      "status": "OK",
      "delay": "—",
      "metarCat": "VFR",
      "metarRaw": "METAR KIPT 180054Z 28014G19KT 10SM FEW080 M03/M13 A3012 RMK AO2 SLP207 T10331128",
      "metarObsTime": 1773795240
    },
    "KPHL": {
      "status": "OK",
      "delay": "—",
      "metarCat": "VFR",
      "metarRaw": "METAR KPHL 180054Z 30011KT 10SM BKN065 BKN090 03/M12 A3014 RMK AO2 SLP205 T00281117 $",
      "metarObsTime": 1773795240
    },
    "KABE": {
      "status": "OK",
      "delay": "—",
      "metarCat": "VFR",
      "metarRaw": "METAR KABE 180051Z 28008KT 10SM CLR M02/M09 A3010 RMK AO2 SLP196 T10171089 $",
      "metarObsTime": 1773795060
    },
    "KAVP": {
      "status": "OK",
      "delay": "—",
      "metarCat": "VFR",
      "metarRaw": "METAR KAVP 180054Z 27009KT 10SM SCT044 BKN090 M03/M09 A3005 RMK AO2 SLP185 T10331094",
      "metarObsTime": 1773795240
    },
    "KHZL": {
      "status": "OK",
      "delay": "—",
      "metarCat": "VFR",
      "metarRaw": "METAR KHZL 180035Z AUTO 27003KT 10SM SCT023 SCT041 SCT050 M04/M09 RMK AO2",
      "metarObsTime": 1773794100
    }
  }
}