{
  "generatedAt": "2026-07-14T00:13:13.756Z",
  "faaFlow": {
    "updatedAt": "2026-07-14T00:13:13.660Z",
    "source": "https://www.fly.faa.gov/adv/adv_spt",
    "terminal": [],
    "enroute": [
      {
        "time": "—",
        "text": "UNTIL",
        "code": "FLOW",
        "label": "FAA flow impact",
        "level": "yellow",
        "section": "En Route Planned",
        "airports": []
      },
      {
        "time": "0500",
        "text": "SIERRA RTES POSSIBLE",
        "code": "FLOW",
        "label": "FAA flow impact",
        "level": "yellow",
        "section": "En Route Planned",
        "airports": []
      },
      {
        "time": "—",
        "text": "UNTIL",
        "code": "FLOW",
        "label": "FAA flow impact",
        "level": "yellow",
        "section": "En Route Planned",
        "airports": []
      },
      {
        "time": "0500",
        "text": "PHX CDRS/SWAP/ARRIVAL RTES POSSIBLE",
        "code": "ROUTE",
        "label": "Route impact possible",
        "level": "blue",
        "section": "En Route Planned",
        "airports": []
      },
      {
        "time": "—",
        "text": "AFTER",
        "code": "FLOW",
        "label": "FAA flow impact",
        "level": "yellow",
        "section": "En Route Planned",
        "airports": []
      },
      {
        "time": "0630",
        "text": "NO AR/ATLANTIC Y RTES TO RSW/TPA/RSW AREAS EXPECTED",
        "code": "FLOW",
        "label": "FAA flow impact",
        "level": "yellow",
        "section": "En Route Planned",
        "airports": []
      },
      {
        "time": "—",
        "text": "AFTER",
        "code": "FLOW",
        "label": "FAA flow impact",
        "level": "yellow",
        "section": "En Route Planned",
        "airports": []
      },
      {
        "time": "0714",
        "text": "CAPE LAUNCH 1A FOR FLL/OPF EXPECTED CDRS/SWAP/CAPPING/TUNNELING/HOTLINE/DIVERSION RECOVERY:",
        "code": "ROUTE",
        "label": "Route impact possible",
        "level": "orange",
        "section": "En Route Planned",
        "airports": []
      },
      {
        "time": "—",
        "text": "UNTIL",
        "code": "FLOW",
        "label": "FAA flow impact",
        "level": "yellow",
        "section": "En Route Planned",
        "airports": []
      },
      {
        "time": "0300",
        "text": "ZDC SWAP STATEMENT",
        "code": "ROUTE",
        "label": "Route impact possible",
        "level": "blue",
        "section": "En Route Planned",
        "airports": []
      },
      {
        "time": "—",
        "text": "UNTIL",
        "code": "FLOW",
        "label": "FAA flow impact",
        "level": "yellow",
        "section": "En Route Planned",
        "airports": []
      },
      {
        "time": "0400",
        "text": "IAH/HOU CDRS RUNWAY/EQUIPMENT/POSSIBLE SYSTEM IMPACT REPORTS(SIRs): ORD - RWY 09L EGPWS ALERT UNTIL 07/17/26 AT",
        "code": "ROUTE",
        "label": "Route impact possible",
        "level": "blue",
        "section": "En Route Planned",
        "airports": []
      },
      {
        "time": "—",
        "text": "AFTER",
        "code": "FLOW",
        "label": "FAA flow impact",
        "level": "yellow",
        "section": "En Route Planned",
        "airports": []
      },
      {
        "time": "0400",
        "text": "IAD - RWY 19L ILS VIP MOVEMENT(S): NONE NEXT PLANNING WEBINAR:",
        "code": "FLOW",
        "label": "FAA flow impact",
        "level": "yellow",
        "section": "En Route Planned",
        "airports": []
      }
    ],
    "airports": {
      "KPIT": null,
      "KAGC": null,
      "KLBE": null,
      "KJST": null,
      "KERI": null,
      "KDUJ": null,
      "KBFD": null,
      "KBTP": null,
      "KFKL": null,
      "KIDI": null,
      "KMDT": null,
      "KCXY": null,
      "KMUI": null,
      "KUNV": null,
      "KAOO": null,
      "KLNS": null,
      "KIPT": null,
      "KPHL": null,
      "KABE": null,
      "KAVP": null,
      "KHZL": null
    }
  },
  "airports": {
    "KPIT": {
      "status": "OK",
      "delay": "—",
      "metarCat": "VFR",
      "metarRaw": "METAR KPIT 132351Z 17003KT 10SM FEW055 FEW250 29/18 A3016 RMK AO2 SLP209 T02890183 10311 20283 51004 $",
      "metarObsTime": 1783986660,
      "faaFlow": null
    },
    "KAGC": {
      "status": "OK",
      "delay": "—",
      "metarCat": "VFR",
      "metarRaw": "METAR KAGC 132353Z 18005KT 10SM SCT060 BKN075 28/17 A3016 RMK AO2 SLP208 T02830172 10306 20278 52003",
      "metarObsTime": 1783986780,
      "faaFlow": null
    },
    "KLBE": {
      "status": "OK",
      "delay": "—",
      "metarCat": "VFR",
      "metarRaw": "METAR KLBE 132350Z 00000KT 10SM CLR 28/19 A3018",
      "metarObsTime": 1783986600,
      "faaFlow": null
    },
    "KJST": {
      "status": "OK",
      "delay": "—",
      "metarCat": "VFR",
      "metarRaw": "METAR KJST 132354Z AUTO 16006KT 10SM CLR 24/16 A3023 RMK AO2 SLP225 T02390156 10267 20239 53003",
      "metarObsTime": 1783986840,
      "faaFlow": null
    },
    "KERI": {
      "status": "OK",
      "delay": "—",
      "metarCat": "VFR",
      "metarRaw": "METAR KERI 132351Z 23004KT 10SM CLR 27/12 A3013 RMK AO2 SLP199 T02670117 10283 20267 56010 $",
      "metarObsTime": 1783986660,
      "faaFlow": null
    },
    "KDUJ": {
      "status": "OK",
      "delay": "—",
      "metarCat": "VFR",
      "metarRaw": "METAR KDUJ 132353Z AUTO 24005KT 10SM SCT050 SCT065 26/18 A3019 RMK AO2 SLP209 T02610183 10289 20261 55000",
      "metarObsTime": 1783986780,
      "faaFlow": null
    },
    "KBFD": {
      "status": "OK",
      "delay": "—",
      "metarCat": "VFR",
      "metarRaw": "METAR KBFD 132353Z AUTO 30004KT 10SM CLR 26/18 A3019 RMK AO2 SLP205 T02610178 10289 20261 58004",
      "metarObsTime": 1783986780,
      "faaFlow": null
    },
    "KBTP": {
      "status": "OK",
      "delay": "—",
      "metarCat": "—",
      "metarRaw": "—",
      "metarObsTime": null,
      "faaFlow": null
    },
    "KFKL": {
      "status": "OK",
      "delay": "—",
      "metarCat": "VFR",
      "metarRaw": "METAR KFKL 132356Z AUTO 00000KT 10SM CLR 27/19 A3018 RMK AO2 SLP208 T02670194 10300 20267 58004",
      "metarObsTime": 1783986960,
      "faaFlow": null
    },
    "KIDI": {
      "status": "OK",
      "delay": "—",
      "metarCat": "VFR",
      "metarRaw": "METAR KIDI 132355Z AUTO 00000KT 10SM CLR 27/19 A3018 RMK A01",
      "metarObsTime": 1783986900,
      "faaFlow": null
    },
    "KMDT": {
      "status": "OK",
      "delay": "—",
      "metarCat": "VFR",
      "metarRaw": "METAR KMDT 132356Z 21005KT 10SM CLR 28/18 A3014 RMK AO2 SLP204 T02830183 10300 20283 50001",
      "metarObsTime": 1783986960,
      "faaFlow": null
    },
    "KCXY": {
      "status": "OK",
      "delay": "—",
      "metarCat": "VFR",
      "metarRaw": "METAR KCXY 132356Z 20005KT 10SM CLR 28/17 A3014 RMK AO2 SLP206 T02780167 10294 20278 50000",
      "metarObsTime": 1783986960,
      "faaFlow": null
    },
    "KMUI": {
      "status": "OK",
      "delay": "—",
      "metarCat": "VFR",
      "metarRaw": "METAR KMUI 132255Z 23005KT 10SM FEW060 30/16 A3013 RMK AO2A SLP203 T02970158",
      "metarObsTime": 1783983300,
      "faaFlow": null
    },
    "KUNV": {
      "status": "OK",
      "delay": "—",
      "metarCat": "VFR",
      "metarRaw": "METAR KUNV 132353Z 21006KT 10SM FEW055 27/18 A3017",
      "metarObsTime": 1783986780,
      "faaFlow": null
    },
    "KAOO": {
      "status": "OK",
      "delay": "—",
      "metarCat": "VFR",
      "metarRaw": "METAR KAOO 132353Z AUTO 19004KT 10SM CLR 24/17 A3020 RMK AO2 SLP217 T02440172 10278 20244 50001",
      "metarObsTime": 1783986780,
      "faaFlow": null
    },
    "KLNS": {
      "status": "OK",
      "delay": "—",
      "metarCat": "VFR",
      "metarRaw": "METAR KLNS 132353Z 19009KT 10SM CLR 27/17 A3016 RMK AO2 SLP210 T02670167 10289 20267 50003",
      "metarObsTime": 1783986780,
      "faaFlow": null
    },
    "KIPT": {
      "status": "OK",
      "delay": "—",
      "metarCat": "VFR",
      "metarRaw": "METAR KIPT 132354Z 19005KT 10SM FEW065 28/17 A3012 RMK AO2 SLP194 T02830172 10311 20283 53003",
      "metarObsTime": 1783986840,
      "faaFlow": null
    },
    "KPHL": {
      "status": "OK",
      "delay": "—",
      "metarCat": "VFR",
      "metarRaw": "METAR KPHL 132354Z 22009KT 10SM CLR 27/16 A3017 RMK AO2 SLP215 T02720156 10300 20261 50005",
      "metarObsTime": 1783986840,
      "faaFlow": null
    },
    "KABE": {
      "status": "OK",
      "delay": "—",
      "metarCat": "VFR",
      "metarRaw": "METAR KABE 132351Z 22013KT 10SM CLR 27/16 A3015 RMK AO2 SLP205 T02720156 10300 20272 50001",
      "metarObsTime": 1783986660,
      "faaFlow": null
    },
    "KAVP": {
      "status": "OK",
      "delay": "—",
      "metarCat": "VFR",
      "metarRaw": "METAR KAVP 132354Z 22005KT 10SM CLR 27/16 A3014 RMK AO2 SLP198 T02670161 10294 20267 55001",
      "metarObsTime": 1783986840,
      "faaFlow": null
    },
    "KHZL": {
      "status": "OK",
      "delay": "—",
      "metarCat": "VFR",
      "metarRaw": "METAR KHZL 132355Z AUTO 00000KT 10SM CLR 24/16 A3023 RMK AO2",
      "metarObsTime": 1783986900,
      "faaFlow": null
    }
  }
}