{
  "generatedAt": "2026-03-21T21:20:18.198Z",
  "airports": {
    "KPIT": {
      "status": "OK",
      "delay": "—",
      "metarCat": "VFR",
      "metarRaw": "METAR KPIT 212051Z 22003KT 10SM SCT180 SCT250 16/01 A2988 RMK AO2 SLP125 T01610011 56029",
      "metarObsTime": 1774126260
    },
    "KAGC": {
      "status": "OK",
      "delay": "—",
      "metarCat": "VFR",
      "metarRaw": "METAR KAGC 212053Z 00000KT 10SM CLR 16/01 A2987 RMK AO2 SLP119 T01610011 58027",
      "metarObsTime": 1774126380
    },
    "KLBE": {
      "status": "OK",
      "delay": "—",
      "metarCat": "VFR",
      "metarRaw": "METAR KLBE 212047Z 21008KT 10SM SCT070 17/03 A2989",
      "metarObsTime": 1774126020
    },
    "KJST": {
      "status": "OK",
      "delay": "—",
      "metarCat": "VFR",
      "metarRaw": "METAR KJST 212054Z AUTO 19008KT 10SM CLR 16/01 A2986 RMK AO2 SLP114 T01560006 58023",
      "metarObsTime": 1774126440
    },
    "KERI": {
      "status": "OK",
      "delay": "—",
      "metarCat": "VFR",
      "metarRaw": "METAR KERI 212051Z 05012KT 10SM OVC110 04/01 A2993 RMK AO2 SLP141 T00440006 56029",
      "metarObsTime": 1774126260
    },
    "KDUJ": {
      "status": "OK",
      "delay": "—",
      "metarCat": "VFR",
      "metarRaw": "METAR KDUJ 212053Z AUTO 27006KT 10SM BKN120 13/M01 A2987 RMK AO2 SLP119 T01281011 56024",
      "metarObsTime": 1774126380
    },
    "KBFD": {
      "status": "OK",
      "delay": "—",
      "metarCat": "VFR",
      "metarRaw": "METAR KBFD 212053Z AUTO 32003KT 10SM SCT120 08/00 A2989 RMK AO2 SLP131 T00830000 58013",
      "metarObsTime": 1774126380
    },
    "KBTP": {
      "status": "OK",
      "delay": "—",
      "metarCat": "VFR",
      "metarRaw": "METAR KBTP 212056Z AUTO 24004KT 10SM CLR 15/03 A2988 RMK AO2 SLP127 T01500028 56030 $",
      "metarObsTime": 1774126560
    },
    "KFKL": {
      "status": "OK",
      "delay": "—",
      "metarCat": "VFR",
      "metarRaw": "METAR KFKL 212056Z AUTO VRB03KT 10SM OVC110 13/00 A2988 RMK AO2 SLP125 T01330000 56031",
      "metarObsTime": 1774126560
    },
    "KIDI": {
      "status": "OK",
      "delay": "—",
      "metarCat": "VFR",
      "metarRaw": "METAR KIDI 212115Z AUTO 24006KT 10SM CLR 15/01 A2987 RMK A01",
      "metarObsTime": 1774127700
    },
    "KMDT": {
      "status": "OK",
      "delay": "—",
      "metarCat": "VFR",
      "metarRaw": "METAR KMDT 212056Z 28005KT 10SM CLR 14/04 A2990 RMK AO2 SLP126 T01390039 56016",
      "metarObsTime": 1774126560
    },
    "KCXY": {
      "status": "OK",
      "delay": "—",
      "metarCat": "VFR",
      "metarRaw": "METAR KCXY 212056Z VRB04KT 10SM CLR 14/02 A2990 RMK AO2 SLP127 T01440017 56016",
      "metarObsTime": 1774126560
    },
    "KMUI": {
      "status": "OK",
      "delay": "—",
      "metarCat": "VFR",
      "metarRaw": "METAR KMUI 212055Z AUTO 05007KT 10SM -RA BKN140 BKN160 OVC200 13/02 A2991 RMK AO2 RAE06DZB06E07RAB07E08DZB14E16RAB25 SLP132 P0000 60000 T01310017 55009",
      "metarObsTime": 1774126500
    },
    "KUNV": {
      "status": "OK",
      "delay": "—",
      "metarCat": "VFR",
      "metarRaw": "METAR KUNV 212053Z 29003KT 10SM CLR 15/01 A2988",
      "metarObsTime": 1774126380
    },
    "KAOO": {
      "status": "OK",
      "delay": "—",
      "metarCat": "VFR",
      "metarRaw": "METAR KAOO 212053Z AUTO VRB04KT 10SM CLR 17/02 A2986 RMK AO2 SLP111 T01670022 58030",
      "metarObsTime": 1774126380
    },
    "KLNS": {
      "status": "OK",
      "delay": "—",
      "metarCat": "VFR",
      "metarRaw": "METAR KLNS 212053Z 01005KT 10SM CLR 13/02 A2991 RMK AO2 SLP130 T01330022 55014",
      "metarObsTime": 1774126380
    },
    "KIPT": {
      "status": "OK",
      "delay": "—",
      "metarCat": "VFR",
      "metarRaw": "METAR KIPT 212054Z 12005KT 10SM CLR 10/01 A2993 RMK AO2 SLP138 T01000006 56015 $",
      "metarObsTime": 1774126440
    },
    "KPHL": {
      "status": "OK",
      "delay": "—",
      "metarCat": "VFR",
      "metarRaw": "METAR KPHL 212054Z 03008G15KT 10SM BKN180 BKN300 16/02 A2990 RMK AO2 SLP125 T01560017 56014 $",
      "metarObsTime": 1774126440
    },
    "KABE": {
      "status": "OK",
      "delay": "—",
      "metarCat": "VFR",
      "metarRaw": "METAR KABE 212051Z 35006KT 10SM CLR 11/00 A2993 RMK AO2 SLP136 T01110000 55006 $",
      "metarObsTime": 1774126260
    },
    "KAVP": {
      "status": "OK",
      "delay": "—",
      "metarCat": "MVFR",
      "metarRaw": "METAR KAVP 212054Z 32007KT 10SM OVC026 05/M01 A2997 RMK AO2 SLP151 T00501011 51003",
      "metarObsTime": 1774126440
    },
    "KHZL": {
      "status": "OK",
      "delay": "—",
      "metarCat": "VFR",
      "metarRaw": "METAR KHZL 212055Z AUTO 02003KT 10SM CLR 06/00 A2994 RMK AO2",
      "metarObsTime": 1774126500
    }
  }
}