{
  "generatedAt": "2026-04-19T06:30:53.202Z",
  "airports": {
    "KPIT": {
      "status": "OK",
      "delay": "—",
      "metarCat": "VFR",
      "metarRaw": "METAR KPIT 190551Z 32012KT 10SM -RA SCT033 OVC060 09/06 A2994 RMK AO2 SLP140 P0000 60004 T00890056 10161 20089 50014 $",
      "metarObsTime": 1776577860
    },
    "KAGC": {
      "status": "OK",
      "delay": "—",
      "metarCat": "VFR",
      "metarRaw": "METAR KAGC 190553Z 33010G21KT 10SM OVC055 09/03 A2992 RMK AO2 PK WND 33027/0518 RAE24 SLP132 P0001 60003 T00890033 10161 20089 53012",
      "metarObsTime": 1776577980
    },
    "KLBE": {
      "status": "OK",
      "delay": "—",
      "metarCat": "VFR",
      "metarRaw": "METAR KLBE 190615Z AUTO 29006KT 7SM -RA FEW021 SCT027 OVC045 09/08 A2994 RMK AO2",
      "metarObsTime": 1776579300
    },
    "KJST": {
      "status": "OK",
      "delay": "—",
      "metarCat": "IFR",
      "metarRaw": "SPECI KJST 190615Z AUTO 33011KT 9SM -RA BKN008 OVC015 08/07 A2987 RMK AO2 CIG 005V010 P0000 T00780067",
      "metarObsTime": 1776579300
    },
    "KERI": {
      "status": "OK",
      "delay": "—",
      "metarCat": "VFR",
      "metarRaw": "METAR KERI 190551Z AUTO 27008G17KT 10SM OVC038 07/02 A2995 RMK AO2 SLP142 60000 T00720017 10111 20072 51016 $",
      "metarObsTime": 1776577860
    },
    "KDUJ": {
      "status": "OK",
      "delay": "—",
      "metarCat": "VFR",
      "metarRaw": "SPECI KDUJ 190612Z AUTO 30009KT 10SM -RA FEW012 SCT028 OVC049 07/04 A2988 RMK AO2 P0000 T00670044",
      "metarObsTime": 1776579120
    },
    "KBFD": {
      "status": "OK",
      "delay": "—",
      "metarCat": "MVFR",
      "metarRaw": "METAR KBFD 190553Z AUTO 30012G21KT 10SM SCT015 BKN024 OVC029 06/04 A2988 RMK AO2 RAE43 SLP111 P0000 60009 T00610039 10144 20061 53004",
      "metarObsTime": 1776577980
    },
    "KBTP": {
      "status": "OK",
      "delay": "—",
      "metarCat": "VFR",
      "metarRaw": "SPECI KBTP 190603Z AUTO 30007KT 10SM -RA FEW012 SCT034 OVC065 08/07 A2994 RMK AO2 P0000 $",
      "metarObsTime": 1776578580
    },
    "KFKL": {
      "status": "OK",
      "delay": "—",
      "metarCat": "—",
      "metarRaw": "—",
      "metarObsTime": null
    },
    "KIDI": {
      "status": "OK",
      "delay": "—",
      "metarCat": "MVFR",
      "metarRaw": "METAR KIDI 190615Z AUTO 33011G19KT 6SM BR FEW015 SCT022 BKN028 08/07 A2992 RMK A01",
      "metarObsTime": 1776579300
    },
    "KMDT": {
      "status": "OK",
      "delay": "—",
      "metarCat": "VFR",
      "metarRaw": "METAR KMDT 190556Z 12007KT 7SM -RA SCT046 OVC080 14/12 A2981 RMK AO2 SLP094 P0001 60006 T01390122 10194 20139 56023",
      "metarObsTime": 1776578160
    },
    "KCXY": {
      "status": "OK",
      "delay": "—",
      "metarCat": "VFR",
      "metarRaw": "METAR KCXY 190556Z AUTO 11006KT 8SM -RA FEW011 OVC085 14/13 A2981 RMK AO2 RAE12B36 SLP095 P0002 60010 T01390128 10206 20139 56022 $",
      "metarObsTime": 1776578160
    },
    "KMUI": {
      "status": "OK",
      "delay": "—",
      "metarCat": "MVFR",
      "metarRaw": "SPECI KMUI 190614Z AUTO 08003KT 10SM -RA FEW007 OVC012 15/15 A2980 RMK AO2 RAE0555RAB06 SLP092",
      "metarObsTime": 1776579240
    },
    "KUNV": {
      "status": "OK",
      "delay": "—",
      "metarCat": "MVFR",
      "metarRaw": "METAR KUNV 190615Z AUTO 29008KT 10SM -DZ BKN018 OVC039 13/11 A2983 RMK AO2 T01280112",
      "metarObsTime": 1776579300
    },
    "KAOO": {
      "status": "OK",
      "delay": "—",
      "metarCat": "MVFR",
      "metarRaw": "METAR KAOO 190553Z AUTO 32012G23KT 10SM OVC028 12/08 A2984 RMK AO2 WSHFT 0445 RAE00 SLP096 P0000 60025 T01220083 10189 20122 56008",
      "metarObsTime": 1776577980
    },
    "KLNS": {
      "status": "OK",
      "delay": "—",
      "metarCat": "VFR",
      "metarRaw": "METAR KLNS 190553Z AUTO 14005KT 10SM BKN041 OVC070 13/12 A2983 RMK AO2 RAE21 SLP099 P0001 60001 T01280117 10172 20128 58009",
      "metarObsTime": 1776577980
    },
    "KIPT": {
      "status": "OK",
      "delay": "—",
      "metarCat": "VFR",
      "metarRaw": "SPECI KIPT 190608Z AUTO 08003KT 10SM FEW019 BKN034 OVC047 16/15 A2975 RMK AO2 T01560150 $",
      "metarObsTime": 1776578880
    },
    "KPHL": {
      "status": "OK",
      "delay": "—",
      "metarCat": "IFR",
      "metarRaw": "METAR KPHL 190554Z 03007KT 10SM OVC007 12/10 A2988 RMK AO2 SLP119 T01220100 10150 20117 58009 $",
      "metarObsTime": 1776578040
    },
    "KABE": {
      "status": "OK",
      "delay": "—",
      "metarCat": "IFR",
      "metarRaw": "METAR KABE 190551Z 13004KT 10SM OVC009 12/09 A2985 RMK AO2 RAE01 SLP109 P0000 60000 T01170094 10167 20111 58015 $",
      "metarObsTime": 1776577860
    },
    "KAVP": {
      "status": "OK",
      "delay": "—",
      "metarCat": "MVFR",
      "metarRaw": "METAR KAVP 190554Z AUTO VRB03KT 10SM OVC020 13/11 A2981 RMK AO2 RAE46 SLP089 P0000 60000 T01330106 10178 20133 56016",
      "metarObsTime": 1776578040
    },
    "KHZL": {
      "status": "OK",
      "delay": "—",
      "metarCat": "IFR",
      "metarRaw": "METAR KHZL 190615Z AUTO 00000KT 7SM -RA BKN006 OVC017 11/10 A2985 RMK AO2",
      "metarObsTime": 1776579300
    }
  }
}