{
  "generatedAt": "2026-03-10T02:50:16.596Z",
  "airports": {
    "KPIT": {
      "status": "OK",
      "delay": "—",
      "metarCat": "VFR",
      "metarRaw": "METAR KPIT 100151Z 19004KT 10SM CLR 16/M01 A2997 RMK AO2 SLP153 T01611006",
      "metarObsTime": 1773107460
    },
    "KAGC": {
      "status": "OK",
      "delay": "—",
      "metarCat": "VFR",
      "metarRaw": "METAR KAGC 100153Z AUTO 20006KT 10SM CLR 17/M02 A2997 RMK AO2 SLP153 T01671017",
      "metarObsTime": 1773107580
    },
    "KLBE": {
      "status": "OK",
      "delay": "—",
      "metarCat": "VFR",
      "metarRaw": "METAR KLBE 100235Z AUTO 20005KT 10SM CLR 13/01 A3001 RMK AO2",
      "metarObsTime": 1773110100
    },
    "KJST": {
      "status": "OK",
      "delay": "—",
      "metarCat": "VFR",
      "metarRaw": "METAR KJST 100154Z AUTO 21006KT 10SM CLR 14/M03 A3000 RMK AO2 SLP159 T01441033",
      "metarObsTime": 1773107640
    },
    "KERI": {
      "status": "OK",
      "delay": "—",
      "metarCat": "VFR",
      "metarRaw": "METAR KERI 100151Z 18010KT 10SM CLR 17/00 A2989 RMK AO2 SLP120 T01670000",
      "metarObsTime": 1773107460
    },
    "KDUJ": {
      "status": "OK",
      "delay": "—",
      "metarCat": "VFR",
      "metarRaw": "METAR KDUJ 100153Z AUTO 20005KT 10SM CLR 13/M04 A2996 RMK AO2 SLP147 T01281039",
      "metarObsTime": 1773107580
    },
    "KBFD": {
      "status": "OK",
      "delay": "—",
      "metarCat": "VFR",
      "metarRaw": "METAR KBFD 100153Z AUTO 22004KT 10SM CLR 13/M04 A2996 RMK AO2 SLP146 T01281039 $",
      "metarObsTime": 1773107580
    },
    "KBTP": {
      "status": "OK",
      "delay": "—",
      "metarCat": "VFR",
      "metarRaw": "METAR KBTP 100156Z AUTO 20006KT 10SM CLR 15/00 A2997 RMK AO2 SLP156 T01500000 $",
      "metarObsTime": 1773107760
    },
    "KFKL": {
      "status": "OK",
      "delay": "—",
      "metarCat": "VFR",
      "metarRaw": "METAR KFKL 100156Z AUTO 19008KT 10SM CLR 13/01 A2996 RMK AO2 SLP148 T01280006",
      "metarObsTime": 1773107760
    },
    "KIDI": {
      "status": "OK",
      "delay": "—",
      "metarCat": "VFR",
      "metarRaw": "METAR KIDI 100235Z AUTO 00000KT 10SM CLR 09/00 A3000 RMK A01",
      "metarObsTime": 1773110100
    },
    "KMDT": {
      "status": "OK",
      "delay": "—",
      "metarCat": "VFR",
      "metarRaw": "METAR KMDT 100156Z 19009KT 10SM CLR 14/03 A2997 RMK AO2 SLP150 T01440033",
      "metarObsTime": 1773107760
    },
    "KCXY": {
      "status": "OK",
      "delay": "—",
      "metarCat": "VFR",
      "metarRaw": "METAR KCXY 100156Z AUTO 10005KT 10SM CLR 15/03 A2997 RMK AO2 SLP151 T01500028",
      "metarObsTime": 1773107760
    },
    "KMUI": {
      "status": "OK",
      "delay": "—",
      "metarCat": "—",
      "metarRaw": "—",
      "metarObsTime": null
    },
    "KUNV": {
      "status": "OK",
      "delay": "—",
      "metarCat": "VFR",
      "metarRaw": "METAR KUNV 100235Z AUTO 00000KT 10SM CLR 12/M03 A2999 RMK AO2 T01151026",
      "metarObsTime": 1773110100
    },
    "KAOO": {
      "status": "OK",
      "delay": "—",
      "metarCat": "VFR",
      "metarRaw": "METAR KAOO 100153Z AUTO 20007KT 10SM CLR 13/M03 A3000 RMK AO2 SLP158 T01331033",
      "metarObsTime": 1773107580
    },
    "KLNS": {
      "status": "OK",
      "delay": "—",
      "metarCat": "VFR",
      "metarRaw": "METAR KLNS 100153Z 18004KT 10SM CLR 15/03 A2998 RMK AO2 SLP153 T01500033",
      "metarObsTime": 1773107580
    },
    "KIPT": {
      "status": "OK",
      "delay": "—",
      "metarCat": "VFR",
      "metarRaw": "METAR KIPT 100154Z 00000KT 10SM CLR 11/02 A2995 RMK AO2 SLP144 T01060022 $",
      "metarObsTime": 1773107640
    },
    "KPHL": {
      "status": "OK",
      "delay": "—",
      "metarCat": "VFR",
      "metarRaw": "METAR KPHL 100154Z 22005KT 10SM CLR 15/04 A3001 RMK AO2 SLP161 T01500039 $",
      "metarObsTime": 1773107640
    },
    "KABE": {
      "status": "OK",
      "delay": "—",
      "metarCat": "VFR",
      "metarRaw": "METAR KABE 100151Z 23005KT 10SM CLR 13/04 A2998 RMK AO2 SLP152 T01330039",
      "metarObsTime": 1773107460
    },
    "KAVP": {
      "status": "OK",
      "delay": "—",
      "metarCat": "VFR",
      "metarRaw": "METAR KAVP 100154Z 18003KT 10SM CLR 13/01 A2997 RMK AO2 SLP149 T01280006",
      "metarObsTime": 1773107640
    },
    "KHZL": {
      "status": "OK",
      "delay": "—",
      "metarCat": "VFR",
      "metarRaw": "METAR KHZL 100235Z AUTO 00000KT 10SM CLR 15/01 A3003 RMK AO2",
      "metarObsTime": 1773110100
    }
  }
}