{
  "generatedAt": "2026-04-17T07:50:50.869Z",
  "airports": {
    "KPIT": {
      "status": "OK",
      "delay": "—",
      "metarCat": "VFR",
      "metarRaw": "METAR KPIT 170651Z 28006KT 10SM FEW070 15/11 A2991 RMK AO2 SLP127 T01500111",
      "metarObsTime": 1776408660
    },
    "KAGC": {
      "status": "OK",
      "delay": "—",
      "metarCat": "VFR",
      "metarRaw": "METAR KAGC 170653Z VRB05KT 10SM FEW055 SCT100 17/12 A2991 RMK AO2 SLP123 T01670122",
      "metarObsTime": 1776408780
    },
    "KLBE": {
      "status": "OK",
      "delay": "—",
      "metarCat": "VFR",
      "metarRaw": "METAR KLBE 170735Z AUTO 20006KT 10SM FEW048 SCT055 SCT075 16/16 A2993 RMK AO2",
      "metarObsTime": 1776411300
    },
    "KJST": {
      "status": "OK",
      "delay": "—",
      "metarCat": "VFR",
      "metarRaw": "SPECI KJST 170739Z AUTO 27007KT 10SM FEW019 BKN037 OVC065 13/12 A2992 RMK AO2 RAB0658E12 P0000 T01330117",
      "metarObsTime": 1776411540
    },
    "KERI": {
      "status": "OK",
      "delay": "—",
      "metarCat": "LIFR",
      "metarRaw": "SPECI KERI 170728Z AUTO 26006KT 1/4SM R06/1200V1800FT FG VV002 11/11 A2990 RMK AO2 T01110111 $",
      "metarObsTime": 1776410880
    },
    "KDUJ": {
      "status": "OK",
      "delay": "—",
      "metarCat": "MVFR",
      "metarRaw": "SPECI KDUJ 170746Z AUTO 27006KT 10SM SCT008 BKN012 BKN019 14/13 A2988 RMK AO2 T01390133",
      "metarObsTime": 1776411960
    },
    "KBFD": {
      "status": "OK",
      "delay": "—",
      "metarCat": "IFR",
      "metarRaw": "SPECI KBFD 170733Z AUTO 26003KT 10SM OVC008 12/12 A2988 RMK AO2 CIG 003V011 T01220122",
      "metarObsTime": 1776411180
    },
    "KBTP": {
      "status": "OK",
      "delay": "—",
      "metarCat": "VFR",
      "metarRaw": "METAR KBTP 170656Z AUTO 25005KT 10SM CLR 13/13 A2991 RMK AO2 SLP127 T01330133 PNO $",
      "metarObsTime": 1776408960
    },
    "KFKL": {
      "status": "OK",
      "delay": "—",
      "metarCat": "—",
      "metarRaw": "—",
      "metarObsTime": null
    },
    "KIDI": {
      "status": "OK",
      "delay": "—",
      "metarCat": "VFR",
      "metarRaw": "METAR KIDI 170735Z AUTO 22006KT 10SM FEW039 BKN045 BKN060 13/13 A2990 RMK A01",
      "metarObsTime": 1776411300
    },
    "KMDT": {
      "status": "OK",
      "delay": "—",
      "metarCat": "VFR",
      "metarRaw": "METAR KMDT 170656Z 31008KT 10SM SCT090 19/14 A2983 RMK AO2 SLP098 T01890139",
      "metarObsTime": 1776408960
    },
    "KCXY": {
      "status": "OK",
      "delay": "—",
      "metarCat": "VFR",
      "metarRaw": "METAR KCXY 170656Z AUTO 27006KT 10SM BKN090 18/14 A2984 RMK AO2 SLP101 T01830139 $",
      "metarObsTime": 1776408960
    },
    "KMUI": {
      "status": "OK",
      "delay": "—",
      "metarCat": "VFR",
      "metarRaw": "METAR KMUI 170655Z AUTO 24005KT 10SM FEW090 20/16 A2981 RMK AO2 SLP093 T01990155",
      "metarObsTime": 1776408900
    },
    "KUNV": {
      "status": "OK",
      "delay": "—",
      "metarCat": "VFR",
      "metarRaw": "METAR KUNV 170735Z AUTO 19004KT 10SM -RA SCT060 OVC080 16/16 A2986 RMK AO2 T01560156",
      "metarObsTime": 1776411300
    },
    "KAOO": {
      "status": "OK",
      "delay": "—",
      "metarCat": "VFR",
      "metarRaw": "SPECI KAOO 170707Z AUTO 32008KT 10SM FEW007 SCT026 BKN049 16/13 A2990 RMK AO2 RAE04 P0000 T01560133",
      "metarObsTime": 1776409620
    },
    "KLNS": {
      "status": "OK",
      "delay": "—",
      "metarCat": "VFR",
      "metarRaw": "METAR KLNS 170653Z AUTO 29007KT 10SM SCT120 19/14 A2981 RMK AO2 SLP092 T01890139 $",
      "metarObsTime": 1776408780
    },
    "KIPT": {
      "status": "OK",
      "delay": "—",
      "metarCat": "—",
      "metarRaw": "—",
      "metarObsTime": null
    },
    "KPHL": {
      "status": "OK",
      "delay": "—",
      "metarCat": "VFR",
      "metarRaw": "METAR KPHL 170654Z 31006KT 10SM SCT110 SCT250 24/13 A2976 RMK AO2 SLP078 T02390133 $",
      "metarObsTime": 1776408840
    },
    "KABE": {
      "status": "OK",
      "delay": "—",
      "metarCat": "VFR",
      "metarRaw": "METAR KABE 170651Z 29005KT 10SM -RA BKN110 19/15 A2977 RMK AO2 RAB42 SLP078 P0000 T01940150",
      "metarObsTime": 1776408660
    },
    "KAVP": {
      "status": "OK",
      "delay": "—",
      "metarCat": "VFR",
      "metarRaw": "SPECI KAVP 170744Z 25003KT 9SM SCT004 16/16 A2981 RMK AO2 T01610156",
      "metarObsTime": 1776411840
    },
    "KHZL": {
      "status": "OK",
      "delay": "—",
      "metarCat": "VFR",
      "metarRaw": "METAR KHZL 170735Z AUTO 28004KT 10SM SCT004 15/14 A2986 RMK AO2",
      "metarObsTime": 1776411300
    }
  }
}