{
  "generatedAt": "2026-03-16T15:10:14.339Z",
  "airports": {
    "KPIT": {
      "status": "OK",
      "delay": "—",
      "metarCat": "MVFR",
      "metarRaw": "METAR KPIT 161451Z 19011G16KT 10SM SCT015 BKN026 OVC065 14/11 A2938 RMK AO2 RAE41 SLP953 6//// T01390111 58011 PNO VISNO SE $",
      "metarObsTime": 1773672660
    },
    "KAGC": {
      "status": "OK",
      "delay": "—",
      "metarCat": "VFR",
      "metarRaw": "METAR KAGC 161453Z 19013G19KT 10SM FEW016 FEW090 SCT110 13/11 A2940 RMK AO2 RAB1359E40 SLP958 P0000 60003 T01330111 58008",
      "metarObsTime": 1773672780
    },
    "KLBE": {
      "status": "OK",
      "delay": "—",
      "metarCat": "VFR",
      "metarRaw": "METAR KLBE 161447Z 18012KT 10SM BKN039 BKN046 14/11 A2945",
      "metarObsTime": 1773672420
    },
    "KJST": {
      "status": "OK",
      "delay": "—",
      "metarCat": "VFR",
      "metarRaw": "METAR KJST 161454Z AUTO 18009G15KT 10SM SCT049 OVC060 12/10 A2948 RMK AO2 RAE1359B24E35 SLP985 P0000 60007 T01170100 50007",
      "metarObsTime": 1773672840
    },
    "KERI": {
      "status": "OK",
      "delay": "—",
      "metarCat": "IFR",
      "metarRaw": "METAR KERI 161451Z 27015G30KT 10SM OVC007 03/02 A2938 RMK AO2 PK WND 28035/1411 WSHFT 1358 RAE07B19E39 SLP948 P0001 60007 T00330022 53027 $",
      "metarObsTime": 1773672660
    },
    "KDUJ": {
      "status": "OK",
      "delay": "—",
      "metarCat": "VFR",
      "metarRaw": "METAR KDUJ 161453Z AUTO 18009G15KT 10SM BKN065 OVC080 12/09 A2943 RMK AO2 RAB00E25 SLP965 P0000 60001 T01220094 50006",
      "metarObsTime": 1773672780
    },
    "KBFD": {
      "status": "OK",
      "delay": "—",
      "metarCat": "VFR",
      "metarRaw": "METAR KBFD 161453Z AUTO 21010G22KT 180V250 10SM FEW020 OVC065 13/09 A2940 RMK AO2 PK WND 19029/1401 RAE12B34E48 SLP954 P0000 60000 T01280094 56002",
      "metarObsTime": 1773672780
    },
    "KBTP": {
      "status": "OK",
      "delay": "—",
      "metarCat": "—",
      "metarRaw": "—",
      "metarObsTime": null
    },
    "KFKL": {
      "status": "OK",
      "delay": "—",
      "metarCat": "MVFR",
      "metarRaw": "SPECI KFKL 161505Z AUTO 19018G27KT 10SM OVC015 13/11 A2937 RMK AO2 PK WND 18027/1503",
      "metarObsTime": 1773673500
    },
    "KIDI": {
      "status": "OK",
      "delay": "—",
      "metarCat": "VFR",
      "metarRaw": "METAR KIDI 161455Z AUTO 16009KT 9SM FEW055 BKN070 OVC080 13/11 A2944 RMK A01",
      "metarObsTime": 1773672900
    },
    "KMDT": {
      "status": "OK",
      "delay": "—",
      "metarCat": "MVFR",
      "metarRaw": "METAR KMDT 161456Z 16010G20KT 10SM OVC014 17/14 A2955 RMK AO2 SLP006 60001 T01670144 58019",
      "metarObsTime": 1773672960
    },
    "KCXY": {
      "status": "OK",
      "delay": "—",
      "metarCat": "MVFR",
      "metarRaw": "METAR KCXY 161456Z 16011KT 120V180 10SM OVC017 18/16 A2954 RMK AO2 SLP005 T01830156 58021",
      "metarObsTime": 1773672960
    },
    "KMUI": {
      "status": "OK",
      "delay": "—",
      "metarCat": "IFR",
      "metarRaw": "METAR KMUI 161455Z 18007KT 10SM OVC009 17/17 A2954 RMK AO2A SLP006 T01740171 57023",
      "metarObsTime": 1773672900
    },
    "KUNV": {
      "status": "OK",
      "delay": "—",
      "metarCat": "MVFR",
      "metarRaw": "METAR KUNV 161453Z 19013G24KT 10SM BKN020 OVC028 17/13 A2945",
      "metarObsTime": 1773672780
    },
    "KAOO": {
      "status": "OK",
      "delay": "—",
      "metarCat": "MVFR",
      "metarRaw": "METAR KAOO 161453Z AUTO 23013G19KT 10SM FEW017 BKN024 OVC033 14/12 A2950 RMK AO2 PK WND 21032/1428 WSHFT 1422 RAB35E53 SLP988 P0002 60002 T01440117 55006",
      "metarObsTime": 1773672780
    },
    "KLNS": {
      "status": "OK",
      "delay": "—",
      "metarCat": "MVFR",
      "metarRaw": "METAR KLNS 161453Z 17013G22KT 10SM BKN013 OVC027 18/16 A2958 RMK AO2 PK WND 18030/1406 SLP015 60000 T01830161 58022",
      "metarObsTime": 1773672780
    },
    "KIPT": {
      "status": "OK",
      "delay": "—",
      "metarCat": "MVFR",
      "metarRaw": "METAR KIPT 161454Z 10SM BKN013 OVC021 17/14 A2949 RMK AO2 SLP985 60002 T01670144 58023",
      "metarObsTime": 1773672840
    },
    "KPHL": {
      "status": "OK",
      "delay": "—",
      "metarCat": "MVFR",
      "metarRaw": "METAR KPHL 161454Z 18014G23KT 10SM -RA BKN013 OVC095 18/16 A2967 RMK AO2 RAB50 SLP046 CIG 010V017 P0000 60001 T01780156 56015 $",
      "metarObsTime": 1773672840
    },
    "KABE": {
      "status": "OK",
      "delay": "—",
      "metarCat": "MVFR",
      "metarRaw": "SPECI KABE 161501Z 19009G21KT 10SM BKN010 OVC015 18/16 A2961 RMK AO2 T01780156",
      "metarObsTime": 1773673260
    },
    "KAVP": {
      "status": "OK",
      "delay": "—",
      "metarCat": "VFR",
      "metarRaw": "METAR KAVP 161454Z 18011G21KT 10SM SCT018 18/14 A2955 RMK AO2 PK WND 17026/1404 RAE39 SLP004 P0001 60001 T01780139 56031",
      "metarObsTime": 1773672840
    },
    "KHZL": {
      "status": "OK",
      "delay": "—",
      "metarCat": "LIFR",
      "metarRaw": "METAR KHZL 161455Z AUTO 15008KT 130V200 3SM BR OVC003 15/13 A2961 RMK AO2 P0002",
      "metarObsTime": 1773672900
    }
  }
}