{
  "generatedAt": "2026-03-17T19:40:17.018Z",
  "airports": {
    "KPIT": {
      "status": "OK",
      "delay": "—",
      "metarCat": "IFR",
      "metarRaw": "SPECI KPIT 171917Z 29018G26KT 2 1/2SM -SN FEW009 OVC022 M04/M09 A3002 RMK AO2 PK WND 29026/1917 WSHFT 1841 P0000 T10441089",
      "metarObsTime": 1773775020
    },
    "KAGC": {
      "status": "OK",
      "delay": "—",
      "metarCat": "IFR",
      "metarRaw": "SPECI KAGC 171935Z 24012G22KT 2 1/2SM R28/4000VP6000FT -SN FEW021 BKN029 BKN040 M05/M08 A3001 RMK AO2 P0000 T10501083",
      "metarObsTime": 1773776100
    },
    "KLBE": {
      "status": "OK",
      "delay": "—",
      "metarCat": "MVFR",
      "metarRaw": "METAR KLBE 171847Z 27015G30KT 3SM -SN BKN030 M03/M10 A3001",
      "metarObsTime": 1773773220
    },
    "KJST": {
      "status": "OK",
      "delay": "—",
      "metarCat": "MVFR",
      "metarRaw": "SPECI KJST 171904Z AUTO 27012G26KT 3SM -SN FEW029 BKN043 OVC055 M07/M10 A2989 RMK AO2 PK WND 28026/1855 P0000 T10671100",
      "metarObsTime": 1773774240
    },
    "KERI": {
      "status": "OK",
      "delay": "—",
      "metarCat": "IFR",
      "metarRaw": "SPECI KERI 171912Z 28010G21KT 2 1/2SM -SN SCT013 BKN019 OVC065 M05/M09 A3003 RMK AO2 P0000 T10501094",
      "metarObsTime": 1773774720
    },
    "KDUJ": {
      "status": "OK",
      "delay": "—",
      "metarCat": "IFR",
      "metarRaw": "SPECI KDUJ 171927Z AUTO 26015G27KT 1 3/4SM -SN SCT025 BKN036 BKN044 M07/M12 A2991 RMK AO2 PK WND 27027/1921 VIS 1V5 P0000 T10671117",
      "metarObsTime": 1773775620
    },
    "KBFD": {
      "status": "OK",
      "delay": "—",
      "metarCat": "MVFR",
      "metarRaw": "SPECI KBFD 171914Z AUTO 28013G26KT 3SM -SN SCT036 BKN044 OVC060 M08/M13 A2988 RMK AO2 PK WND 30027/1858 SNB1855 P0000 T10781133",
      "metarObsTime": 1773774840
    },
    "KBTP": {
      "status": "OK",
      "delay": "—",
      "metarCat": "LIFR",
      "metarRaw": "SPECI KBTP 171933Z AUTO 28017G26KT 3/4SM -SN FEW009 BKN029 OVC036 M04/M09 A3002 RMK AO2 PK WND 27026/1930 WSHFT 1844 P0000 FZRANO $",
      "metarObsTime": 1773775980
    },
    "KFKL": {
      "status": "OK",
      "delay": "—",
      "metarCat": "MVFR",
      "metarRaw": "SPECI KFKL 171903Z AUTO 27013G19KT 250V320 5SM -SN FEW026 BKN034 BKN044 M04/M12 A2997 RMK AO2 P0000 FZRANO",
      "metarObsTime": 1773774180
    },
    "KIDI": {
      "status": "OK",
      "delay": "—",
      "metarCat": "VFR",
      "metarRaw": "METAR KIDI 171935Z AUTO 28020G30KT 10SM FEW014 SCT031 BKN043 M04/M10 A2998 RMK A01",
      "metarObsTime": 1773776100
    },
    "KMDT": {
      "status": "OK",
      "delay": "—",
      "metarCat": "VFR",
      "metarRaw": "METAR KMDT 171856Z 27016G25KT 10SM BKN055 02/M10 A2996 RMK AO2 PK WND 27029/1802 SLP149 T00221100",
      "metarObsTime": 1773773760
    },
    "KCXY": {
      "status": "OK",
      "delay": "—",
      "metarCat": "VFR",
      "metarRaw": "METAR KCXY 171856Z 26017G25KT 10SM BKN065 OVC080 03/M11 A2997 RMK AO2 PK WND 25026/1759 SLP151 T00281106",
      "metarObsTime": 1773773760
    },
    "KMUI": {
      "status": "OK",
      "delay": "—",
      "metarCat": "VFR",
      "metarRaw": "METAR KMUI 171855Z 25008KT 10SM FEW013 SCT041 BKN060 OVC075 01/M06 A2993 RMK AO2A SNE37 SLP143 T00101063",
      "metarObsTime": 1773773700
    },
    "KUNV": {
      "status": "OK",
      "delay": "—",
      "metarCat": "MVFR",
      "metarRaw": "METAR KUNV 171853Z 28013G25KT 5SM VCSH SCT013 BKN032 BKN042 M03/M08 A2993",
      "metarObsTime": 1773773580
    },
    "KAOO": {
      "status": "OK",
      "delay": "—",
      "metarCat": "MVFR",
      "metarRaw": "SPECI KAOO 171858Z AUTO 28016G23KT 3SM -SN SCT025 SCT030 BKN040 M03/M10 A2994 RMK AO2 P0000 T10331100",
      "metarObsTime": 1773773880
    },
    "KLNS": {
      "status": "OK",
      "delay": "—",
      "metarCat": "VFR",
      "metarRaw": "METAR KLNS 171853Z 26020G28KT 10SM OVC065 03/M11 A2994 RMK AO2 PK WND 28029/1839 SLP141 T00331106",
      "metarObsTime": 1773773580
    },
    "KIPT": {
      "status": "OK",
      "delay": "—",
      "metarCat": "VFR",
      "metarRaw": "SPECI KIPT 171918Z 32009KT 10SM BKN055 OVC070 M01/M09 A2993 RMK AO2 WSHFT 1858 T10111089",
      "metarObsTime": 1773775080
    },
    "KPHL": {
      "status": "OK",
      "delay": "—",
      "metarCat": "VFR",
      "metarRaw": "METAR KPHL 171854Z 29015KT 10SM BKN065 BKN250 04/M11 A2994 RMK AO2 PK WND 31030/1838 SLP138 T00441106 $",
      "metarObsTime": 1773773640
    },
    "KABE": {
      "status": "OK",
      "delay": "—",
      "metarCat": "VFR",
      "metarRaw": "METAR KABE 171851Z 30013G22KT 10SM BKN060 BKN070 02/M11 A2991 RMK AO2 PK WND 30026/1814 SLP131 T00221111 $",
      "metarObsTime": 1773773460
    },
    "KAVP": {
      "status": "OK",
      "delay": "—",
      "metarCat": "VFR",
      "metarRaw": "SPECI KAVP 171907Z 24012G18KT 9SM BKN039 BKN050 OVC065 01/M07 A2987 RMK AO2 SNE04 P0000 T00061067",
      "metarObsTime": 1773774420
    },
    "KHZL": {
      "status": "OK",
      "delay": "—",
      "metarCat": "—",
      "metarRaw": "METAR KHZL 171935Z AUTO 27005KT 10SM M01/M11 RMK AO2",
      "metarObsTime": 1773776100
    }
  }
}