{
  "generatedAt": "2026-03-17T15:00:22.038Z",
  "airports": {
    "KPIT": {
      "status": "OK",
      "delay": "—",
      "metarCat": "MVFR",
      "metarRaw": "METAR KPIT 171451Z 25012G23KT 3SM -SN FEW008 BKN016 OVC032 M04/M08 A2997 RMK AO2 SLP170 P0005 60005 T10441078 51035 $",
      "metarObsTime": 1773759060
    },
    "KAGC": {
      "status": "OK",
      "delay": "—",
      "metarCat": "VFR",
      "metarRaw": "METAR KAGC 171453Z 26012KT 9SM FEW021 SCT027 OVC033 M04/M09 A2996 RMK AO2 SNE1357B31E49 SLP167 P0000 60000 T10441094 51034",
      "metarObsTime": 1773759180
    },
    "KLBE": {
      "status": "OK",
      "delay": "—",
      "metarCat": "MVFR",
      "metarRaw": "METAR KLBE 171447Z 25016KT 9SM -SN BKN020 BKN033 M04/M08 A2999",
      "metarObsTime": 1773758820
    },
    "KJST": {
      "status": "OK",
      "delay": "—",
      "metarCat": "MVFR",
      "metarRaw": "METAR KJST 171454Z AUTO 26019G30KT 3SM -SN BKN024 BKN035 OVC045 M07/M12 A2985 RMK AO2 PK WND 26037/1430 UPB21E54SNE21B54 SLP142 P0000 60000 T10671117 51028",
      "metarObsTime": 1773759240
    },
    "KERI": {
      "status": "OK",
      "delay": "—",
      "metarCat": "IFR",
      "metarRaw": "METAR KERI 171451Z 27014G25KT 1 1/4SM -SN FEW015 BKN031 OVC050 M06/M11 A2995 RMK AO2 PK WND 22031/1432 SNB1357 SLP151 P0000 60000 T10611106 51044",
      "metarObsTime": 1773759060
    },
    "KDUJ": {
      "status": "OK",
      "delay": "—",
      "metarCat": "MVFR",
      "metarRaw": "METAR KDUJ 171453Z AUTO 27026G36KT 4SM HZ BKN039 OVC047 M06/M13 A2984 RMK AO2 PK WND 27036/1453 SLP130 60000 T10611133 51028",
      "metarObsTime": 1773759180
    },
    "KBFD": {
      "status": "OK",
      "delay": "—",
      "metarCat": "LIFR",
      "metarRaw": "METAR KBFD 171453Z AUTO 28014G26KT 1/4SM SN FZFG BKN015 BKN024 OVC045 M09/M11 A2980 RMK AO2 PK WND 28030/1356 SLP118 P0000 60000 T10891106 51033",
      "metarObsTime": 1773759180
    },
    "KBTP": {
      "status": "OK",
      "delay": "—",
      "metarCat": "VFR",
      "metarRaw": "METAR KBTP 171456Z AUTO 24012G20KT 8SM -SN OVC032 M03/M09 A2995 RMK AO2 SNE27B54 SLPNO P0000 6//// T10331094 FZRANO $",
      "metarObsTime": 1773759360
    },
    "KFKL": {
      "status": "OK",
      "delay": "—",
      "metarCat": "IFR",
      "metarRaw": "METAR KFKL 171456Z AUTO 26012G19KT 1 1/4SM -SN FEW011 BKN018 OVC022 M06/M09 A2991 RMK AO2 VIS 1/2V5 SLP149 P0000 60000 T10561094 51021 FZRANO",
      "metarObsTime": 1773759360
    },
    "KIDI": {
      "status": "OK",
      "delay": "—",
      "metarCat": "VFR",
      "metarRaw": "METAR KIDI 171455Z AUTO 26014KT 9SM FEW025 SCT032 BKN041 M05/M08 A2993 RMK A01",
      "metarObsTime": 1773759300
    },
    "KMDT": {
      "status": "OK",
      "delay": "—",
      "metarCat": "VFR",
      "metarRaw": "METAR KMDT 171356Z 30018G28KT 10SM SCT050 00/M09 A2994 RMK AO2 PK WND 28033/1342 SLP141 T00001094",
      "metarObsTime": 1773755760
    },
    "KCXY": {
      "status": "OK",
      "delay": "—",
      "metarCat": "VFR",
      "metarRaw": "METAR KCXY 171356Z 29014G24KT 10SM FEW050 M01/M11 A2994 RMK AO2 PK WND 27031/1325 SLP144 T10061111",
      "metarObsTime": 1773755760
    },
    "KMUI": {
      "status": "OK",
      "delay": "—",
      "metarCat": "VFR",
      "metarRaw": "METAR KMUI 171455Z 28015G26KT 10SM BKN049 00/M11 A2993 RMK AO2A PK WND 28030/20 SLP143 T00031108 52035",
      "metarObsTime": 1773759300
    },
    "KUNV": {
      "status": "OK",
      "delay": "—",
      "metarCat": "VFR",
      "metarRaw": "METAR KUNV 171453Z 29014G25KT 10SM BKN038 BKN045 M03/M10 A2990",
      "metarObsTime": 1773759180
    },
    "KAOO": {
      "status": "OK",
      "delay": "—",
      "metarCat": "VFR",
      "metarRaw": "METAR KAOO 171453Z AUTO 26017G23KT 10SM BKN037 OVC047 M04/M11 A2991 RMK AO2 PK WND 25030/1408 SNE08 SLP149 P0000 60000 T10391111 52019",
      "metarObsTime": 1773759180
    },
    "KLNS": {
      "status": "OK",
      "delay": "—",
      "metarCat": "VFR",
      "metarRaw": "METAR KLNS 171453Z 28021G29KT 10SM SCT049 01/M09 A2995 RMK AO2 PK WND 28032/1429 SLP147 T00111089 51032",
      "metarObsTime": 1773759180
    },
    "KIPT": {
      "status": "OK",
      "delay": "—",
      "metarCat": "VFR",
      "metarRaw": "METAR KIPT 171454Z 25012G19KT 10SM OVC050 M03/M08 A2991 RMK AO2 PK WND 24026/1427 SLP134 T10281078 51038",
      "metarObsTime": 1773759240
    },
    "KPHL": {
      "status": "OK",
      "delay": "—",
      "metarCat": "VFR",
      "metarRaw": "METAR KPHL 171454Z 27018G24KT 10SM SCT055 SCT090 SCT220 03/M09 A2997 RMK AO2 PK WND 29031/1417 SLP148 T00281094 51037 $",
      "metarObsTime": 1773759240
    },
    "KABE": {
      "status": "OK",
      "delay": "—",
      "metarCat": "—",
      "metarRaw": "METAR KABE 171451Z A2991 RMK AO2 PK WND 26027/1357 SLPNO 53039 $",
      "metarObsTime": 1773759060
    },
    "KAVP": {
      "status": "OK",
      "delay": "—",
      "metarCat": "VFR",
      "metarRaw": "METAR KAVP 171454Z 24015G25KT 10SM BKN042 BKN050 M03/M09 A2984 RMK AO2 PK WND 28027/1406 SLP112 T10281089 51038",
      "metarObsTime": 1773759240
    },
    "KHZL": {
      "status": "OK",
      "delay": "—",
      "metarCat": "MVFR",
      "metarRaw": "METAR KHZL 171435Z AUTO 27005KT 10SM -SN BKN027 OVC033 M02/M10 RMK AO2",
      "metarObsTime": 1773758100
    }
  }
}