{
  "generatedAt": "2026-04-12T23:50:44.388Z",
  "airports": {
    "KPIT": {
      "status": "OK",
      "delay": "—",
      "metarCat": "VFR",
      "metarRaw": "METAR KPIT 122251Z 22006KT 10SM FEW080 FEW130 OVC250 26/08 A3009 RMK AO2 SLP195 T02560083 $",
      "metarObsTime": 1776034260
    },
    "KAGC": {
      "status": "OK",
      "delay": "—",
      "metarCat": "VFR",
      "metarRaw": "METAR KAGC 122253Z 19006KT 10SM CLR 24/09 A3010 RMK AO2 SLP194 T02440089",
      "metarObsTime": 1776034380
    },
    "KLBE": {
      "status": "OK",
      "delay": "—",
      "metarCat": "VFR",
      "metarRaw": "METAR KLBE 122253Z 22015KT 10SM CLR 24/11 A3012",
      "metarObsTime": 1776034380
    },
    "KJST": {
      "status": "OK",
      "delay": "—",
      "metarCat": "VFR",
      "metarRaw": "METAR KJST 122254Z AUTO 16009G17KT 10SM OVC080 21/08 A3017 RMK AO2 SLP216 T02060078",
      "metarObsTime": 1776034440
    },
    "KERI": {
      "status": "OK",
      "delay": "—",
      "metarCat": "VFR",
      "metarRaw": "METAR KERI 122251Z 20012G23KT 10SM CLR 24/10 A3001 RMK AO2 PK WND 22028/2157 SLP162 T02390100 $",
      "metarObsTime": 1776034260
    },
    "KDUJ": {
      "status": "OK",
      "delay": "—",
      "metarCat": "VFR",
      "metarRaw": "METAR KDUJ 122253Z AUTO 21005G15KT 10SM CLR 22/08 A3012 RMK AO2 SLP198 T02220078",
      "metarObsTime": 1776034380
    },
    "KBFD": {
      "status": "OK",
      "delay": "—",
      "metarCat": "VFR",
      "metarRaw": "METAR KBFD 122253Z AUTO VRB06KT 10SM BKN110 21/06 A3012 RMK AO2 SLP198 T02060061",
      "metarObsTime": 1776034380
    },
    "KBTP": {
      "status": "OK",
      "delay": "—",
      "metarCat": "VFR",
      "metarRaw": "METAR KBTP 122256Z AUTO 18004KT 10SM FEW075 24/11 A3010 RMK AO2 SLP198 T02390106 $",
      "metarObsTime": 1776034560
    },
    "KFKL": {
      "status": "OK",
      "delay": "—",
      "metarCat": "VFR",
      "metarRaw": "METAR KFKL 122256Z AUTO 21011KT 10SM CLR 23/09 A3009 RMK AO2 SLP191 T02280094",
      "metarObsTime": 1776034560
    },
    "KIDI": {
      "status": "OK",
      "delay": "—",
      "metarCat": "VFR",
      "metarRaw": "METAR KIDI 122335Z AUTO 21004KT 10SM CLR 22/09 A3012 RMK A01",
      "metarObsTime": 1776036900
    },
    "KMDT": {
      "status": "OK",
      "delay": "—",
      "metarCat": "VFR",
      "metarRaw": "METAR KMDT 122256Z 15010KT 10SM BKN150 17/06 A3025 RMK AO2 SLP246 T01720061",
      "metarObsTime": 1776034560
    },
    "KCXY": {
      "status": "OK",
      "delay": "—",
      "metarCat": "VFR",
      "metarRaw": "METAR KCXY 122256Z 15016G22KT 10SM CLR 18/05 A3025 RMK AO2 SLP245 T01780050 $",
      "metarObsTime": 1776034560
    },
    "KMUI": {
      "status": "OK",
      "delay": "—",
      "metarCat": "—",
      "metarRaw": "—",
      "metarObsTime": null
    },
    "KUNV": {
      "status": "OK",
      "delay": "—",
      "metarCat": "VFR",
      "metarRaw": "METAR KUNV 122253Z 16011G18KT 10SM FEW075 20/08 A3019",
      "metarObsTime": 1776034380
    },
    "KAOO": {
      "status": "OK",
      "delay": "—",
      "metarCat": "VFR",
      "metarRaw": "METAR KAOO 122253Z AUTO 17012G20KT 10SM CLR 20/08 A3018 RMK AO2 SLP222 T02000078",
      "metarObsTime": 1776034380
    },
    "KLNS": {
      "status": "OK",
      "delay": "—",
      "metarCat": "VFR",
      "metarRaw": "METAR KLNS 122253Z 13013G20KT 10SM CLR 14/05 A3029 RMK AO2 SLP257 T01390050",
      "metarObsTime": 1776034380
    },
    "KIPT": {
      "status": "OK",
      "delay": "—",
      "metarCat": "VFR",
      "metarRaw": "METAR KIPT 122254Z 17013G21KT 10SM CLR 19/06 A3019 RMK AO2 PK WND 17036/2159 SLP226 T01890061 $",
      "metarObsTime": 1776034440
    },
    "KPHL": {
      "status": "OK",
      "delay": "—",
      "metarCat": "VFR",
      "metarRaw": "METAR KPHL 122254Z 17012KT 10SM FEW055 SCT190 BKN310 17/02 A3034 RMK AO2 SLP273 T01670022 $",
      "metarObsTime": 1776034440
    },
    "KABE": {
      "status": "OK",
      "delay": "—",
      "metarCat": "VFR",
      "metarRaw": "METAR KABE 122251Z 19009KT 10SM CLR 16/04 A3030 RMK AO2 SLP262 T01610039 $",
      "metarObsTime": 1776034260
    },
    "KAVP": {
      "status": "OK",
      "delay": "—",
      "metarCat": "VFR",
      "metarRaw": "METAR KAVP 122254Z 20008KT 10SM CLR 16/03 A3025 RMK AO2 SLP244 T01560028",
      "metarObsTime": 1776034440
    },
    "KHZL": {
      "status": "OK",
      "delay": "—",
      "metarCat": "VFR",
      "metarRaw": "METAR KHZL 122335Z AUTO 00000KT 10SM CLR 14/04 A3029 RMK AO2",
      "metarObsTime": 1776036900
    }
  }
}