{
  "generatedAt": "2026-03-06T08:20:36.283Z",
  "airports": {
    "KPIT": {
      "status": "OK",
      "delay": "—",
      "metarCat": "MVFR",
      "metarRaw": "METAR KPIT 060751Z 00000KT 10SM FEW002 SCT016 OVC024 13/12 A3014 RMK AO2 SLP211 T01330122 $",
      "metarObsTime": 1772783460
    },
    "KAGC": {
      "status": "OK",
      "delay": "—",
      "metarCat": "MVFR",
      "metarRaw": "METAR KAGC 060753Z 24007KT 8SM OVC015 13/13 A3014 RMK AO2 SLP208 T01330128",
      "metarObsTime": 1772783580
    },
    "KLBE": {
      "status": "OK",
      "delay": "—",
      "metarCat": "MVFR",
      "metarRaw": "METAR KLBE 060815Z AUTO 20006KT 10SM FEW019 BKN027 OVC032 14/14 A3016 RMK AO2",
      "metarObsTime": 1772784900
    },
    "KJST": {
      "status": "OK",
      "delay": "—",
      "metarCat": "MVFR",
      "metarRaw": "SPECI KJST 060802Z AUTO 26007KT 10SM SCT009 BKN014 OVC031 12/11 A3014 RMK AO2 T01220111",
      "metarObsTime": 1772784120
    },
    "KERI": {
      "status": "OK",
      "delay": "—",
      "metarCat": "LIFR",
      "metarRaw": "METAR KERI 060751Z AUTO 03005KT 1/4SM R06/3000V4000FT FG VV002 00/00 A3018 RMK AO2 SLP226 T00000000",
      "metarObsTime": 1772783460
    },
    "KDUJ": {
      "status": "OK",
      "delay": "—",
      "metarCat": "IFR",
      "metarRaw": "METAR KDUJ 060753Z AUTO 25009KT 10SM BKN009 OVC014 12/11 A3011 RMK AO2 CIG 006V011 SLP199 T01170106",
      "metarObsTime": 1772783580
    },
    "KBFD": {
      "status": "OK",
      "delay": "—",
      "metarCat": "MVFR",
      "metarRaw": "SPECI KBFD 060817Z AUTO 27004KT 10SM SCT006 OVC018 09/09 A3011 RMK AO2 T00890089",
      "metarObsTime": 1772785020
    },
    "KBTP": {
      "status": "OK",
      "delay": "—",
      "metarCat": "IFR",
      "metarRaw": "METAR KBTP 060756Z AUTO 26004KT 10SM OVC008 13/ A3014 RMK AO2 CIG 006V012 SLP213 T0128 $",
      "metarObsTime": 1772783760
    },
    "KFKL": {
      "status": "OK",
      "delay": "—",
      "metarCat": "LIFR",
      "metarRaw": "METAR KFKL 060756Z AUTO 00000KT 1/4SM FG OVC002 08/08 A3014 RMK AO2 SLP211 T00830083",
      "metarObsTime": 1772783760
    },
    "KIDI": {
      "status": "OK",
      "delay": "—",
      "metarCat": "MVFR",
      "metarRaw": "METAR KIDI 060815Z AUTO 25006KT 4SM BR SCT006 BKN010 OVC014 13/13 A3014 RMK A01",
      "metarObsTime": 1772784900
    },
    "KMDT": {
      "status": "OK",
      "delay": "—",
      "metarCat": "IFR",
      "metarRaw": "METAR KMDT 060756Z 08005KT 2SM BR OVC006 06/06 A3021 RMK AO2 SLP231 T00610056",
      "metarObsTime": 1772783760
    },
    "KCXY": {
      "status": "OK",
      "delay": "—",
      "metarCat": "LIFR",
      "metarRaw": "METAR KCXY 060756Z AUTO 08004KT 2 1/2SM BR OVC004 06/05 A3021 RMK AO2 SLP233 T00610050",
      "metarObsTime": 1772783760
    },
    "KMUI": {
      "status": "OK",
      "delay": "—",
      "metarCat": "IFR",
      "metarRaw": "METAR KMUI 060755Z AUTO 07006KT 9SM OVC006 06/05 A3020 RMK AO2 SLP232 T00570053",
      "metarObsTime": 1772783700
    },
    "KUNV": {
      "status": "OK",
      "delay": "—",
      "metarCat": "IFR",
      "metarRaw": "METAR KUNV 060815Z AUTO 00000KT 1SM BR OVC020 08/07 A3014 RMK AO2 T00750073",
      "metarObsTime": 1772784900
    },
    "KAOO": {
      "status": "OK",
      "delay": "—",
      "metarCat": "MVFR",
      "metarRaw": "SPECI KAOO 060812Z AUTO 20008KT 10SM FEW023 OVC030 12/11 A3014 RMK AO2 T01170106",
      "metarObsTime": 1772784720
    },
    "KLNS": {
      "status": "OK",
      "delay": "—",
      "metarCat": "IFR",
      "metarRaw": "METAR KLNS 060753Z AUTO 05010KT 4SM BR OVC006 05/04 A3021 RMK AO2 SLP232 T00500044",
      "metarObsTime": 1772783580
    },
    "KIPT": {
      "status": "OK",
      "delay": "—",
      "metarCat": "IFR",
      "metarRaw": "METAR KIPT 060754Z AUTO 10006KT 10SM OVC009 07/06 A3017 RMK AO2 SLP219 T00670056 $",
      "metarObsTime": 1772783640
    },
    "KPHL": {
      "status": "OK",
      "delay": "—",
      "metarCat": "MVFR",
      "metarRaw": "METAR KPHL 060754Z 05010KT 10SM OVC010 05/03 A3023 RMK AO2 SLP236 T00500033 $",
      "metarObsTime": 1772783640
    },
    "KABE": {
      "status": "OK",
      "delay": "—",
      "metarCat": "IFR",
      "metarRaw": "SPECI KABE 060810Z 07005KT 7SM BKN006 BKN009 OVC014 04/03 A3024 RMK AO2 RAE0759 P0000 T00390028",
      "metarObsTime": 1772784600
    },
    "KAVP": {
      "status": "OK",
      "delay": "—",
      "metarCat": "MVFR",
      "metarRaw": "METAR KAVP 060754Z AUTO VRB03KT 10SM OVC019 04/02 A3020 RMK AO2 RAB19E33 SLP228 P0000 T00390022",
      "metarObsTime": 1772783640
    },
    "KHZL": {
      "status": "OK",
      "delay": "—",
      "metarCat": "LIFR",
      "metarRaw": "METAR KHZL 060815Z AUTO 12003KT 10SM OVC004 02/01 A3020 RMK AO2",
      "metarObsTime": 1772784900
    }
  }
}