{
  "generatedAt": "2026-04-01T17:30:38.145Z",
  "airports": {
    "KPIT": {
      "status": "OK",
      "delay": "—",
      "metarCat": "IFR",
      "metarRaw": "METAR KPIT 011651Z 34009KT 10SM OVC005 12/10 A3012 RMK AO2 SLP207 T01170100",
      "metarObsTime": 1775062260
    },
    "KAGC": {
      "status": "OK",
      "delay": "—",
      "metarCat": "IFR",
      "metarRaw": "METAR KAGC 011653Z 21004KT 10SM BKN006 OVC031 18/14 A3010 RMK AO2 SLP194 T01780144",
      "metarObsTime": 1775062380
    },
    "KLBE": {
      "status": "OK",
      "delay": "—",
      "metarCat": "VFR",
      "metarRaw": "METAR KLBE 011647Z 23006KT 10SM BKN050 18/15 A3013",
      "metarObsTime": 1775062020
    },
    "KJST": {
      "status": "OK",
      "delay": "—",
      "metarCat": "VFR",
      "metarRaw": "SPECI KJST 011714Z AUTO 25006KT 10SM SCT014 SCT019 SCT095 17/13 A3012 RMK AO2 T01670128",
      "metarObsTime": 1775063640
    },
    "KERI": {
      "status": "OK",
      "delay": "—",
      "metarCat": "IFR",
      "metarRaw": "SPECI KERI 011707Z 04014G23KT 4SM -RA BR OVC009 03/02 A3023 RMK AO2 P0002 T00280017 $",
      "metarObsTime": 1775063220
    },
    "KDUJ": {
      "status": "OK",
      "delay": "—",
      "metarCat": "LIFR",
      "metarRaw": "METAR KDUJ 011653Z AUTO 29004KT 10SM -RA OVC004 13/12 A3012 RMK AO2 RAB36 SLP197 P0001 T01280122",
      "metarObsTime": 1775062380
    },
    "KBFD": {
      "status": "OK",
      "delay": "—",
      "metarCat": "LIFR",
      "metarRaw": "SPECI KBFD 011728Z AUTO 34007KT 1 1/2SM -RA BR OVC002 07/07 A3015 RMK AO2 P0000 T00670067",
      "metarObsTime": 1775064480
    },
    "KBTP": {
      "status": "OK",
      "delay": "—",
      "metarCat": "LIFR",
      "metarRaw": "METAR KBTP 011656Z AUTO 01004KT 10SM OVC004 11/ A3014 RMK AO2 SLP213 T0111 $",
      "metarObsTime": 1775062560
    },
    "KFKL": {
      "status": "OK",
      "delay": "—",
      "metarCat": "LIFR",
      "metarRaw": "METAR KFKL 011656Z AUTO 02006KT 9SM -RA OVC003 07/07 A3016 RMK AO2 SLP218 P0002 T00720072",
      "metarObsTime": 1775062560
    },
    "KIDI": {
      "status": "OK",
      "delay": "—",
      "metarCat": "MVFR",
      "metarRaw": "METAR KIDI 011715Z AUTO 26008KT 10SM OVC013 17/15 A3012 RMK A01",
      "metarObsTime": 1775063700
    },
    "KMDT": {
      "status": "OK",
      "delay": "—",
      "metarCat": "VFR",
      "metarRaw": "METAR KMDT 011656Z 30009KT 10SM FEW042 BKN200 23/13 A3007 RMK AO2 SLP182 T02330133 $",
      "metarObsTime": 1775062560
    },
    "KCXY": {
      "status": "OK",
      "delay": "—",
      "metarCat": "VFR",
      "metarRaw": "METAR KCXY 011656Z 24004KT 10SM BKN041 23/13 A3008 RMK AO2 SLP184 T02280133",
      "metarObsTime": 1775062560
    },
    "KMUI": {
      "status": "OK",
      "delay": "—",
      "metarCat": "VFR",
      "metarRaw": "SPECI KMUI 011704Z 27009KT 10SM -RA SCT042 BKN100 BKN130 BKN150 24/14 A3006 RMK AO2A RAB04 SLP179",
      "metarObsTime": 1775063040
    },
    "KUNV": {
      "status": "OK",
      "delay": "—",
      "metarCat": "MVFR",
      "metarRaw": "METAR KUNV 011653Z 27004KT 10SM -DZ BKN023 BKN042 OVC095 18/13 A3010",
      "metarObsTime": 1775062380
    },
    "KAOO": {
      "status": "OK",
      "delay": "—",
      "metarCat": "VFR",
      "metarRaw": "METAR KAOO 011653Z AUTO 25007KT 10SM FEW024 BKN090 18/13 A3012 RMK AO2 RAB11E23 SLP194 P0001 T01830133",
      "metarObsTime": 1775062380
    },
    "KLNS": {
      "status": "OK",
      "delay": "—",
      "metarCat": "VFR",
      "metarRaw": "METAR KLNS 011653Z 29009G15KT 10SM CLR 23/14 A3008 RMK AO2 SLP183 T02280139",
      "metarObsTime": 1775062380
    },
    "KIPT": {
      "status": "OK",
      "delay": "—",
      "metarCat": "MVFR",
      "metarRaw": "METAR KIPT 011654Z 34006KT 10SM BKN026 OVC032 17/12 A3008 RMK AO2 SLP186 T01670117 $",
      "metarObsTime": 1775062440
    },
    "KPHL": {
      "status": "OK",
      "delay": "—",
      "metarCat": "VFR",
      "metarRaw": "METAR KPHL 011654Z VRB05KT 10SM SCT046 BKN140 BKN220 26/13 A3006 RMK AO2 SLP178 T02560133 $",
      "metarObsTime": 1775062440
    },
    "KABE": {
      "status": "OK",
      "delay": "—",
      "metarCat": "VFR",
      "metarRaw": "METAR KABE 011651Z 25009KT 10SM SCT045 BKN060 23/13 A3006 RMK AO2 SLP176 T02280133 $",
      "metarObsTime": 1775062260
    },
    "KAVP": {
      "status": "OK",
      "delay": "—",
      "metarCat": "MVFR",
      "metarRaw": "METAR KAVP 011654Z 36011KT 10SM BKN017 BKN025 OVC030 14/09 A3012 RMK AO2 SLP197 T01390094",
      "metarObsTime": 1775062440
    },
    "KHZL": {
      "status": "OK",
      "delay": "—",
      "metarCat": "MVFR",
      "metarRaw": "METAR KHZL 011715Z AUTO 35004KT 10SM BKN022 BKN041 OVC047 17/12 A3014 RMK AO2",
      "metarObsTime": 1775063700
    }
  }
}