{
  "generatedAt": "2026-03-23T01:10:15.294Z",
  "airports": {
    "KPIT": {
      "status": "OK",
      "delay": "—",
      "metarCat": "VFR",
      "metarRaw": "METAR KPIT 230051Z 02007KT 10SM FEW024 SCT110 BKN230 13/10 A2970 RMK AO2 SLP063 T01280100",
      "metarObsTime": 1774227060
    },
    "KAGC": {
      "status": "OK",
      "delay": "—",
      "metarCat": "VFR",
      "metarRaw": "METAR KAGC 230053Z 36008KT 10SM SCT090 15/12 A2970 RMK AO2 SLP060 T01500117",
      "metarObsTime": 1774227180
    },
    "KLBE": {
      "status": "OK",
      "delay": "—",
      "metarCat": "VFR",
      "metarRaw": "METAR KLBE 230047Z 36005KT 7SM VCTS BKN070 17/15 A2973 RMK LTG DSNT N",
      "metarObsTime": 1774226820
    },
    "KJST": {
      "status": "OK",
      "delay": "—",
      "metarCat": "VFR",
      "metarRaw": "METAR KJST 230054Z AUTO 36009KT 10SM FEW120 14/12 A2975 RMK AO2 RAB07E28 SLP068 P0000 T01440117",
      "metarObsTime": 1774227240
    },
    "KERI": {
      "status": "OK",
      "delay": "—",
      "metarCat": "IFR",
      "metarRaw": "METAR KERI 230051Z 03016G24KT 3SM BR OVC005 03/03 A2985 RMK AO2 RAB10E21 SLP110 P0000 T00330028",
      "metarObsTime": 1774227060
    },
    "KDUJ": {
      "status": "OK",
      "delay": "—",
      "metarCat": "VFR",
      "metarRaw": "METAR KDUJ 230053Z AUTO 02006KT 6SM -RA BR OVC060 11/10 A2973 RMK AO2 LTG DSNT SW RAE09B41 TSE2359 SLP065 P0001 T01060100",
      "metarObsTime": 1774227180
    },
    "KBFD": {
      "status": "OK",
      "delay": "—",
      "metarCat": "IFR",
      "metarRaw": "METAR KBFD 230053Z AUTO VRB05KT 10SM OVC005 06/04 A2980 RMK AO2 CIG 003V007 PRESRR SLP092 T00560044 $",
      "metarObsTime": 1774227180
    },
    "KBTP": {
      "status": "OK",
      "delay": "—",
      "metarCat": "IFR",
      "metarRaw": "SPECI KBTP 230104Z AUTO 02010KT 10SM BKN008 BKN060 OVC080 12/ A2973 RMK AO2 LTG DSNT NW $",
      "metarObsTime": 1774227840
    },
    "KFKL": {
      "status": "OK",
      "delay": "—",
      "metarCat": "IFR",
      "metarRaw": "METAR KFKL 230056Z AUTO 03007KT 10SM OVC008 07/06 A2978 RMK AO2 LTG DSNT SW SLP088 T00670056",
      "metarObsTime": 1774227360
    },
    "KIDI": {
      "status": "OK",
      "delay": "—",
      "metarCat": "VFR",
      "metarRaw": "METAR KIDI 230055Z AUTO 04006KT 10SM FEW026 FEW047 SCT055 14/12 A2973 RMK A01 P0001",
      "metarObsTime": 1774227300
    },
    "KMDT": {
      "status": "OK",
      "delay": "—",
      "metarCat": "VFR",
      "metarRaw": "METAR KMDT 230056Z 00000KT 10SM -RA BKN080 OVC100 14/14 A2965 RMK AO2 TSE02 SLP040 P0007 T01440144 $",
      "metarObsTime": 1774227360
    },
    "KCXY": {
      "status": "OK",
      "delay": "—",
      "metarCat": "VFR",
      "metarRaw": "METAR KCXY 230056Z 32007KT 10SM FEW031 BKN095 BKN110 17/16 A2968 RMK AO2 RAE53 SLP052 P0008 T01720156",
      "metarObsTime": 1774227360
    },
    "KMUI": {
      "status": "OK",
      "delay": "—",
      "metarCat": "VFR",
      "metarRaw": "SPECI KMUI 230101Z AUTO 36004KT 10SM -RA BKN100 16/16 A2967 RMK AO2 LTG DSNT NW-NE RAB01 SLP050",
      "metarObsTime": 1774227660
    },
    "KUNV": {
      "status": "OK",
      "delay": "—",
      "metarCat": "MVFR",
      "metarRaw": "METAR KUNV 230053Z VRB04KT 7SM -RA SCT009 BKN018 OVC085 14/14 A2974 RMK TSE0053 LTG DSNT NE-E AND W",
      "metarObsTime": 1774227180
    },
    "KAOO": {
      "status": "OK",
      "delay": "—",
      "metarCat": "MVFR",
      "metarRaw": "METAR KAOO 230053Z AUTO 36007G19KT 5SM RA SCT040 BKN080 OVC095 17/13 A2974 RMK AO2 RAE2354B29 SLP069 P0004 T01670133",
      "metarObsTime": 1774227180
    },
    "KLNS": {
      "status": "OK",
      "delay": "—",
      "metarCat": "VFR",
      "metarRaw": "METAR KLNS 230053Z 10010KT 9SM -RA FEW043 SCT080 BKN100 16/14 A2964 RMK AO2 WSHFT 2350 RAB2357 SLP037 P0004 T01610139",
      "metarObsTime": 1774227180
    },
    "KIPT": {
      "status": "OK",
      "delay": "—",
      "metarCat": "IFR",
      "metarRaw": "METAR KIPT 230054Z 00000KT 2 1/2SM -RA BR SCT041 BKN055 OVC100 13/13 A2974 RMK AO2 LTG DSNT E-SW RAB04 TSB2359E21 SLP069 TS W MOV E P0013 T01330133 $",
      "metarObsTime": 1774227240
    },
    "KPHL": {
      "status": "OK",
      "delay": "—",
      "metarCat": "VFR",
      "metarRaw": "METAR KPHL 230054Z 33021G29KT 10SM BKN140 BKN280 21/12 A2971 RMK AO2 PK WND 34029/0053 PRESRR SLP060 T02110117 $",
      "metarObsTime": 1774227240
    },
    "KABE": {
      "status": "OK",
      "delay": "—",
      "metarCat": "VFR",
      "metarRaw": "METAR KABE 230051Z 09004KT 10SM -RA FEW005 14/13 A2972 RMK AO2 SLP064 P0007 T01440128 $",
      "metarObsTime": 1774227060
    },
    "KAVP": {
      "status": "OK",
      "delay": "—",
      "metarCat": "IFR",
      "metarRaw": "SPECI KAVP 230103Z 00000KT 2 1/2SM -RA BR FEW021 OVC030 12/11 A2974 RMK AO2 P0002 T01170111",
      "metarObsTime": 1774227780
    },
    "KHZL": {
      "status": "OK",
      "delay": "—",
      "metarCat": "LIFR",
      "metarRaw": "METAR KHZL 230055Z AUTO 34007KT 1 1/4SM -RA BKN001 BKN026 OVC037 12/11 A2977 RMK AO2 P0019",
      "metarObsTime": 1774227300
    }
  }
}