{
  "generatedAt": "2026-05-01T00:51:15.994Z",
  "faaFlow": {
    "updatedAt": "2026-05-01T00:51:15.168Z",
    "source": "https://www.fly.faa.gov/adv/adv_spt",
    "terminal": [],
    "enroute": [
      {
        "time": "—",
        "text": "UNTIL",
        "code": "FLOW",
        "label": "FAA flow impact",
        "level": "yellow",
        "section": "En Route Planned",
        "airports": []
      },
      {
        "time": "0200",
        "text": "ZDC SWAP STATEMENT",
        "code": "ROUTE",
        "label": "Route impact possible",
        "level": "blue",
        "section": "En Route Planned",
        "airports": []
      },
      {
        "time": "—",
        "text": "UNTIL",
        "code": "FLOW",
        "label": "FAA flow impact",
        "level": "yellow",
        "section": "En Route Planned",
        "airports": []
      },
      {
        "time": "0200",
        "text": "ZHU SWAP STATEMENT",
        "code": "ROUTE",
        "label": "Route impact possible",
        "level": "blue",
        "section": "En Route Planned",
        "airports": []
      },
      {
        "time": "—",
        "text": "UNTIL",
        "code": "FLOW",
        "label": "FAA flow impact",
        "level": "yellow",
        "section": "En Route Planned",
        "airports": []
      },
      {
        "time": "0400",
        "text": "ZNY SWAP STATEMENT RUNWAY/EQUIPMENT/POSSIBLE SYSTEM IMPACT REPORTS(SIRs): DFW - TXY G CLOSURE UNTIL 4/30/26",
        "code": "CLOSURE",
        "label": "Closure possible",
        "level": "yellow",
        "section": "En Route Planned",
        "airports": []
      },
      {
        "time": "—",
        "text": "2026",
        "code": "FLOW",
        "label": "FAA flow impact",
        "level": "yellow",
        "section": "En Route Planned",
        "airports": []
      },
      {
        "time": "2026",
        "text": "SAN - CONSTRUCTION PHASE 5.2 UNTIL 05/26/26",
        "code": "FLOW",
        "label": "FAA flow impact",
        "level": "yellow",
        "section": "En Route Planned",
        "airports": []
      }
    ],
    "airports": {
      "KPIT": null,
      "KAGC": null,
      "KLBE": null,
      "KJST": null,
      "KERI": null,
      "KDUJ": null,
      "KBFD": null,
      "KBTP": null,
      "KFKL": null,
      "KIDI": null,
      "KMDT": null,
      "KCXY": null,
      "KMUI": null,
      "KUNV": null,
      "KAOO": null,
      "KLNS": null,
      "KIPT": null,
      "KPHL": null,
      "KABE": null,
      "KAVP": null,
      "KHZL": null
    }
  },
  "airports": {
    "KPIT": {
      "status": "OK",
      "delay": "—",
      "metarCat": "VFR",
      "metarRaw": "METAR KPIT 302351Z 25007KT 10SM FEW042 SCT065 08/02 A2994 RMK AO2 SLP150 60000 T00830017 10106 20083 50007",
      "metarObsTime": 1777593060,
      "faaFlow": null
    },
    "KAGC": {
      "status": "OK",
      "delay": "—",
      "metarCat": "VFR",
      "metarRaw": "METAR KAGC 302353Z 31004KT 10SM FEW060 SCT080 08/03 A2993 RMK AO2 SLP144 60000 T00780028 10106 20078 51005",
      "metarObsTime": 1777593180,
      "faaFlow": null
    },
    "KLBE": {
      "status": "OK",
      "delay": "—",
      "metarCat": "VFR",
      "metarRaw": "METAR KLBE 302353Z 27006KT 10SM BKN039 BKN049 09/04 A2996",
      "metarObsTime": 1777593180,
      "faaFlow": null
    },
    "KJST": {
      "status": "OK",
      "delay": "—",
      "metarCat": "VFR",
      "metarRaw": "SPECI KJST 010007Z AUTO 28005KT 10SM FEW028 BKN037 OVC065 05/02 A2990 RMK AO2 T00500017",
      "metarObsTime": 1777594020,
      "faaFlow": null
    },
    "KERI": {
      "status": "OK",
      "delay": "—",
      "metarCat": "VFR",
      "metarRaw": "METAR KERI 302351Z 26011KT 10SM OVC070 09/02 A2994 RMK AO2 SLP141 T00890022 10100 20072 53005",
      "metarObsTime": 1777593060,
      "faaFlow": null
    },
    "KDUJ": {
      "status": "OK",
      "delay": "—",
      "metarCat": "VFR",
      "metarRaw": "METAR KDUJ 302353Z AUTO 28007KT 10SM FEW065 05/02 A2990 RMK AO2 SLP135 60004 T00500017 10067 20039 51011",
      "metarObsTime": 1777593180,
      "faaFlow": null
    },
    "KBFD": {
      "status": "OK",
      "delay": "—",
      "metarCat": "VFR",
      "metarRaw": "METAR KBFD 302353Z AUTO 29005KT 10SM OVC065 04/02 A2989 RMK AO2 RAE2255 SLP132 P0000 60001 T00440017 10061 20044 52011",
      "metarObsTime": 1777593180,
      "faaFlow": null
    },
    "KBTP": {
      "status": "OK",
      "delay": "—",
      "metarCat": "VFR",
      "metarRaw": "METAR KBTP 302356Z AUTO 23004KT 10SM CLR 08/02 A2994 RMK AO2 SLP150 60000 T00780017 10106 20078 51005 $",
      "metarObsTime": 1777593360,
      "faaFlow": null
    },
    "KFKL": {
      "status": "OK",
      "delay": "—",
      "metarCat": "VFR",
      "metarRaw": "METAR KFKL 302356Z AUTO 32004KT 10SM OVC075 07/01 A2993 RMK AO2 SLP144 T00720006 10094 20067 53005",
      "metarObsTime": 1777593360,
      "faaFlow": null
    },
    "KIDI": {
      "status": "OK",
      "delay": "—",
      "metarCat": "VFR",
      "metarRaw": "METAR KIDI 010035Z AUTO 29003KT 10SM FEW037 FEW050 BKN055 07/02 A2994 RMK A01",
      "metarObsTime": 1777595700,
      "faaFlow": null
    },
    "KMDT": {
      "status": "OK",
      "delay": "—",
      "metarCat": "VFR",
      "metarRaw": "METAR KMDT 302356Z 30019G26KT 10SM BKN060 12/04 A2987 RMK AO2 PK WND 29026/2330 SLP115 T01170039 10178 20117 53025",
      "metarObsTime": 1777593360,
      "faaFlow": null
    },
    "KCXY": {
      "status": "OK",
      "delay": "—",
      "metarCat": "VFR",
      "metarRaw": "METAR KCXY 302356Z 28015G25KT 10SM OVC060 12/03 A2988 RMK AO2 PK WND 27028/2334 SLP119 60000 T01170028 10183 20117 53022",
      "metarObsTime": 1777593360,
      "faaFlow": null
    },
    "KMUI": {
      "status": "OK",
      "delay": "—",
      "metarCat": "VFR",
      "metarRaw": "METAR KMUI 302355Z 28011KT 10SM FEW020 BKN035 BKN044 15/08 A2984 RMK AO2A SLP107 60004 T01450078 10212 20144 52024",
      "metarObsTime": 1777593300,
      "faaFlow": null
    },
    "KUNV": {
      "status": "OK",
      "delay": "—",
      "metarCat": "VFR",
      "metarRaw": "METAR KUNV 302353Z 31004KT 10SM BKN060 08/02 A2991",
      "metarObsTime": 1777593180,
      "faaFlow": null
    },
    "KAOO": {
      "status": "OK",
      "delay": "—",
      "metarCat": "VFR",
      "metarRaw": "METAR KAOO 302353Z AUTO 28005KT 10SM BKN065 07/01 A2992 RMK AO2 SLP135 60000 T00720011 10106 20072 51012",
      "metarObsTime": 1777593180,
      "faaFlow": null
    },
    "KLNS": {
      "status": "OK",
      "delay": "—",
      "metarCat": "VFR",
      "metarRaw": "METAR KLNS 302353Z 30010KT 10SM BKN065 BKN095 12/06 A2985 RMK AO2 SLP108 T01170061 10178 20117 51027",
      "metarObsTime": 1777593180,
      "faaFlow": null
    },
    "KIPT": {
      "status": "OK",
      "delay": "—",
      "metarCat": "VFR",
      "metarRaw": "METAR KIPT 302354Z 31012KT 10SM -RA BKN041 OVC050 09/04 A2987 RMK AO2 RAB46 SLP115 P0000 60000 T00940039 10150 20094 53027",
      "metarObsTime": 1777593240,
      "faaFlow": null
    },
    "KPHL": {
      "status": "OK",
      "delay": "—",
      "metarCat": "VFR",
      "metarRaw": "METAR KPHL 302354Z 33008KT 10SM BKN065 BKN100 14/08 A2981 RMK AO2 PK WND 31029/2311 SLP095 T01440078 10189 20144 53022 $",
      "metarObsTime": 1777593240,
      "faaFlow": null
    },
    "KABE": {
      "status": "OK",
      "delay": "—",
      "metarCat": "VFR",
      "metarRaw": "METAR KABE 302351Z 33007KT 10SM BKN045 OVC055 11/08 A2982 RMK AO2 RAE44 SLP098 P0003 60009 T01060083 10161 20106 53023",
      "metarObsTime": 1777593060,
      "faaFlow": null
    },
    "KAVP": {
      "status": "OK",
      "delay": "—",
      "metarCat": "VFR",
      "metarRaw": "METAR KAVP 302354Z AUTO 36008KT 10SM BKN034 OVC046 10/03 A2984 RMK AO2 SLP103 T01000028 10133 20100 53024",
      "metarObsTime": 1777593240,
      "faaFlow": null
    },
    "KHZL": {
      "status": "OK",
      "delay": "—",
      "metarCat": "MVFR",
      "metarRaw": "METAR KHZL 010035Z AUTO 27003KT 5SM RA SCT005 BKN014 OVC027 07/06 A2988 RMK AO2 P0003",
      "metarObsTime": 1777595700,
      "faaFlow": null
    }
  }
}