{
  "generatedAt": "2026-04-16T05:50:54.358Z",
  "airports": {
    "KPIT": {
      "status": "OK",
      "delay": "—",
      "metarCat": "VFR",
      "metarRaw": "METAR KPIT 160451Z 21003KT 10SM SCT080 23/14 A2992 RMK AO2 SLP129 T02280144 402890167 $",
      "metarObsTime": 1776315060
    },
    "KAGC": {
      "status": "OK",
      "delay": "—",
      "metarCat": "VFR",
      "metarRaw": "METAR KAGC 160453Z 22007KT 10SM CLR 23/13 A2992 RMK AO2 SLP127 T02280133 402830167",
      "metarObsTime": 1776315180
    },
    "KLBE": {
      "status": "OK",
      "delay": "—",
      "metarCat": "VFR",
      "metarRaw": "METAR KLBE 160535Z AUTO 19005KT 10SM CLR 21/14 A2995 RMK AO2",
      "metarObsTime": 1776317700
    },
    "KJST": {
      "status": "OK",
      "delay": "—",
      "metarCat": "VFR",
      "metarRaw": "METAR KJST 160454Z AUTO 22003KT 10SM CLR 19/12 A2998 RMK AO2 SLP138 T01940117 402560167",
      "metarObsTime": 1776315240
    },
    "KERI": {
      "status": "OK",
      "delay": "—",
      "metarCat": "VFR",
      "metarRaw": "METAR KERI 160451Z AUTO 18004KT 10SM OVC110 18/16 A2988 RMK AO2 SLP117 T01830156 402390139 $",
      "metarObsTime": 1776315060
    },
    "KDUJ": {
      "status": "OK",
      "delay": "—",
      "metarCat": "IFR",
      "metarRaw": "SPECI KDUJ 160536Z AUTO 00000KT 1SM BR FEW003 FEW100 16/15 A2994 RMK AO2 T01560150",
      "metarObsTime": 1776317760
    },
    "KBFD": {
      "status": "OK",
      "delay": "—",
      "metarCat": "VFR",
      "metarRaw": "METAR KBFD 160453Z AUTO 24003KT 10SM FEW034 BKN041 BKN050 16/15 A2995 RMK AO2 RAB25E34 SLP127 P0000 T01610150 402440111",
      "metarObsTime": 1776315180
    },
    "KBTP": {
      "status": "OK",
      "delay": "—",
      "metarCat": "VFR",
      "metarRaw": "METAR KBTP 160456Z AUTO 00000KT 10SM SCT055 19/19 A2994 RMK AO2 RAE08 SLP137 T01890189 PNO $",
      "metarObsTime": 1776315360
    },
    "KFKL": {
      "status": "OK",
      "delay": "—",
      "metarCat": "—",
      "metarRaw": "—",
      "metarObsTime": null
    },
    "KIDI": {
      "status": "OK",
      "delay": "—",
      "metarCat": "VFR",
      "metarRaw": "METAR KIDI 160535Z AUTO 11004KT 10SM SCT055 BKN065 OVC085 19/15 A2995 RMK A01",
      "metarObsTime": 1776317700
    },
    "KMDT": {
      "status": "OK",
      "delay": "—",
      "metarCat": "VFR",
      "metarRaw": "METAR KMDT 160456Z 20003KT 10SM BKN220 23/14 A2988 RMK AO2 SLP117 T02330139 403060156",
      "metarObsTime": 1776315360
    },
    "KCXY": {
      "status": "OK",
      "delay": "—",
      "metarCat": "VFR",
      "metarRaw": "METAR KCXY 160456Z AUTO 00000KT 10SM CLR 22/14 A2988 RMK AO2 SLP118 T02170144 403170156 $",
      "metarObsTime": 1776315360
    },
    "KMUI": {
      "status": "OK",
      "delay": "—",
      "metarCat": "VFR",
      "metarRaw": "METAR KMUI 160455Z AUTO 35004KT 10SM CLR 19/16 A2988 RMK AO2 SLP118 T01920162 403260145",
      "metarObsTime": 1776315300
    },
    "KUNV": {
      "status": "OK",
      "delay": "—",
      "metarCat": "VFR",
      "metarRaw": "METAR KUNV 160535Z AUTO 04003KT 10SM CLR 19/14 A2995 RMK AO2 T01880143",
      "metarObsTime": 1776317700
    },
    "KAOO": {
      "status": "OK",
      "delay": "—",
      "metarCat": "VFR",
      "metarRaw": "METAR KAOO 160453Z AUTO 24010KT 10SM CLR 23/12 A2995 RMK AO2 SLP128 T02330122 402890139",
      "metarObsTime": 1776315180
    },
    "KLNS": {
      "status": "OK",
      "delay": "—",
      "metarCat": "VFR",
      "metarRaw": "METAR KLNS 160453Z AUTO 00000KT 10SM CLR 19/16 A2989 RMK AO2 SLP119 T01890156 403000139",
      "metarObsTime": 1776315180
    },
    "KIPT": {
      "status": "OK",
      "delay": "—",
      "metarCat": "MVFR",
      "metarRaw": "SPECI KIPT 160511Z AUTO 24003KT 3SM BR CLR 17/17 A2991 RMK AO2 T01670167 $",
      "metarObsTime": 1776316260
    },
    "KPHL": {
      "status": "OK",
      "delay": "—",
      "metarCat": "VFR",
      "metarRaw": "METAR KPHL 160454Z 22008KT 10SM BKN220 BKN280 24/16 A2989 RMK AO2 SLP122 T02440156 403280167 $",
      "metarObsTime": 1776315240
    },
    "KABE": {
      "status": "OK",
      "delay": "—",
      "metarCat": "VFR",
      "metarRaw": "METAR KABE 160451Z 00000KT 10SM CLR 20/14 A2988 RMK AO2 SLP116 T02000144 403000150",
      "metarObsTime": 1776315060
    },
    "KAVP": {
      "status": "OK",
      "delay": "—",
      "metarCat": "VFR",
      "metarRaw": "METAR KAVP 160454Z 00000KT 10SM -RA BKN110 17/16 A2994 RMK AO2 TSE04B16E31 SLP131 P0003 T01720156 402890139 $",
      "metarObsTime": 1776315240
    },
    "KHZL": {
      "status": "OK",
      "delay": "—",
      "metarCat": "VFR",
      "metarRaw": "METAR KHZL 160535Z AUTO 00000KT 10SM CLR 18/13 A2997 RMK AO2",
      "metarObsTime": 1776317700
    }
  }
}