{
  "generatedAt": "2026-03-21T16:00:21.519Z",
  "airports": {
    "KPIT": {
      "status": "OK",
      "delay": "—",
      "metarCat": "VFR",
      "metarRaw": "METAR KPIT 211551Z 33003KT 10SM SCT018 BKN180 08/03 A2999 RMK AO2 SLP167 T00780028",
      "metarObsTime": 1774108260
    },
    "KAGC": {
      "status": "OK",
      "delay": "—",
      "metarCat": "MVFR",
      "metarRaw": "METAR KAGC 211553Z VRB03KT 7SM BKN022 09/03 A2998 RMK AO2 SLP158 T00890033",
      "metarObsTime": 1774108380
    },
    "KLBE": {
      "status": "OK",
      "delay": "—",
      "metarCat": "MVFR",
      "metarRaw": "METAR KLBE 211547Z 27004KT 10SM OVC024 BKN029 BKN011 10/05 A3001",
      "metarObsTime": 1774108020
    },
    "KJST": {
      "status": "OK",
      "delay": "—",
      "metarCat": "VFR",
      "metarRaw": "METAR KJST 211554Z AUTO 02008KT 10SM SCT021 08/03 A2996 RMK AO2 SLP149 T00830028",
      "metarObsTime": 1774108440
    },
    "KERI": {
      "status": "OK",
      "delay": "—",
      "metarCat": "MVFR",
      "metarRaw": "METAR KERI 211551Z 05005KT 10SM OVC017 04/01 A3003 RMK AO2 SLP173 T00390006",
      "metarObsTime": 1774108260
    },
    "KDUJ": {
      "status": "OK",
      "delay": "—",
      "metarCat": "VFR",
      "metarRaw": "METAR KDUJ 211553Z AUTO 05004KT 10SM FEW014 06/01 A2996 RMK AO2 SLP151 T00610011",
      "metarObsTime": 1774108380
    },
    "KBFD": {
      "status": "OK",
      "delay": "—",
      "metarCat": "MVFR",
      "metarRaw": "METAR KBFD 211553Z AUTO 00000KT 10SM OVC010 02/M01 A2998 RMK AO2 SLP164 T00171011",
      "metarObsTime": 1774108380
    },
    "KBTP": {
      "status": "OK",
      "delay": "—",
      "metarCat": "VFR",
      "metarRaw": "METAR KBTP 211556Z AUTO 04005KT 10SM FEW020 08/03 A3000 RMK AO2 SLP170 T00780028 $",
      "metarObsTime": 1774108560
    },
    "KFKL": {
      "status": "OK",
      "delay": "—",
      "metarCat": "VFR",
      "metarRaw": "METAR KFKL 211556Z AUTO VRB05KT 10SM SCT011 06/02 A2998 RMK AO2 SLP161 T00560022",
      "metarObsTime": 1774108560
    },
    "KIDI": {
      "status": "OK",
      "delay": "—",
      "metarCat": "MVFR",
      "metarRaw": "METAR KIDI 211555Z AUTO VRB04KT 10SM OVC020 08/03 A3000 RMK A01",
      "metarObsTime": 1774108500
    },
    "KMDT": {
      "status": "OK",
      "delay": "—",
      "metarCat": "VFR",
      "metarRaw": "METAR KMDT 211456Z 36008G19KT 10SM SCT029 12/05 A2993 RMK AO2 SLP135 T01220050 53026",
      "metarObsTime": 1774104960
    },
    "KCXY": {
      "status": "OK",
      "delay": "—",
      "metarCat": "VFR",
      "metarRaw": "SPECI KCXY 211542Z 34010G19KT 10SM OVC031 12/04 A2998 RMK AO2 T01170044",
      "metarObsTime": 1774107720
    },
    "KMUI": {
      "status": "OK",
      "delay": "—",
      "metarCat": "MVFR",
      "metarRaw": "METAR KMUI 211555Z AUTO 01010G15KT 10SM OVC026 09/04 A2997 RMK AO2 SLP153 T00920038",
      "metarObsTime": 1774108500
    },
    "KUNV": {
      "status": "OK",
      "delay": "—",
      "metarCat": "MVFR",
      "metarRaw": "METAR KUNV 211553Z 35008KT 10SM BKN029 09/02 A3000",
      "metarObsTime": 1774108380
    },
    "KAOO": {
      "status": "OK",
      "delay": "—",
      "metarCat": "VFR",
      "metarRaw": "METAR KAOO 211553Z AUTO 01011G16KT 10SM FEW029 11/03 A2998 RMK AO2 SLP154 T01060033",
      "metarObsTime": 1774108380
    },
    "KLNS": {
      "status": "OK",
      "delay": "—",
      "metarCat": "VFR",
      "metarRaw": "METAR KLNS 211553Z 36015G21KT 10SM SCT028 11/04 A2995 RMK AO2 PK WND 34026/1540 SLP143 T01110044",
      "metarObsTime": 1774108380
    },
    "KIPT": {
      "status": "OK",
      "delay": "—",
      "metarCat": "MVFR",
      "metarRaw": "METAR KIPT 211554Z 36007KT 10SM OVC019 05/01 A3001 RMK AO2 SLP166 T00500006 $",
      "metarObsTime": 1774108440
    },
    "KPHL": {
      "status": "OK",
      "delay": "—",
      "metarCat": "VFR",
      "metarRaw": "METAR KPHL 211554Z 34013G20KT 10SM SCT030 16/07 A2991 RMK AO2 PK WND 35027/1541 SLP127 T01560067 $",
      "metarObsTime": 1774108440
    },
    "KABE": {
      "status": "OK",
      "delay": "—",
      "metarCat": "MVFR",
      "metarRaw": "METAR KABE 211551Z 35012G24KT 10SM BKN028 09/02 A2997 RMK AO2 SLP150 T00890022 $",
      "metarObsTime": 1774108260
    },
    "KAVP": {
      "status": "OK",
      "delay": "—",
      "metarCat": "MVFR",
      "metarRaw": "METAR KAVP 211554Z AUTO 35008KT 10SM OVC020 03/M01 A2998 RMK AO2 SLP155 T00331011",
      "metarObsTime": 1774108440
    },
    "KHZL": {
      "status": "OK",
      "delay": "—",
      "metarCat": "MVFR",
      "metarRaw": "METAR KHZL 211535Z AUTO 32009G14KT 10SM OVC013 02/00 A2999 RMK AO2",
      "metarObsTime": 1774107300
    }
  }
}