{
  "generatedAt": "2026-04-01T05:10:33.688Z",
  "airports": {
    "KPIT": {
      "status": "OK",
      "delay": "—",
      "metarCat": "VFR",
      "metarRaw": "METAR KPIT 010451Z 24006KT 7SM -RA FEW025 BKN048 OVC070 16/14 A2998 RMK AO2 TSE18 SLP155 P0015 T01610144 402610128 $",
      "metarObsTime": 1775019060
    },
    "KAGC": {
      "status": "OK",
      "delay": "—",
      "metarCat": "MVFR",
      "metarRaw": "METAR KAGC 010453Z 25005KT 5SM -RA BR SCT046 OVC060 16/14 A2999 RMK AO2 PK WND 33031/0403 RAB0359 TSB0358E26 SLP155 P0029 T01610144 402560156",
      "metarObsTime": 1775019180
    },
    "KLBE": {
      "status": "OK",
      "delay": "—",
      "metarCat": "IFR",
      "metarRaw": "METAR KLBE 010455Z AUTO 36003KT 2 1/2SM RA BR FEW007 BKN023 OVC080 16/15 A3005 RMK AO2 P0013 VIS 2V5",
      "metarObsTime": 1775019300
    },
    "KJST": {
      "status": "OK",
      "delay": "—",
      "metarCat": "VFR",
      "metarRaw": "METAR KJST 010454Z AUTO VRB06KT 10SM -RA SCT014 BKN055 OVC085 14/12 A3003 RMK AO2 RAB02 PRESRR SLP160 P0000 T01440122 402280144",
      "metarObsTime": 1775019240
    },
    "KERI": {
      "status": "OK",
      "delay": "—",
      "metarCat": "VFR",
      "metarRaw": "METAR KERI 010451Z AUTO 22009G17KT 10SM SCT013 BKN036 OVC075 17/14 A2988 RMK AO2 SLP115 T01670144 402440133 $",
      "metarObsTime": 1775019060
    },
    "KDUJ": {
      "status": "OK",
      "delay": "—",
      "metarCat": "MVFR",
      "metarRaw": "METAR KDUJ 010453Z AUTO 23010KT 5SM RA BR FEW004 BKN055 OVC075 13/13 A2996 RMK AO2 SLP142 P0018 T01330128 402170133 $",
      "metarObsTime": 1775019180
    },
    "KBFD": {
      "status": "OK",
      "delay": "—",
      "metarCat": "IFR",
      "metarRaw": "METAR KBFD 010453Z AUTO 23007KT 10SM OVC006 13/13 A2993 RMK AO2 RAB18E28 SLP127 P0000 T01330128 401940111",
      "metarObsTime": 1775019180
    },
    "KBTP": {
      "status": "OK",
      "delay": "—",
      "metarCat": "VFR",
      "metarRaw": "METAR KBTP 010456Z AUTO 19003KT 9SM -RA SCT026 BKN075 OVC100 14/ A2999 RMK AO2 TSE13 SLP156 T0139 $",
      "metarObsTime": 1775019360
    },
    "KFKL": {
      "status": "OK",
      "delay": "—",
      "metarCat": "IFR",
      "metarRaw": "SPECI KFKL 010504Z AUTO 21009KT 10SM -RA OVC005 14/13 A2996 RMK AO2 CIG 003V008 P0000",
      "metarObsTime": 1775019840
    },
    "KIDI": {
      "status": "OK",
      "delay": "—",
      "metarCat": "MVFR",
      "metarRaw": "METAR KIDI 010455Z AUTO 29005G11KT 4SM BR SCT004 BKN029 OVC035 15/14 A3002 RMK A01 P0031",
      "metarObsTime": 1775019300
    },
    "KMDT": {
      "status": "OK",
      "delay": "—",
      "metarCat": "VFR",
      "metarRaw": "METAR KMDT 010456Z 22015G23KT 10SM SCT110 SCT250 22/12 A2989 RMK AO2 PK WND 23027/0423 SLP121 T02220117 402670128",
      "metarObsTime": 1775019360
    },
    "KCXY": {
      "status": "OK",
      "delay": "—",
      "metarCat": "VFR",
      "metarRaw": "METAR KCXY 010456Z AUTO 24007KT 10SM BKN110 22/12 A2991 RMK AO2 SLP125 T02220122 402720111",
      "metarObsTime": 1775019360
    },
    "KMUI": {
      "status": "OK",
      "delay": "—",
      "metarCat": "VFR",
      "metarRaw": "SPECI KMUI 010501Z AUTO 32014G21KT 10SM FEW050 OVC090 23/13 A2991 RMK AO2 WSHFT 0456 SLP128",
      "metarObsTime": 1775019660
    },
    "KUNV": {
      "status": "OK",
      "delay": "—",
      "metarCat": "VFR",
      "metarRaw": "METAR KUNV 010455Z AUTO 25006KT 10SM BKN055 OVC070 16/13 A2996 RMK AO2 T01630125",
      "metarObsTime": 1775019300
    },
    "KAOO": {
      "status": "OK",
      "delay": "—",
      "metarCat": "VFR",
      "metarRaw": "METAR KAOO 010453Z AUTO 04004KT 10SM -RA BKN070 OVC090 16/13 A2998 RMK AO2 RAB12 SLP146 P0000 T01560128 402560144",
      "metarObsTime": 1775019180
    },
    "KLNS": {
      "status": "OK",
      "delay": "—",
      "metarCat": "VFR",
      "metarRaw": "METAR KLNS 010453Z AUTO 23005KT 10SM CLR 21/12 A2991 RMK AO2 SLP125 T02060117 402670150",
      "metarObsTime": 1775019180
    },
    "KIPT": {
      "status": "OK",
      "delay": "—",
      "metarCat": "VFR",
      "metarRaw": "METAR KIPT 010454Z AUTO 28006KT 9SM -RA OVC100 17/15 A2990 RMK AO2 SLP121 P0005 T01720150 402670117",
      "metarObsTime": 1775019240
    },
    "KPHL": {
      "status": "OK",
      "delay": "—",
      "metarCat": "VFR",
      "metarRaw": "METAR KPHL 010454Z 22013G24KT 10SM BKN280 22/13 A2993 RMK AO2 SLP136 T02220128 402720167 $",
      "metarObsTime": 1775019240
    },
    "KABE": {
      "status": "OK",
      "delay": "—",
      "metarCat": "VFR",
      "metarRaw": "METAR KABE 010451Z 24008KT 10SM CLR 21/12 A2988 RMK AO2 SLP114 T02110117 402670128 $",
      "metarObsTime": 1775019060
    },
    "KAVP": {
      "status": "OK",
      "delay": "—",
      "metarCat": "VFR",
      "metarRaw": "METAR KAVP 010454Z AUTO 26010KT 8SM -RA SCT050 BKN070 OVC090 18/14 A2991 RMK AO2 RAB08 SLP121 P0003 T01830139 402560139",
      "metarObsTime": 1775019240
    },
    "KHZL": {
      "status": "OK",
      "delay": "—",
      "metarCat": "VFR",
      "metarRaw": "METAR KHZL 010455Z AUTO 28005G19KT 10SM -RA SCT038 BKN055 OVC095 17/12 A2999 RMK AO2",
      "metarObsTime": 1775019300
    }
  }
}