{
  "generatedAt": "2026-04-25T19:21:02.566Z",
  "airports": {
    "KPIT": {
      "status": "OK",
      "delay": "—",
      "metarCat": "IFR",
      "metarRaw": "METAR KPIT 251851Z 32015KT 10SM BKN007 OVC015 14/12 A2982 RMK AO2 PK WND 32027/1810 RAE15 SLP101 P0000 T01440122",
      "metarObsTime": 1777143060
    },
    "KAGC": {
      "status": "OK",
      "delay": "—",
      "metarCat": "IFR",
      "metarRaw": "SPECI KAGC 251905Z 33014G23KT 7SM BKN009 OVC014 16/14 A2978 RMK AO2 T01560139",
      "metarObsTime": 1777143900
    },
    "KLBE": {
      "status": "OK",
      "delay": "—",
      "metarCat": "MVFR",
      "metarRaw": "METAR KLBE 251850Z 26010KT 8SM -RA BKN015 BKN022 OVC031 18/17 A2979",
      "metarObsTime": 1777143000
    },
    "KJST": {
      "status": "OK",
      "delay": "—",
      "metarCat": "IFR",
      "metarRaw": "SPECI KJST 251902Z AUTO 12005KT 3SM -RA BR OVC005 12/11 A2980 RMK AO2 P0000 T01170111",
      "metarObsTime": 1777143720
    },
    "KERI": {
      "status": "OK",
      "delay": "—",
      "metarCat": "LIFR",
      "metarRaw": "SPECI KERI 251902Z 36010KT 1SM R06/P6000FT -RA BR OVC003 04/04 A2991 RMK AO2 P0000 T00440039",
      "metarObsTime": 1777143720
    },
    "KDUJ": {
      "status": "OK",
      "delay": "—",
      "metarCat": "LIFR",
      "metarRaw": "SPECI KDUJ 251909Z AUTO 12006KT 2SM -RA BR OVC003 11/11 A2977 RMK AO2 P0002 T01110106",
      "metarObsTime": 1777144140
    },
    "KBFD": {
      "status": "OK",
      "delay": "—",
      "metarCat": "IFR",
      "metarRaw": "SPECI KBFD 251910Z AUTO VRB03KT 2SM -RA BR OVC006 09/09 A2980 RMK AO2 CIG 004V008 P0000 T00940089 $",
      "metarObsTime": 1777144200
    },
    "KBTP": {
      "status": "OK",
      "delay": "—",
      "metarCat": "MVFR",
      "metarRaw": "METAR KBTP 251856Z AUTO 30009KT 10SM OVC010 13/13 A2983 RMK AO2 CIG 007V013 SLP106 T01330128 $",
      "metarObsTime": 1777143360
    },
    "KFKL": {
      "status": "OK",
      "delay": "—",
      "metarCat": "—",
      "metarRaw": "—",
      "metarObsTime": null
    },
    "KIDI": {
      "status": "OK",
      "delay": "—",
      "metarCat": "IFR",
      "metarRaw": "METAR KIDI 251915Z AUTO 25007G12KT 10SM BKN008 BKN014 OVC070 17/16 A2978 RMK A01",
      "metarObsTime": 1777144500
    },
    "KMDT": {
      "status": "OK",
      "delay": "—",
      "metarCat": "MVFR",
      "metarRaw": "METAR KMDT 251856Z 12013KT 4SM RA BR SCT014 BKN025 OVC055 10/08 A2991 RMK AO2 SLP129 P0015 T01000083",
      "metarObsTime": 1777143360
    },
    "KCXY": {
      "status": "OK",
      "delay": "—",
      "metarCat": "IFR",
      "metarRaw": "METAR KCXY 251856Z 10011G17KT 6SM -RA BR BKN009 BKN013 OVC038 10/08 A2991 RMK AO2 SLP129 P0013 T01000083",
      "metarObsTime": 1777143360
    },
    "KMUI": {
      "status": "OK",
      "delay": "—",
      "metarCat": "IFR",
      "metarRaw": "METAR KMUI 251855Z AUTO 09011KT 5SM -RA BR BKN005 OVC010 11/10 A2991 RMK AO2 CIG 005V011 BKN V SCT SLP132 P0009 T01050100",
      "metarObsTime": 1777143300
    },
    "KUNV": {
      "status": "OK",
      "delay": "—",
      "metarCat": "IFR",
      "metarRaw": "METAR KUNV 251853Z 15003KT 6SM -DZ BR BKN008 OVC014 09/09 A2985",
      "metarObsTime": 1777143180
    },
    "KAOO": {
      "status": "OK",
      "delay": "—",
      "metarCat": "IFR",
      "metarRaw": "SPECI KAOO 251912Z AUTO VRB04KT 1 1/4SM RA BR OVC007 11/10 A2984 RMK AO2 CIG 003V009 P0005 T01110100",
      "metarObsTime": 1777144320
    },
    "KLNS": {
      "status": "OK",
      "delay": "—",
      "metarCat": "MVFR",
      "metarRaw": "METAR KLNS 251853Z 12013KT 3SM -RA BR BKN034 OVC075 09/07 A2994 RMK AO2 SLP139 P0010 T00890067",
      "metarObsTime": 1777143180
    },
    "KIPT": {
      "status": "OK",
      "delay": "—",
      "metarCat": "MVFR",
      "metarRaw": "SPECI KIPT 251907Z 10010G17KT 4SM -RA BR BKN014 OVC023 09/07 A2988 RMK AO2 P0001 T00890067 $",
      "metarObsTime": 1777144020
    },
    "KPHL": {
      "status": "OK",
      "delay": "—",
      "metarCat": "VFR",
      "metarRaw": "METAR KPHL 251854Z 08012G19KT 10SM FEW024 OVC040 11/04 A3000 RMK AO2 SLP157 T01060039 $",
      "metarObsTime": 1777143240
    },
    "KABE": {
      "status": "OK",
      "delay": "—",
      "metarCat": "VFR",
      "metarRaw": "METAR KABE 251851Z 09012G20KT 9SM -RA BKN045 OVC065 07/05 A2998 RMK AO2 SLP152 P0008 T00670050 $",
      "metarObsTime": 1777143060
    },
    "KAVP": {
      "status": "OK",
      "delay": "—",
      "metarCat": "MVFR",
      "metarRaw": "METAR KAVP 251854Z VRB06KT 10SM -RA BKN020 OVC039 06/03 A2993 RMK AO2 SLP136 P0006 T00610033 $",
      "metarObsTime": 1777143240
    },
    "KHZL": {
      "status": "OK",
      "delay": "—",
      "metarCat": "IFR",
      "metarRaw": "METAR KHZL 251915Z AUTO 12008G15KT 090V150 4SM RA OVC008 05/03 A2991 RMK AO2 P0003",
      "metarObsTime": 1777144500
    }
  }
}