{
  "generatedAt": "2026-03-24T03:20:29.739Z",
  "airports": {
    "KPIT": {
      "status": "OK",
      "delay": "—",
      "metarCat": "MVFR",
      "metarRaw": "METAR KPIT 240251Z 35009G20KT 10SM SCT019 BKN029 M01/M05 A3036 RMK AO2 SNE13 SLP302 P0000 60000 T10111050 51017",
      "metarObsTime": 1774320660
    },
    "KAGC": {
      "status": "OK",
      "delay": "—",
      "metarCat": "VFR",
      "metarRaw": "METAR KAGC 240253Z 34010G17KT 10SM FEW022 SCT032 M01/M05 A3035 RMK AO2 SLP294 T10111050 51017",
      "metarObsTime": 1774320780
    },
    "KLBE": {
      "status": "OK",
      "delay": "—",
      "metarCat": "VFR",
      "metarRaw": "METAR KLBE 240315Z AUTO 29004KT 10SM CLR M01/M05 A3037 RMK AO2",
      "metarObsTime": 1774322100
    },
    "KJST": {
      "status": "OK",
      "delay": "—",
      "metarCat": "VFR",
      "metarRaw": "METAR KJST 240254Z AUTO 32014G20KT 10SM SCT036 M03/M09 A3025 RMK AO2 SLP271 60000 T10331094 51021",
      "metarObsTime": 1774320840
    },
    "KERI": {
      "status": "OK",
      "delay": "—",
      "metarCat": "VFR",
      "metarRaw": "METAR KERI 240251Z 32009KT 10SM SCT031 M02/M09 A3041 RMK AO2 SLP307 T10221094 51019",
      "metarObsTime": 1774320660
    },
    "KDUJ": {
      "status": "OK",
      "delay": "—",
      "metarCat": "VFR",
      "metarRaw": "METAR KDUJ 240253Z AUTO 30008KT 260V320 10SM BKN033 OVC041 M03/M09 A3028 RMK AO2 SLP275 T10281089 51020",
      "metarObsTime": 1774320780
    },
    "KBFD": {
      "status": "OK",
      "delay": "—",
      "metarCat": "MVFR",
      "metarRaw": "METAR KBFD 240253Z AUTO 32008G17KT 9SM -SN OVC024 M04/M09 A3026 RMK AO2 SNB50 SLP274 P0000 60000 T10441089 51020",
      "metarObsTime": 1774320780
    },
    "KBTP": {
      "status": "OK",
      "delay": "—",
      "metarCat": "VFR",
      "metarRaw": "METAR KBTP 240256Z AUTO 33007KT 10SM FEW027 OVC045 M02/M06 A3037 RMK AO2 SLP304 T10171061 51010 FZRANO $",
      "metarObsTime": 1774320960
    },
    "KFKL": {
      "status": "OK",
      "delay": "—",
      "metarCat": "VFR",
      "metarRaw": "METAR KFKL 240256Z AUTO 32009G14KT 280V350 10SM CLR M04/M09 A3036 RMK AO2 SLP300 60000 T10391089 51020 FZRANO",
      "metarObsTime": 1774320960
    },
    "KIDI": {
      "status": "OK",
      "delay": "—",
      "metarCat": "VFR",
      "metarRaw": "METAR KIDI 240315Z AUTO 30009G17KT 10SM FEW026 BKN039 OVC044 M01/M07 A3034 RMK A01",
      "metarObsTime": 1774322100
    },
    "KMDT": {
      "status": "OK",
      "delay": "—",
      "metarCat": "VFR",
      "metarRaw": "METAR KMDT 240256Z 35008KT 10SM OVC040 04/M04 A3026 RMK AO2 SLP250 T00441044 51025",
      "metarObsTime": 1774320960
    },
    "KCXY": {
      "status": "OK",
      "delay": "—",
      "metarCat": "VFR",
      "metarRaw": "METAR KCXY 240256Z AUTO 31007KT 10SM OVC037 04/M03 A3027 RMK AO2 SLP253 T00391033 51024",
      "metarObsTime": 1774320960
    },
    "KMUI": {
      "status": "OK",
      "delay": "—",
      "metarCat": "VFR",
      "metarRaw": "METAR KMUI 240255Z AUTO 31007KT 10SM BKN042 OVC060 03/M04 A3024 RMK AO2 SLP247 60000 T00341043 $",
      "metarObsTime": 1774320900
    },
    "KUNV": {
      "status": "OK",
      "delay": "—",
      "metarCat": "VFR",
      "metarRaw": "METAR KUNV 240315Z AUTO 32011KT 10SM SCT036 OVC044 00/M09 A3030 RMK AO2 T10011089",
      "metarObsTime": 1774322100
    },
    "KAOO": {
      "status": "OK",
      "delay": "—",
      "metarCat": "VFR",
      "metarRaw": "METAR KAOO 240253Z AUTO 33008G19KT 10SM BKN041 M01/M09 A3029 RMK AO2 PK WND 32028/0236 SLP270 T10111094 51024",
      "metarObsTime": 1774320780
    },
    "KLNS": {
      "status": "OK",
      "delay": "—",
      "metarCat": "VFR",
      "metarRaw": "METAR KLNS 240253Z 34004KT 10SM FEW070 02/M05 A3025 RMK AO2 SLP246 T00171050 51022",
      "metarObsTime": 1774320780
    },
    "KIPT": {
      "status": "OK",
      "delay": "—",
      "metarCat": "VFR",
      "metarRaw": "METAR KIPT 240254Z AUTO 32007KT 10SM FEW042 SCT070 01/M04 A3027 RMK AO2 SLP254 T00061044 51024",
      "metarObsTime": 1774320840
    },
    "KPHL": {
      "status": "OK",
      "delay": "—",
      "metarCat": "VFR",
      "metarRaw": "METAR KPHL 240254Z 34012KT 10SM CLR 04/M05 A3024 RMK AO2 SLP240 60000 T00391050 51033 $",
      "metarObsTime": 1774320840
    },
    "KABE": {
      "status": "OK",
      "delay": "—",
      "metarCat": "VFR",
      "metarRaw": "METAR KABE 240251Z 33014G22KT 10SM CLR 01/M06 A3024 RMK AO2 SLP241 T00111061 51025 $",
      "metarObsTime": 1774320660
    },
    "KAVP": {
      "status": "OK",
      "delay": "—",
      "metarCat": "VFR",
      "metarRaw": "METAR KAVP 240254Z 35005KT 10SM BKN041 M01/M06 A3023 RMK AO2 SLP245 T10061061 51024",
      "metarObsTime": 1774320840
    },
    "KHZL": {
      "status": "OK",
      "delay": "—",
      "metarCat": "VFR",
      "metarRaw": "METAR KHZL 240315Z AUTO 33007KT 10SM BKN034 00/M06 A3023 RMK AO2",
      "metarObsTime": 1774322100
    }
  }
}