{
  "generatedAt": "2026-03-05T07:58:36.609Z",
  "airports": {
    "KPIT": {
      "status": "OK",
      "delay": "—",
      "metarCat": "LIFR",
      "metarRaw": "METAR KPIT 050751Z 12005KT 1/4SM R28R/P6000FT -RA FG BKN002 OVC007 11/11 A3004 RMK AO2 SLP183 P0010 T01060106 $",
      "metarObsTime": 1772697060
    },
    "KAGC": {
      "status": "OK",
      "delay": "—",
      "metarCat": "LIFR",
      "metarRaw": "METAR KAGC 050753Z 16008KT 1/4SM R28/1400V1600FT -RA FG BKN003 OVC012 11/11 A3005 RMK AO2 SLP184 P0015 T01110111",
      "metarObsTime": 1772697180
    },
    "KLBE": {
      "status": "OK",
      "delay": "—",
      "metarCat": "LIFR",
      "metarRaw": "METAR KLBE 050755Z AUTO 00000KT 3/4SM -RA BR BKN008 OVC024 11/11 A3010 RMK AO2 P0015",
      "metarObsTime": 1772697300
    },
    "KJST": {
      "status": "OK",
      "delay": "—",
      "metarCat": "LIFR",
      "metarRaw": "METAR KJST 050754Z AUTO 10003KT 1/2SM RA FG VV007 08/08 A3008 RMK AO2 RAB02 SLP196 P0008 T00780078",
      "metarObsTime": 1772697240
    },
    "KERI": {
      "status": "OK",
      "delay": "—",
      "metarCat": "IFR",
      "metarRaw": "METAR KERI 050751Z AUTO 00000KT 2SM BR SCT013 OVC022 03/03 A3006 RMK AO2 SLP187 T00330028",
      "metarObsTime": 1772697060
    },
    "KDUJ": {
      "status": "OK",
      "delay": "—",
      "metarCat": "LIFR",
      "metarRaw": "METAR KDUJ 050753Z AUTO 12004KT 3/4SM -RA BR FEW002 OVC007 06/05 A3008 RMK AO2 SLP193 P0008 T00560050",
      "metarObsTime": 1772697180
    },
    "KBFD": {
      "status": "OK",
      "delay": "—",
      "metarCat": "LIFR",
      "metarRaw": "METAR KBFD 050748Z AUTO 11004KT 2SM BR OVC003 04/04 A3009 RMK AO2 RAB0658E14 SLP194 P0000 T00440044",
      "metarObsTime": 1772696880
    },
    "KBTP": {
      "status": "OK",
      "delay": "—",
      "metarCat": "MVFR",
      "metarRaw": "METAR KBTP 050756Z AUTO 11007KT 10SM -RA FEW003 OVC012 09/ A3007 RMK AO2 SLP190 P0007 T0094 $",
      "metarObsTime": 1772697360
    },
    "KFKL": {
      "status": "OK",
      "delay": "—",
      "metarCat": "LIFR",
      "metarRaw": "METAR KFKL 050756Z AUTO 13005KT 1SM -RA BR OVC002 08/08 A3006 RMK AO2 SLP186 P0007 T00780078",
      "metarObsTime": 1772697360
    },
    "KIDI": {
      "status": "OK",
      "delay": "—",
      "metarCat": "MVFR",
      "metarRaw": "METAR KIDI 050755Z AUTO 08008KT 3SM BR OVC011 08/08 A3009 RMK A01 P0010",
      "metarObsTime": 1772697300
    },
    "KMDT": {
      "status": "OK",
      "delay": "—",
      "metarCat": "LIFR",
      "metarRaw": "SPECI KMDT 050752Z 00000KT 1/4SM R13/2000V2200FT -RA FG VV002 04/04 A3018 RMK AO2 TWR VIS 1 RAB20 P0001",
      "metarObsTime": 1772697120
    },
    "KCXY": {
      "status": "OK",
      "delay": "—",
      "metarCat": "LIFR",
      "metarRaw": "SPECI KCXY 050745Z AUTO 00000KT 1/2SM R08/2400V3500FT FG VV003 06/06 A3019 RMK AO2 RAB23E44 P0001 T00560056",
      "metarObsTime": 1772696700
    },
    "KMUI": {
      "status": "OK",
      "delay": "—",
      "metarCat": "LIFR",
      "metarRaw": "METAR KMUI 050755Z AUTO 00000KT 3/8SM FG VV001 06/06 A3016 RMK AO2 SLP219 T00610058 RVRNO",
      "metarObsTime": 1772697300
    },
    "KUNV": {
      "status": "OK",
      "delay": "—",
      "metarCat": "LIFR",
      "metarRaw": "METAR KUNV 050755Z AUTO 00000KT 1/2SM -RA OVC004 03/03 A3014 RMK AO2 P0004 T00320031",
      "metarObsTime": 1772697300
    },
    "KAOO": {
      "status": "OK",
      "delay": "—",
      "metarCat": "LIFR",
      "metarRaw": "METAR KAOO 050753Z AUTO 06003KT 2SM -RA BR OVC004 04/04 A3013 RMK AO2 RAE03B25 SLP214 P0003 T00440044",
      "metarObsTime": 1772697180
    },
    "KLNS": {
      "status": "OK",
      "delay": "—",
      "metarCat": "LIFR",
      "metarRaw": "METAR KLNS 050753Z AUTO 00000KT 1/4SM FG VV002 06/06 A3019 RMK AO2 SLP225 T00560056",
      "metarObsTime": 1772697180
    },
    "KIPT": {
      "status": "OK",
      "delay": "—",
      "metarCat": "LIFR",
      "metarRaw": "METAR KIPT 050754Z AUTO 00000KT 1/2SM -RA FG VV003 04/04 A3018 RMK AO2 RAB36 SLP225 P0001 T00390039 $",
      "metarObsTime": 1772697240
    },
    "KPHL": {
      "status": "OK",
      "delay": "—",
      "metarCat": "IFR",
      "metarRaw": "METAR KPHL 050754Z 00000KT 4SM OVC009 08/06 A3022 RMK AO2 SLP233 T00780061 $",
      "metarObsTime": 1772697240
    },
    "KABE": {
      "status": "OK",
      "delay": "—",
      "metarCat": "LIFR",
      "metarRaw": "METAR KABE 050751Z AUTO 03003KT 3SM BR OVC004 06/05 A3020 RMK AO2 SLP229 T00560050",
      "metarObsTime": 1772697060
    },
    "KAVP": {
      "status": "OK",
      "delay": "—",
      "metarCat": "MVFR",
      "metarRaw": "METAR KAVP 050754Z AUTO 00000KT 8SM OVC012 06/04 A3018 RMK AO2 SLP220 T00560039",
      "metarObsTime": 1772697240
    },
    "KHZL": {
      "status": "OK",
      "delay": "—",
      "metarCat": "LIFR",
      "metarRaw": "METAR KHZL 050755Z AUTO 00000KT 2SM BR OVC003 05/04 A3019 RMK AO2",
      "metarObsTime": 1772697300
    }
  }
}