{
  "generatedAt": "2026-04-23T04:30:58.652Z",
  "airports": {
    "KPIT": {
      "status": "OK",
      "delay": "—",
      "metarCat": "VFR",
      "metarRaw": "METAR KPIT 230351Z 27007KT 10SM FEW055 SCT070 BKN110 17/13 A3000 RMK AO2 RAE46 TSE14 SLP162 P0001 T01670133",
      "metarObsTime": 1776916260
    },
    "KAGC": {
      "status": "OK",
      "delay": "—",
      "metarCat": "VFR",
      "metarRaw": "METAR KAGC 230353Z 29008G17KT 250V310 10SM -RA OVC085 17/13 A2999 RMK AO2 RAB26 SLP157 P0000 T01720128",
      "metarObsTime": 1776916380
    },
    "KLBE": {
      "status": "OK",
      "delay": "—",
      "metarCat": "VFR",
      "metarRaw": "METAR KLBE 230415Z AUTO 20008KT 10SM FEW048 SCT055 BKN090 17/12 A3002 RMK AO2",
      "metarObsTime": 1776917700
    },
    "KJST": {
      "status": "OK",
      "delay": "—",
      "metarCat": "VFR",
      "metarRaw": "METAR KJST 230354Z AUTO 23007KT 10SM SCT060 SCT090 15/10 A3001 RMK AO2 SLP156 T01500100",
      "metarObsTime": 1776916440
    },
    "KERI": {
      "status": "OK",
      "delay": "—",
      "metarCat": "VFR",
      "metarRaw": "METAR KERI 230351Z AUTO 00000KT 10SM CLR 11/07 A2998 RMK AO2 SLP153 T01110072",
      "metarObsTime": 1776916260
    },
    "KDUJ": {
      "status": "OK",
      "delay": "—",
      "metarCat": "VFR",
      "metarRaw": "METAR KDUJ 230353Z AUTO 01004KT 10SM FEW075 FEW095 14/03 A2997 RMK AO2 SLP144 T01440033",
      "metarObsTime": 1776916380
    },
    "KBFD": {
      "status": "OK",
      "delay": "—",
      "metarCat": "VFR",
      "metarRaw": "METAR KBFD 230353Z AUTO 00000KT 10SM CLR 07/03 A2999 RMK AO2 SLP154 T00720028 $",
      "metarObsTime": 1776916380
    },
    "KBTP": {
      "status": "OK",
      "delay": "—",
      "metarCat": "VFR",
      "metarRaw": "METAR KBTP 230356Z AUTO 26012G20KT 10SM CLR 17/12 A3000 RMK AO2 SLP158 T01720122 402390111 $",
      "metarObsTime": 1776916560
    },
    "KFKL": {
      "status": "OK",
      "delay": "—",
      "metarCat": "—",
      "metarRaw": "—",
      "metarObsTime": null
    },
    "KIDI": {
      "status": "OK",
      "delay": "—",
      "metarCat": "—",
      "metarRaw": "—",
      "metarObsTime": null
    },
    "KMDT": {
      "status": "OK",
      "delay": "—",
      "metarCat": "VFR",
      "metarRaw": "METAR KMDT 230356Z 00000KT 9SM FEW100 13/11 A2995 RMK AO2 SLP143 T01280111",
      "metarObsTime": 1776916560
    },
    "KCXY": {
      "status": "OK",
      "delay": "—",
      "metarCat": "VFR",
      "metarRaw": "METAR KCXY 230356Z AUTO 00000KT 10SM SCT095 12/10 A2995 RMK AO2 SLP145 T01220100",
      "metarObsTime": 1776916560
    },
    "KMUI": {
      "status": "OK",
      "delay": "—",
      "metarCat": "VFR",
      "metarRaw": "METAR KMUI 230355Z AUTO 03003KT 10SM CLR 12/11 A2994 RMK AO2 SLP142 T01150112",
      "metarObsTime": 1776916500
    },
    "KUNV": {
      "status": "OK",
      "delay": "—",
      "metarCat": "VFR",
      "metarRaw": "METAR KUNV 230415Z AUTO 00000KT 10SM SCT090 16/03 A2997 RMK AO2 T01600033",
      "metarObsTime": 1776917700
    },
    "KAOO": {
      "status": "OK",
      "delay": "—",
      "metarCat": "VFR",
      "metarRaw": "METAR KAOO 230353Z AUTO 00000KT 10SM FEW100 15/07 A2999 RMK AO2 SLP150 T01500072",
      "metarObsTime": 1776916380
    },
    "KLNS": {
      "status": "OK",
      "delay": "—",
      "metarCat": "VFR",
      "metarRaw": "METAR KLNS 230353Z AUTO 06003KT 10SM CLR 12/09 A2996 RMK AO2 SLP144 T01170089",
      "metarObsTime": 1776916380
    },
    "KIPT": {
      "status": "OK",
      "delay": "—",
      "metarCat": "VFR",
      "metarRaw": "METAR KIPT 230354Z AUTO 00000KT 10SM CLR 11/09 A2995 RMK AO2 SLP142 T01060089 $",
      "metarObsTime": 1776916440
    },
    "KPHL": {
      "status": "OK",
      "delay": "—",
      "metarCat": "VFR",
      "metarRaw": "METAR KPHL 230354Z 05005KT 10SM BKN120 13/10 A2998 RMK AO2 SLP150 T01280100 $",
      "metarObsTime": 1776916440
    },
    "KABE": {
      "status": "OK",
      "delay": "—",
      "metarCat": "VFR",
      "metarRaw": "METAR KABE 230351Z 00000KT 10SM FEW065 09/07 A2998 RMK AO2 SLP154 T00890072",
      "metarObsTime": 1776916260
    },
    "KAVP": {
      "status": "OK",
      "delay": "—",
      "metarCat": "VFR",
      "metarRaw": "METAR KAVP 230354Z 11004KT 10SM CLR 12/08 A2998 RMK AO2 SLP150 T01170078",
      "metarObsTime": 1776916440
    },
    "KHZL": {
      "status": "OK",
      "delay": "—",
      "metarCat": "MVFR",
      "metarRaw": "METAR KHZL 230415Z AUTO 00000KT 5SM BR CLR 08/06 A3001 RMK AO2",
      "metarObsTime": 1776917700
    }
  }
}