{
  "generatedAt": "2026-04-01T16:10:50.420Z",
  "airports": {
    "KPIT": {
      "status": "OK",
      "delay": "—",
      "metarCat": "LIFR",
      "metarRaw": "SPECI KPIT 011505Z 34008KT 1/4SM R28R/P6000FT BKN002 BKN008 OVC018 16/14 A3012 RMK AO2 SFC VIS 8 T01560139",
      "metarObsTime": 1775055900
    },
    "KAGC": {
      "status": "OK",
      "delay": "—",
      "metarCat": "IFR",
      "metarRaw": "SPECI KAGC 011501Z 20005KT 10SM OVC005 15/14 A3011 RMK AO2 CIG 003V009 T01500139",
      "metarObsTime": 1775055660
    },
    "KLBE": {
      "status": "OK",
      "delay": "—",
      "metarCat": "IFR",
      "metarRaw": "METAR KLBE 011547Z 20008KT 8SM BKN009 OVC045 16/15 A3014",
      "metarObsTime": 1775058420
    },
    "KJST": {
      "status": "OK",
      "delay": "—",
      "metarCat": "IFR",
      "metarRaw": "METAR KJST 011454Z AUTO 28009KT 10SM BKN008 BKN031 BKN090 14/13 A3012 RMK AO2 RAE50 SLP194 P0000 60002 T01390128 51021",
      "metarObsTime": 1775055240
    },
    "KERI": {
      "status": "OK",
      "delay": "—",
      "metarCat": "IFR",
      "metarRaw": "METAR KERI 011451Z 04008KT 6SM BR OVC007 03/03 A3021 RMK AO2 CIG 005V010 SLP232 T00330028 51031 $",
      "metarObsTime": 1775055060
    },
    "KDUJ": {
      "status": "OK",
      "delay": "—",
      "metarCat": "IFR",
      "metarRaw": "SPECI KDUJ 011534Z AUTO 26004KT 9SM -RA OVC007 13/13 A3011 RMK AO2 CIG 004V010 P0001 T01330128",
      "metarObsTime": 1775057640
    },
    "KBFD": {
      "status": "OK",
      "delay": "—",
      "metarCat": "LIFR",
      "metarRaw": "METAR KBFD 011453Z AUTO 33005KT 3SM -RA BR OVC003 09/08 A3012 RMK AO2 RAB02 SLP199 P0001 60001 T00890083 51013",
      "metarObsTime": 1775055180
    },
    "KBTP": {
      "status": "OK",
      "delay": "—",
      "metarCat": "LIFR",
      "metarRaw": "METAR KBTP 011456Z AUTO 34005KT 10SM -RA OVC004 12/ A3013 RMK AO2 RAE01B17 SLP208 P0001 60002 T0117 53011 $",
      "metarObsTime": 1775055360
    },
    "KFKL": {
      "status": "OK",
      "delay": "—",
      "metarCat": "LIFR",
      "metarRaw": "METAR KFKL 011456Z AUTO VRB03KT 8SM RA OVC003 08/07 A3015 RMK AO2 CIG 002V007 SLP213 P0003 60013 T00780072 51022",
      "metarObsTime": 1775055360
    },
    "KIDI": {
      "status": "OK",
      "delay": "—",
      "metarCat": "VFR",
      "metarRaw": "METAR KIDI 011535Z AUTO 23006KT 10SM SCT006 SCT009 SCT047 16/15 A3013 RMK A01",
      "metarObsTime": 1775057700
    },
    "KMDT": {
      "status": "OK",
      "delay": "—",
      "metarCat": "VFR",
      "metarRaw": "METAR KMDT 011456Z 31003KT 10SM FEW100 SCT140 BKN190 19/13 A3007 RMK AO2 SLP182 60000 T01940133 53022 $",
      "metarObsTime": 1775055360
    },
    "KCXY": {
      "status": "OK",
      "delay": "—",
      "metarCat": "VFR",
      "metarRaw": "METAR KCXY 011456Z 26006KT 10SM CLR 20/14 A3009 RMK AO2 SLP187 60001 T02000139 53024",
      "metarObsTime": 1775055360
    },
    "KMUI": {
      "status": "OK",
      "delay": "—",
      "metarCat": "VFR",
      "metarRaw": "METAR KMUI 011455Z 26009KT 10SM FEW050 FEW080 BKN160 BKN250 21/15 A3005 RMK AO2A SLP177 60000 T02070152 52024",
      "metarObsTime": 1775055300
    },
    "KUNV": {
      "status": "OK",
      "delay": "—",
      "metarCat": "MVFR",
      "metarRaw": "METAR KUNV 011453Z 29007G10KT 10SM BKN023 OVC075 17/13 A3010",
      "metarObsTime": 1775055180
    },
    "KAOO": {
      "status": "OK",
      "delay": "—",
      "metarCat": "VFR",
      "metarRaw": "METAR KAOO 011453Z AUTO 28005KT 10SM OVC100 16/13 A3011 RMK AO2 SLP190 60000 T01610128 53021",
      "metarObsTime": 1775055180
    },
    "KLNS": {
      "status": "OK",
      "delay": "—",
      "metarCat": "VFR",
      "metarRaw": "METAR KLNS 011453Z 29006KT 10SM FEW040 SCT065 BKN090 21/14 A3007 RMK AO2 RAE1356 SLP180 P0000 60000 T02110139 53017",
      "metarObsTime": 1775055180
    },
    "KIPT": {
      "status": "OK",
      "delay": "—",
      "metarCat": "VFR",
      "metarRaw": "METAR KIPT 011454Z 26006KT 10SM CLR 19/14 A3004 RMK AO2 SLP168 T01940144 53014 $",
      "metarObsTime": 1775055240
    },
    "KPHL": {
      "status": "OK",
      "delay": "—",
      "metarCat": "VFR",
      "metarRaw": "METAR KPHL 011454Z 27007KT 10SM FEW040 BKN140 BKN220 24/13 A3005 RMK AO2 SLP175 VCSH T02390133 51011 $",
      "metarObsTime": 1775055240
    },
    "KABE": {
      "status": "OK",
      "delay": "—",
      "metarCat": "VFR",
      "metarRaw": "METAR KABE 011451Z 30008KT 260V320 10SM FEW100 21/13 A3004 RMK AO2 RAE13 SLP169 P0000 60000 T02110133 53011 $",
      "metarObsTime": 1775055060
    },
    "KAVP": {
      "status": "OK",
      "delay": "—",
      "metarCat": "VFR",
      "metarRaw": "SPECI KAVP 011545Z 35014KT 10SM FEW018 SCT026 OVC034 15/12 A3009 RMK AO2 PK WND 34026/1513 WSHFT 1510 T01500117",
      "metarObsTime": 1775058300
    },
    "KHZL": {
      "status": "OK",
      "delay": "—",
      "metarCat": "MVFR",
      "metarRaw": "METAR KHZL 011535Z AUTO 28004KT 10SM BKN020 OVC026 19/12 A3011 RMK AO2",
      "metarObsTime": 1775057700
    }
  }
}