{
  "generatedAt": "2026-03-11T15:10:14.038Z",
  "airports": {
    "KPIT": {
      "status": "OK",
      "delay": "—",
      "metarCat": "MVFR",
      "metarRaw": "METAR KPIT 111451Z 21010KT 6SM R28R/3000VP6000FT TSRA BKN020 BKN029CB OVC040 19/16 A2975 RMK AO2 RAB00E30B39 TSB35 SLP076 OCNL LTGICCG OHD TS OHD MOV NE P0003 60003 T01890161 58015 $",
      "metarObsTime": 1773240660
    },
    "KAGC": {
      "status": "OK",
      "delay": "—",
      "metarCat": "VFR",
      "metarRaw": "SPECI KAGC 111503Z 19014G20KT 10SM SCT027 SCT070 18/17 A2976 RMK AO2 LTG DSNT W-N T01830167",
      "metarObsTime": 1773241380
    },
    "KLBE": {
      "status": "OK",
      "delay": "—",
      "metarCat": "MVFR",
      "metarRaw": "METAR KLBE 111445Z 21014KT 8SM BKN030 OVC040 20/18 A2980",
      "metarObsTime": 1773240300
    },
    "KJST": {
      "status": "OK",
      "delay": "—",
      "metarCat": "MVFR",
      "metarRaw": "METAR KJST 111454Z AUTO 19012G20KT 10SM FEW010 OVC017 16/15 A2983 RMK AO2 RAE22 SLP094 P0003 60017 T01610150 58018",
      "metarObsTime": 1773240840
    },
    "KERI": {
      "status": "OK",
      "delay": "—",
      "metarCat": "IFR",
      "metarRaw": "SPECI KERI 111454Z 16010KT 2 1/2SM VCTS RA BR SCT055 BKN070 OVC085 16/14 A2964 RMK AO2 P0002 T01560144",
      "metarObsTime": 1773240840
    },
    "KDUJ": {
      "status": "OK",
      "delay": "—",
      "metarCat": "MVFR",
      "metarRaw": "METAR KDUJ 111453Z AUTO 19007G19KT 10SM -RA OVC015 17/14 A2976 RMK AO2 RAB1359E09B46 SLP071 P0000 60002 T01720144 58015",
      "metarObsTime": 1773240780
    },
    "KBFD": {
      "status": "OK",
      "delay": "—",
      "metarCat": "MVFR",
      "metarRaw": "METAR KBFD 111453Z AUTO 19011G19KT 150V230 10SM BKN010 OVC016 16/14 A2973 RMK AO2 RAE45 CIG 007V012 SLP061 P0004 60016 T01560144 58020",
      "metarObsTime": 1773240780
    },
    "KBTP": {
      "status": "OK",
      "delay": "—",
      "metarCat": "MVFR",
      "metarRaw": "METAR KBTP 111456Z AUTO 18010KT 10SM OVC013 18/18 A2975 RMK AO2 LTG DSNT S RAE45 SLP078 P0001 60001 T01780178 58015 $",
      "metarObsTime": 1773240960
    },
    "KFKL": {
      "status": "OK",
      "delay": "—",
      "metarCat": "MVFR",
      "metarRaw": "METAR KFKL 111456Z AUTO 20015KT 10SM OVC013 A2971 RMK AO2 RAE08 SLPNO P0000 60003 58017 FZRANO $",
      "metarObsTime": 1773240960
    },
    "KIDI": {
      "status": "OK",
      "delay": "—",
      "metarCat": "—",
      "metarRaw": "—",
      "metarObsTime": null
    },
    "KMDT": {
      "status": "OK",
      "delay": "—",
      "metarCat": "VFR",
      "metarRaw": "METAR KMDT 111456Z 11004KT 9SM FEW055 SCT100 SCT120 13/11 A2987 RMK AO2 SLP115 P0002 60002 T01330106 50001",
      "metarObsTime": 1773240960
    },
    "KCXY": {
      "status": "OK",
      "delay": "—",
      "metarCat": "VFR",
      "metarRaw": "METAR KCXY 111456Z 00000KT 10SM SCT120 15/12 A2989 RMK AO2 RAE32 SLP120 P0003 60003 T01500117 50004",
      "metarObsTime": 1773240960
    },
    "KMUI": {
      "status": "OK",
      "delay": "—",
      "metarCat": "VFR",
      "metarRaw": "METAR KMUI 111455Z 12003KT 10SM VCSH BKN065 OVC110 16/13 A2986 RMK AO2A RAE53 SLP114 60002 T01580133",
      "metarObsTime": 1773240900
    },
    "KUNV": {
      "status": "OK",
      "delay": "—",
      "metarCat": "VFR",
      "metarRaw": "METAR KUNV 111453Z 23006KT 10SM -DZ SCT023 BKN042 BKN100 16/15 A2983",
      "metarObsTime": 1773240780
    },
    "KAOO": {
      "status": "OK",
      "delay": "—",
      "metarCat": "MVFR",
      "metarRaw": "METAR KAOO 111453Z AUTO 23009KT 10SM -RA BKN030 OVC040 17/15 A2986 RMK AO2 LTG DSNT SE AND S SLP109 P0005 6//// T01670150",
      "metarObsTime": 1773240780
    },
    "KLNS": {
      "status": "OK",
      "delay": "—",
      "metarCat": "VFR",
      "metarRaw": "METAR KLNS 111453Z 00000KT 10SM FEW090 BKN120 17/11 A2989 RMK AO2 SLP122 T01720111 50000",
      "metarObsTime": 1773240780
    },
    "KIPT": {
      "status": "OK",
      "delay": "—",
      "metarCat": "VFR",
      "metarRaw": "METAR KIPT 111454Z 09004KT 10SM SCT110 20/11 A2981 RMK AO2 SLP092 T02000106 58010 $",
      "metarObsTime": 1773240840
    },
    "KPHL": {
      "status": "OK",
      "delay": "—",
      "metarCat": "VFR",
      "metarRaw": "METAR KPHL 111454Z 24010KT 10SM FEW110 BKN200 BKN280 21/12 A2992 RMK AO2 SLP131 VIRGA T02060117 58001 $",
      "metarObsTime": 1773240840
    },
    "KABE": {
      "status": "OK",
      "delay": "—",
      "metarCat": "VFR",
      "metarRaw": "METAR KABE 111451Z 21007KT 10SM CLR 20/09 A2989 RMK AO2 SLP120 T02000094 56004 $",
      "metarObsTime": 1773240660
    },
    "KAVP": {
      "status": "OK",
      "delay": "—",
      "metarCat": "VFR",
      "metarRaw": "METAR KAVP 111454Z 28005KT 10SM CLR 21/09 A2985 RMK AO2 SLP103 T02060089 58007",
      "metarObsTime": 1773240840
    },
    "KHZL": {
      "status": "OK",
      "delay": "—",
      "metarCat": "VFR",
      "metarRaw": "METAR KHZL 111455Z AUTO 16006KT 10SM SCT035 SCT060 BKN100 17/08 A2991 RMK AO2",
      "metarObsTime": 1773240900
    }
  }
}