{
  "generatedAt": "2026-03-12T21:20:11.455Z",
  "airports": {
    "KPIT": {
      "status": "OK",
      "delay": "—",
      "metarCat": "VFR",
      "metarRaw": "METAR KPIT 122051Z 32018G28KT 10SM BKN045 04/M10 A3003 RMK AO2 PK WND 30031/2017 SLP187 T00441100 53006 $",
      "metarObsTime": 1773348660
    },
    "KAGC": {
      "status": "OK",
      "delay": "—",
      "metarCat": "VFR",
      "metarRaw": "METAR KAGC 122053Z 32015G25KT 10SM BKN065 OVC080 03/M12 A3001 RMK AO2 PK WND 33031/2011 SLP178 T00331117 53006",
      "metarObsTime": 1773348780
    },
    "KLBE": {
      "status": "OK",
      "delay": "—",
      "metarCat": "VFR",
      "metarRaw": "METAR KLBE 122053Z 2717G34KT 10SM BKN042 FEW049 04/M10 A3003",
      "metarObsTime": 1773348780
    },
    "KJST": {
      "status": "OK",
      "delay": "—",
      "metarCat": "VFR",
      "metarRaw": "METAR KJST 122054Z AUTO 30020G33KT 10SM OVC070 00/M11 A2992 RMK AO2 PK WND 32037/2004 SLP155 T00001111 53011",
      "metarObsTime": 1773348840
    },
    "KERI": {
      "status": "OK",
      "delay": "—",
      "metarCat": "VFR",
      "metarRaw": "METAR KERI 122051Z 26011G20KT 10SM FEW043 SCT055 01/M06 A3007 RMK AO2 SLP190 T00111056 53004",
      "metarObsTime": 1773348660
    },
    "KDUJ": {
      "status": "OK",
      "delay": "—",
      "metarCat": "VFR",
      "metarRaw": "METAR KDUJ 122053Z AUTO 31015G30KT 10SM FEW060 02/M11 A2995 RMK AO2 PK WND 28033/2022 SLP157 T00171106 53010",
      "metarObsTime": 1773348780
    },
    "KBFD": {
      "status": "OK",
      "delay": "—",
      "metarCat": "VFR",
      "metarRaw": "METAR KBFD 122053Z AUTO 31022G33KT 10SM -SN BKN037 OVC050 M02/M09 A2992 RMK AO2 PK WND 31033/2047 SNB53 SLP154 P0000 60000 T10171089 53011",
      "metarObsTime": 1773348780
    },
    "KBTP": {
      "status": "OK",
      "delay": "—",
      "metarCat": "VFR",
      "metarRaw": "METAR KBTP 122056Z AUTO 31017G22KT 10SM BKN065 BKN075 03/M10 A3003 RMK AO2 SLP188 T00331100 53008 $",
      "metarObsTime": 1773348960
    },
    "KFKL": {
      "status": "OK",
      "delay": "—",
      "metarCat": "VFR",
      "metarRaw": "METAR KFKL 122056Z AUTO 29012G20KT 10SM FEW043 SCT055 A3003 RMK AO2 SLPNO 53013 FZRANO $",
      "metarObsTime": 1773348960
    },
    "KIDI": {
      "status": "OK",
      "delay": "—",
      "metarCat": "VFR",
      "metarRaw": "METAR KIDI 122115Z AUTO 30014G23KT 260V330 10SM FEW049 SCT065 BKN085 03/M09 A3000 RMK A01",
      "metarObsTime": 1773350100
    },
    "KMDT": {
      "status": "OK",
      "delay": "—",
      "metarCat": "VFR",
      "metarRaw": "METAR KMDT 122056Z 30018G26KT 10SM SCT050 BKN200 06/M04 A2991 RMK AO2 PK WND 29026/2055 SLP131 T00561044 53002 $",
      "metarObsTime": 1773348960
    },
    "KCXY": {
      "status": "OK",
      "delay": "—",
      "metarCat": "VFR",
      "metarRaw": "METAR KCXY 122056Z 30013G24KT 10SM FEW050 06/M06 A2992 RMK AO2 SLP134 T00561061 53004",
      "metarObsTime": 1773348960
    },
    "KMUI": {
      "status": "OK",
      "delay": "—",
      "metarCat": "VFR",
      "metarRaw": "METAR KMUI 122055Z 28013G17KT 10SM SCT044 SCT160 BKN200 05/M05 A2988 RMK AO2A SLP122 T00531051 52007",
      "metarObsTime": 1773348900
    },
    "KUNV": {
      "status": "OK",
      "delay": "—",
      "metarCat": "VFR",
      "metarRaw": "METAR KUNV 122053Z 33012G22KT 10SM BKN050 BKN070 04/M10 A2992",
      "metarObsTime": 1773348780
    },
    "KAOO": {
      "status": "OK",
      "delay": "—",
      "metarCat": "VFR",
      "metarRaw": "METAR KAOO 122053Z AUTO 34018G29KT 10SM BKN060 OVC070 03/M09 A2995 RMK AO2 PK WND 31034/2015 SLP152 T00281094 53010",
      "metarObsTime": 1773348780
    },
    "KLNS": {
      "status": "OK",
      "delay": "—",
      "metarCat": "VFR",
      "metarRaw": "METAR KLNS 122053Z 30010G23KT 10SM FEW120 04/M04 A2990 RMK AO2 SLP124 T00391039 53004",
      "metarObsTime": 1773348780
    },
    "KIPT": {
      "status": "OK",
      "delay": "—",
      "metarCat": "VFR",
      "metarRaw": "METAR KIPT 122054Z 32015G23KT 10SM BKN050 BKN060 05/M08 A2990 RMK AO2 PK WND 28028/2008 SLP126 T00501078 53006 $",
      "metarObsTime": 1773348840
    },
    "KPHL": {
      "status": "OK",
      "delay": "—",
      "metarCat": "IFR",
      "metarRaw": "SPECI KPHL 122107Z 21007KT 3SM -SNRA BR BKN008 OVC019 02/01 A2991 RMK AO2 SNB06 P0000 T00220006",
      "metarObsTime": 1773349620
    },
    "KABE": {
      "status": "OK",
      "delay": "—",
      "metarCat": "VFR",
      "metarRaw": "METAR KABE 122051Z 33010KT 10SM OVC049 04/M05 A2987 RMK AO2 SLP115 T00391050 53013 $",
      "metarObsTime": 1773348660
    },
    "KAVP": {
      "status": "OK",
      "delay": "—",
      "metarCat": "VFR",
      "metarRaw": "METAR KAVP 122054Z 34011G22KT 10SM OVC046 02/M06 A2985 RMK AO2 SLP111 T00221061 53011",
      "metarObsTime": 1773348840
    },
    "KHZL": {
      "status": "OK",
      "delay": "—",
      "metarCat": "VFR",
      "metarRaw": "METAR KHZL 122115Z AUTO 30006KT 10SM BKN035 OVC048 01/M06 A2986 RMK AO2",
      "metarObsTime": 1773350100
    }
  }
}