{
  "generatedAt": "2026-03-29T22:20:29.289Z",
  "airports": {
    "KPIT": {
      "status": "OK",
      "delay": "—",
      "metarCat": "VFR",
      "metarRaw": "METAR KPIT 292151Z 21007KT 10SM FEW120 SCT160 BKN250 17/M07 A3022 RMK AO2 SLP246 T01671067",
      "metarObsTime": 1774821060
    },
    "KAGC": {
      "status": "OK",
      "delay": "—",
      "metarCat": "VFR",
      "metarRaw": "METAR KAGC 292153Z 21010KT 10SM FEW120 16/M06 A3022 RMK AO2 SLP244 T01561061",
      "metarObsTime": 1774821180
    },
    "KLBE": {
      "status": "OK",
      "delay": "—",
      "metarCat": "VFR",
      "metarRaw": "METAR KLBE 292147Z 20007KT 10SM BKN100 17/M03 A3026",
      "metarObsTime": 1774820820
    },
    "KJST": {
      "status": "OK",
      "delay": "—",
      "metarCat": "VFR",
      "metarRaw": "METAR KJST 292154Z AUTO 28006KT 10SM OVC100 13/M08 A3024 RMK AO2 SLP255 T01281078",
      "metarObsTime": 1774821240
    },
    "KERI": {
      "status": "OK",
      "delay": "—",
      "metarCat": "VFR",
      "metarRaw": "METAR KERI 292151Z 33004KT 10SM CLR 10/M11 A3022 RMK AO2 SLP240 T01001106 $",
      "metarObsTime": 1774821060
    },
    "KDUJ": {
      "status": "OK",
      "delay": "—",
      "metarCat": "VFR",
      "metarRaw": "METAR KDUJ 292153Z AUTO 23010KT 10SM OVC100 13/M10 A3023 RMK AO2 SLP249 T01281100",
      "metarObsTime": 1774821180
    },
    "KBFD": {
      "status": "OK",
      "delay": "—",
      "metarCat": "VFR",
      "metarRaw": "METAR KBFD 292153Z AUTO 22005KT 10SM OVC110 12/M12 A3022 RMK AO2 SLP247 T01171117",
      "metarObsTime": 1774821180
    },
    "KBTP": {
      "status": "OK",
      "delay": "—",
      "metarCat": "VFR",
      "metarRaw": "METAR KBTP 292156Z AUTO 21008G15KT 10SM CLR 16/M06 A3024 RMK AO2 SLP249 T01561056 $",
      "metarObsTime": 1774821360
    },
    "KFKL": {
      "status": "OK",
      "delay": "—",
      "metarCat": "VFR",
      "metarRaw": "METAR KFKL 292156Z AUTO 21008KT 10SM FEW100 13/M06 A3023 RMK AO2 SLP246 T01331056",
      "metarObsTime": 1774821360
    },
    "KIDI": {
      "status": "OK",
      "delay": "—",
      "metarCat": "VFR",
      "metarRaw": "METAR KIDI 292215Z AUTO 24007G13KT 10SM BKN120 15/M06 A3025 RMK A01",
      "metarObsTime": 1774822500
    },
    "KMDT": {
      "status": "OK",
      "delay": "—",
      "metarCat": "VFR",
      "metarRaw": "METAR KMDT 292156Z 25013G21KT 10SM SCT150 SCT200 15/M04 A3032 RMK AO2 SLP268 T01501039",
      "metarObsTime": 1774821360
    },
    "KCXY": {
      "status": "OK",
      "delay": "—",
      "metarCat": "VFR",
      "metarRaw": "METAR KCXY 292156Z 20010G18KT 10SM CLR 15/M04 A3032 RMK AO2 SLP270 T01501044",
      "metarObsTime": 1774821360
    },
    "KMUI": {
      "status": "OK",
      "delay": "—",
      "metarCat": "—",
      "metarRaw": "—",
      "metarObsTime": null
    },
    "KUNV": {
      "status": "OK",
      "delay": "—",
      "metarCat": "VFR",
      "metarRaw": "METAR KUNV 292153Z 17008KT 10SM BKN110 15/M06 A3026",
      "metarObsTime": 1774821180
    },
    "KAOO": {
      "status": "OK",
      "delay": "—",
      "metarCat": "VFR",
      "metarRaw": "METAR KAOO 292153Z AUTO 18007KT 10SM BKN120 14/M04 A3025 RMK AO2 SLP250 T01441039 $",
      "metarObsTime": 1774821180
    },
    "KLNS": {
      "status": "OK",
      "delay": "—",
      "metarCat": "VFR",
      "metarRaw": "METAR KLNS 292153Z 17014KT 10SM CLR 13/M02 A3034 RMK AO2 SLP277 T01331022",
      "metarObsTime": 1774821180
    },
    "KIPT": {
      "status": "OK",
      "delay": "—",
      "metarCat": "VFR",
      "metarRaw": "METAR KIPT 292154Z 15009G16KT 10SM CLR 14/M07 A3028 RMK AO2 SLP256 T01441067 $",
      "metarObsTime": 1774821240
    },
    "KPHL": {
      "status": "OK",
      "delay": "—",
      "metarCat": "VFR",
      "metarRaw": "METAR KPHL 292154Z 19013G21KT 10SM SCT120 BKN260 14/M03 A3040 RMK AO2 PK WND 21031/2101 SLP293 T01441033 $",
      "metarObsTime": 1774821240
    },
    "KABE": {
      "status": "OK",
      "delay": "—",
      "metarCat": "VFR",
      "metarRaw": "METAR KABE 292151Z 20011KT 10SM FEW120 13/M04 A3035 RMK AO2 SLP281 T01331039 $",
      "metarObsTime": 1774821060
    },
    "KAVP": {
      "status": "OK",
      "delay": "—",
      "metarCat": "VFR",
      "metarRaw": "METAR KAVP 292154Z VRB06G18KT 10SM FEW120 12/M06 A3031 RMK AO2 SLP269 T01221061",
      "metarObsTime": 1774821240
    },
    "KHZL": {
      "status": "OK",
      "delay": "—",
      "metarCat": "VFR",
      "metarRaw": "METAR KHZL 292215Z AUTO 18003KT 10SM BKN120 12/M06 A3034 RMK AO2",
      "metarObsTime": 1774822500
    }
  }
}