{
  "generatedAt": "2026-03-12T15:50:14.591Z",
  "airports": {
    "KPIT": {
      "status": "OK",
      "delay": "—",
      "metarCat": "VFR",
      "metarRaw": "METAR KPIT 121451Z 30011KT 10SM FEW032 BKN200 01/M05 A3002 RMK AO2 SLP179 T00111050 51002 $",
      "metarObsTime": 1773327060
    },
    "KAGC": {
      "status": "OK",
      "delay": "—",
      "metarCat": "MVFR",
      "metarRaw": "SPECI KAGC 121503Z 33010G20KT 10SM BKN030 01/M06 A3001 RMK AO2 T00111056",
      "metarObsTime": 1773327780
    },
    "KLBE": {
      "status": "OK",
      "delay": "—",
      "metarCat": "MVFR",
      "metarRaw": "METAR KLBE 121450Z 27010KT 10SM BKN030 BKN035 01/M04 A3003",
      "metarObsTime": 1773327000
    },
    "KJST": {
      "status": "OK",
      "delay": "—",
      "metarCat": "MVFR",
      "metarRaw": "METAR KJST 121454Z AUTO 31016KT 10SM BKN018 OVC024 M02/M05 A2991 RMK AO2 PK WND 31028/1428 SLP139 60000 I3002 T10221050 53002",
      "metarObsTime": 1773327240
    },
    "KERI": {
      "status": "OK",
      "delay": "—",
      "metarCat": "VFR",
      "metarRaw": "SPECI KERI 121547Z 28014G24KT 10SM SCT021 01/M06 A3007 RMK AO2 PK WND 27027/1522",
      "metarObsTime": 1773330420
    },
    "KDUJ": {
      "status": "OK",
      "delay": "—",
      "metarCat": "MVFR",
      "metarRaw": "METAR KDUJ 121453Z AUTO 30015G29KT 10SM OVC025 M02/M07 A2994 RMK AO2 PK WND 32029/1444 SLP144 T10171067 50007",
      "metarObsTime": 1773327180
    },
    "KBFD": {
      "status": "OK",
      "delay": "—",
      "metarCat": "MVFR",
      "metarRaw": "METAR KBFD 121453Z AUTO 30014G24KT 10SM OVC019 M03/M07 A2991 RMK AO2 SLP138 T10281067 50013",
      "metarObsTime": 1773327180
    },
    "KBTP": {
      "status": "OK",
      "delay": "—",
      "metarCat": "VFR",
      "metarRaw": "SPECI KBTP 121505Z AUTO 31013G17KT 10SM SCT028 01/M04 A3003 RMK AO2 FZRANO $",
      "metarObsTime": 1773327900
    },
    "KFKL": {
      "status": "OK",
      "delay": "—",
      "metarCat": "MVFR",
      "metarRaw": "METAR KFKL 121456Z AUTO 30008KT 10SM OVC024 A3001 RMK AO2 SLPNO 60000 52006 FZRANO $",
      "metarObsTime": 1773327360
    },
    "KIDI": {
      "status": "OK",
      "delay": "—",
      "metarCat": "—",
      "metarRaw": "—",
      "metarObsTime": null
    },
    "KMDT": {
      "status": "OK",
      "delay": "—",
      "metarCat": "VFR",
      "metarRaw": "METAR KMDT 121456Z 31018G29KT 10SM SCT050 BKN075 OVC085 04/M02 A2991 RMK AO2 PK WND 33032/1430 SLP131 60003 T00391022 53033 $",
      "metarObsTime": 1773327360
    },
    "KCXY": {
      "status": "OK",
      "delay": "—",
      "metarCat": "VFR",
      "metarRaw": "METAR KCXY 121456Z 32017G24KT 10SM FEW037 BKN060 OVC075 04/M04 A2992 RMK AO2 PK WND 32029/1424 RAB02E12 SLP133 P0000 60004 T00391039 53031",
      "metarObsTime": 1773327360
    },
    "KMUI": {
      "status": "OK",
      "delay": "—",
      "metarCat": "VFR",
      "metarRaw": "METAR KMUI 121456Z 29016G22KT 10SM VCSH SCT035 OVC075 05/M03 A2988 RMK AO2A PK WND 34027/31 PRESRR SLP122 60004 T00461030 52031",
      "metarObsTime": 1773327360
    },
    "KUNV": {
      "status": "OK",
      "delay": "—",
      "metarCat": "—",
      "metarRaw": "—",
      "metarObsTime": null
    },
    "KAOO": {
      "status": "OK",
      "delay": "—",
      "metarCat": "MVFR",
      "metarRaw": "SPECI KAOO 121546Z AUTO 32014G23KT 10SM OVC030 00/M06 A2994 RMK AO2 T00001056",
      "metarObsTime": 1773330360
    },
    "KLNS": {
      "status": "OK",
      "delay": "—",
      "metarCat": "VFR",
      "metarRaw": "METAR KLNS 121453Z 30018G23KT 10SM FEW034 BKN060 OVC070 04/M01 A2990 RMK AO2 RAE13 PRESRR SLP126 P0001 60011 T00441006 53025 $",
      "metarObsTime": 1773327180
    },
    "KIPT": {
      "status": "OK",
      "delay": "—",
      "metarCat": "VFR",
      "metarRaw": "METAR KIPT 121454Z 30012KT 10SM SCT041 BKN120 03/M05 A2989 RMK AO2 SLP121 T00331050 50014 $",
      "metarObsTime": 1773327240
    },
    "KPHL": {
      "status": "OK",
      "delay": "—",
      "metarCat": "VFR",
      "metarRaw": "SPECI KPHL 121528Z 31013G27KT 10SM -RA SCT020 SCT042 OVC070 07/02 A2986 RMK AO2 PK WND 32027/1525 P0000 T00670022 $",
      "metarObsTime": 1773329280
    },
    "KABE": {
      "status": "OK",
      "delay": "—",
      "metarCat": "VFR",
      "metarRaw": "METAR KABE 121451Z 30008KT 10SM BKN055 OVC075 05/00 A2981 RMK AO2 RAE27 SLP096 P0000 60019 T00500000 51033 $",
      "metarObsTime": 1773327060
    },
    "KAVP": {
      "status": "OK",
      "delay": "—",
      "metarCat": "VFR",
      "metarRaw": "METAR KAVP 121454Z 32007G22KT 10SM SCT037 OVC095 02/M05 A2983 RMK AO2 PK WND 32028/1409 SLP102 60000 T00171050 51018",
      "metarObsTime": 1773327240
    },
    "KHZL": {
      "status": "OK",
      "delay": "—",
      "metarCat": "VFR",
      "metarRaw": "METAR KHZL 121535Z AUTO 30006KT 10SM SCT031 OVC065 01/M05 A2983 RMK AO2",
      "metarObsTime": 1773329700
    }
  }
}