{
  "generatedAt": "2026-03-23T05:50:19.041Z",
  "airports": {
    "KPIT": {
      "status": "OK",
      "delay": "—",
      "metarCat": "LIFR",
      "metarRaw": "SPECI KPIT 230537Z 18003KT 5SM R28R/6000VP6000FT -RA BR BKN003 OVC075 09/08 A2974 RMK AO2 OCNL LTG DSNT S P0019 T00890083",
      "metarObsTime": 1774244220
    },
    "KAGC": {
      "status": "OK",
      "delay": "—",
      "metarCat": "IFR",
      "metarRaw": "SPECI KAGC 230544Z 21004KT 1 3/4SM RA BR SCT060 OVC075 11/11 A2975 RMK AO2 LTG DSNT S P0025 T01110106",
      "metarObsTime": 1774244640
    },
    "KLBE": {
      "status": "OK",
      "delay": "—",
      "metarCat": "MVFR",
      "metarRaw": "METAR KLBE 230535Z AUTO 14005KT 3SM VCTS RA BR FEW002 BKN017 OVC060 12/12 A2976 RMK AO2 LTG DSNT S-W",
      "metarObsTime": 1774244100
    },
    "KJST": {
      "status": "OK",
      "delay": "—",
      "metarCat": "IFR",
      "metarRaw": "SPECI KJST 230534Z AUTO 25003KT 1 3/4SM +RA BR FEW013 BKN055 OVC070 10/09 A2975 RMK AO2 P0015 T01000094",
      "metarObsTime": 1774244040
    },
    "KERI": {
      "status": "OK",
      "delay": "—",
      "metarCat": "IFR",
      "metarRaw": "METAR KERI 230451Z AUTO 05011KT 6SM BR OVC006 02/01 A2983 RMK AO2 SLP105 T00220011 401720022",
      "metarObsTime": 1774241460
    },
    "KDUJ": {
      "status": "OK",
      "delay": "—",
      "metarCat": "IFR",
      "metarRaw": "SPECI KDUJ 230535Z AUTO 33004KT 2 1/2SM -RA BR SCT002 OVC060 08/08 A2971 RMK AO2 P0003 T00830078",
      "metarObsTime": 1774244100
    },
    "KBFD": {
      "status": "OK",
      "delay": "—",
      "metarCat": "LIFR",
      "metarRaw": "SPECI KBFD 230517Z AUTO 03006KT 7SM OVC002 02/02 A2976 RMK AO2 T00220017 $",
      "metarObsTime": 1774243020
    },
    "KBTP": {
      "status": "OK",
      "delay": "—",
      "metarCat": "LIFR",
      "metarRaw": "SPECI KBTP 230539Z AUTO 18004KT 2SM RA OVC003 08/ A2973 RMK AO2 PRESFR P0007 $",
      "metarObsTime": 1774244340
    },
    "KFKL": {
      "status": "OK",
      "delay": "—",
      "metarCat": "LIFR",
      "metarRaw": "SPECI KFKL 230546Z AUTO 34005KT 3SM -RA BR OVC002 04/04 A2976 RMK AO2 P0001",
      "metarObsTime": 1774244760
    },
    "KIDI": {
      "status": "OK",
      "delay": "—",
      "metarCat": "MVFR",
      "metarRaw": "METAR KIDI 230535Z AUTO 24004KT 3SM BR FEW031 BKN038 OVC070 11/11 A2975 RMK A01",
      "metarObsTime": 1774244100
    },
    "KMDT": {
      "status": "OK",
      "delay": "—",
      "metarCat": "VFR",
      "metarRaw": "SPECI KMDT 230546Z 04005KT 10SM FEW027 BKN043 OVC050 14/12 A2967 RMK AO2 LTG DSNT NW T01440122 $",
      "metarObsTime": 1774244760
    },
    "KCXY": {
      "status": "OK",
      "delay": "—",
      "metarCat": "MVFR",
      "metarRaw": "METAR KCXY 230456Z AUTO 34007KT 10SM BKN011 BKN018 OVC026 15/14 A2970 RMK AO2 SLP058 T01500139 402780083",
      "metarObsTime": 1774241760
    },
    "KMUI": {
      "status": "OK",
      "delay": "—",
      "metarCat": "VFR",
      "metarRaw": "SPECI KMUI 230527Z AUTO 02014G22KT 10SM -RA SCT013 SCT030 BKN040 OVC049 14/14 A2969 RMK AO2 RAB26 SLP056",
      "metarObsTime": 1774243620
    },
    "KUNV": {
      "status": "OK",
      "delay": "—",
      "metarCat": "IFR",
      "metarRaw": "METAR KUNV 230535Z AUTO 04006KT 4SM +RA OVC005 08/08 A2973 RMK AO2 LTG DSNT SW P0011 T00830082",
      "metarObsTime": 1774244100
    },
    "KAOO": {
      "status": "OK",
      "delay": "—",
      "metarCat": "VFR",
      "metarRaw": "METAR KAOO 230453Z AUTO 36007KT 9SM -RA FEW026 BKN090 OVC110 13/11 A2972 RMK AO2 SLP056 P0002 T01280106 402830039",
      "metarObsTime": 1774241580
    },
    "KLNS": {
      "status": "OK",
      "delay": "—",
      "metarCat": "MVFR",
      "metarRaw": "SPECI KLNS 230546Z AUTO 36008KT 7SM FEW011 BKN016 OVC100 14/13 A2970 RMK AO2 T01390133",
      "metarObsTime": 1774244760
    },
    "KIPT": {
      "status": "OK",
      "delay": "—",
      "metarCat": "VFR",
      "metarRaw": "METAR KIPT 230454Z AUTO 34003KT 6SM -RA BR FEW018 SCT030 OVC090 06/04 A2977 RMK AO2 SLP080 P0012 T00610044 402110033 $",
      "metarObsTime": 1774241640
    },
    "KPHL": {
      "status": "OK",
      "delay": "—",
      "metarCat": "VFR",
      "metarRaw": "METAR KPHL 230454Z 07009KT 7SM FEW150 SCT190 BKN230 14/09 A2964 RMK AO2 SLP036 T01440094 402390072 $",
      "metarObsTime": 1774241640
    },
    "KABE": {
      "status": "OK",
      "delay": "—",
      "metarCat": "MVFR",
      "metarRaw": "METAR KABE 230451Z 01004KT 9SM OVC021 13/12 A2970 RMK AO2 SLPNO T01280117 402170067 $",
      "metarObsTime": 1774241460
    },
    "KAVP": {
      "status": "OK",
      "delay": "—",
      "metarCat": "IFR",
      "metarRaw": "SPECI KAVP 230537Z 00000KT 1 3/4SM +RA BR OVC007 06/04 A2976 RMK AO2 CIG 004V011 P0009 T00560044",
      "metarObsTime": 1774244220
    },
    "KHZL": {
      "status": "OK",
      "delay": "—",
      "metarCat": "LIFR",
      "metarRaw": "METAR KHZL 230535Z AUTO 36004KT 4SM -RA OVC003 06/05 A2975 RMK AO2 P0005",
      "metarObsTime": 1774244100
    }
  }
}