{
  "generatedAt": "2026-03-07T22:00:14.330Z",
  "airports": {
    "KPIT": {
      "status": "OK",
      "delay": "—",
      "metarCat": "MVFR",
      "metarRaw": "METAR KPIT 072151Z 25009G17KT 3SM TSRA SCT008 OVC014CB 17/15 A2982 RMK AO2 PK WND 28043/2124 SLP102 FRQ LTGICCGCC OHD TS OHD MOV NE P0017 T01720150 $",
      "metarObsTime": 1772920260
    },
    "KAGC": {
      "status": "OK",
      "delay": "—",
      "metarCat": "LIFR",
      "metarRaw": "METAR KAGC 072153Z 28014G30KT 3/4SM R28/2800VP6000FT TSRA BR SCT037 BKN055 OVC100 16/15 A2985 RMK AO2 PK WND 29041/2143 LTG DSNT ALQDS RAB19 TSB20E39B50 SLP109 P0029 T01610150",
      "metarObsTime": 1772920380
    },
    "KLBE": {
      "status": "OK",
      "delay": "—",
      "metarCat": "VFR",
      "metarRaw": "METAR KLBE 072150Z 21015G25KT 10SM FEW070 SCT090 BKN110 24/13 A2981",
      "metarObsTime": 1772920200
    },
    "KJST": {
      "status": "OK",
      "delay": "—",
      "metarCat": "MVFR",
      "metarRaw": "METAR KJST 072154Z AUTO 23014G20KT 210V270 5SM -RA SCT060 BKN080 OVC110 22/12 A2983 RMK AO2 LTG DSNT SW AND NW RAB52 SLP094 P0001 T02220117",
      "metarObsTime": 1772920440
    },
    "KERI": {
      "status": "OK",
      "delay": "—",
      "metarCat": "VFR",
      "metarRaw": "METAR KERI 072151Z 22008KT 10SM FEW120 20/14 A2970 RMK AO2 RAE22 SLP056 P0000 T02000139",
      "metarObsTime": 1772920260
    },
    "KDUJ": {
      "status": "OK",
      "delay": "—",
      "metarCat": "VFR",
      "metarRaw": "METAR KDUJ 072153Z AUTO 28012G19KT 10SM -TSRA OVC055 18/14 A2977 RMK AO2 PK WND 23031/2105 LTG DSNT W-NE RAB48 TSB21E40B53 SLP080 P0000 T01780139",
      "metarObsTime": 1772920380
    },
    "KBFD": {
      "status": "OK",
      "delay": "—",
      "metarCat": "IFR",
      "metarRaw": "METAR KBFD 072153Z AUTO 2 1/2SM -TSRA BR SCT041 BKN050 OVC080 16/14 A2978 RMK AO2 PK WND 24034/2119 LTG DSNT NE-S TSB50 SLP080 P0028 T01610144",
      "metarObsTime": 1772920380
    },
    "KBTP": {
      "status": "OK",
      "delay": "—",
      "metarCat": "VFR",
      "metarRaw": "SPECI KBTP 072145Z AUTO 22010G22KT 6SM VCTS RA BR FEW017 BKN050 OVC070 16/16 A2983 RMK AO2 PK WND 28034/2125 WSHFT 2111 LTG DSNT ALQDS TSE15B20 P0025 $",
      "metarObsTime": 1772919900
    },
    "KFKL": {
      "status": "OK",
      "delay": "—",
      "metarCat": "VFR",
      "metarRaw": "METAR KFKL 072056Z AUTO 24011KT 10SM -RA FEW029 BKN041 BKN060 18/16 A2978 RMK AO2 PK WND 21035/2006 WSHFT 2030 LTG DSNT NE-S TSB06E28RAB26 SLP082 P0003 60004 T01830161 55018",
      "metarObsTime": 1772916960
    },
    "KIDI": {
      "status": "OK",
      "delay": "—",
      "metarCat": "VFR",
      "metarRaw": "METAR KIDI 072135Z AUTO 24014G20KT 10SM FEW060 SCT090 BKN110 25/13 A2978 RMK A01",
      "metarObsTime": 1772919300
    },
    "KMDT": {
      "status": "OK",
      "delay": "—",
      "metarCat": "MVFR",
      "metarRaw": "METAR KMDT 072056Z 13007KT 10SM OVC011 09/07 A2995 RMK AO2 SLP143 T00890072 56045",
      "metarObsTime": 1772916960
    },
    "KCXY": {
      "status": "OK",
      "delay": "—",
      "metarCat": "MVFR",
      "metarRaw": "METAR KCXY 072056Z 10005KT 3SM HZ OVC011 10/07 A2996 RMK AO2 SLP146 T01000072 56043",
      "metarObsTime": 1772916960
    },
    "KMUI": {
      "status": "OK",
      "delay": "—",
      "metarCat": "LIFR",
      "metarRaw": "METAR KMUI 072155Z AUTO 13003KT 6SM BR OVC004 09/08 A2992 RMK AO2 SLP137 T00850082",
      "metarObsTime": 1772920500
    },
    "KUNV": {
      "status": "OK",
      "delay": "—",
      "metarCat": "VFR",
      "metarRaw": "METAR KUNV 072053Z 20005KT 10SM CLR 16/10 A2985",
      "metarObsTime": 1772916780
    },
    "KAOO": {
      "status": "OK",
      "delay": "—",
      "metarCat": "—",
      "metarRaw": "—",
      "metarObsTime": null
    },
    "KLNS": {
      "status": "OK",
      "delay": "—",
      "metarCat": "IFR",
      "metarRaw": "METAR KLNS 072153Z 15005KT 10SM OVC007 09/07 A2995 RMK AO2 SLP144 T00890072",
      "metarObsTime": 1772920380
    },
    "KIPT": {
      "status": "OK",
      "delay": "—",
      "metarCat": "IFR",
      "metarRaw": "METAR KIPT 072154Z 05006G15KT 8SM OVC008 08/07 A2989 RMK AO2 SLP123 T00830067",
      "metarObsTime": 1772920440
    },
    "KPHL": {
      "status": "OK",
      "delay": "—",
      "metarCat": "MVFR",
      "metarRaw": "METAR KPHL 072154Z 00000KT 10SM OVC012 11/08 A2997 RMK AO2 SLP150 T01060078 $",
      "metarObsTime": 1772920440
    },
    "KABE": {
      "status": "OK",
      "delay": "—",
      "metarCat": "IFR",
      "metarRaw": "METAR KABE 072151Z 00000KT 9SM OVC006 08/07 A2996 RMK AO2 SLP148 T00780067",
      "metarObsTime": 1772920260
    },
    "KAVP": {
      "status": "OK",
      "delay": "—",
      "metarCat": "VFR",
      "metarRaw": "METAR KAVP 072154Z AUTO 20006KT 10SM CLR 10/06 A2989 RMK AO2 SLP125 T01000061",
      "metarObsTime": 1772920440
    },
    "KHZL": {
      "status": "OK",
      "delay": "—",
      "metarCat": "LIFR",
      "metarRaw": "METAR KHZL 072135Z AUTO 17003KT 1/4SM FG OVC002 06/05 A2995 RMK AO2",
      "metarObsTime": 1772919300
    }
  }
}