{
  "generatedAt": "2026-03-05T12:30:21.816Z",
  "airports": {
    "KPIT": {
      "status": "OK",
      "delay": "—",
      "metarCat": "IFR",
      "metarRaw": "METAR KPIT 051151Z 00000KT 2SM BR FEW003 BKN013 OVC075 11/11 A3005 RMK AO2 SLP185 60018 70032 T01110111 10111 20100 51004 $",
      "metarObsTime": 1772711460
    },
    "KAGC": {
      "status": "OK",
      "delay": "—",
      "metarCat": "LIFR",
      "metarRaw": "SPECI KAGC 051227Z 19008KT 2 1/2SM -RA BR BKN003 BKN021 OVC025 12/12 A3005 RMK AO2 RAB27 P0000 T01220122",
      "metarObsTime": 1772713620
    },
    "KLBE": {
      "status": "OK",
      "delay": "—",
      "metarCat": "MVFR",
      "metarRaw": "METAR KLBE 051147Z 23004KT 5SM BR SCT020 BKN025 11/11 A3008",
      "metarObsTime": 1772711220
    },
    "KJST": {
      "status": "OK",
      "delay": "—",
      "metarCat": "IFR",
      "metarRaw": "SPECI KJST 051211Z AUTO 19005KT 10SM BKN007 OVC012 10/09 A3008 RMK AO2 T01000094",
      "metarObsTime": 1772712660
    },
    "KERI": {
      "status": "OK",
      "delay": "—",
      "metarCat": "LIFR",
      "metarRaw": "SPECI KERI 051215Z 05006KT 1 1/4SM BR BKN003 OVC015 03/02 A3007 RMK AO2 T00280022",
      "metarObsTime": 1772712900
    },
    "KDUJ": {
      "status": "OK",
      "delay": "—",
      "metarCat": "LIFR",
      "metarRaw": "METAR KDUJ 051153Z AUTO 11005KT 1/2SM -RA FG VV003 06/06 A3006 RMK AO2 RAB12E28B45 SLP189 P0000 60018 70018 T00560056 10056 20050 55000",
      "metarObsTime": 1772711580
    },
    "KBFD": {
      "status": "OK",
      "delay": "—",
      "metarCat": "IFR",
      "metarRaw": "METAR KBFD 051153Z AUTO 11003KT 6SM -RA BR OVC006 04/04 A3008 RMK AO2 SLP197 P0002 60005 70005 T00440044 10044 20039 50004",
      "metarObsTime": 1772711580
    },
    "KBTP": {
      "status": "OK",
      "delay": "—",
      "metarCat": "LIFR",
      "metarRaw": "METAR KBTP 051156Z AUTO 13003KT 1/4SM FG OVC003 11/11 A3005 RMK AO2 SLP186 60016 70028 T01060106 10106 20094 58000 $",
      "metarObsTime": 1772711760
    },
    "KFKL": {
      "status": "OK",
      "delay": "—",
      "metarCat": "LIFR",
      "metarRaw": "SPECI KFKL 051220Z AUTO 10005KT 3/4SM BR OVC003 08/08 A3006 RMK AO2 RAE10 P0000",
      "metarObsTime": 1772713200
    },
    "KIDI": {
      "status": "OK",
      "delay": "—",
      "metarCat": "IFR",
      "metarRaw": "METAR KIDI 051215Z AUTO 07004KT 2SM BR SCT019 BKN024 OVC029 09/09 A3007 RMK A01",
      "metarObsTime": 1772712900
    },
    "KMDT": {
      "status": "OK",
      "delay": "—",
      "metarCat": "LIFR",
      "metarRaw": "METAR KMDT 051156Z 00000KT 1/4SM R13/2000VP6000FT FG VV004 05/05 A3016 RMK AO2 TWR VIS 1/2 RAE56 SLP217 P0004 60013 70015 T00500050 10061 20039 58001",
      "metarObsTime": 1772711760
    },
    "KCXY": {
      "status": "OK",
      "delay": "—",
      "metarCat": "LIFR",
      "metarRaw": "METAR KCXY 051156Z 08003KT 1SM R08/P6000FT -RA BR OVC003 06/06 A3017 RMK AO2 SLP219 P0003 60014 70017 T00610056 10061 20050 58000",
      "metarObsTime": 1772711760
    },
    "KMUI": {
      "status": "OK",
      "delay": "—",
      "metarCat": "LIFR",
      "metarRaw": "SPECI KMUI 051223Z 00000KT 2SM -RA BR OVC003 07/06 A3016 RMK AO2A SLP218",
      "metarObsTime": 1772713380
    },
    "KUNV": {
      "status": "OK",
      "delay": "—",
      "metarCat": "LIFR",
      "metarRaw": "SPECI KUNV 051220Z 00000KT 1/4SM R24/1800FT -RA FG OVC003 03/03 A3014",
      "metarObsTime": 1772713200
    },
    "KAOO": {
      "status": "OK",
      "delay": "—",
      "metarCat": "IFR",
      "metarRaw": "SPECI KAOO 051202Z AUTO 04003KT 1 3/4SM BR FEW002 BKN008 OVC033 04/04 A3011 RMK AO2 T00440039",
      "metarObsTime": 1772712120
    },
    "KLNS": {
      "status": "OK",
      "delay": "—",
      "metarCat": "LIFR",
      "metarRaw": "SPECI KLNS 051223Z 10004KT 1 1/4SM -RA BR OVC004 06/06 A3017 RMK AO2 P0003 T00610056",
      "metarObsTime": 1772713380
    },
    "KIPT": {
      "status": "OK",
      "delay": "—",
      "metarCat": "LIFR",
      "metarRaw": "SPECI KIPT 051202Z 00000KT 3/4SM -RA BR BKN004 OVC012 04/04 A3015 RMK AO2 P0000 T00390039 $",
      "metarObsTime": 1772712120
    },
    "KPHL": {
      "status": "OK",
      "delay": "—",
      "metarCat": "MVFR",
      "metarRaw": "METAR KPHL 051154Z 11005KT 6SM BR OVC013 07/06 A3019 RMK AO2 RAB23E38 SLP221 P0000 60001 70005 T00720056 10078 20072 58005 $",
      "metarObsTime": 1772711640
    },
    "KABE": {
      "status": "OK",
      "delay": "—",
      "metarCat": "IFR",
      "metarRaw": "SPECI KABE 051215Z 04003KT 1 3/4SM RA BR SCT021 BKN035 06/05 A3019 RMK AO2 P0006 T00560050",
      "metarObsTime": 1772712900
    },
    "KAVP": {
      "status": "OK",
      "delay": "—",
      "metarCat": "MVFR",
      "metarRaw": "SPECI KAVP 051227Z AUTO 08003KT 3SM -RA BR OVC014 06/05 A3017 RMK AO2 P0005 T00560050",
      "metarObsTime": 1772713620
    },
    "KHZL": {
      "status": "OK",
      "delay": "—",
      "metarCat": "MVFR",
      "metarRaw": "METAR KHZL 051215Z AUTO 00000KT 4SM -RA SCT003 SCT008 OVC018 05/04 A3018 RMK AO2 P0001",
      "metarObsTime": 1772712900
    }
  }
}