{
  "generatedAt": "2026-03-11T14:50:16.933Z",
  "airports": {
    "KPIT": {
      "status": "OK",
      "delay": "—",
      "metarCat": "MVFR",
      "metarRaw": "SPECI KPIT 111436Z 19012G18KT 10SM TS BKN018 BKN027CB OVC038 19/16 A2975 RMK AO2 RAB00E30 TSB35 OCNL LTGICCG SW TS SW MOV NE P0000 T01890161 $",
      "metarObsTime": 1773239760
    },
    "KAGC": {
      "status": "OK",
      "delay": "—",
      "metarCat": "MVFR",
      "metarRaw": "SPECI KAGC 111438Z 18012KT 9SM BKN027 OVC035 18/16 A2977 RMK AO2 LTG DSNT W RAB1359E11 P0001 T01830161",
      "metarObsTime": 1773239880
    },
    "KLBE": {
      "status": "OK",
      "delay": "—",
      "metarCat": "VFR",
      "metarRaw": "METAR KLBE 111355Z 21011KT 6SM BR FEW034 BKN055 18/17 A2983",
      "metarObsTime": 1773237300
    },
    "KJST": {
      "status": "OK",
      "delay": "—",
      "metarCat": "MVFR",
      "metarRaw": "SPECI KJST 111432Z AUTO 20010KT 10SM SCT010 BKN015 OVC024 16/14 A2984 RMK AO2 RAE22 P0003 T01610144",
      "metarObsTime": 1773239520
    },
    "KERI": {
      "status": "OK",
      "delay": "—",
      "metarCat": "IFR",
      "metarRaw": "SPECI KERI 111447Z 17011KT 2 1/2SM -RA BR FEW055 BKN070 OVC085 16/14 A2965 RMK AO2 P0008",
      "metarObsTime": 1773240420
    },
    "KDUJ": {
      "status": "OK",
      "delay": "—",
      "metarCat": "MVFR",
      "metarRaw": "SPECI KDUJ 111444Z AUTO VRB06G20KT 10SM OVC015 17/14 A2976 RMK AO2 RAB1359E09 P0000 T01670144",
      "metarObsTime": 1773240240
    },
    "KBFD": {
      "status": "OK",
      "delay": "—",
      "metarCat": "MVFR",
      "metarRaw": "SPECI KBFD 111440Z AUTO 17009G16KT 140V200 8SM -RA OVC010 15/14 A2974 RMK AO2 CIG 007V013 P0004 T01500144",
      "metarObsTime": 1773240000
    },
    "KBTP": {
      "status": "OK",
      "delay": "—",
      "metarCat": "MVFR",
      "metarRaw": "SPECI KBTP 111435Z AUTO 19005KT 10SM -RA OVC013 17/ A2976 RMK AO2 P0001 $",
      "metarObsTime": 1773239700
    },
    "KFKL": {
      "status": "OK",
      "delay": "—",
      "metarCat": "MVFR",
      "metarRaw": "METAR KFKL 111356Z AUTO 20013KT 7SM RA OVC012 17/16 A2974 RMK AO2 RAE03B33 SLP066 P0002 T01720156",
      "metarObsTime": 1773237360
    },
    "KIDI": {
      "status": "OK",
      "delay": "—",
      "metarCat": "—",
      "metarRaw": "—",
      "metarObsTime": null
    },
    "KMDT": {
      "status": "OK",
      "delay": "—",
      "metarCat": "VFR",
      "metarRaw": "METAR KMDT 111356Z 30005KT 9SM FEW070 BKN130 OVC250 12/09 A2992 RMK AO2 RAB35E44 SLP132 P0000 T01220089",
      "metarObsTime": 1773237360
    },
    "KCXY": {
      "status": "OK",
      "delay": "—",
      "metarCat": "VFR",
      "metarRaw": "METAR KCXY 111356Z 28006KT 7SM -RA FEW046 BKN075 OVC110 13/10 A2994 RMK AO2 RAB34 PRESRR SLP138 P0000 T01330100",
      "metarObsTime": 1773237360
    },
    "KMUI": {
      "status": "OK",
      "delay": "—",
      "metarCat": "VFR",
      "metarRaw": "METAR KMUI 111355Z 00000KT 10SM -RA SCT080 BKN120 OVC150 17/11 A2990 RMK AO2A RAB55 SLP126 T01710111",
      "metarObsTime": 1773237300
    },
    "KUNV": {
      "status": "OK",
      "delay": "—",
      "metarCat": "VFR",
      "metarRaw": "METAR KUNV 111353Z 29003KT 10SM SCT050 BKN085 OVC110 16/13 A2985",
      "metarObsTime": 1773237180
    },
    "KAOO": {
      "status": "OK",
      "delay": "—",
      "metarCat": "IFR",
      "metarRaw": "SPECI KAOO 111441Z AUTO 24008KT 2SM -RA BR FEW021 BKN032 OVC050 17/15 A2986 RMK AO2 LTG DSNT SE AND S P0005 T01670150",
      "metarObsTime": 1773240060
    },
    "KLNS": {
      "status": "OK",
      "delay": "—",
      "metarCat": "VFR",
      "metarRaw": "METAR KLNS 111353Z 00000KT 10SM CLR 17/10 A2991 RMK AO2 SLP127 T01670100",
      "metarObsTime": 1773237180
    },
    "KIPT": {
      "status": "OK",
      "delay": "—",
      "metarCat": "VFR",
      "metarRaw": "METAR KIPT 111354Z 00000KT 10SM FEW110 11/09 A2983 RMK AO2 SLP102 T01110094 $",
      "metarObsTime": 1773237240
    },
    "KPHL": {
      "status": "OK",
      "delay": "—",
      "metarCat": "VFR",
      "metarRaw": "METAR KPHL 111354Z 22005KT 10SM FEW130 BKN210 BKN300 20/12 A2992 RMK AO2 SLP132 T02000117 $",
      "metarObsTime": 1773237240
    },
    "KABE": {
      "status": "OK",
      "delay": "—",
      "metarCat": "VFR",
      "metarRaw": "METAR KABE 111351Z 00000KT 10SM CLR 18/09 A2990 RMK AO2 SLP122 T01780094 $",
      "metarObsTime": 1773237060
    },
    "KAVP": {
      "status": "OK",
      "delay": "—",
      "metarCat": "VFR",
      "metarRaw": "METAR KAVP 111354Z 36004KT 10SM CLR 17/08 A2987 RMK AO2 SLP109 T01720078",
      "metarObsTime": 1773237240
    },
    "KHZL": {
      "status": "OK",
      "delay": "—",
      "metarCat": "VFR",
      "metarRaw": "METAR KHZL 111435Z AUTO 17005KT 10SM SCT100 SCT120 18/08 A2992 RMK AO2",
      "metarObsTime": 1773239700
    }
  }
}