{
  "generatedAt": "2026-03-23T15:30:20.927Z",
  "airports": {
    "KPIT": {
      "status": "OK",
      "delay": "—",
      "metarCat": "MVFR",
      "metarRaw": "METAR KPIT 231451Z 33011KT 10SM BKN018 OVC026 03/M01 A3007 RMK AO2 SLP198 60000 T00281011 51050",
      "metarObsTime": 1774277460
    },
    "KAGC": {
      "status": "OK",
      "delay": "—",
      "metarCat": "VFR",
      "metarRaw": "SPECI KAGC 231526Z 32011G21KT 10SM SCT027 OVC034 03/M02 A3008 RMK AO2 T00281017",
      "metarObsTime": 1774279560
    },
    "KLBE": {
      "status": "OK",
      "delay": "—",
      "metarCat": "MVFR",
      "metarRaw": "METAR KLBE 231447Z 30014G25KT 6SM BR OVC020 OVC032 03/00 A3006",
      "metarObsTime": 1774277220
    },
    "KJST": {
      "status": "OK",
      "delay": "—",
      "metarCat": "IFR",
      "metarRaw": "SPECI KJST 231525Z AUTO 29013G21KT 2SM -SN BR BKN005 OVC009 00/M01 A2997 RMK AO2 P0000 T00001011",
      "metarObsTime": 1774279500
    },
    "KERI": {
      "status": "OK",
      "delay": "—",
      "metarCat": "VFR",
      "metarRaw": "METAR KERI 231451Z 36006KT 10SM BKN034 OVC050 02/M03 A3010 RMK AO2 SLP200 T00171028 53026",
      "metarObsTime": 1774277460
    },
    "KDUJ": {
      "status": "OK",
      "delay": "—",
      "metarCat": "MVFR",
      "metarRaw": "SPECI KDUJ 231527Z AUTO 33009G19KT 7SM FEW006 BKN018 OVC026 00/M03 A3000 RMK AO2 SNB1459E24 P0001 T00001028",
      "metarObsTime": 1774279620
    },
    "KBFD": {
      "status": "OK",
      "delay": "—",
      "metarCat": "MVFR",
      "metarRaw": "METAR KBFD 231453Z AUTO 34012G20KT 3SM -SN BR BKN010 OVC015 M02/M04 A2996 RMK AO2 UPB1354E05B48E50SNB25E47B50 CIG 006V012 SLP162 P0000 60000 I3001 T10221039 53024",
      "metarObsTime": 1774277580
    },
    "KBTP": {
      "status": "OK",
      "delay": "—",
      "metarCat": "MVFR",
      "metarRaw": "METAR KBTP 231456Z AUTO 32008KT 10SM FEW022 BKN029 OVC036 02/M01 A3007 RMK AO2 SLP197 60000 T00221011 51045 FZRANO $",
      "metarObsTime": 1774277760
    },
    "KFKL": {
      "status": "OK",
      "delay": "—",
      "metarCat": "MVFR",
      "metarRaw": "METAR KFKL 231456Z AUTO VRB06KT 10SM OVC017 01/M02 A3006 RMK AO2 SLP192 60000 T00061022 53039 FZRANO",
      "metarObsTime": 1774277760
    },
    "KIDI": {
      "status": "OK",
      "delay": "—",
      "metarCat": "MVFR",
      "metarRaw": "METAR KIDI 231515Z AUTO 32014G25KT 10SM BKN019 OVC024 02/M01 A3005 RMK A01",
      "metarObsTime": 1774278900
    },
    "KMDT": {
      "status": "OK",
      "delay": "—",
      "metarCat": "MVFR",
      "metarRaw": "SPECI KMDT 231520Z 35014G22KT 10SM BKN015 OVC050 07/03 A2989 RMK AO2 T00720033",
      "metarObsTime": 1774279200
    },
    "KCXY": {
      "status": "OK",
      "delay": "—",
      "metarCat": "MVFR",
      "metarRaw": "SPECI KCXY 231503Z 33011G20KT 10SM BKN015 BKN023 OVC050 06/03 A2990 RMK AO2 T00610028",
      "metarObsTime": 1774278180
    },
    "KMUI": {
      "status": "OK",
      "delay": "—",
      "metarCat": "MVFR",
      "metarRaw": "METAR KMUI 231456Z 35007KT 310V020 7SM BKN013 OVC024 06/05 A2986 RMK AO2A SLP115 T00630051 52050",
      "metarObsTime": 1774277760
    },
    "KUNV": {
      "status": "OK",
      "delay": "—",
      "metarCat": "MVFR",
      "metarRaw": "SPECI KUNV 231520Z 35008G16KT 7SM BKN015 OVC020 03/00 A2995",
      "metarObsTime": 1774279200
    },
    "KAOO": {
      "status": "OK",
      "delay": "—",
      "metarCat": "VFR",
      "metarRaw": "SPECI KAOO 231522Z AUTO 32017G23KT 10SM SCT021 BKN037 OVC044 06/01 A2995 RMK AO2 T00560006",
      "metarObsTime": 1774279320
    },
    "KLNS": {
      "status": "OK",
      "delay": "—",
      "metarCat": "MVFR",
      "metarRaw": "METAR KLNS 231453Z 33009KT 10SM BKN011 OVC014 08/06 A2985 RMK AO2 CIG 008V013 SLP109 T00780061 53053",
      "metarObsTime": 1774277580
    },
    "KIPT": {
      "status": "OK",
      "delay": "—",
      "metarCat": "MVFR",
      "metarRaw": "METAR KIPT 231454Z 31007KT 240V340 10SM BKN020 BKN025 OVC038 02/M03 A2995 RMK AO2 SLP147 T00171028 53040",
      "metarObsTime": 1774277640
    },
    "KPHL": {
      "status": "OK",
      "delay": "—",
      "metarCat": "MVFR",
      "metarRaw": "SPECI KPHL 231527Z 02012KT 5SM -RA BR SCT008 OVC013 09/07 A2983 RMK AO2 P0000 T00890072 $",
      "metarObsTime": 1774279620
    },
    "KABE": {
      "status": "OK",
      "delay": "—",
      "metarCat": "MVFR",
      "metarRaw": "METAR KABE 231451Z 35009KT 10SM OVC015 06/04 A2984 RMK AO2 RAE23 SLP106 P0000 60000 T00610039 51026 $",
      "metarObsTime": 1774277460
    },
    "KAVP": {
      "status": "OK",
      "delay": "—",
      "metarCat": "IFR",
      "metarRaw": "SPECI KAVP 231522Z 32009KT 4SM UP BR OVC006 00/M01 A2991 RMK AO2 RAE04UPB04 CIG 004V010 P0001 T00001006",
      "metarObsTime": 1774279320
    },
    "KHZL": {
      "status": "OK",
      "delay": "—",
      "metarCat": "LIFR",
      "metarRaw": "METAR KHZL 231515Z AUTO 33007KT 290V350 4SM BR OVC003 00/00 A2990 RMK AO2",
      "metarObsTime": 1774278900
    }
  }
}