{
  "generatedAt": "2026-03-12T04:00:17.242Z",
  "airports": {
    "KPIT": {
      "status": "OK",
      "delay": "—",
      "metarCat": "MVFR",
      "metarRaw": "METAR KPIT 120351Z 32019G27KT 5SM -RA BR BKN011 OVC023 08/07 A2976 RMK AO2 PK WND 32038/0315 SLP083 P0005 T00830072 $",
      "metarObsTime": 1773287460
    },
    "KAGC": {
      "status": "OK",
      "delay": "—",
      "metarCat": "IFR",
      "metarRaw": "METAR KAGC 120353Z 33021G31KT 4SM -RA BR BKN008 BKN014 OVC021 09/08 A2972 RMK AO2 PK WND 33036/0343 CIG 006V012 PRESRR SLP065 P0008 T00940083",
      "metarObsTime": 1773287580
    },
    "KLBE": {
      "status": "OK",
      "delay": "—",
      "metarCat": "—",
      "metarRaw": "METAR KLBE 120355Z AUTO 21010KT 9SM -RA 15/15 A2968 RMK AO2 P0004",
      "metarObsTime": 1773287700
    },
    "KJST": {
      "status": "OK",
      "delay": "—",
      "metarCat": "MVFR",
      "metarRaw": "METAR KJST 120354Z AUTO 25012G22KT 10SM -RA BKN010 OVC014 14/13 A2967 RMK AO2 PK WND 27031/0325 SLP040 P0006 T01390128",
      "metarObsTime": 1773287640
    },
    "KERI": {
      "status": "OK",
      "delay": "—",
      "metarCat": "MVFR",
      "metarRaw": "METAR KERI 120351Z AUTO 26009KT 10SM SCT008 BKN016 OVC021 02/01 A2982 RMK AO2 RAE17 SLP100 P0000 T00170006",
      "metarObsTime": 1773287460
    },
    "KDUJ": {
      "status": "OK",
      "delay": "—",
      "metarCat": "IFR",
      "metarRaw": "METAR KDUJ 120353Z AUTO 28011G24KT 7SM -RA BKN009 BKN015 OVC021 11/09 A2964 RMK AO2 PK WND 26027/0324 WSHFT 0317 CIG 006V010 SLP033 P0005 T01060094",
      "metarObsTime": 1773287580
    },
    "KBFD": {
      "status": "OK",
      "delay": "—",
      "metarCat": "IFR",
      "metarRaw": "METAR KBFD 120353Z AUTO 30022G35KT 8SM -RA OVC009 06/04 A2966 RMK AO2 PK WND 30035/0341 CIG 007V012 PRESRR SLP041 P0003 T00560044",
      "metarObsTime": 1773287580
    },
    "KBTP": {
      "status": "OK",
      "delay": "—",
      "metarCat": "MVFR",
      "metarRaw": "METAR KBTP 120356Z AUTO 30012G20KT 7SM -RA OVC010 06/06 A2978 RMK AO2 PK WND 31026/0329 SLP090 P0006 T00560056 402060056 $",
      "metarObsTime": 1773287760
    },
    "KFKL": {
      "status": "OK",
      "delay": "—",
      "metarCat": "MVFR",
      "metarRaw": "METAR KFKL 120356Z AUTO 30013G21KT 10SM -RA OVC011 A2978 RMK AO2 SLPNO P0000 FZRANO $",
      "metarObsTime": 1773287760
    },
    "KIDI": {
      "status": "OK",
      "delay": "—",
      "metarCat": "—",
      "metarRaw": "—",
      "metarObsTime": null
    },
    "KMDT": {
      "status": "OK",
      "delay": "—",
      "metarCat": "IFR",
      "metarRaw": "METAR KMDT 120356Z 00000KT 2SM R13/5000VP6000FT -RA BR SCT027 BKN060 OVC100 16/16 A2962 RMK AO2 RAE0258B15 SLP030 P0026 T01560156",
      "metarObsTime": 1773287760
    },
    "KCXY": {
      "status": "OK",
      "delay": "—",
      "metarCat": "VFR",
      "metarRaw": "METAR KCXY 120356Z AUTO 21004KT 10SM FEW041 FEW075 BKN100 17/17 A2963 RMK AO2 RAB10E48 SLP033 P0034 T01670167",
      "metarObsTime": 1773287760
    },
    "KMUI": {
      "status": "OK",
      "delay": "—",
      "metarCat": "VFR",
      "metarRaw": "METAR KMUI 120355Z AUTO 00000KT 10SM -RA FEW005 BKN060 OVC100 17/17 A2961 RMK AO2 LTG DSNT E RAB0256E11RAB18E43RAB53 TSB0258E11TSB30E43 SLP028 P0017 T01720169",
      "metarObsTime": 1773287700
    },
    "KUNV": {
      "status": "OK",
      "delay": "—",
      "metarCat": "VFR",
      "metarRaw": "METAR KUNV 120335Z AUTO 21011G16KT 10SM -RA SCT018 BKN070 OVC095 16/16 A2963 RMK AO2 P0001 T01570156",
      "metarObsTime": 1773286500
    },
    "KAOO": {
      "status": "OK",
      "delay": "—",
      "metarCat": "IFR",
      "metarRaw": "METAR KAOO 120353Z AUTO 24008KT 1 3/4SM +RA BR SCT015 BKN022 OVC055 16/14 A2966 RMK AO2 SLP038 P0014 T01560144",
      "metarObsTime": 1773287580
    },
    "KLNS": {
      "status": "OK",
      "delay": "—",
      "metarCat": "VFR",
      "metarRaw": "METAR KLNS 120353Z AUTO 9SM FEW039 BKN095 OVC120 17/16 A2966 RMK AO2 LTG DSNT N RAE01 PRESRR SLP041 P0000 T01670161",
      "metarObsTime": 1773287580
    },
    "KIPT": {
      "status": "OK",
      "delay": "—",
      "metarCat": "VFR",
      "metarRaw": "METAR KIPT 120354Z AUTO 18005KT 10SM BKN080 BKN110 18/14 A2957 RMK AO2 RAE31 SLP011 P0004 T01780144 $",
      "metarObsTime": 1773287640
    },
    "KPHL": {
      "status": "OK",
      "delay": "—",
      "metarCat": "VFR",
      "metarRaw": "METAR KPHL 120354Z 15004KT 10SM FEW075 SCT250 18/15 A2963 RMK AO2 SLP032 T01830150 $",
      "metarObsTime": 1773287640
    },
    "KABE": {
      "status": "OK",
      "delay": "—",
      "metarCat": "VFR",
      "metarRaw": "METAR KABE 120351Z 00000KT 8SM -RA SCT042 BKN075 OVC100 17/16 A2965 RMK AO2 LTG DSNT E-SW RAB19 SLP037 P0002 T01670156 $",
      "metarObsTime": 1773287460
    },
    "KAVP": {
      "status": "OK",
      "delay": "—",
      "metarCat": "VFR",
      "metarRaw": "METAR KAVP 120354Z 22007KT 10SM BKN060 BKN080 OVC110 17/14 A2963 RMK AO2 RAB26E48 SLP026 P0000 T01720144",
      "metarObsTime": 1773287640
    },
    "KHZL": {
      "status": "OK",
      "delay": "—",
      "metarCat": "VFR",
      "metarRaw": "METAR KHZL 120355Z AUTO 23005KT 7SM +RA SCT023 SCT031 OVC043 16/13 A2969 RMK AO2 P0002",
      "metarObsTime": 1773287700
    }
  }
}