{
  "generatedAt": "2026-03-17T08:50:12.126Z",
  "airports": {
    "KPIT": {
      "status": "OK",
      "delay": "—",
      "metarCat": "MVFR",
      "metarRaw": "SPECI KPIT 170829Z 25009KT 10SM -SN FEW008 BKN025 BKN040 M06/M09 A2977 RMK AO2 SNE11B29 P0000 T10561094 $",
      "metarObsTime": 1773736140
    },
    "KAGC": {
      "status": "OK",
      "delay": "—",
      "metarCat": "VFR",
      "metarRaw": "METAR KAGC 170753Z 28013G26KT 10SM OVC036 M06/M09 A2975 RMK AO2 PK WND 28030/0735 SNB0655E24 SLP090 P0000 T10561094 $",
      "metarObsTime": 1773733980
    },
    "KLBE": {
      "status": "OK",
      "delay": "—",
      "metarCat": "VFR",
      "metarRaw": "METAR KLBE 170835Z AUTO 22009KT 10SM BKN032 BKN042 M05/M09 A2981 RMK AO2",
      "metarObsTime": 1773736500
    },
    "KJST": {
      "status": "OK",
      "delay": "—",
      "metarCat": "IFR",
      "metarRaw": "SPECI KJST 170842Z AUTO 27013G27KT 1SM -SN BR BKN012 OVC018 M08/M11 A2968 RMK AO2 PK WND 25035/0756 P0000 T10831106",
      "metarObsTime": 1773736920
    },
    "KERI": {
      "status": "OK",
      "delay": "—",
      "metarCat": "—",
      "metarRaw": "—",
      "metarObsTime": null
    },
    "KDUJ": {
      "status": "OK",
      "delay": "—",
      "metarCat": "IFR",
      "metarRaw": "SPECI KDUJ 170839Z AUTO 26015G28KT 1 1/2SM -SN BKN022 OVC038 M08/M11 A2964 RMK AO2 PK WND 25028/0830 P0000 T10781111 TSNO",
      "metarObsTime": 1773736740
    },
    "KBFD": {
      "status": "OK",
      "delay": "—",
      "metarCat": "MVFR",
      "metarRaw": "SPECI KBFD 170838Z AUTO 26011G33KT 4SM -SN SCT027 OVC035 M09/M13 A2956 RMK AO2 PK WND 27033/0807 UPB02E06SNE0757B08 P0000 T10891128",
      "metarObsTime": 1773736680
    },
    "KBTP": {
      "status": "OK",
      "delay": "—",
      "metarCat": "—",
      "metarRaw": "—",
      "metarObsTime": null
    },
    "KFKL": {
      "status": "OK",
      "delay": "—",
      "metarCat": "MVFR",
      "metarRaw": "SPECI KFKL 170846Z AUTO 27019G28KT 5SM -SN BKN030 OVC036 M07/M11 A2969 RMK AO2 PK WND 27028/0846 P0000 FZRANO",
      "metarObsTime": 1773737160
    },
    "KIDI": {
      "status": "OK",
      "delay": "—",
      "metarCat": "VFR",
      "metarRaw": "METAR KIDI 170835Z AUTO 27017G24KT 9SM SCT027 BKN032 OVC043 M06/M10 A2975 RMK A01",
      "metarObsTime": 1773736500
    },
    "KMDT": {
      "status": "OK",
      "delay": "—",
      "metarCat": "VFR",
      "metarRaw": "METAR KMDT 170756Z 27014G25KT 10SM BKN060 01/M06 A2969 RMK AO2 PK WND 28032/0728 SLP056 T00061061",
      "metarObsTime": 1773734160
    },
    "KCXY": {
      "status": "OK",
      "delay": "—",
      "metarCat": "VFR",
      "metarRaw": "METAR KCXY 170756Z AUTO 28011G20KT 10SM FEW047 OVC060 00/M08 A2970 RMK AO2 SLP058 T00001083",
      "metarObsTime": 1773734160
    },
    "KMUI": {
      "status": "OK",
      "delay": "—",
      "metarCat": "VFR",
      "metarRaw": "METAR KMUI 170755Z AUTO 25013KT 10SM FEW026 FEW032 BKN046 BKN055 00/M05 A2965 RMK AO2 LTG DSNT NW SLP045 T00041054",
      "metarObsTime": 1773734100
    },
    "KUNV": {
      "status": "OK",
      "delay": "—",
      "metarCat": "VFR",
      "metarRaw": "METAR KUNV 170835Z AUTO 26018G27KT 10SM SCT033 BKN041 M05/M11 A2966 RMK AO2 T10461107",
      "metarObsTime": 1773736500
    },
    "KAOO": {
      "status": "OK",
      "delay": "—",
      "metarCat": "VFR",
      "metarRaw": "SPECI KAOO 170835Z AUTO 28022G39KT 10SM -SN BKN036 OVC049 M06/M12 A2969 RMK AO2 PK WND 26039/0833 P0000 T10561122",
      "metarObsTime": 1773736500
    },
    "KLNS": {
      "status": "OK",
      "delay": "—",
      "metarCat": "VFR",
      "metarRaw": "METAR KLNS 170753Z AUTO 27016G25KT 10SM OVC050 01/M06 A2967 RMK AO2 PK WND 28029/0719 SLP048 T00061061",
      "metarObsTime": 1773733980
    },
    "KIPT": {
      "status": "OK",
      "delay": "—",
      "metarCat": "VFR",
      "metarRaw": "METAR KIPT 170754Z AUTO 26013G22KT 10SM BKN048 BKN070 M02/M05 A2961 RMK AO2 SNE12 SLP027 P0000 T10221050",
      "metarObsTime": 1773734040
    },
    "KPHL": {
      "status": "OK",
      "delay": "—",
      "metarCat": "VFR",
      "metarRaw": "METAR KPHL 170754Z 27014G24KT 10SM SCT038 03/M03 A2968 RMK AO2 PK WND 26033/0736 SLP050 T00331033 $",
      "metarObsTime": 1773734040
    },
    "KABE": {
      "status": "OK",
      "delay": "—",
      "metarCat": "VFR",
      "metarRaw": "METAR KABE 170751Z AUTO 28009G20KT 10SM SCT041 BKN055 01/M06 A2961 RMK AO2 PK WND 30028/0722 SLP029 T00061056 $",
      "metarObsTime": 1773733860
    },
    "KAVP": {
      "status": "OK",
      "delay": "—",
      "metarCat": "VFR",
      "metarRaw": "SPECI KAVP 170834Z 24017G26KT 7SM -SN FEW033 OVC055 M02/M05 A2958 RMK AO2 PK WND 24031/0809 SNB17 P0000 T10221050",
      "metarObsTime": 1773736440
    },
    "KHZL": {
      "status": "OK",
      "delay": "—",
      "metarCat": "VFR",
      "metarRaw": "METAR KHZL 170835Z AUTO 27008G18KT 180V340 10SM SCT050 M03/M08 RMK AO2",
      "metarObsTime": 1773736500
    }
  }
}