{
  "generatedAt": "2026-03-07T23:20:16.227Z",
  "airports": {
    "KPIT": {
      "status": "OK",
      "delay": "—",
      "metarCat": "VFR",
      "metarRaw": "METAR KPIT 072251Z 22010KT 10SM -RA FEW020 BKN040 OVC080 17/15 A2982 RMK AO2 TSE37 SLP100 P0009 T01670150 $",
      "metarObsTime": 1772923860
    },
    "KAGC": {
      "status": "OK",
      "delay": "—",
      "metarCat": "VFR",
      "metarRaw": "METAR KAGC 072253Z 22008KT 190V250 10SM -RA OVC100 17/15 A2983 RMK AO2 TSE08 SLP102 P0011 T01670150",
      "metarObsTime": 1772923980
    },
    "KLBE": {
      "status": "OK",
      "delay": "—",
      "metarCat": "—",
      "metarRaw": "—",
      "metarObsTime": null
    },
    "KJST": {
      "status": "OK",
      "delay": "—",
      "metarCat": "MVFR",
      "metarRaw": "METAR KJST 072254Z AUTO 26023G38KT 3SM +RA BR FEW019 BKN060 OVC095 16/14 A2990 RMK AO2 PK WND 31038/2249 LTG DSNT E AND NW RAE22B50 SLP126 P0016 T01560139",
      "metarObsTime": 1772924040
    },
    "KERI": {
      "status": "OK",
      "delay": "—",
      "metarCat": "VFR",
      "metarRaw": "METAR KERI 072251Z 26008KT 10SM CLR 17/12 A2971 RMK AO2 PRESRR SLP059 T01720122",
      "metarObsTime": 1772923860
    },
    "KDUJ": {
      "status": "OK",
      "delay": "—",
      "metarCat": "VFR",
      "metarRaw": "METAR KDUJ 072253Z AUTO 23013G21KT 10SM -RA FEW065 OVC085 16/14 A2983 RMK AO2 PK WND 22034/2204 LTG DSNT E-S TSE19 SLP100 P0020 T01560139",
      "metarObsTime": 1772923980
    },
    "KBFD": {
      "status": "OK",
      "delay": "—",
      "metarCat": "VFR",
      "metarRaw": "METAR KBFD 072253Z AUTO 22006KT 10SM -RA FEW011 FEW065 OVC085 16/14 A2978 RMK AO2 LTG DSNT SE RAE06B08 TSE05 SLP081 P0011 T01610144",
      "metarObsTime": 1772923980
    },
    "KBTP": {
      "status": "OK",
      "delay": "—",
      "metarCat": "VFR",
      "metarRaw": "METAR KBTP 072256Z AUTO 20008KT 10SM BKN080 OVC095 16/ A2982 RMK AO2 RAE41 SLP099 P0005 T0161 $",
      "metarObsTime": 1772924160
    },
    "KFKL": {
      "status": "OK",
      "delay": "—",
      "metarCat": "MVFR",
      "metarRaw": "SPECI KFKL 072310Z AUTO 21010KT 10SM BKN013 OVC100 17/15 A2978 RMK AO2",
      "metarObsTime": 1772925000
    },
    "KIDI": {
      "status": "OK",
      "delay": "—",
      "metarCat": "MVFR",
      "metarRaw": "METAR KIDI 072315Z AUTO 22005KT 4SM BR SCT032 BKN040 OVC080 16/15 A2987 RMK A01",
      "metarObsTime": 1772925300
    },
    "KMDT": {
      "status": "OK",
      "delay": "—",
      "metarCat": "MVFR",
      "metarRaw": "METAR KMDT 072256Z 12007KT 6SM BR OVC010 09/08 A2992 RMK AO2 SLP134 T00940078",
      "metarObsTime": 1772924160
    },
    "KCXY": {
      "status": "OK",
      "delay": "—",
      "metarCat": "MVFR",
      "metarRaw": "METAR KCXY 072256Z 10007KT 9SM OVC011 09/08 A2993 RMK AO2 SLP138 T00940078",
      "metarObsTime": 1772924160
    },
    "KMUI": {
      "status": "OK",
      "delay": "—",
      "metarCat": "LIFR",
      "metarRaw": "SPECI KMUI 072303Z AUTO 11003KT 1 5/8SM BR OVC003 09/08 A2992 RMK AO2 LTG DSNT SE SLP137",
      "metarObsTime": 1772924580
    },
    "KUNV": {
      "status": "OK",
      "delay": "—",
      "metarCat": "VFR",
      "metarRaw": "METAR KUNV 072253Z COR 25006KT 7SM -RA SCT055 15/10 A2985 RMK LTG DSNT W",
      "metarObsTime": 1772923980
    },
    "KAOO": {
      "status": "OK",
      "delay": "—",
      "metarCat": "—",
      "metarRaw": "—",
      "metarObsTime": null
    },
    "KLNS": {
      "status": "OK",
      "delay": "—",
      "metarCat": "IFR",
      "metarRaw": "METAR KLNS 072253Z 13004KT 10SM OVC007 09/07 A2994 RMK AO2 SLP141 T00890072",
      "metarObsTime": 1772923980
    },
    "KIPT": {
      "status": "OK",
      "delay": "—",
      "metarCat": "IFR",
      "metarRaw": "METAR KIPT 072254Z VRB06G17KT 8SM OVC009 08/07 A2987 RMK AO2 SLP116 T00830067",
      "metarObsTime": 1772924040
    },
    "KPHL": {
      "status": "OK",
      "delay": "—",
      "metarCat": "LIFR",
      "metarRaw": "SPECI KPHL 072311Z 21004KT 3SM BR OVC004 11/09 A2997 RMK AO2 T01110094 $",
      "metarObsTime": 1772925060
    },
    "KABE": {
      "status": "OK",
      "delay": "—",
      "metarCat": "IFR",
      "metarRaw": "METAR KABE 072251Z 00000KT 8SM OVC006 08/07 A2996 RMK AO2 SLP148 T00780067",
      "metarObsTime": 1772923860
    },
    "KAVP": {
      "status": "OK",
      "delay": "—",
      "metarCat": "VFR",
      "metarRaw": "SPECI KAVP 072308Z 19005KT 10SM SCT014 08/06 A2988 RMK AO2 T00780061",
      "metarObsTime": 1772924880
    },
    "KHZL": {
      "status": "OK",
      "delay": "—",
      "metarCat": "LIFR",
      "metarRaw": "METAR KHZL 072315Z AUTO 16003KT 1/2SM FG OVC002 07/06 A2992 RMK AO2",
      "metarObsTime": 1772925300
    }
  }
}