{
  "generatedAt": "2026-04-11T06:30:44.014Z",
  "airports": {
    "KPIT": {
      "status": "OK",
      "delay": "—",
      "metarCat": "IFR",
      "metarRaw": "METAR KPIT 110551Z 34012KT 10SM BKN009 OVC016 08/07 A3028 RMK AO2 SLP259 60015 T00830067 10144 20083 51022 $",
      "metarObsTime": 1775886660
    },
    "KAGC": {
      "status": "OK",
      "delay": "—",
      "metarCat": "—",
      "metarRaw": "—",
      "metarObsTime": null
    },
    "KLBE": {
      "status": "OK",
      "delay": "—",
      "metarCat": "MVFR",
      "metarRaw": "METAR KLBE 110615Z AUTO 31006KT 10SM OVC013 11/09 A3026 RMK AO2",
      "metarObsTime": 1775888100
    },
    "KJST": {
      "status": "OK",
      "delay": "—",
      "metarCat": "IFR",
      "metarRaw": "SPECI KJST 110617Z AUTO 30016G24KT 10SM BKN005 OVC012 09/09 A3020 RMK AO2 RAE07 CIG 002V008 P0000 T00940089",
      "metarObsTime": 1775888220
    },
    "KERI": {
      "status": "OK",
      "delay": "—",
      "metarCat": "MVFR",
      "metarRaw": "METAR KERI 110551Z AUTO 30005KT 10SM SCT006 OVC011 04/03 A3033 RMK AO2 SLP274 T00440033 10067 20044 53012 $",
      "metarObsTime": 1775886660
    },
    "KDUJ": {
      "status": "OK",
      "delay": "—",
      "metarCat": "MVFR",
      "metarRaw": "SPECI KDUJ 110620Z AUTO 34012G19KT 10SM OVC014 07/04 A3023 RMK AO2 T00670039",
      "metarObsTime": 1775888400
    },
    "KBFD": {
      "status": "OK",
      "delay": "—",
      "metarCat": "IFR",
      "metarRaw": "SPECI KBFD 110600Z AUTO 33007KT 5SM BR BKN007 OVC014 04/04 A3023 RMK AO2 CIG 005V010 T00440039",
      "metarObsTime": 1775887200
    },
    "KBTP": {
      "status": "OK",
      "delay": "—",
      "metarCat": "IFR",
      "metarRaw": "METAR KBTP 110556Z AUTO 33006KT 7SM OVC006 07/07 A3028 RMK AO2 CIG 005V011 SLP259 60003 T00720072 10133 20072 53007 $",
      "metarObsTime": 1775886960
    },
    "KFKL": {
      "status": "OK",
      "delay": "—",
      "metarCat": "IFR",
      "metarRaw": "SPECI KFKL 110619Z AUTO VRB06KT 7SM BKN005 OVC010 06/04 A3028 RMK AO2 CIG 003V009",
      "metarObsTime": 1775888340
    },
    "KIDI": {
      "status": "OK",
      "delay": "—",
      "metarCat": "MVFR",
      "metarRaw": "METAR KIDI 110615Z AUTO 31006G13KT 10SM BKN016 OVC020 09/07 A3025 RMK A01",
      "metarObsTime": 1775888100
    },
    "KMDT": {
      "status": "OK",
      "delay": "—",
      "metarCat": "VFR",
      "metarRaw": "METAR KMDT 110556Z 00000KT 10SM SCT038 OVC100 14/13 A3013 RMK AO2 RAE00 SLP202 P0000 60001 T01390128 10200 20133 56005",
      "metarObsTime": 1775886960
    },
    "KCXY": {
      "status": "OK",
      "delay": "—",
      "metarCat": "VFR",
      "metarRaw": "METAR KCXY 110556Z AUTO 26005KT 10SM FEW036 FEW085 OVC100 16/13 A3013 RMK AO2 SLP204 60001 T01610128 10206 20150 56005 $",
      "metarObsTime": 1775886960
    },
    "KMUI": {
      "status": "OK",
      "delay": "—",
      "metarCat": "VFR",
      "metarRaw": "METAR KMUI 110555Z AUTO 29004KT 10SM FEW031 SCT038 BKN085 OVC100 18/15 A3011 RMK AO2 RAB0455E0456 SLP198 P0000 60001 T01760147 10195 20152 56009",
      "metarObsTime": 1775886900
    },
    "KUNV": {
      "status": "OK",
      "delay": "—",
      "metarCat": "MVFR",
      "metarRaw": "METAR KUNV 110615Z AUTO 32009G14KT 10SM SCT019 BKN024 OVC031 13/09 A3018 RMK AO2 T01280090",
      "metarObsTime": 1775888100
    },
    "KAOO": {
      "status": "OK",
      "delay": "—",
      "metarCat": "MVFR",
      "metarRaw": "METAR KAOO 110553Z AUTO 30009KT 7SM -RA FEW013 OVC022 13/12 A3019 RMK AO2 RAB35 SLP217 P0001 60008 T01330117 10161 20133 53000",
      "metarObsTime": 1775886780
    },
    "KLNS": {
      "status": "OK",
      "delay": "—",
      "metarCat": "VFR",
      "metarRaw": "METAR KLNS 110553Z AUTO 00000KT 10SM FEW070 BKN085 13/10 A3013 RMK AO2 RAE43 SLP201 P0001 60001 T01280100 10178 20128 58006",
      "metarObsTime": 1775886780
    },
    "KIPT": {
      "status": "OK",
      "delay": "—",
      "metarCat": "MVFR",
      "metarRaw": "METAR KIPT 110554Z AUTO 31008KT 270V360 10SM SCT024 BKN029 OVC070 14/13 A3014 RMK AO2 SLP206 60024 T01390128 10189 20128 53005 $",
      "metarObsTime": 1775886840
    },
    "KPHL": {
      "status": "OK",
      "delay": "—",
      "metarCat": "VFR",
      "metarRaw": "METAR KPHL 110554Z 20003KT 10SM OVC110 13/08 A3014 RMK AO2 SLP204 T01330083 10172 20128 58005 $",
      "metarObsTime": 1775886840
    },
    "KABE": {
      "status": "OK",
      "delay": "—",
      "metarCat": "VFR",
      "metarRaw": "METAR KABE 110551Z 26003KT 10SM OVC095 15/10 A3010 RMK AO2 SLP193 60000 T01500100 10189 20139 58015 $",
      "metarObsTime": 1775886660
    },
    "KAVP": {
      "status": "OK",
      "delay": "—",
      "metarCat": "MVFR",
      "metarRaw": "SPECI KAVP 110619Z AUTO 01005G16KT 10SM BKN016 OVC024 09/07 A3017 RMK AO2 WSHFT 0541 T00890067",
      "metarObsTime": 1775888340
    },
    "KHZL": {
      "status": "OK",
      "delay": "—",
      "metarCat": "IFR",
      "metarRaw": "METAR KHZL 110615Z AUTO 29005KT 10SM BKN009 OVC014 13/11 A3015 RMK AO2",
      "metarObsTime": 1775888100
    }
  }
}