{
  "generatedAt": "2026-04-05T11:30:46.014Z",
  "airports": {
    "KPIT": {
      "status": "OK",
      "delay": "—",
      "metarCat": "MVFR",
      "metarRaw": "METAR KPIT 051051Z 29013G22KT 10SM -RA FEW008 OVC014 08/06 A2992 RMK AO2 SLP133 P0001 T00780056 $",
      "metarObsTime": 1775386260
    },
    "KAGC": {
      "status": "OK",
      "delay": "—",
      "metarCat": "IFR",
      "metarRaw": "SPECI KAGC 051101Z 30008G18KT 270V340 7SM -RA BKN008 BKN070 OVC090 09/08 A2990 RMK AO2 P0001 T00890078",
      "metarObsTime": 1775386860
    },
    "KLBE": {
      "status": "OK",
      "delay": "—",
      "metarCat": "IFR",
      "metarRaw": "METAR KLBE 051055Z 25010KT 2 1/2SM -RA BR OVC022 10/10 A2992",
      "metarObsTime": 1775386500
    },
    "KJST": {
      "status": "OK",
      "delay": "—",
      "metarCat": "IFR",
      "metarRaw": "METAR KJST 051054Z AUTO 27009KT 7SM -RA OVC006 09/09 A2987 RMK AO2 PK WND 26026/1002 CIG 004V009 SLP107 P0011 T00940089",
      "metarObsTime": 1775386440
    },
    "KERI": {
      "status": "OK",
      "delay": "—",
      "metarCat": "VFR",
      "metarRaw": "METAR KERI 051051Z 25013G26KT 10SM OVC033 06/01 A2989 RMK AO2 PK WND 26031/0956 SLP119 T00610011 $",
      "metarObsTime": 1775386260
    },
    "KDUJ": {
      "status": "OK",
      "delay": "—",
      "metarCat": "IFR",
      "metarRaw": "METAR KDUJ 051053Z AUTO 28008KT 9SM -RA OVC007 08/07 A2985 RMK AO2 CIG 005V009 SLP100 P0003 T00830072",
      "metarObsTime": 1775386380
    },
    "KBFD": {
      "status": "OK",
      "delay": "—",
      "metarCat": "MVFR",
      "metarRaw": "SPECI KBFD 051119Z AUTO 28009KT 10SM SCT005 OVC011 08/07 A2982 RMK AO2 T00780067",
      "metarObsTime": 1775387940
    },
    "KBTP": {
      "status": "OK",
      "delay": "—",
      "metarCat": "MVFR",
      "metarRaw": "METAR KBTP 051056Z AUTO 28014G20KT 10SM OVC016 07/06 A2992 RMK AO2 RAE50 SLP133 P0001 T00670061 $",
      "metarObsTime": 1775386560
    },
    "KFKL": {
      "status": "OK",
      "delay": "—",
      "metarCat": "MVFR",
      "metarRaw": "SPECI KFKL 051104Z AUTO 25011G14KT 10SM OVC012 07/06 A2988 RMK AO2",
      "metarObsTime": 1775387040
    },
    "KIDI": {
      "status": "OK",
      "delay": "—",
      "metarCat": "MVFR",
      "metarRaw": "METAR KIDI 051115Z AUTO 25007KT 4SM BR FEW008 SCT011 BKN016 09/09 A2990 RMK A01",
      "metarObsTime": 1775387700
    },
    "KMDT": {
      "status": "OK",
      "delay": "—",
      "metarCat": "LIFR",
      "metarRaw": "METAR KMDT 051056Z 06003KT 1 3/4SM BR OVC002 09/09 A2985 RMK AO2 SLP106 T00890089 $",
      "metarObsTime": 1775386560
    },
    "KCXY": {
      "status": "OK",
      "delay": "—",
      "metarCat": "LIFR",
      "metarRaw": "METAR KCXY 051056Z 08007KT 1 1/2SM R08/5000V6000FT BR OVC002 08/08 A2985 RMK AO2 SLP108 T00830083 $",
      "metarObsTime": 1775386560
    },
    "KMUI": {
      "status": "OK",
      "delay": "—",
      "metarCat": "LIFR",
      "metarRaw": "SPECI KMUI 051107Z AUTO 07005KT 1SM BR OVC002 08/08 A2984 RMK AO2 SLP107 RVRNO",
      "metarObsTime": 1775387220
    },
    "KUNV": {
      "status": "OK",
      "delay": "—",
      "metarCat": "MVFR",
      "metarRaw": "METAR KUNV 051053Z 28014G18KT 5SM RA SCT028 BKN041 OVC060 14/13 A2983",
      "metarObsTime": 1775386380
    },
    "KAOO": {
      "status": "OK",
      "delay": "—",
      "metarCat": "MVFR",
      "metarRaw": "METAR KAOO 051053Z AUTO 29011G18KT 5SM RA BR SCT016 BKN021 OVC040 14/12 A2984 RMK AO2 WSHFT 0943 SLP099 P0010 T01390122",
      "metarObsTime": 1775386380
    },
    "KLNS": {
      "status": "OK",
      "delay": "—",
      "metarCat": "LIFR",
      "metarRaw": "SPECI KLNS 051100Z 08005KT 1/2SM FG VV003 09/09 A2985 RMK AO2 T00940089",
      "metarObsTime": 1775386800
    },
    "KIPT": {
      "status": "OK",
      "delay": "—",
      "metarCat": "MVFR",
      "metarRaw": "SPECI KIPT 051121Z VRB04G18KT 4SM -RA BR OVC011 11/09 A2981 RMK AO2 P0004 T01110089",
      "metarObsTime": 1775388060
    },
    "KPHL": {
      "status": "OK",
      "delay": "—",
      "metarCat": "LIFR",
      "metarRaw": "METAR KPHL 051054Z 05005KT 1SM BR OVC003 10/09 A2989 RMK AO2 DZE0957 SLP122 P0000 T01000089 RVRNO $",
      "metarObsTime": 1775386440
    },
    "KABE": {
      "status": "OK",
      "delay": "—",
      "metarCat": "LIFR",
      "metarRaw": "SPECI KABE 051101Z 07004KT 1SM BR OVC003 06/06 A2988 RMK AO2 SFC VIS 1 1/4 T00610061 $",
      "metarObsTime": 1775386860
    },
    "KAVP": {
      "status": "OK",
      "delay": "—",
      "metarCat": "MVFR",
      "metarRaw": "METAR KAVP 051054Z AUTO VRB06G15KT 10SM OVC010 11/09 A2983 RMK AO2 SLP099 T01060089",
      "metarObsTime": 1775386440
    },
    "KHZL": {
      "status": "OK",
      "delay": "—",
      "metarCat": "LIFR",
      "metarRaw": "METAR KHZL 051030Z AUTO 13003KT 3/4SM -DZ OVC002 07/06 A2988 RMK AO2",
      "metarObsTime": 1775385000
    }
  }
}