{
  "generatedAt": "2026-03-19T20:20:14.950Z",
  "airports": {
    "KPIT": {
      "status": "OK",
      "delay": "—",
      "metarCat": "VFR",
      "metarRaw": "METAR KPIT 191951Z COR 27007KT 230V300 10SM FEW055 SCT080 13/03 A3009 RMK AO2 SLP202 T01330033",
      "metarObsTime": 1773949860
    },
    "KAGC": {
      "status": "OK",
      "delay": "—",
      "metarCat": "VFR",
      "metarRaw": "METAR KAGC 191953Z 27007G18KT 10SM BKN085 13/03 A3009 RMK AO2 SLP198 T01280028",
      "metarObsTime": 1773949980
    },
    "KLBE": {
      "status": "OK",
      "delay": "—",
      "metarCat": "VFR",
      "metarRaw": "METAR KLBE 191945Z 24013G23KT 10SM FEW040 BKN050 14/04 A3010",
      "metarObsTime": 1773949500
    },
    "KJST": {
      "status": "OK",
      "delay": "—",
      "metarCat": "VFR",
      "metarRaw": "METAR KJST 191954Z AUTO 26011KT 10SM FEW042 BKN095 10/01 A3007 RMK AO2 SLP197 T01000011",
      "metarObsTime": 1773950040
    },
    "KERI": {
      "status": "OK",
      "delay": "—",
      "metarCat": "VFR",
      "metarRaw": "METAR KERI 191951Z 29005KT 10SM OVC050 04/M01 A3014 RMK AO2 SLP211 T00441011",
      "metarObsTime": 1773949860
    },
    "KDUJ": {
      "status": "OK",
      "delay": "—",
      "metarCat": "VFR",
      "metarRaw": "METAR KDUJ 191953Z AUTO 23009KT 10SM OVC040 09/01 A3006 RMK AO2 SLP188 T00940011",
      "metarObsTime": 1773949980
    },
    "KBFD": {
      "status": "OK",
      "delay": "—",
      "metarCat": "VFR",
      "metarRaw": "METAR KBFD 191953Z AUTO VRB06G16KT 10SM BKN034 BKN043 OVC060 07/M01 A3005 RMK AO2 SLP192 T00671011",
      "metarObsTime": 1773949980
    },
    "KBTP": {
      "status": "OK",
      "delay": "—",
      "metarCat": "VFR",
      "metarRaw": "METAR KBTP 191956Z AUTO 23012G18KT 10SM FEW043 BKN075 14/04 A3008 RMK AO2 SLP197 T01390039 $",
      "metarObsTime": 1773950160
    },
    "KFKL": {
      "status": "OK",
      "delay": "—",
      "metarCat": "VFR",
      "metarRaw": "METAR KFKL 191956Z AUTO 27006KT 10SM FEW037 BKN060 OVC095 10/03 A3008 RMK AO2 RAB15E35 SLP195 P0000 T01000028",
      "metarObsTime": 1773950160
    },
    "KIDI": {
      "status": "OK",
      "delay": "—",
      "metarCat": "VFR",
      "metarRaw": "METAR KIDI 192015Z AUTO 24009G14KT 10SM BKN045 BKN055 OVC080 13/03 A3008 RMK A01",
      "metarObsTime": 1773951300
    },
    "KMDT": {
      "status": "OK",
      "delay": "—",
      "metarCat": "VFR",
      "metarRaw": "METAR KMDT 191956Z 00000KT 10SM FEW100 09/M02 A3015 RMK AO2 SLP212 T00941022",
      "metarObsTime": 1773950160
    },
    "KCXY": {
      "status": "OK",
      "delay": "—",
      "metarCat": "VFR",
      "metarRaw": "METAR KCXY 191956Z 23006G16KT 10SM FEW090 11/M02 A3015",
      "metarObsTime": 1773950160
    },
    "KMUI": {
      "status": "OK",
      "delay": "—",
      "metarCat": "VFR",
      "metarRaw": "METAR KMUI 191955Z 24006KT 10SM SCT060 10/M01 A3013 RMK AO2A SLP209 T00991012",
      "metarObsTime": 1773950100
    },
    "KUNV": {
      "status": "OK",
      "delay": "—",
      "metarCat": "VFR",
      "metarRaw": "METAR KUNV 191953Z 20005KT 10SM OVC043 09/M02 A3010",
      "metarObsTime": 1773949980
    },
    "KAOO": {
      "status": "OK",
      "delay": "—",
      "metarCat": "VFR",
      "metarRaw": "METAR KAOO 191953Z AUTO 20009KT 10SM BKN048 11/01 A3008 RMK AO2 SLP196 T01110006",
      "metarObsTime": 1773949980
    },
    "KLNS": {
      "status": "OK",
      "delay": "—",
      "metarCat": "VFR",
      "metarRaw": "METAR KLNS 191953Z 10SM SCT110 09/M01 A3016 RMK AO2 SLP214 T00941011",
      "metarObsTime": 1773949980
    },
    "KIPT": {
      "status": "OK",
      "delay": "—",
      "metarCat": "VFR",
      "metarRaw": "METAR KIPT 191954Z 18005KT 10SM FEW075 07/M03 A3012 RMK AO2 SLP204 T00721033",
      "metarObsTime": 1773950040
    },
    "KPHL": {
      "status": "OK",
      "delay": "—",
      "metarCat": "VFR",
      "metarRaw": "METAR KPHL 191954Z 19010G18KT 10SM FEW060 09/M03 A3020 RMK AO2 SLP225 T00891033",
      "metarObsTime": 1773950040
    },
    "KABE": {
      "status": "OK",
      "delay": "—",
      "metarCat": "VFR",
      "metarRaw": "METAR KABE 191951Z 20006KT 10SM BKN050 07/M04 A3017 RMK AO2 SLP219 T00721039",
      "metarObsTime": 1773949860
    },
    "KAVP": {
      "status": "OK",
      "delay": "—",
      "metarCat": "VFR",
      "metarRaw": "METAR KAVP 191954Z 21011G18KT 10SM CLR 07/M03 A3011 RMK AO2 SLP200 T00721033",
      "metarObsTime": 1773950040
    },
    "KHZL": {
      "status": "OK",
      "delay": "—",
      "metarCat": "MVFR",
      "metarRaw": "METAR KHZL 191955Z AUTO 00000KT 10SM BKN030 BKN037 05/M03 RMK AO2",
      "metarObsTime": 1773950100
    }
  }
}