{
  "generatedAt": "2026-03-06T05:10:13.510Z",
  "airports": {
    "KPIT": {
      "status": "OK",
      "delay": "—",
      "metarCat": "MVFR",
      "metarRaw": "METAR KPIT 060451Z 23004KT 10SM SCT015 OVC029 14/13 A3012 RMK AO2 SLP206 T01440128 401670100",
      "metarObsTime": 1772772660
    },
    "KAGC": {
      "status": "OK",
      "delay": "—",
      "metarCat": "VFR",
      "metarRaw": "METAR KAGC 060453Z 22007KT 10SM OVC035 14/13 A3012 RMK AO2 SLP203 T01440128 401610106",
      "metarObsTime": 1772772780
    },
    "KLBE": {
      "status": "OK",
      "delay": "—",
      "metarCat": "VFR",
      "metarRaw": "METAR KLBE 060455Z AUTO 20006KT 9SM SCT018 SCT024 OVC050 14/14 A3015 RMK AO2",
      "metarObsTime": 1772772900
    },
    "KJST": {
      "status": "OK",
      "delay": "—",
      "metarCat": "MVFR",
      "metarRaw": "METAR KJST 060454Z AUTO 27008KT 10SM OVC011 13/12 A3013 RMK AO2 CIG 008V014 SLP202 T01280117 401390072",
      "metarObsTime": 1772772840
    },
    "KERI": {
      "status": "OK",
      "delay": "—",
      "metarCat": "LIFR",
      "metarRaw": "METAR KERI 060451Z AUTO 02005KT 1 1/4SM BR OVC002 01/00 A3015 RMK AO2 SLP215 T00060000 400780006",
      "metarObsTime": 1772772660
    },
    "KDUJ": {
      "status": "OK",
      "delay": "—",
      "metarCat": "IFR",
      "metarRaw": "METAR KDUJ 060453Z AUTO 25010KT 10SM BKN006 OVC013 12/12 A3009 RMK AO2 CIG 002V008 SLP192 T01170117 401220050",
      "metarObsTime": 1772772780
    },
    "KBFD": {
      "status": "OK",
      "delay": "—",
      "metarCat": "LIFR",
      "metarRaw": "SPECI KBFD 060501Z AUTO 28003KT 1 3/4SM BR OVC002 09/09 A3007 RMK AO2 T00940094",
      "metarObsTime": 1772773260
    },
    "KBTP": {
      "status": "OK",
      "delay": "—",
      "metarCat": "VFR",
      "metarRaw": "METAR KBTP 060456Z AUTO 23005KT 10SM FEW017 OVC050 13/ A3013 RMK AO2 SLP207 T0133 $",
      "metarObsTime": 1772772960
    },
    "KFKL": {
      "status": "OK",
      "delay": "—",
      "metarCat": "IFR",
      "metarRaw": "METAR KFKL 060456Z AUTO 26010KT 10SM OVC009 11/10 A3011 RMK AO2 CIG 006V013 SLP201 T01110100 401330078",
      "metarObsTime": 1772772960
    },
    "KIDI": {
      "status": "OK",
      "delay": "—",
      "metarCat": "MVFR",
      "metarRaw": "METAR KIDI 060455Z AUTO 24007KT 10SM SCT010 BKN023 OVC029 14/13 A3013 RMK A01",
      "metarObsTime": 1772772900
    },
    "KMDT": {
      "status": "OK",
      "delay": "—",
      "metarCat": "IFR",
      "metarRaw": "METAR KMDT 060456Z 00000KT 8SM BKN009 OVC019 07/07 A3018 RMK AO2 CIG 006V010 SLP222 T00670067 400890039",
      "metarObsTime": 1772772960
    },
    "KCXY": {
      "status": "OK",
      "delay": "—",
      "metarCat": "IFR",
      "metarRaw": "METAR KCXY 060456Z AUTO 09005KT 9SM OVC005 07/06 A3018 RMK AO2 SLP224 T00670061 400940050",
      "metarObsTime": 1772772960
    },
    "KMUI": {
      "status": "OK",
      "delay": "—",
      "metarCat": "MVFR",
      "metarRaw": "SPECI KMUI 060503Z AUTO 07005KT 10SM FEW007 OVC013 07/06 A3018 RMK AO2 SLP226",
      "metarObsTime": 1772773380
    },
    "KUNV": {
      "status": "OK",
      "delay": "—",
      "metarCat": "IFR",
      "metarRaw": "METAR KUNV 060455Z AUTO 00000KT 1 1/4SM RA BKN008 OVC015 07/07 A3013 RMK AO2 P0003 T00720072",
      "metarObsTime": 1772772900
    },
    "KAOO": {
      "status": "OK",
      "delay": "—",
      "metarCat": "MVFR",
      "metarRaw": "METAR KAOO 060453Z AUTO 00000KT 5SM BR BKN040 OVC047 09/08 A3013 RMK AO2 SLP208 T00890083 401170044",
      "metarObsTime": 1772772780
    },
    "KLNS": {
      "status": "OK",
      "delay": "—",
      "metarCat": "MVFR",
      "metarRaw": "METAR KLNS 060453Z AUTO 09007KT 10SM OVC017 06/05 A3018 RMK AO2 RAE15 SLP222 P0006 T00610050 400940056",
      "metarObsTime": 1772772780
    },
    "KIPT": {
      "status": "OK",
      "delay": "—",
      "metarCat": "IFR",
      "metarRaw": "METAR KIPT 060454Z AUTO 10004KT 5SM BR OVC009 07/06 A3015 RMK AO2 CIG 008V012 SLP213 T00720061 400890033 $",
      "metarObsTime": 1772772840
    },
    "KPHL": {
      "status": "OK",
      "delay": "—",
      "metarCat": "MVFR",
      "metarRaw": "METAR KPHL 060454Z 06006KT 4SM -RA BR SCT009 BKN019 OVC065 06/04 A3023 RMK AO2 SLP235 P0034 T00560044 400940056 $",
      "metarObsTime": 1772772840
    },
    "KABE": {
      "status": "OK",
      "delay": "—",
      "metarCat": "IFR",
      "metarRaw": "METAR KABE 060451Z 07009KT 10SM -RA BKN007 BKN011 OVC019 05/04 A3021 RMK AO2 SLP234 P0011 T00500039 400780050",
      "metarObsTime": 1772772660
    },
    "KAVP": {
      "status": "OK",
      "delay": "—",
      "metarCat": "MVFR",
      "metarRaw": "METAR KAVP 060454Z AUTO 08004KT 4SM -RA BR FEW016 OVC023 04/03 A3018 RMK AO2 SLP224 P0001 T00440033 400780044",
      "metarObsTime": 1772772840
    },
    "KHZL": {
      "status": "OK",
      "delay": "—",
      "metarCat": "LIFR",
      "metarRaw": "METAR KHZL 060455Z AUTO 15005KT 3SM RA OVC004 03/02 A3019 RMK AO2 P0002",
      "metarObsTime": 1772772900
    }
  }
}