{
  "generatedAt": "2026-06-01T13:16:13.621Z",
  "faaFlow": {
    "updatedAt": "2026-06-01T13:16:10.441Z",
    "source": "https://www.fly.faa.gov/adv/adv_spt",
    "terminal": [],
    "enroute": [],
    "airports": {
      "KPIT": null,
      "KAGC": null,
      "KLBE": null,
      "KJST": null,
      "KERI": null,
      "KDUJ": null,
      "KBFD": null,
      "KBTP": null,
      "KFKL": null,
      "KIDI": null,
      "KMDT": null,
      "KCXY": null,
      "KMUI": null,
      "KUNV": null,
      "KAOO": null,
      "KLNS": null,
      "KIPT": null,
      "KPHL": null,
      "KABE": null,
      "KAVP": null,
      "KHZL": null
    }
  },
  "airports": {
    "KPIT": {
      "status": "OK",
      "delay": "—",
      "metarCat": "VFR",
      "metarRaw": "METAR KPIT 011251Z 06005KT 10SM BKN250 16/06 A3003 RMK AO2 SLP173 T01610056",
      "metarObsTime": 1780318260,
      "faaFlow": null
    },
    "KAGC": {
      "status": "OK",
      "delay": "—",
      "metarCat": "VFR",
      "metarRaw": "METAR KAGC 011253Z 06004KT 10SM CLR 16/06 A3002 RMK AO2 SLP166 T01610056",
      "metarObsTime": 1780318380,
      "faaFlow": null
    },
    "KLBE": {
      "status": "OK",
      "delay": "—",
      "metarCat": "VFR",
      "metarRaw": "METAR KLBE 011247Z 00000KT 10SM CLR 14/09 A3004",
      "metarObsTime": 1780318020,
      "faaFlow": null
    },
    "KJST": {
      "status": "OK",
      "delay": "—",
      "metarCat": "VFR",
      "metarRaw": "METAR KJST 011254Z AUTO 00000KT 10SM CLR 14/05 A3003 RMK AO2 SLP163 T01440050",
      "metarObsTime": 1780318440,
      "faaFlow": null
    },
    "KERI": {
      "status": "OK",
      "delay": "—",
      "metarCat": "VFR",
      "metarRaw": "METAR KERI 011251Z 01005KT 10SM CLR 15/09 A3005 RMK AO2 SLP175 T01500089 $",
      "metarObsTime": 1780318260,
      "faaFlow": null
    },
    "KDUJ": {
      "status": "OK",
      "delay": "—",
      "metarCat": "VFR",
      "metarRaw": "METAR KDUJ 011253Z AUTO 05004KT 10SM CLR 15/05 A3002 RMK AO2 SLP159 T01500050",
      "metarObsTime": 1780318380,
      "faaFlow": null
    },
    "KBFD": {
      "status": "OK",
      "delay": "—",
      "metarCat": "VFR",
      "metarRaw": "METAR KBFD 011253Z AUTO 05007KT 10SM CLR 14/03 A3004 RMK AO2 SLP170 T01390033",
      "metarObsTime": 1780318380,
      "faaFlow": null
    },
    "KBTP": {
      "status": "OK",
      "delay": "—",
      "metarCat": "VFR",
      "metarRaw": "METAR KBTP 011256Z AUTO 00000KT 10SM CLR A3005 RMK AO2 SLPNO FZRANO $",
      "metarObsTime": 1780318560,
      "faaFlow": null
    },
    "KFKL": {
      "status": "OK",
      "delay": "—",
      "metarCat": "VFR",
      "metarRaw": "METAR KFKL 011256Z AUTO 01004KT 10SM CLR 15/07 A3005 RMK AO2 SLP175 T01500067",
      "metarObsTime": 1780318560,
      "faaFlow": null
    },
    "KIDI": {
      "status": "OK",
      "delay": "—",
      "metarCat": "VFR",
      "metarRaw": "METAR KIDI 011255Z AUTO 00000KT 10SM CLR 15/07 A3004 RMK A01",
      "metarObsTime": 1780318500,
      "faaFlow": null
    },
    "KMDT": {
      "status": "OK",
      "delay": "—",
      "metarCat": "VFR",
      "metarRaw": "METAR KMDT 011256Z 05007KT 10SM FEW250 19/06 A2997 RMK AO2 SLP147 T01890061",
      "metarObsTime": 1780318560,
      "faaFlow": null
    },
    "KCXY": {
      "status": "OK",
      "delay": "—",
      "metarCat": "VFR",
      "metarRaw": "METAR KCXY 011256Z 06003KT 10SM CLR 19/08 A2997 RMK AO2 SLP149 T01890078",
      "metarObsTime": 1780318560,
      "faaFlow": null
    },
    "KMUI": {
      "status": "OK",
      "delay": "—",
      "metarCat": "VFR",
      "metarRaw": "METAR KMUI 011255Z 05006KT 10SM FEW130 FEW250 22/09 A2996 RMK AO2A SLP146 T02220094",
      "metarObsTime": 1780318500,
      "faaFlow": null
    },
    "KUNV": {
      "status": "OK",
      "delay": "—",
      "metarCat": "VFR",
      "metarRaw": "METAR KUNV 011253Z 04007KT 10SM CLR 16/06 A3002",
      "metarObsTime": 1780318380,
      "faaFlow": null
    },
    "KAOO": {
      "status": "OK",
      "delay": "—",
      "metarCat": "VFR",
      "metarRaw": "METAR KAOO 011253Z AUTO 00000KT 10SM CLR 16/06 A3002 RMK AO2 SLP160 T01560056",
      "metarObsTime": 1780318380,
      "faaFlow": null
    },
    "KLNS": {
      "status": "OK",
      "delay": "—",
      "metarCat": "VFR",
      "metarRaw": "METAR KLNS 011253Z 04008KT 10SM CLR 19/10 A2997 RMK AO2 SLP146 T01890100",
      "metarObsTime": 1780318380,
      "faaFlow": null
    },
    "KIPT": {
      "status": "OK",
      "delay": "—",
      "metarCat": "VFR",
      "metarRaw": "METAR KIPT 011254Z 25005KT 10SM CLR 16/07 A3000 RMK AO2 SLP156 T01560072 $",
      "metarObsTime": 1780318440,
      "faaFlow": null
    },
    "KPHL": {
      "status": "OK",
      "delay": "—",
      "metarCat": "VFR",
      "metarRaw": "METAR KPHL 011254Z 05006KT 10SM FEW050 FEW100 SCT330 21/11 A2995 RMK AO2 SLP141 T02110106 $",
      "metarObsTime": 1780318440,
      "faaFlow": null
    },
    "KABE": {
      "status": "OK",
      "delay": "—",
      "metarCat": "VFR",
      "metarRaw": "METAR KABE 011251Z VRB06KT 10SM CLR 19/08 A2997 RMK AO2 SLP147 T01890078 $",
      "metarObsTime": 1780318260,
      "faaFlow": null
    },
    "KAVP": {
      "status": "OK",
      "delay": "—",
      "metarCat": "VFR",
      "metarRaw": "METAR KAVP 011254Z 00000KT 10SM CLR 16/08 A3000 RMK AO2 RAB11E20 SLP154 P0000 T01610078",
      "metarObsTime": 1780318440,
      "faaFlow": null
    },
    "KHZL": {
      "status": "OK",
      "delay": "—",
      "metarCat": "VFR",
      "metarRaw": "METAR KHZL 011255Z AUTO 34005KT 10SM CLR 16/06 A3003 RMK AO2",
      "metarObsTime": 1780318500,
      "faaFlow": null
    }
  }
}