{
  "generatedAt": "2026-03-17T04:30:12.625Z",
  "airports": {
    "KPIT": {
      "status": "OK",
      "delay": "—",
      "metarCat": "IFR",
      "metarRaw": "METAR KPIT 170351Z 25014G23KT 6SM -SN BR BKN009 BKN020 OVC090 M04/M04 A2961 RMK AO2 SLP044 P0000 T10391044 $",
      "metarObsTime": 1773719460
    },
    "KAGC": {
      "status": "OK",
      "delay": "—",
      "metarCat": "MVFR",
      "metarRaw": "SPECI KAGC 170421Z 25018G29KT 8SM SCT021 BKN028 M04/M07 A2963 RMK AO2 PK WND 26029/0420 T10391072 $",
      "metarObsTime": 1773721260
    },
    "KLBE": {
      "status": "OK",
      "delay": "—",
      "metarCat": "VFR",
      "metarRaw": "METAR KLBE 170415Z AUTO 25022G29KT 6SM HZ FEW022 SCT029 BKN085 M03/M06 A2964 RMK AO2",
      "metarObsTime": 1773720900
    },
    "KJST": {
      "status": "OK",
      "delay": "—",
      "metarCat": "IFR",
      "metarRaw": "SPECI KJST 170421Z AUTO 27026G39KT 2SM UP FEW002 OVC017 M06/M08 A2950 RMK AO2 PK WND 27039/0420 VIS 1 1/4V4 P0000 T10561083",
      "metarObsTime": 1773721260
    },
    "KERI": {
      "status": "OK",
      "delay": "—",
      "metarCat": "IFR",
      "metarRaw": "SPECI KERI 170427Z AUTO 26014G30KT 1SM R06/5500VP6000FT -SN BR FEW009 OVC014 M04/M06 A2954 RMK AO2 PK WND 26030/0423 P0001 T10391056 $",
      "metarObsTime": 1773721620
    },
    "KDUJ": {
      "status": "OK",
      "delay": "—",
      "metarCat": "IFR",
      "metarRaw": "SPECI KDUJ 170426Z AUTO 25019G30KT 1 1/2SM -SN BKN016 BKN023 M05/M08 A2949 RMK AO2 PK WND 24039/0412 SNB0355 P0000 T10501078",
      "metarObsTime": 1773721560
    },
    "KBFD": {
      "status": "OK",
      "delay": "—",
      "metarCat": "MVFR",
      "metarRaw": "METAR KBFD 170353Z AUTO 26011G28KT 7SM BKN021 BKN027 M06/M08 A2941 RMK AO2 PK WND 25028/0347 SNE41 SLP970 P0001 T10561083",
      "metarObsTime": 1773719580
    },
    "KBTP": {
      "status": "OK",
      "delay": "—",
      "metarCat": "—",
      "metarRaw": "—",
      "metarObsTime": null
    },
    "KFKL": {
      "status": "OK",
      "delay": "—",
      "metarCat": "MVFR",
      "metarRaw": "METAR KFKL 170356Z AUTO 25014G23KT 3SM -SN FEW005 SCT065 OVC080 M05/M08 A2953 RMK AO2 SNB0259 SLP010 P0000 T10501078 FZRANO",
      "metarObsTime": 1773719760
    },
    "KIDI": {
      "status": "OK",
      "delay": "—",
      "metarCat": "IFR",
      "metarRaw": "METAR KIDI 170415Z AUTO 26018G25KT 2 1/2SM BR FEW005 SCT013 BKN027 M04/M06 A2958 RMK A01 VIS 1 1/2V5",
      "metarObsTime": 1773720900
    },
    "KMDT": {
      "status": "OK",
      "delay": "—",
      "metarCat": "VFR",
      "metarRaw": "SPECI KMDT 170412Z 28012KT 10SM SCT008 SCT016 OVC110 01/01 A2952 RMK AO2 SNE0359 P0000 T00110006",
      "metarObsTime": 1773720720
    },
    "KCXY": {
      "status": "OK",
      "delay": "—",
      "metarCat": "VFR",
      "metarRaw": "SPECI KCXY 170402Z AUTO 28009KT 9SM SCT007 SCT014 OVC100 01/M01 A2952 RMK AO2 SNE0357 P0000 T00061006",
      "metarObsTime": 1773720120
    },
    "KMUI": {
      "status": "OK",
      "delay": "—",
      "metarCat": "VFR",
      "metarRaw": "SPECI KMUI 170424Z AUTO 28020G26KT 9SM FEW004 SCT015 SCT026 OVC100 02/00 A2948 RMK AO2 UPE0355SNB0355E19UPB19E23SNB23E24 SLP987",
      "metarObsTime": 1773721440
    },
    "KUNV": {
      "status": "OK",
      "delay": "—",
      "metarCat": "MVFR",
      "metarRaw": "METAR KUNV 170415Z AUTO 26017G26KT 10SM SCT019 OVC030 M02/M06 A2953 RMK AO2 T10191061",
      "metarObsTime": 1773720900
    },
    "KAOO": {
      "status": "OK",
      "delay": "—",
      "metarCat": "MVFR",
      "metarRaw": "SPECI KAOO 170400Z AUTO 27023G36KT 5SM HZ BKN032 M03/M07 A2954 RMK AO2 PK WND 27036/0400 T10281072",
      "metarObsTime": 1773720000
    },
    "KLNS": {
      "status": "OK",
      "delay": "—",
      "metarCat": "VFR",
      "metarRaw": "SPECI KLNS 170426Z AUTO 28017G29KT 9SM FEW008 SCT021 OVC085 01/M01 A2953 RMK AO2 PK WND 31034/0404 SNE24 PRESRR P0001 T00111011",
      "metarObsTime": 1773721560
    },
    "KIPT": {
      "status": "OK",
      "delay": "—",
      "metarCat": "LIFR",
      "metarRaw": "SPECI KIPT 170424Z AUTO 27012G25KT 1/2SM SN FG VV007 00/M01 A2949 RMK AO2 P0007 T00001006",
      "metarObsTime": 1773721440
    },
    "KPHL": {
      "status": "OK",
      "delay": "—",
      "metarCat": "MVFR",
      "metarRaw": "METAR KPHL 170354Z 30019G31KT 4SM -RA BKN037 OVC050 07/04 A2942 RMK AO2 PK WND 30052/0311 WSHFT 0304 SLP964 P0008 T00720039 $",
      "metarObsTime": 1773719640
    },
    "KABE": {
      "status": "OK",
      "delay": "—",
      "metarCat": "VFR",
      "metarRaw": "METAR KABE 170351Z 27014G27KT 10SM -RA FEW019 SCT044 OVC050 04/02 A2940 RMK AO2 PK WND 28036/0256 WSHFT 0238 SLP957 P0015 T00440022 $",
      "metarObsTime": 1773719460
    },
    "KAVP": {
      "status": "OK",
      "delay": "—",
      "metarCat": "IFR",
      "metarRaw": "METAR KAVP 170354Z 24010KT 1 1/2SM -SN BR BKN006 BKN010 OVC014 01/01 A2942 RMK AO2 PK WND 30027/0314 RAE54SNB54 SLP960 P0031 T00110006",
      "metarObsTime": 1773719640
    },
    "KHZL": {
      "status": "OK",
      "delay": "—",
      "metarCat": "LIFR",
      "metarRaw": "METAR KHZL 170415Z AUTO 29007G16KT 1/2SM +SN OVC003 00/M01 RMK AO2 P0002",
      "metarObsTime": 1773720900
    }
  }
}