{
  "generatedAt": "2026-03-20T00:00:19.571Z",
  "airports": {
    "KPIT": {
      "status": "OK",
      "delay": "—",
      "metarCat": "VFR",
      "metarRaw": "METAR KPIT 192351Z 30005KT 10SM SCT060 SCT090 12/03 A3011 RMK AO2 SLP209 T01220033 10144 20111 53008",
      "metarObsTime": 1773964260
    },
    "KAGC": {
      "status": "OK",
      "delay": "—",
      "metarCat": "VFR",
      "metarRaw": "METAR KAGC 192353Z 27005KT 10SM CLR 12/03 A3010 RMK AO2 SLP203 T01170033 10144 20117 53008",
      "metarObsTime": 1773964380
    },
    "KLBE": {
      "status": "OK",
      "delay": "—",
      "metarCat": "VFR",
      "metarRaw": "METAR KLBE 192255Z 26008KT 10SM SCT100 13/04 A3011",
      "metarObsTime": 1773960900
    },
    "KJST": {
      "status": "OK",
      "delay": "—",
      "metarCat": "VFR",
      "metarRaw": "METAR KJST 192354Z AUTO 25006KT 10SM BKN044 OVC090 09/02 A3009 RMK AO2 SLP203 T00890022 10106 20078 53009",
      "metarObsTime": 1773964440
    },
    "KERI": {
      "status": "OK",
      "delay": "—",
      "metarCat": "VFR",
      "metarRaw": "METAR KERI 192351Z 21003KT 10SM CLR 04/00 A3014 RMK AO2 SLP211 T00440000 10061 20039 53004",
      "metarObsTime": 1773964260
    },
    "KDUJ": {
      "status": "OK",
      "delay": "—",
      "metarCat": "VFR",
      "metarRaw": "METAR KDUJ 192353Z AUTO 32006KT 10SM OVC035 06/03 A3009 RMK AO2 RAB10E22 SLP203 P0000 60001 T00610028 10094 20061 53010",
      "metarObsTime": 1773964380
    },
    "KBFD": {
      "status": "OK",
      "delay": "—",
      "metarCat": "VFR",
      "metarRaw": "METAR KBFD 192353Z AUTO 30003KT 10SM SCT029 OVC050 04/01 A3008 RMK AO2 SLP203 60000 T00440006 10067 20044 53007",
      "metarObsTime": 1773964380
    },
    "KBTP": {
      "status": "OK",
      "delay": "—",
      "metarCat": "VFR",
      "metarRaw": "METAR KBTP 192256Z AUTO 31005KT 10SM BKN048 OVC100 12/05 A3011 RMK AO2 SLP209 T01220050 $",
      "metarObsTime": 1773960960
    },
    "KFKL": {
      "status": "OK",
      "delay": "—",
      "metarCat": "VFR",
      "metarRaw": "METAR KFKL 192256Z AUTO 34005KT 10SM -RA BKN035 OVC045 08/03 A3011 RMK AO2 RAB15 SLP210 P0000 T00780033",
      "metarObsTime": 1773960960
    },
    "KIDI": {
      "status": "OK",
      "delay": "—",
      "metarCat": "VFR",
      "metarRaw": "METAR KIDI 192355Z AUTO 27005KT 10SM OVC050 11/04 A3010 RMK A01",
      "metarObsTime": 1773964500
    },
    "KMDT": {
      "status": "OK",
      "delay": "—",
      "metarCat": "VFR",
      "metarRaw": "METAR KMDT 192256Z VRB04KT 10SM BKN065 10/M01 A3012 RMK AO2 SLP202 T01001011",
      "metarObsTime": 1773960960
    },
    "KCXY": {
      "status": "OK",
      "delay": "—",
      "metarCat": "VFR",
      "metarRaw": "METAR KCXY 192356Z 00000KT 10SM OVC060 10/M01 A3012",
      "metarObsTime": 1773964560
    },
    "KMUI": {
      "status": "OK",
      "delay": "—",
      "metarCat": "VFR",
      "metarRaw": "METAR KMUI 192255Z 22004KT 10SM BKN065 BKN100 12/01 A3011 RMK AO2A SLP202 T01160007",
      "metarObsTime": 1773960900
    },
    "KUNV": {
      "status": "OK",
      "delay": "—",
      "metarCat": "VFR",
      "metarRaw": "METAR KUNV 192353Z 00000KT 10SM SCT046 OVC060 08/01 A3010",
      "metarObsTime": 1773964380
    },
    "KAOO": {
      "status": "OK",
      "delay": "—",
      "metarCat": "VFR",
      "metarRaw": "METAR KAOO 192353Z AUTO 22005KT 10SM CLR 10/02 A3009 RMK AO2 SLP197 T01000017 10133 20083 53005",
      "metarObsTime": 1773964380
    },
    "KLNS": {
      "status": "OK",
      "delay": "—",
      "metarCat": "VFR",
      "metarRaw": "METAR KLNS 192353Z 16007KT 10SM FEW065 07/01 A3014 RMK AO2 SLP209 T00670006 10106 20056 55002",
      "metarObsTime": 1773964380
    },
    "KIPT": {
      "status": "OK",
      "delay": "—",
      "metarCat": "VFR",
      "metarRaw": "METAR KIPT 192354Z VRB03KT 10SM FEW055 OVC070 08/M02 A3011 RMK AO2 SLP200 T00831017 10100 20061 50002",
      "metarObsTime": 1773964440
    },
    "KPHL": {
      "status": "OK",
      "delay": "—",
      "metarCat": "VFR",
      "metarRaw": "METAR KPHL 192354Z 17005KT 10SM SCT080 08/M01 A3017 RMK AO2 SLP216 T00831011 10100 20072 58003 $",
      "metarObsTime": 1773964440
    },
    "KABE": {
      "status": "OK",
      "delay": "—",
      "metarCat": "—",
      "metarRaw": "METAR KABE 192351Z 00000KT 10SM 07/M01 A3015 RMK AO2 SLP212 T00721011 10089 20039 53002 $",
      "metarObsTime": 1773964260
    },
    "KAVP": {
      "status": "OK",
      "delay": "—",
      "metarCat": "VFR",
      "metarRaw": "METAR KAVP 192354Z 24004KT 10SM OVC055 07/M02 A3011 RMK AO2 SLP202 T00671017 10083 20039 53004",
      "metarObsTime": 1773964440
    },
    "KHZL": {
      "status": "OK",
      "delay": "—",
      "metarCat": "VFR",
      "metarRaw": "METAR KHZL 192335Z AUTO 00000KT 10SM BKN048 BKN060 OVC095 05/M01 RMK AO2",
      "metarObsTime": 1773963300
    }
  }
}