{
  "generatedAt": "2026-04-30T22:41:18.281Z",
  "faaFlow": {
    "updatedAt": "2026-04-30T22:41:17.448Z",
    "source": "https://www.fly.faa.gov/adv/adv_spt",
    "terminal": [],
    "enroute": [
      {
        "time": "—",
        "text": "UNTIL",
        "code": "FLOW",
        "label": "FAA flow impact",
        "level": "yellow",
        "section": "En Route Planned",
        "airports": []
      },
      {
        "time": "2300",
        "text": "TEXAS HOTLINE",
        "code": "FLOW",
        "label": "FAA flow impact",
        "level": "yellow",
        "section": "En Route Planned",
        "airports": []
      },
      {
        "time": "—",
        "text": "UNTIL",
        "code": "FLOW",
        "label": "FAA flow impact",
        "level": "yellow",
        "section": "En Route Planned",
        "airports": []
      },
      {
        "time": "0200",
        "text": "ZDC SWAP STATEMENT",
        "code": "ROUTE",
        "label": "Route impact possible",
        "level": "blue",
        "section": "En Route Planned",
        "airports": []
      },
      {
        "time": "—",
        "text": "UNTIL",
        "code": "FLOW",
        "label": "FAA flow impact",
        "level": "yellow",
        "section": "En Route Planned",
        "airports": []
      },
      {
        "time": "0200",
        "text": "ZHU SWAP STATEMENT",
        "code": "ROUTE",
        "label": "Route impact possible",
        "level": "blue",
        "section": "En Route Planned",
        "airports": []
      },
      {
        "time": "—",
        "text": "UNTIL",
        "code": "FLOW",
        "label": "FAA flow impact",
        "level": "yellow",
        "section": "En Route Planned",
        "airports": []
      },
      {
        "time": "0400",
        "text": "ZNY SWAP STATEMENT RUNWAY/EQUIPMENT/POSSIBLE SYSTEM IMPACT REPORTS(SIRs): DFW - TXY G CLOSURE UNTIL 4/30/26",
        "code": "CLOSURE",
        "label": "Closure possible",
        "level": "yellow",
        "section": "En Route Planned",
        "airports": []
      },
      {
        "time": "—",
        "text": "2026",
        "code": "FLOW",
        "label": "FAA flow impact",
        "level": "yellow",
        "section": "En Route Planned",
        "airports": []
      },
      {
        "time": "2026",
        "text": "SAN - CONSTRUCTION PHASE 5.2 UNTIL 05/26/26",
        "code": "FLOW",
        "label": "FAA flow impact",
        "level": "yellow",
        "section": "En Route Planned",
        "airports": []
      }
    ],
    "airports": {
      "KPIT": null,
      "KAGC": null,
      "KLBE": null,
      "KJST": null,
      "KERI": null,
      "KDUJ": null,
      "KBFD": null,
      "KBTP": null,
      "KFKL": null,
      "KIDI": null,
      "KMDT": null,
      "KCXY": null,
      "KMUI": null,
      "KUNV": null,
      "KAOO": null,
      "KLNS": null,
      "KIPT": null,
      "KPHL": null,
      "KABE": null,
      "KAVP": null,
      "KHZL": null
    }
  },
  "airports": {
    "KPIT": {
      "status": "OK",
      "delay": "—",
      "metarCat": "VFR",
      "metarRaw": "METAR KPIT 302151Z 29011KT 10SM FEW034 BKN050 09/02 A2993 RMK AO2 RAB18E32 SLP145 P0000 T00940017",
      "metarObsTime": 1777585860,
      "faaFlow": null
    },
    "KAGC": {
      "status": "OK",
      "delay": "—",
      "metarCat": "VFR",
      "metarRaw": "METAR KAGC 302153Z 31006KT 10SM FEW040 SCT055 BKN070 09/02 A2992 RMK AO2 SLP140 T00890017",
      "metarObsTime": 1777585980,
      "faaFlow": null
    },
    "KLBE": {
      "status": "OK",
      "delay": "—",
      "metarCat": "VFR",
      "metarRaw": "METAR KLBE 302153Z 29010KT 10SM FEW048 SCT055 10/03 A2995",
      "metarObsTime": 1777585980,
      "faaFlow": null
    },
    "KJST": {
      "status": "OK",
      "delay": "—",
      "metarCat": "VFR",
      "metarRaw": "METAR KJST 302154Z AUTO 28008KT 10SM OVC031 05/02 A2989 RMK AO2 SLP134 T00500022",
      "metarObsTime": 1777586040,
      "faaFlow": null
    },
    "KERI": {
      "status": "OK",
      "delay": "—",
      "metarCat": "VFR",
      "metarRaw": "METAR KERI 302151Z 24010G19KT 10SM BKN065 OVC080 10/04 A2992 RMK AO2 SLP136 T01000039",
      "metarObsTime": 1777585860,
      "faaFlow": null
    },
    "KDUJ": {
      "status": "OK",
      "delay": "—",
      "metarCat": "VFR",
      "metarRaw": "SPECI KDUJ 302223Z AUTO 29007KT 10SM FEW030 SCT044 OVC055 05/03 A2989 RMK AO2 RAE20 P0001 T00500028",
      "metarObsTime": 1777587780,
      "faaFlow": null
    },
    "KBFD": {
      "status": "OK",
      "delay": "—",
      "metarCat": "VFR",
      "metarRaw": "SPECI KBFD 302206Z AUTO 27007G15KT 10SM FEW022 SCT027 OVC047 05/02 A2987 RMK AO2 RAE02 P0000 T00500017",
      "metarObsTime": 1777586760,
      "faaFlow": null
    },
    "KBTP": {
      "status": "OK",
      "delay": "—",
      "metarCat": "VFR",
      "metarRaw": "METAR KBTP 302156Z AUTO 27009KT 10SM -RA BKN037 BKN047 OVC080 09/02 A2993 RMK AO2 RAB50 SLP146 P0000 T00940022 $",
      "metarObsTime": 1777586160,
      "faaFlow": null
    },
    "KFKL": {
      "status": "OK",
      "delay": "—",
      "metarCat": "VFR",
      "metarRaw": "METAR KFKL 302156Z AUTO 28008KT 10SM BKN033 BKN046 BKN060 09/02 A2992 RMK AO2 SLP138 T00940022",
      "metarObsTime": 1777586160,
      "faaFlow": null
    },
    "KIDI": {
      "status": "OK",
      "delay": "—",
      "metarCat": "VFR",
      "metarRaw": "METAR KIDI 302235Z AUTO 27008KT 10SM FEW035 SCT049 BKN065 09/03 A2992 RMK A01",
      "metarObsTime": 1777588500,
      "faaFlow": null
    },
    "KMDT": {
      "status": "OK",
      "delay": "—",
      "metarCat": "VFR",
      "metarRaw": "METAR KMDT 302156Z 31015KT 10SM BKN070 BKN095 13/07 A2982 RMK AO2 PK WND 30029/2100 SLP098 T01330067",
      "metarObsTime": 1777586160,
      "faaFlow": null
    },
    "KCXY": {
      "status": "OK",
      "delay": "—",
      "metarCat": "VFR",
      "metarRaw": "METAR KCXY 302156Z 31009KT 10SM FEW035 BKN065 OVC080 13/06 A2983 RMK AO2 PK WND 28026/2058 RAE03 SLP102 P0000 T01330056",
      "metarObsTime": 1777586160,
      "faaFlow": null
    },
    "KMUI": {
      "status": "OK",
      "delay": "—",
      "metarCat": "VFR",
      "metarRaw": "SPECI KMUI 302224Z 30010KT 10SM FEW035 SCT050 BKN080 14/09 A2981 RMK AO2A RAB13E24 SLP098",
      "metarObsTime": 1777587840,
      "faaFlow": null
    },
    "KUNV": {
      "status": "OK",
      "delay": "—",
      "metarCat": "VFR",
      "metarRaw": "METAR KUNV 302153Z 29010G15KT 10SM SCT029 OVC038 09/03 A2987",
      "metarObsTime": 1777585980,
      "faaFlow": null
    },
    "KAOO": {
      "status": "OK",
      "delay": "—",
      "metarCat": "VFR",
      "metarRaw": "SPECI KAOO 302205Z AUTO 30009G22KT 10SM SCT028 SCT034 OVC041 08/02 A2990 RMK AO2 T00780022",
      "metarObsTime": 1777586700,
      "faaFlow": null
    },
    "KLNS": {
      "status": "OK",
      "delay": "—",
      "metarCat": "VFR",
      "metarRaw": "METAR KLNS 302153Z 31019G29KT 10SM FEW035 SCT065 BKN100 14/07 A2980 RMK AO2 PK WND 30029/2148 SLP091 T01390067",
      "metarObsTime": 1777585980,
      "faaFlow": null
    },
    "KIPT": {
      "status": "OK",
      "delay": "—",
      "metarCat": "VFR",
      "metarRaw": "METAR KIPT 302154Z 29010KT 10SM BKN045 BKN055 OVC070 13/04 A2980 RMK AO2 RAE05 SLP091 P0000 T01280044",
      "metarObsTime": 1777586040,
      "faaFlow": null
    },
    "KPHL": {
      "status": "OK",
      "delay": "—",
      "metarCat": "VFR",
      "metarRaw": "METAR KPHL 302154Z 32008KT 10SM SCT050 BKN080 BKN100 18/06 A2976 RMK AO2 SLP078 T01830056 $",
      "metarObsTime": 1777586040,
      "faaFlow": null
    },
    "KABE": {
      "status": "OK",
      "delay": "—",
      "metarCat": "VFR",
      "metarRaw": "METAR KABE 302151Z 34007KT 10SM BKN090 OVC110 15/06 A2976 RMK AO2 SLP076 T01500056",
      "metarObsTime": 1777585860,
      "faaFlow": null
    },
    "KAVP": {
      "status": "OK",
      "delay": "—",
      "metarCat": "VFR",
      "metarRaw": "METAR KAVP 302154Z 35010KT 10SM SCT038 BKN046 OVC085 12/04 A2979 RMK AO2 SLP085 T01170039",
      "metarObsTime": 1777586040,
      "faaFlow": null
    },
    "KHZL": {
      "status": "OK",
      "delay": "—",
      "metarCat": "MVFR",
      "metarRaw": "METAR KHZL 302235Z AUTO 29004KT 4SM -RA SCT011 BKN027 OVC041 08/06 A2983 RMK AO2 P0004",
      "metarObsTime": 1777588500,
      "faaFlow": null
    }
  }
}