{
  "generatedAt": "2026-03-26T18:10:20.745Z",
  "airports": {
    "KPIT": {
      "status": "OK",
      "delay": "—",
      "metarCat": "VFR",
      "metarRaw": "METAR KPIT 261751Z 23015G33KT 10SM SCT050 SCT100 BKN250 24/09 A2981 RMK AO2 PK WND 22033/1745 SLP096 T02390089 10239 20144 58026",
      "metarObsTime": 1774547460
    },
    "KAGC": {
      "status": "OK",
      "delay": "—",
      "metarCat": "VFR",
      "metarRaw": "METAR KAGC 261753Z 23018G27KT 10SM FEW085 23/09 A2983 RMK AO2 PK WND 21027/1752 SLP099 T02280094 10239 20133 58025",
      "metarObsTime": 1774547580
    },
    "KLBE": {
      "status": "OK",
      "delay": "—",
      "metarCat": "VFR",
      "metarRaw": "METAR KLBE 261747Z 20018G24KT 10SM CLR 23/12 A2985",
      "metarObsTime": 1774547220
    },
    "KJST": {
      "status": "OK",
      "delay": "—",
      "metarCat": "VFR",
      "metarRaw": "METAR KJST 261754Z AUTO 22014G22KT 10SM SCT042 19/09 A2987 RMK AO2 PK WND 22026/1703 SLP110 T01890094 10194 20139 58016",
      "metarObsTime": 1774547640
    },
    "KERI": {
      "status": "OK",
      "delay": "—",
      "metarCat": "VFR",
      "metarRaw": "METAR KERI 261751Z 35011G16KT 10SM OVC049 16/08 A2975 RMK AO2 LTG DSNT ALQDS SLP075 T01610078 10211 20128 56028",
      "metarObsTime": 1774547460
    },
    "KDUJ": {
      "status": "OK",
      "delay": "—",
      "metarCat": "VFR",
      "metarRaw": "METAR KDUJ 261753Z AUTO 22012G24KT 10SM SCT048 BKN060 20/09 A2980 RMK AO2 PK WND 21028/1714 SLP087 T02000089 10217 20111 58018",
      "metarObsTime": 1774547580
    },
    "KBFD": {
      "status": "OK",
      "delay": "—",
      "metarCat": "VFR",
      "metarRaw": "METAR KBFD 261753Z AUTO 25008G19KT 190V270 10SM BKN050 19/08 A2978 RMK AO2 SLP079 T01940078 10206 20106 58019",
      "metarObsTime": 1774547580
    },
    "KBTP": {
      "status": "OK",
      "delay": "—",
      "metarCat": "VFR",
      "metarRaw": "METAR KBTP 261756Z AUTO 23015G23KT 10SM CLR 24/11 A2980 RMK AO2 SLP090 T02390111 10239 20139 58024 $",
      "metarObsTime": 1774547760
    },
    "KFKL": {
      "status": "OK",
      "delay": "—",
      "metarCat": "VFR",
      "metarRaw": "METAR KFKL 261756Z AUTO 22014G19KT 10SM BKN044 22/11 A2980 RMK AO2 SLP087 T02170111 10217 20122 58023",
      "metarObsTime": 1774547760
    },
    "KIDI": {
      "status": "OK",
      "delay": "—",
      "metarCat": "VFR",
      "metarRaw": "METAR KIDI 261755Z AUTO 21011G23KT 10SM FEW045 22/11 A2983 RMK A01",
      "metarObsTime": 1774547700
    },
    "KMDT": {
      "status": "OK",
      "delay": "—",
      "metarCat": "VFR",
      "metarRaw": "METAR KMDT 261756Z 16003KT 10SM FEW150 BKN250 23/07 A2985 RMK AO2 SLP108 T02280072 10228 20094 56035",
      "metarObsTime": 1774547760
    },
    "KCXY": {
      "status": "OK",
      "delay": "—",
      "metarCat": "VFR",
      "metarRaw": "METAR KCXY 261756Z VRB05KT 10SM CLR 24/08 A2985 RMK AO2 SLP108 T02440083 10244 20094 56036",
      "metarObsTime": 1774547760
    },
    "KMUI": {
      "status": "OK",
      "delay": "—",
      "metarCat": "VFR",
      "metarRaw": "METAR KMUI 261755Z 22010KT 10SM BKN150 24/07 A2984 RMK AO2A SLP107 T02360072 10236 20084 57033",
      "metarObsTime": 1774547700
    },
    "KUNV": {
      "status": "OK",
      "delay": "—",
      "metarCat": "VFR",
      "metarRaw": "METAR KUNV 261653Z 19012G18KT 10SM SCT060 22/07 A2986",
      "metarObsTime": 1774543980
    },
    "KAOO": {
      "status": "OK",
      "delay": "—",
      "metarCat": "VFR",
      "metarRaw": "METAR KAOO 261753Z AUTO 23016G30KT 10SM FEW050 SCT100 22/10 A2986 RMK AO2 PK WND 23030/1747 SLP108 T02170100 10233 20111 58020",
      "metarObsTime": 1774547580
    },
    "KLNS": {
      "status": "OK",
      "delay": "—",
      "metarCat": "VFR",
      "metarRaw": "METAR KLNS 261753Z 24011KT 10SM CLR 23/08 A2987 RMK AO2 SLP112 T02280083 10233 20078 56034",
      "metarObsTime": 1774547580
    },
    "KIPT": {
      "status": "OK",
      "delay": "—",
      "metarCat": "VFR",
      "metarRaw": "METAR KIPT 261754Z 00000KT 10SM CLR 23/06 A2977 RMK AO2 SLP081 T02280056 10233 20050 58038 $",
      "metarObsTime": 1774547640
    },
    "KPHL": {
      "status": "OK",
      "delay": "—",
      "metarCat": "VFR",
      "metarRaw": "METAR KPHL 261754Z 23018KT 10SM FEW090 SCT180 SCT280 24/07 A2990 RMK AO2 SLP124 T02390067 10239 20106 56029",
      "metarObsTime": 1774547640
    },
    "KABE": {
      "status": "OK",
      "delay": "—",
      "metarCat": "VFR",
      "metarRaw": "METAR KABE 261751Z 26013G21KT 10SM FEW065 22/07 A2987 RMK AO2 SLP114 T02220067 10222 20078 56023 $",
      "metarObsTime": 1774547460
    },
    "KAVP": {
      "status": "OK",
      "delay": "—",
      "metarCat": "VFR",
      "metarRaw": "METAR KAVP 261754Z 24010G23KT 10SM CLR 21/06 A2982 RMK AO2 PK WND 25027/1732 SLP093 T02110056 10217 20094 58025",
      "metarObsTime": 1774547640
    },
    "KHZL": {
      "status": "OK",
      "delay": "—",
      "metarCat": "VFR",
      "metarRaw": "METAR KHZL 261755Z AUTO 21005G16KT 10SM CLR 22/05 A2988 RMK AO2",
      "metarObsTime": 1774547700
    }
  }
}