{
  "generatedAt": "2026-03-22T02:50:19.073Z",
  "airports": {
    "KPIT": {
      "status": "OK",
      "delay": "—",
      "metarCat": "VFR",
      "metarRaw": "METAR KPIT 220151Z 19003KT 10SM FEW100 FEW250 12/02 A2984 RMK AO2 SLP114 T01220022 $",
      "metarObsTime": 1774144260
    },
    "KAGC": {
      "status": "OK",
      "delay": "—",
      "metarCat": "VFR",
      "metarRaw": "METAR KAGC 220153Z 17006KT 10SM CLR 14/02 A2984 RMK AO2 SLP111 T01390022",
      "metarObsTime": 1774144380
    },
    "KLBE": {
      "status": "OK",
      "delay": "—",
      "metarCat": "VFR",
      "metarRaw": "METAR KLBE 220235Z AUTO 00000KT 10SM CLR 10/04 A2986 RMK AO2",
      "metarObsTime": 1774146900
    },
    "KJST": {
      "status": "OK",
      "delay": "—",
      "metarCat": "VFR",
      "metarRaw": "METAR KJST 220154Z AUTO 19003KT 10SM SCT095 13/01 A2986 RMK AO2 SLP117 T01280011",
      "metarObsTime": 1774144440
    },
    "KERI": {
      "status": "OK",
      "delay": "—",
      "metarCat": "VFR",
      "metarRaw": "METAR KERI 220151Z 07003KT 9SM FEW110 03/01 A2976 RMK AO2 SLP085 T00280006",
      "metarObsTime": 1774144260
    },
    "KDUJ": {
      "status": "OK",
      "delay": "—",
      "metarCat": "VFR",
      "metarRaw": "METAR KDUJ 220153Z AUTO 00000KT 10SM OVC110 11/00 A2984 RMK AO2 SLP111 T01060000",
      "metarObsTime": 1774144380
    },
    "KBFD": {
      "status": "OK",
      "delay": "—",
      "metarCat": "VFR",
      "metarRaw": "METAR KBFD 220153Z AUTO 15006KT 10SM BKN075 OVC110 08/01 A2981 RMK AO2 SLP105 T00780011",
      "metarObsTime": 1774144380
    },
    "KBTP": {
      "status": "OK",
      "delay": "—",
      "metarCat": "VFR",
      "metarRaw": "METAR KBTP 220156Z AUTO 17007KT 10SM CLR 12/02 A2984 RMK AO2 SLP114 T01170017 $",
      "metarObsTime": 1774144560
    },
    "KFKL": {
      "status": "OK",
      "delay": "—",
      "metarCat": "VFR",
      "metarRaw": "METAR KFKL 220156Z AUTO 18008KT 10SM CLR 10/02 A2982 RMK AO2 SLP105 T01000017",
      "metarObsTime": 1774144560
    },
    "KIDI": {
      "status": "OK",
      "delay": "—",
      "metarCat": "VFR",
      "metarRaw": "METAR KIDI 220235Z AUTO 00000KT 10SM OVC120 11/03 A2984 RMK A01",
      "metarObsTime": 1774146900
    },
    "KMDT": {
      "status": "OK",
      "delay": "—",
      "metarCat": "VFR",
      "metarRaw": "METAR KMDT 220156Z 13008KT 10SM OVC120 10/04 A2991 RMK AO2 SLP130 T01000039",
      "metarObsTime": 1774144560
    },
    "KCXY": {
      "status": "OK",
      "delay": "—",
      "metarCat": "VFR",
      "metarRaw": "METAR KCXY 220156Z AUTO 12009KT 10SM BKN120 11/02 A2992 RMK AO2 SLP133 T01060022",
      "metarObsTime": 1774144560
    },
    "KMUI": {
      "status": "OK",
      "delay": "—",
      "metarCat": "VFR",
      "metarRaw": "METAR KMUI 220155Z AUTO 06005KT 10SM RA OVC130 09/03 A2993 RMK AO2 SLP139 P0000 T00940027",
      "metarObsTime": 1774144500
    },
    "KUNV": {
      "status": "OK",
      "delay": "—",
      "metarCat": "VFR",
      "metarRaw": "METAR KUNV 220235Z AUTO 00000KT 10SM BKN110 07/01 A2989 RMK AO2 T00650009",
      "metarObsTime": 1774146900
    },
    "KAOO": {
      "status": "OK",
      "delay": "—",
      "metarCat": "VFR",
      "metarRaw": "METAR KAOO 220153Z AUTO 13007KT 10SM OVC100 11/02 A2987 RMK AO2 SLP118 T01110022",
      "metarObsTime": 1774144380
    },
    "KLNS": {
      "status": "OK",
      "delay": "—",
      "metarCat": "VFR",
      "metarRaw": "METAR KLNS 220153Z 11005KT 10SM CLR 09/03 A2994 RMK AO2 SLP140 T00890033",
      "metarObsTime": 1774144380
    },
    "KIPT": {
      "status": "OK",
      "delay": "—",
      "metarCat": "VFR",
      "metarRaw": "METAR KIPT 220154Z 12009KT 10SM OVC110 06/00 A2992 RMK AO2 PRESFR SLP133 T00610000 $",
      "metarObsTime": 1774144440
    },
    "KPHL": {
      "status": "OK",
      "delay": "—",
      "metarCat": "VFR",
      "metarRaw": "METAR KPHL 220154Z 10003KT 10SM BKN140 BKN220 12/02 A2997 RMK AO2 SLP147 T01170017 $",
      "metarObsTime": 1774144440
    },
    "KABE": {
      "status": "OK",
      "delay": "—",
      "metarCat": "VFR",
      "metarRaw": "METAR KABE 220151Z 06005KT 10SM CLR 08/01 A2996 RMK AO2 SLP146 T00780006 $",
      "metarObsTime": 1774144260
    },
    "KAVP": {
      "status": "OK",
      "delay": "—",
      "metarCat": "VFR",
      "metarRaw": "METAR KAVP 220154Z 03005KT 10SM OVC110 03/00 A2995 RMK AO2 SLP145 T00330000",
      "metarObsTime": 1774144440
    },
    "KHZL": {
      "status": "OK",
      "delay": "—",
      "metarCat": "VFR",
      "metarRaw": "METAR KHZL 220235Z AUTO 00000KT 10SM OVC100 03/00 A2994 RMK AO2",
      "metarObsTime": 1774146900
    }
  }
}