{
  "generatedAt": "2026-03-14T08:30:14.756Z",
  "airports": {
    "KPIT": {
      "status": "OK",
      "delay": "—",
      "metarCat": "VFR",
      "metarRaw": "METAR KPIT 140751Z 27013G25KT 10SM FEW050 03/M06 A2991 RMK AO2 PK WND 27035/0723 SLP142 T00281061",
      "metarObsTime": 1773474660
    },
    "KAGC": {
      "status": "OK",
      "delay": "—",
      "metarCat": "VFR",
      "metarRaw": "METAR KAGC 140753Z 29009G26KT 10SM CLR 04/M06 A2991 RMK AO2 PK WND 29030/0713 SLP135 T00391056",
      "metarObsTime": 1773474780
    },
    "KLBE": {
      "status": "OK",
      "delay": "—",
      "metarCat": "VFR",
      "metarRaw": "METAR KLBE 140815Z AUTO 25013G21KT 10SM CLR 05/M05 A2992 RMK AO2",
      "metarObsTime": 1773476100
    },
    "KJST": {
      "status": "OK",
      "delay": "—",
      "metarCat": "VFR",
      "metarRaw": "METAR KJST 140754Z AUTO 27019G36KT 10SM FEW049 SCT060 02/M08 A2981 RMK AO2 PK WND 28045/0720 SLP102 T00221078 $",
      "metarObsTime": 1773474840
    },
    "KERI": {
      "status": "OK",
      "delay": "—",
      "metarCat": "VFR",
      "metarRaw": "METAR KERI 140751Z AUTO 26020G33KT 10SM OVC042 01/M06 A2987 RMK AO2 PK WND 26037/0709 SLP121 T00061056",
      "metarObsTime": 1773474660
    },
    "KDUJ": {
      "status": "OK",
      "delay": "—",
      "metarCat": "VFR",
      "metarRaw": "METAR KDUJ 140753Z AUTO 28020G34KT 10SM BKN049 OVC060 01/M08 A2980 RMK AO2 PK WND 27048/0716 SLP100 T00061083",
      "metarObsTime": 1773474780
    },
    "KBFD": {
      "status": "OK",
      "delay": "—",
      "metarCat": "MVFR",
      "metarRaw": "SPECI KBFD 140805Z AUTO 27018G32KT 8SM -SN OVC029 M02/M07 A2973 RMK AO2 PK WND 28032/0800 P0000 T10171072",
      "metarObsTime": 1773475500
    },
    "KBTP": {
      "status": "OK",
      "delay": "—",
      "metarCat": "VFR",
      "metarRaw": "METAR KBTP 140756Z AUTO 28017G30KT 10SM CLR 02/M08 A2990 RMK AO2 PK WND 27033/0717 SLP136 T00221078 FZRANO $",
      "metarObsTime": 1773474960
    },
    "KFKL": {
      "status": "OK",
      "delay": "—",
      "metarCat": "VFR",
      "metarRaw": "METAR KFKL 140756Z AUTO 27021G32KT 10SM BKN035 OVC045 A2986 RMK AO2 PK WND 27035/0708 RAB19E35 SLPNO P0000 FZRANO $",
      "metarObsTime": 1773474960
    },
    "KIDI": {
      "status": "OK",
      "delay": "—",
      "metarCat": "VFR",
      "metarRaw": "METAR KIDI 140815Z AUTO 26016G24KT 10SM SCT048 BKN055 03/M06 A2987 RMK A01",
      "metarObsTime": 1773476100
    },
    "KMDT": {
      "status": "OK",
      "delay": "—",
      "metarCat": "VFR",
      "metarRaw": "METAR KMDT 140756Z 28023G42KT 10SM CLR 11/M10 A2979 RMK AO2 PK WND 28042/0753 SLP088 T01061100 $",
      "metarObsTime": 1773474960
    },
    "KCXY": {
      "status": "OK",
      "delay": "—",
      "metarCat": "VFR",
      "metarRaw": "METAR KCXY 140756Z AUTO 27016G26KT 10SM CLR 10/M12 A2980 RMK AO2 PK WND 28036/0729 RAB12E42 SLP093 P0000 T01001122",
      "metarObsTime": 1773474960
    },
    "KMUI": {
      "status": "OK",
      "delay": "—",
      "metarCat": "—",
      "metarRaw": "—",
      "metarObsTime": null
    },
    "KUNV": {
      "status": "OK",
      "delay": "—",
      "metarCat": "VFR",
      "metarRaw": "METAR KUNV 140815Z AUTO 27017G25KT 10SM SCT065 SCT075 04/M08 A2980 RMK AO2 T00401081",
      "metarObsTime": 1773476100
    },
    "KAOO": {
      "status": "OK",
      "delay": "—",
      "metarCat": "VFR",
      "metarRaw": "METAR KAOO 140753Z AUTO 28018G32KT 10SM CLR 05/M08 A2982 RMK AO2 PK WND 26041/0654 SLP103 T00501083",
      "metarObsTime": 1773474780
    },
    "KLNS": {
      "status": "OK",
      "delay": "—",
      "metarCat": "VFR",
      "metarRaw": "METAR KLNS 140753Z AUTO 00000KT 10SM CLR 00/M02 A2980 RMK AO2 SLP093 T00001022",
      "metarObsTime": 1773474780
    },
    "KIPT": {
      "status": "OK",
      "delay": "—",
      "metarCat": "VFR",
      "metarRaw": "METAR KIPT 140754Z AUTO 34004KT 10SM CLR 01/M01 A2977 RMK AO2 SLP083 T00111011 $",
      "metarObsTime": 1773474840
    },
    "KPHL": {
      "status": "OK",
      "delay": "—",
      "metarCat": "VFR",
      "metarRaw": "METAR KPHL 140754Z 00000KT 10SM FEW110 03/00 A2981 RMK AO2 SLP095 T00330000 $",
      "metarObsTime": 1773474840
    },
    "KABE": {
      "status": "OK",
      "delay": "—",
      "metarCat": "—",
      "metarRaw": "METAR KABE 140751Z 00000KT 10SM M02/M03 A2979 RMK AO2 SLP091 T10171033 $",
      "metarObsTime": 1773474660
    },
    "KAVP": {
      "status": "OK",
      "delay": "—",
      "metarCat": "VFR",
      "metarRaw": "METAR KAVP 140754Z 20004KT 10SM FEW060 01/M01 A2974 RMK AO2 SLP075 I1000 T00061011",
      "metarObsTime": 1773474840
    },
    "KHZL": {
      "status": "OK",
      "delay": "—",
      "metarCat": "VFR",
      "metarRaw": "METAR KHZL 140815Z AUTO 00000KT 10SM CLR 00/M01 A2978 RMK AO2",
      "metarObsTime": 1773476100
    }
  }
}