{
  "generatedAt": "2026-04-07T03:20:36.673Z",
  "airports": {
    "KPIT": {
      "status": "OK",
      "delay": "—",
      "metarCat": "VFR",
      "metarRaw": "METAR KPIT 070251Z 30013G24KT 10SM FEW050 FEW080 07/M02 A3010 RMK AO2 SLP208 T00671017 53017",
      "metarObsTime": 1775530260
    },
    "KAGC": {
      "status": "OK",
      "delay": "—",
      "metarCat": "VFR",
      "metarRaw": "METAR KAGC 070253Z 30011G18KT 10SM SCT070 07/M01 A3009 RMK AO2 SLP199 60000 T00721011 51013",
      "metarObsTime": 1775530380
    },
    "KLBE": {
      "status": "OK",
      "delay": "—",
      "metarCat": "VFR",
      "metarRaw": "METAR KLBE 070315Z AUTO 21005KT 10SM FEW070 FEW090 05/03 A3011 RMK AO2",
      "metarObsTime": 1775531700
    },
    "KJST": {
      "status": "OK",
      "delay": "—",
      "metarCat": "MVFR",
      "metarRaw": "SPECI KJST 070303Z AUTO VRB03KT 6SM -RA BR FEW013 BKN019 OVC041 03/02 A3004 RMK AO2 RAB0256 P0001 T00280017",
      "metarObsTime": 1775530980
    },
    "KERI": {
      "status": "OK",
      "delay": "—",
      "metarCat": "VFR",
      "metarRaw": "METAR KERI 070251Z 22008KT 8SM FEW049 SCT080 OVC100 03/02 A3009 RMK AO2 RAE11 SLP194 P0000 60001 T00330017 50007 $",
      "metarObsTime": 1775530260
    },
    "KDUJ": {
      "status": "OK",
      "delay": "—",
      "metarCat": "MVFR",
      "metarRaw": "SPECI KDUJ 070313Z AUTO 26007KT 10SM BKN014 BKN090 02/01 A3004 RMK AO2 T00220011",
      "metarObsTime": 1775531580
    },
    "KBFD": {
      "status": "OK",
      "delay": "—",
      "metarCat": "MVFR",
      "metarRaw": "METAR KBFD 070253Z AUTO 27009KT 10SM SCT009 OVC014 01/00 A3001 RMK AO2 SNE03B25E34 SLP178 P0000 60008 T00060000 50006",
      "metarObsTime": 1775530380
    },
    "KBTP": {
      "status": "OK",
      "delay": "—",
      "metarCat": "VFR",
      "metarRaw": "METAR KBTP 070256Z AUTO 28008KT 10SM FEW045 SCT055 BKN070 05/01 A3011 RMK AO2 SLP210 60000 T00500006 52015 $",
      "metarObsTime": 1775530560
    },
    "KFKL": {
      "status": "OK",
      "delay": "—",
      "metarCat": "VFR",
      "metarRaw": "METAR KFKL 070256Z AUTO 30005KT 10SM FEW023 BKN037 OVC065 03/00 A3008 RMK AO2 RAE13 SLP200 P0000 60000 T00330000 51017",
      "metarObsTime": 1775530560
    },
    "KIDI": {
      "status": "OK",
      "delay": "—",
      "metarCat": "VFR",
      "metarRaw": "METAR KIDI 070315Z AUTO 26005KT 10SM FEW041 SCT048 BKN060 04/03 A3008 RMK A01",
      "metarObsTime": 1775531700
    },
    "KMDT": {
      "status": "OK",
      "delay": "—",
      "metarCat": "VFR",
      "metarRaw": "METAR KMDT 070256Z 30009KT 10SM FEW055 BKN070 BKN090 09/02 A3010 RMK AO2 SLP194 T00940017 51021",
      "metarObsTime": 1775530560
    },
    "KCXY": {
      "status": "OK",
      "delay": "—",
      "metarCat": "VFR",
      "metarRaw": "METAR KCXY 070256Z AUTO 27004KT 10SM SCT060 BKN080 08/01 A3011 RMK AO2 SLP197 T00830011 51020",
      "metarObsTime": 1775530560
    },
    "KMUI": {
      "status": "OK",
      "delay": "—",
      "metarCat": "VFR",
      "metarRaw": "SPECI KMUI 070305Z AUTO 28014G18KT 10SM -RA FEW005 SCT030 SCT046 BKN055 BKN065 OVC090 11/01 A3008 RMK AO2 RAB03 SLP190",
      "metarObsTime": 1775531100
    },
    "KUNV": {
      "status": "OK",
      "delay": "—",
      "metarCat": "VFR",
      "metarRaw": "METAR KUNV 070315Z AUTO 24007KT 10SM SCT095 04/00 A3005 RMK AO2 T00410003",
      "metarObsTime": 1775531700
    },
    "KAOO": {
      "status": "OK",
      "delay": "—",
      "metarCat": "VFR",
      "metarRaw": "METAR KAOO 070253Z AUTO 18004KT 10SM BKN065 BKN095 03/02 A3007 RMK AO2 SLPNO 60004 T00330017 50007",
      "metarObsTime": 1775530380
    },
    "KLNS": {
      "status": "OK",
      "delay": "—",
      "metarCat": "VFR",
      "metarRaw": "METAR KLNS 070253Z 27003KT 10SM FEW110 07/00 A3008 RMK AO2 SLP188 T00720000 50014",
      "metarObsTime": 1775530380
    },
    "KIPT": {
      "status": "OK",
      "delay": "—",
      "metarCat": "VFR",
      "metarRaw": "METAR KIPT 070254Z AUTO 26005KT 10SM BKN055 OVC090 07/M01 A3005 RMK AO2 SLP179 T00671006 50007",
      "metarObsTime": 1775530440
    },
    "KPHL": {
      "status": "OK",
      "delay": "—",
      "metarCat": "VFR",
      "metarRaw": "METAR KPHL 070254Z 18005KT 10SM BKN080 BKN100 12/01 A3010 RMK AO2 SLP191 T01220006 50010 $",
      "metarObsTime": 1775530440
    },
    "KABE": {
      "status": "OK",
      "delay": "—",
      "metarCat": "VFR",
      "metarRaw": "METAR KABE 070251Z 36003KT 10SM OVC090 05/M01 A3008 RMK AO2 SLP188 T00501006 50010 $",
      "metarObsTime": 1775530260
    },
    "KAVP": {
      "status": "OK",
      "delay": "—",
      "metarCat": "VFR",
      "metarRaw": "METAR KAVP 070254Z 11004KT 10SM OVC100 03/M02 A3005 RMK AO2 SLP182 T00281022 50006 $",
      "metarObsTime": 1775530440
    },
    "KHZL": {
      "status": "OK",
      "delay": "—",
      "metarCat": "VFR",
      "metarRaw": "METAR KHZL 070315Z AUTO 00000KT 10SM BKN041 OVC050 05/M01 A3007 RMK AO2",
      "metarObsTime": 1775531700
    }
  }
}