{
  "generatedAt": "2026-04-02T08:00:33.895Z",
  "airports": {
    "KPIT": {
      "status": "OK",
      "delay": "—",
      "metarCat": "LIFR",
      "metarRaw": "METAR KPIT 020751Z 35005KT 1/2SM R28R/2200V2600FT FG VV002 09/09 A3011 RMK AO2 SLP205 T00890089 $",
      "metarObsTime": 1775116260
    },
    "KAGC": {
      "status": "OK",
      "delay": "—",
      "metarCat": "LIFR",
      "metarRaw": "METAR KAGC 020753Z 36004KT 2 1/2SM BR OVC003 11/11 A3010 RMK AO2 SLP196 T01060106",
      "metarObsTime": 1775116380
    },
    "KLBE": {
      "status": "OK",
      "delay": "—",
      "metarCat": "VFR",
      "metarRaw": "METAR KLBE 020755Z AUTO 00000KT 9SM FEW100 11/11 A3012 RMK AO2",
      "metarObsTime": 1775116500
    },
    "KJST": {
      "status": "OK",
      "delay": "—",
      "metarCat": "LIFR",
      "metarRaw": "METAR KJST 020754Z AUTO 07006KT 5SM BR OVC002 09/08 A3014 RMK AO2 SLP204 T00890083",
      "metarObsTime": 1775116440
    },
    "KERI": {
      "status": "OK",
      "delay": "—",
      "metarCat": "IFR",
      "metarRaw": "METAR KERI 020751Z AUTO 06015KT 10SM OVC007 02/01 A3019 RMK AO2 SLP232 T00220011 $",
      "metarObsTime": 1775116260
    },
    "KDUJ": {
      "status": "OK",
      "delay": "—",
      "metarCat": "IFR",
      "metarRaw": "METAR KDUJ 020753Z AUTO 10009KT 9SM BKN009 OVC013 06/05 A3015 RMK AO2 CIG 008V012 SLP217 T00560050",
      "metarObsTime": 1775116380
    },
    "KBFD": {
      "status": "OK",
      "delay": "—",
      "metarCat": "IFR",
      "metarRaw": "METAR KBFD 020753Z AUTO 08006KT 7SM -RA OVC005 03/02 A3019 RMK AO2 RAB12 SLP235 P0000 T00280022",
      "metarObsTime": 1775116380
    },
    "KBTP": {
      "status": "OK",
      "delay": "—",
      "metarCat": "LIFR",
      "metarRaw": "METAR KBTP 020756Z AUTO 03003KT 7SM OVC004 09/ A3013 RMK AO2 SLP212 T0094 $",
      "metarObsTime": 1775116560
    },
    "KFKL": {
      "status": "OK",
      "delay": "—",
      "metarCat": "LIFR",
      "metarRaw": "METAR KFKL 020756Z AUTO 07006KT 10SM OVC003 06/06 A3016 RMK AO2 RAE09 SLP221 P0000 T00610061",
      "metarObsTime": 1775116560
    },
    "KIDI": {
      "status": "OK",
      "delay": "—",
      "metarCat": "MVFR",
      "metarRaw": "METAR KIDI 020755Z AUTO 09009KT 10SM OVC019 11/09 A3014 RMK A01",
      "metarObsTime": 1775116500
    },
    "KMDT": {
      "status": "OK",
      "delay": "—",
      "metarCat": "MVFR",
      "metarRaw": "METAR KMDT 020756Z 09006KT 10SM OVC012 12/10 A3020 RMK AO2 RAE02 SLP227 P0000 T01170100 $",
      "metarObsTime": 1775116560
    },
    "KCXY": {
      "status": "OK",
      "delay": "—",
      "metarCat": "MVFR",
      "metarRaw": "METAR KCXY 020756Z AUTO 08004KT 10SM OVC012 12/10 A3021 RMK AO2 SLP230 T01170100",
      "metarObsTime": 1775116560
    },
    "KMUI": {
      "status": "OK",
      "delay": "—",
      "metarCat": "MVFR",
      "metarRaw": "SPECI KMUI 020751Z AUTO 07006KT 10SM OVC014 12/11 A3020 RMK AO2 SLP228",
      "metarObsTime": 1775116260
    },
    "KUNV": {
      "status": "OK",
      "delay": "—",
      "metarCat": "MVFR",
      "metarRaw": "METAR KUNV 020755Z AUTO 03004KT 10SM OVC010 06/05 A3021 RMK AO2 T00550053",
      "metarObsTime": 1775116500
    },
    "KAOO": {
      "status": "OK",
      "delay": "—",
      "metarCat": "IFR",
      "metarRaw": "METAR KAOO 020753Z AUTO 04004KT 10SM OVC009 08/07 A3020 RMK AO2 SLP225 T00830067",
      "metarObsTime": 1775116380
    },
    "KLNS": {
      "status": "OK",
      "delay": "—",
      "metarCat": "MVFR",
      "metarRaw": "METAR KLNS 020753Z AUTO 08011G19KT 10SM OVC015 12/11 A3021 RMK AO2 RAE0658 SLP230 P0000 T01220106",
      "metarObsTime": 1775116380
    },
    "KIPT": {
      "status": "OK",
      "delay": "—",
      "metarCat": "MVFR",
      "metarRaw": "METAR KIPT 020754Z AUTO 00000KT 10SM OVC029 06/05 A3023 RMK AO2 RAE12 SLP237 P0001 T00610050 $",
      "metarObsTime": 1775116440
    },
    "KPHL": {
      "status": "OK",
      "delay": "—",
      "metarCat": "MVFR",
      "metarRaw": "METAR KPHL 020754Z 07013KT 8SM OVC010 10/08 A3025 RMK AO2 SLP244 T01000083 $",
      "metarObsTime": 1775116440
    },
    "KABE": {
      "status": "OK",
      "delay": "—",
      "metarCat": "MVFR",
      "metarRaw": "METAR KABE 020751Z 04008KT 9SM -RA BKN010 OVC015 08/07 A3028 RMK AO2 CIG 006V012 SLP252 P0008 T00780067 $",
      "metarObsTime": 1775116260
    },
    "KAVP": {
      "status": "OK",
      "delay": "—",
      "metarCat": "MVFR",
      "metarRaw": "METAR KAVP 020754Z AUTO 02005KT 10SM OVC014 07/06 A3025 RMK AO2 RAE54 SLP244 P0009 T00670061",
      "metarObsTime": 1775116440
    },
    "KHZL": {
      "status": "OK",
      "delay": "—",
      "metarCat": "IFR",
      "metarRaw": "METAR KHZL 020755Z AUTO 11005KT 10SM OVC008 07/05 A3025 RMK AO2",
      "metarObsTime": 1775116500
    }
  }
}