{
  "generatedAt": "2026-04-18T15:30:50.472Z",
  "airports": {
    "KPIT": {
      "status": "OK",
      "delay": "—",
      "metarCat": "VFR",
      "metarRaw": "METAR KPIT 181451Z 18009G16KT 10SM FEW120 OVC200 23/10 A2983 RMK AO2 SLP102 T02280100 58013",
      "metarObsTime": 1776523860
    },
    "KAGC": {
      "status": "OK",
      "delay": "—",
      "metarCat": "VFR",
      "metarRaw": "METAR KAGC 181453Z 19014G19KT 10SM FEW075 22/09 A2985 RMK AO2 SLP105 T02220094 58010",
      "metarObsTime": 1776523980
    },
    "KLBE": {
      "status": "OK",
      "delay": "—",
      "metarCat": "VFR",
      "metarRaw": "METAR KLBE 181457Z 20005KT 10SM BKN150 25/10 A2986",
      "metarObsTime": 1776524220
    },
    "KJST": {
      "status": "OK",
      "delay": "—",
      "metarCat": "VFR",
      "metarRaw": "METAR KJST 181454Z AUTO 20012G22KT 10SM CLR 21/09 A2994 RMK AO2 SLP126 T02110089 58008",
      "metarObsTime": 1776524040
    },
    "KERI": {
      "status": "OK",
      "delay": "—",
      "metarCat": "VFR",
      "metarRaw": "METAR KERI 181451Z 18019G27KT 10SM CLR 24/09 A2971 RMK AO2 PK WND 18030/1431 SLP058 T02440094 58019 $",
      "metarObsTime": 1776523860
    },
    "KDUJ": {
      "status": "OK",
      "delay": "—",
      "metarCat": "VFR",
      "metarRaw": "METAR KDUJ 181453Z AUTO 17007KT 10SM CLR 21/10 A2988 RMK AO2 SLP108 T02110100 58010",
      "metarObsTime": 1776523980
    },
    "KBFD": {
      "status": "OK",
      "delay": "—",
      "metarCat": "VFR",
      "metarRaw": "METAR KBFD 181453Z AUTO 17008G19KT 10SM CLR 21/09 A2988 RMK AO2 SLP107 T02060094 58010",
      "metarObsTime": 1776523980
    },
    "KBTP": {
      "status": "OK",
      "delay": "—",
      "metarCat": "VFR",
      "metarRaw": "METAR KBTP 181456Z AUTO 17008KT 10SM CLR 22/11 A2985 RMK AO2 SLP105 6//// T02220111 58014 PNO $",
      "metarObsTime": 1776524160
    },
    "KFKL": {
      "status": "OK",
      "delay": "—",
      "metarCat": "—",
      "metarRaw": "—",
      "metarObsTime": null
    },
    "KIDI": {
      "status": "OK",
      "delay": "—",
      "metarCat": "VFR",
      "metarRaw": "METAR KIDI 181515Z AUTO 19009G17KT 10SM FEW070 25/10 A2988 RMK A01",
      "metarObsTime": 1776525300
    },
    "KMDT": {
      "status": "OK",
      "delay": "—",
      "metarCat": "MVFR",
      "metarRaw": "METAR KMDT 181456Z 12012KT 7SM OVC011 17/14 A3000 RMK AO2 SLP158 T01670139 58005",
      "metarObsTime": 1776524160
    },
    "KCXY": {
      "status": "OK",
      "delay": "—",
      "metarCat": "MVFR",
      "metarRaw": "METAR KCXY 181456Z 10009KT 10SM OVC011 17/14 A3000 RMK AO2 SLP160 T01670139 58005 $",
      "metarObsTime": 1776524160
    },
    "KMUI": {
      "status": "OK",
      "delay": "—",
      "metarCat": "IFR",
      "metarRaw": "METAR KMUI 181455Z AUTO 08006KT 10SM OVC007 16/15 A3000 RMK AO2 SLP161 T01570154 58004",
      "metarObsTime": 1776524100
    },
    "KUNV": {
      "status": "OK",
      "delay": "—",
      "metarCat": "VFR",
      "metarRaw": "METAR KUNV 181453Z 18010KT 10SM SCT040 21/12 A2996",
      "metarObsTime": 1776523980
    },
    "KAOO": {
      "status": "OK",
      "delay": "—",
      "metarCat": "VFR",
      "metarRaw": "METAR KAOO 181453Z AUTO 17014G19KT 10SM CLR 22/11 A2995 RMK AO2 SLP134 T02220111 58010",
      "metarObsTime": 1776523980
    },
    "KLNS": {
      "status": "OK",
      "delay": "—",
      "metarCat": "IFR",
      "metarRaw": "METAR KLNS 181453Z 11008KT 8SM OVC009 16/14 A3002 RMK AO2 SLP165 T01610144 58001",
      "metarObsTime": 1776523980
    },
    "KIPT": {
      "status": "OK",
      "delay": "—",
      "metarCat": "VFR",
      "metarRaw": "METAR KIPT 181454Z 17008G30KT 120V230 10SM CLR 19/13 A2996 RMK AO2 PK WND 14030/1449 SLP143 T01890133 56010 $",
      "metarObsTime": 1776524040
    },
    "KPHL": {
      "status": "OK",
      "delay": "—",
      "metarCat": "VFR",
      "metarRaw": "METAR KPHL 181454Z VRB05KT 10SM SCT022 SCT300 18/12 A3005 RMK AO2 SLP176 T01830122 58000 $",
      "metarObsTime": 1776524040
    },
    "KABE": {
      "status": "OK",
      "delay": "—",
      "metarCat": "VFR",
      "metarRaw": "METAR KABE 181451Z 13010G16KT 10SM CLR 18/11 A3004 RMK AO2 SLP171 T01830106 58005 $",
      "metarObsTime": 1776523860
    },
    "KAVP": {
      "status": "OK",
      "delay": "—",
      "metarCat": "VFR",
      "metarRaw": "METAR KAVP 181454Z 14006KT 10SM CLR 22/09 A2999 RMK AO2 SLP150 T02170089 58010",
      "metarObsTime": 1776524040
    },
    "KHZL": {
      "status": "OK",
      "delay": "—",
      "metarCat": "VFR",
      "metarRaw": "METAR KHZL 181515Z AUTO 13009G17KT 090V160 10SM CLR 19/10 A3004 RMK AO2",
      "metarObsTime": 1776525300
    }
  }
}