{
  "generatedAt": "2026-04-16T04:10:48.778Z",
  "airports": {
    "KPIT": {
      "status": "OK",
      "delay": "—",
      "metarCat": "VFR",
      "metarRaw": "METAR KPIT 160351Z 21004KT 10SM SCT070 BKN080 23/14 A2993 RMK AO2 SLP132 T02330144 $",
      "metarObsTime": 1776311460
    },
    "KAGC": {
      "status": "OK",
      "delay": "—",
      "metarCat": "VFR",
      "metarRaw": "METAR KAGC 160353Z 22007KT 10SM CLR 23/13 A2993 RMK AO2 SLP130 T02330133",
      "metarObsTime": 1776311580
    },
    "KLBE": {
      "status": "OK",
      "delay": "—",
      "metarCat": "VFR",
      "metarRaw": "METAR KLBE 160355Z AUTO 20004KT 10SM CLR 20/15 A2995 RMK AO2",
      "metarObsTime": 1776311700
    },
    "KJST": {
      "status": "OK",
      "delay": "—",
      "metarCat": "VFR",
      "metarRaw": "METAR KJST 160354Z AUTO 22006KT 10SM CLR 21/12 A2998 RMK AO2 SLP138 T02060117",
      "metarObsTime": 1776311640
    },
    "KERI": {
      "status": "OK",
      "delay": "—",
      "metarCat": "VFR",
      "metarRaw": "METAR KERI 160351Z AUTO 22006KT 10SM OVC060 19/16 A2988 RMK AO2 SLP116 T01890161 $",
      "metarObsTime": 1776311460
    },
    "KDUJ": {
      "status": "OK",
      "delay": "—",
      "metarCat": "IFR",
      "metarRaw": "METAR KDUJ 160353Z AUTO 00000KT 1 1/4SM BR BKN055 16/16 A2995 RMK AO2 SLP134 T01560156",
      "metarObsTime": 1776311580
    },
    "KBFD": {
      "status": "OK",
      "delay": "—",
      "metarCat": "VFR",
      "metarRaw": "METAR KBFD 160353Z AUTO 24003KT 10SM FEW029 SCT037 BKN046 17/16 A2995 RMK AO2 RAE19 SLP128 P0003 T01670156",
      "metarObsTime": 1776311580
    },
    "KBTP": {
      "status": "OK",
      "delay": "—",
      "metarCat": "VFR",
      "metarRaw": "METAR KBTP 160356Z AUTO 03003KT 10SM -RA BKN055 OVC095 19/18 A2995 RMK AO2 RAB48 SLP139 T01890183 402780156 PNO $",
      "metarObsTime": 1776311760
    },
    "KFKL": {
      "status": "OK",
      "delay": "—",
      "metarCat": "—",
      "metarRaw": "—",
      "metarObsTime": null
    },
    "KIDI": {
      "status": "OK",
      "delay": "—",
      "metarCat": "VFR",
      "metarRaw": "METAR KIDI 160355Z AUTO 22005KT 10SM BKN065 21/15 A2995 RMK A01",
      "metarObsTime": 1776311700
    },
    "KMDT": {
      "status": "OK",
      "delay": "—",
      "metarCat": "VFR",
      "metarRaw": "METAR KMDT 160356Z 00000KT 10SM BKN220 24/14 A2988 RMK AO2 SLP117 T02390139",
      "metarObsTime": 1776311760
    },
    "KCXY": {
      "status": "OK",
      "delay": "—",
      "metarCat": "VFR",
      "metarRaw": "METAR KCXY 160356Z AUTO 28003KT 10SM CLR 23/14 A2989 RMK AO2 SLP119 T02330139 $",
      "metarObsTime": 1776311760
    },
    "KMUI": {
      "status": "OK",
      "delay": "—",
      "metarCat": "VFR",
      "metarRaw": "METAR KMUI 160355Z AUTO 00000KT 10SM FEW210 20/17 A2988 RMK AO2 SLP118 T02010169",
      "metarObsTime": 1776311700
    },
    "KUNV": {
      "status": "OK",
      "delay": "—",
      "metarCat": "VFR",
      "metarRaw": "METAR KUNV 160355Z AUTO 00000KT 10SM CLR 19/14 A2994 RMK AO2 T01940140",
      "metarObsTime": 1776311700
    },
    "KAOO": {
      "status": "OK",
      "delay": "—",
      "metarCat": "VFR",
      "metarRaw": "METAR KAOO 160353Z AUTO 23009KT 10SM CLR 23/12 A2995 RMK AO2 SLP128 T02330122",
      "metarObsTime": 1776311580
    },
    "KLNS": {
      "status": "OK",
      "delay": "—",
      "metarCat": "VFR",
      "metarRaw": "METAR KLNS 160353Z AUTO 25005KT 10SM CLR 23/15 A2990 RMK AO2 SLP122 T02330150",
      "metarObsTime": 1776311580
    },
    "KIPT": {
      "status": "OK",
      "delay": "—",
      "metarCat": "VFR",
      "metarRaw": "METAR KIPT 160354Z AUTO 28004KT 10SM FEW090 SCT110 18/17 A2991 RMK AO2 RAE53 TSE04 SLP124 P0006 T01830172 $",
      "metarObsTime": 1776311640
    },
    "KPHL": {
      "status": "OK",
      "delay": "—",
      "metarCat": "VFR",
      "metarRaw": "METAR KPHL 160354Z 22006KT 10SM SCT190 BKN250 24/15 A2990 RMK AO2 SLP123 T02440150 $",
      "metarObsTime": 1776311640
    },
    "KABE": {
      "status": "OK",
      "delay": "—",
      "metarCat": "VFR",
      "metarRaw": "METAR KABE 160351Z 19003KT 10SM CLR 22/14 A2989 RMK AO2 SLP118 T02220144",
      "metarObsTime": 1776311460
    },
    "KAVP": {
      "status": "OK",
      "delay": "—",
      "metarCat": "MVFR",
      "metarRaw": "SPECI KAVP 160356Z 26007G22KT 180V310 3SM TSRA FEW014 SCT055 OVC070 18/16 A2998 RMK AO2 LTG DSNT ALQDS P0001 T01830156",
      "metarObsTime": 1776311760
    },
    "KHZL": {
      "status": "OK",
      "delay": "—",
      "metarCat": "VFR",
      "metarRaw": "METAR KHZL 160355Z AUTO 31013G24KT 260V330 10SM SCT042 SCT055 OVC075 23/13 A3000 RMK AO2 LTG DSNT N AND NW",
      "metarObsTime": 1776311700
    }
  }
}