{
  "generatedAt": "2026-03-14T02:20:19.790Z",
  "airports": {
    "KPIT": {
      "status": "OK",
      "delay": "—",
      "metarCat": "VFR",
      "metarRaw": "METAR KPIT 140151Z 27014G31KT 10SM FEW060 09/M12 A2973 RMK AO2 PK WND 27036/0052 SLP082 T00941117",
      "metarObsTime": 1773453060
    },
    "KAGC": {
      "status": "OK",
      "delay": "—",
      "metarCat": "VFR",
      "metarRaw": "METAR KAGC 140153Z 26019G32KT 10SM CLR 09/M13 A2973 RMK AO2 PK WND 28035/0118 SLP078 T00941128",
      "metarObsTime": 1773453180
    },
    "KLBE": {
      "status": "OK",
      "delay": "—",
      "metarCat": "VFR",
      "metarRaw": "METAR KLBE 140215Z AUTO 23017G32KT 10SM CLR 11/M12 A2976 RMK AO2",
      "metarObsTime": 1773454500
    },
    "KJST": {
      "status": "OK",
      "delay": "—",
      "metarCat": "VFR",
      "metarRaw": "METAR KJST 140154Z AUTO 27022G47KT 10SM CLR 08/M16 A2969 RMK AO2 PK WND 26049/0127 SLP068 T00781161 $",
      "metarObsTime": 1773453240
    },
    "KERI": {
      "status": "OK",
      "delay": "—",
      "metarCat": "VFR",
      "metarRaw": "METAR KERI 140151Z 25017G26KT 10SM FEW049 BKN060 OVC080 04/M02 A2967 RMK AO2 PK WND 25041/0103 SLP053 T00391017",
      "metarObsTime": 1773453060
    },
    "KDUJ": {
      "status": "OK",
      "delay": "—",
      "metarCat": "VFR",
      "metarRaw": "METAR KDUJ 140153Z AUTO 27005KT 10SM OVC070 01/M02 A2968 RMK AO2 SLP066 T00111017",
      "metarObsTime": 1773453180
    },
    "KBFD": {
      "status": "OK",
      "delay": "—",
      "metarCat": "VFR",
      "metarRaw": "SPECI KBFD 140212Z AUTO 26008G27KT 7SM -SN FEW022 BKN035 OVC080 01/M03 A2963 RMK AO2 PK WND 24031/0201 SNB0157 P0000 T00061028",
      "metarObsTime": 1773454320
    },
    "KBTP": {
      "status": "OK",
      "delay": "—",
      "metarCat": "VFR",
      "metarRaw": "METAR KBTP 140156Z AUTO 27015G25KT 10SM CLR 07/M08 A2973 RMK AO2 PK WND 26026/0140 SLP081 T00721083 $",
      "metarObsTime": 1773453360
    },
    "KFKL": {
      "status": "OK",
      "delay": "—",
      "metarCat": "VFR",
      "metarRaw": "METAR KFKL 140156Z AUTO 28007KT 10SM BKN065 OVC080 A2969 RMK AO2 SLPNO FZRANO $",
      "metarObsTime": 1773453360
    },
    "KIDI": {
      "status": "OK",
      "delay": "—",
      "metarCat": "VFR",
      "metarRaw": "METAR KIDI 140215Z AUTO 30007KT 270V340 10SM CLR 04/M02 A2973 RMK A01",
      "metarObsTime": 1773454500
    },
    "KMDT": {
      "status": "OK",
      "delay": "—",
      "metarCat": "VFR",
      "metarRaw": "METAR KMDT 140156Z 15009KT 10SM FEW080 BKN110 07/01 A2970 RMK AO2 SLP059 T00720011 $",
      "metarObsTime": 1773453360
    },
    "KCXY": {
      "status": "OK",
      "delay": "—",
      "metarCat": "VFR",
      "metarRaw": "METAR KCXY 140156Z AUTO 04008KT 10SM FEW060 FEW075 SCT110 07/M01 A2971 RMK AO2 SLP063 T00721011",
      "metarObsTime": 1773453360
    },
    "KMUI": {
      "status": "OK",
      "delay": "—",
      "metarCat": "VFR",
      "metarRaw": "METAR KMUI 140155Z 11005KT 10SM BKN075 OVC090 07/01 A2970 RMK AO2A RAB18E28 SLP064 T00700009",
      "metarObsTime": 1773453300
    },
    "KUNV": {
      "status": "OK",
      "delay": "—",
      "metarCat": "VFR",
      "metarRaw": "METAR KUNV 140215Z AUTO 29008G15KT 10SM CLR 05/M01 A2973 RMK AO2 T00471015",
      "metarObsTime": 1773454500
    },
    "KAOO": {
      "status": "OK",
      "delay": "—",
      "metarCat": "VFR",
      "metarRaw": "METAR KAOO 140153Z AUTO 28023G38KT 10SM CLR 10/M17 A2970 RMK AO2 PK WND 28046/0107 SLP065 T01001167",
      "metarObsTime": 1773453180
    },
    "KLNS": {
      "status": "OK",
      "delay": "—",
      "metarCat": "VFR",
      "metarRaw": "METAR KLNS 140153Z VRB03KT 10SM SCT090 BKN110 07/M01 A2974 RMK AO2 SLP074 T00671006",
      "metarObsTime": 1773453180
    },
    "KIPT": {
      "status": "OK",
      "delay": "—",
      "metarCat": "VFR",
      "metarRaw": "METAR KIPT 140154Z 00000KT 10SM FEW025 SCT032 BKN040 04/02 A2974 RMK AO2 RAE15 SLP076 P0005 T00390022 $",
      "metarObsTime": 1773453240
    },
    "KPHL": {
      "status": "OK",
      "delay": "—",
      "metarCat": "VFR",
      "metarRaw": "METAR KPHL 140154Z 15006KT 10SM FEW250 06/00 A2978 RMK AO2 SLP083 T00560000 $",
      "metarObsTime": 1773453240
    },
    "KABE": {
      "status": "OK",
      "delay": "—",
      "metarCat": "VFR",
      "metarRaw": "METAR KABE 140151Z 00000KT 10SM SCT065 BKN080 BKN090 04/M03 A2978 RMK AO2 SLP088 T00441028",
      "metarObsTime": 1773453060
    },
    "KAVP": {
      "status": "OK",
      "delay": "—",
      "metarCat": "MVFR",
      "metarRaw": "SPECI KAVP 140204Z 20006KT 4SM -SN BR BKN013 OVC032 02/00 A2976 RMK AO2 RAE04SNB04 P0001 T00220000",
      "metarObsTime": 1773453840
    },
    "KHZL": {
      "status": "OK",
      "delay": "—",
      "metarCat": "MVFR",
      "metarRaw": "METAR KHZL 140215Z AUTO 00000KT 4SM -SN SCT007 OVC014 01/00 A2978 RMK AO2 P0001",
      "metarObsTime": 1773454500
    }
  }
}