{
  "generatedAt": "2026-03-17T22:30:17.509Z",
  "airports": {
    "KPIT": {
      "status": "OK",
      "delay": "—",
      "metarCat": "LIFR",
      "metarRaw": "SPECI KPIT 172210Z 31021G29KT 3/4SM R28R/2200VP6000FT -SN FEW009 OVC020 M05/M11 A3010 RMK AO2 PK WND 30029/2210 P0000 T10501106",
      "metarObsTime": 1773785400
    },
    "KAGC": {
      "status": "OK",
      "delay": "—",
      "metarCat": "VFR",
      "metarRaw": "SPECI KAGC 172212Z 28011G24KT 6SM -SN FEW026 FEW030 BKN038 M05/M10 A3008 RMK AO2 SNB04 P0000 T10501100",
      "metarObsTime": 1773785520
    },
    "KLBE": {
      "status": "OK",
      "delay": "—",
      "metarCat": "MVFR",
      "metarRaw": "METAR KLBE 172147Z 27010KT 3SM -SN BR SCT024 BKN041 BKN080 M04/M08 A3008",
      "metarObsTime": 1773784020
    },
    "KJST": {
      "status": "OK",
      "delay": "—",
      "metarCat": "LIFR",
      "metarRaw": "SPECI KJST 172223Z AUTO 29017G29KT 1/2SM -SN FZFG FEW012 BKN019 OVC036 M08/M10 A2997 RMK AO2 PK WND 30029/2222 P0000 T10831100",
      "metarObsTime": 1773786180
    },
    "KERI": {
      "status": "OK",
      "delay": "—",
      "metarCat": "LIFR",
      "metarRaw": "SPECI KERI 172225Z 28012G22KT 1/2SM R06/4000VP6000FT SN BKN016 BKN020 OVC034 M06/M09 A3012 RMK AO2 PK WND 27026/2157 SNB10 P0000 T10611089",
      "metarObsTime": 1773786300
    },
    "KDUJ": {
      "status": "OK",
      "delay": "—",
      "metarCat": "IFR",
      "metarRaw": "SPECI KDUJ 172225Z AUTO 28012G21KT 1 1/4SM -SN BKN019 BKN034 BKN048 M08/M11 A3000 RMK AO2 PK WND 28028/2209 VIS 1/2V5 SNB09 P0000 T10781111",
      "metarObsTime": 1773786300
    },
    "KBFD": {
      "status": "OK",
      "delay": "—",
      "metarCat": "MVFR",
      "metarRaw": "SPECI KBFD 172215Z AUTO 28010G20KT 3SM -SN SCT031 BKN038 OVC060 M08/M13 A2995 RMK AO2 P0000 T10831133",
      "metarObsTime": 1773785700
    },
    "KBTP": {
      "status": "OK",
      "delay": "—",
      "metarCat": "VFR",
      "metarRaw": "METAR KBTP 172156Z AUTO 28014G20KT 10SM FEW030 SCT041 BKN060 M04/M12 A3008 RMK AO2 PK WND 27026/2110 SNB12E23 SLPNO P0000 T10441122 FZRANO $",
      "metarObsTime": 1773784560
    },
    "KFKL": {
      "status": "OK",
      "delay": "—",
      "metarCat": "LIFR",
      "metarRaw": "SPECI KFKL 172226Z AUTO 29008G21KT 1/2SM SN FEW004 BKN011 OVC026 M07/M10 A3007 RMK AO2 P0000 FZRANO",
      "metarObsTime": 1773786360
    },
    "KIDI": {
      "status": "OK",
      "delay": "—",
      "metarCat": "VFR",
      "metarRaw": "METAR KIDI 172215Z AUTO 28017KT 10SM FEW037 SCT060 SCT070 M05/M11 A3006 RMK A01",
      "metarObsTime": 1773785700
    },
    "KMDT": {
      "status": "OK",
      "delay": "—",
      "metarCat": "VFR",
      "metarRaw": "SPECI KMDT 172221Z 31014G24KT 10SM BKN060 BKN070 01/M11 A3004 RMK AO2 PK WND 29026/2207 WSHFT 2201 T00061106",
      "metarObsTime": 1773786060
    },
    "KCXY": {
      "status": "OK",
      "delay": "—",
      "metarCat": "VFR",
      "metarRaw": "SPECI KCXY 172212Z 31015G23KT 10SM BKN065 OVC080 00/M11 A3004 RMK AO2 WSHFT 2152 T00001106",
      "metarObsTime": 1773785520
    },
    "KMUI": {
      "status": "OK",
      "delay": "—",
      "metarCat": "VFR",
      "metarRaw": "METAR KMUI 172155Z 28015G27KT 10SM SCT035 BKN080 01/M11 A2999 RMK AO2A PK WND 28027/52 SLP164 T00131112",
      "metarObsTime": 1773784500
    },
    "KUNV": {
      "status": "OK",
      "delay": "—",
      "metarCat": "MVFR",
      "metarRaw": "SPECI KUNV 172221Z 28015G20KT 5SM -SN SCT010 BKN020 BKN028 M05/M09 A3003",
      "metarObsTime": 1773786060
    },
    "KAOO": {
      "status": "OK",
      "delay": "—",
      "metarCat": "VFR",
      "metarRaw": "SPECI KAOO 172211Z AUTO 29015G22KT 9SM SCT029 BKN049 OVC075 M04/M13 A3001 RMK AO2 SNE11 P0000 T10391128",
      "metarObsTime": 1773785460
    },
    "KLNS": {
      "status": "OK",
      "delay": "—",
      "metarCat": "VFR",
      "metarRaw": "METAR KLNS 172153Z 29015G21KT 10SM SCT070 BKN085 01/M12 A3000 RMK AO2 SLP162 T00111117",
      "metarObsTime": 1773784380
    },
    "KIPT": {
      "status": "OK",
      "delay": "—",
      "metarCat": "VFR",
      "metarRaw": "METAR KIPT 172154Z 28013G23KT 10SM FEW037 BKN049 BKN060 M01/M09 A3000 RMK AO2 WSHFT 2054 SLP164 T10111094",
      "metarObsTime": 1773784440
    },
    "KPHL": {
      "status": "OK",
      "delay": "—",
      "metarCat": "VFR",
      "metarRaw": "METAR KPHL 172154Z 31019G26KT 10SM BKN070 04/M12 A3002 RMK AO2 PK WND 27029/2125 SLP163 T00441122 $",
      "metarObsTime": 1773784440
    },
    "KABE": {
      "status": "OK",
      "delay": "—",
      "metarCat": "VFR",
      "metarRaw": "METAR KABE 172151Z 28011G21KT 10SM FEW055 BKN070 BKN085 01/M08 A2998 RMK AO2 SNB02E11 SLP156 P0000 T00061078 $",
      "metarObsTime": 1773784260
    },
    "KAVP": {
      "status": "OK",
      "delay": "—",
      "metarCat": "MVFR",
      "metarRaw": "SPECI KAVP 172209Z 32007G15KT 10SM BKN030 OVC040 M02/M08 A2995 RMK AO2 SNE03 P0000 T10221078",
      "metarObsTime": 1773785340
    },
    "KHZL": {
      "status": "OK",
      "delay": "—",
      "metarCat": "MVFR",
      "metarRaw": "METAR KHZL 172215Z AUTO 29006KT 5SM -SN SCT018 BKN028 OVC043 M02/M08 RMK AO2",
      "metarObsTime": 1773785700
    }
  }
}