{
  "generatedAt": "2026-04-08T11:20:45.675Z",
  "airports": {
    "KPIT": {
      "status": "OK",
      "delay": "—",
      "metarCat": "VFR",
      "metarRaw": "METAR KPIT 081051Z 07003KT 10SM FEW250 M04/M09 A3046 RMK AO2 SLP336 T10391094",
      "metarObsTime": 1775645460
    },
    "KAGC": {
      "status": "OK",
      "delay": "—",
      "metarCat": "VFR",
      "metarRaw": "METAR KAGC 081053Z 06004KT 10SM CLR M03/M10 A3045 RMK AO2 SLP329 T10331100",
      "metarObsTime": 1775645580
    },
    "KLBE": {
      "status": "OK",
      "delay": "—",
      "metarCat": "VFR",
      "metarRaw": "METAR KLBE 081047Z VRB04KT 10SM CLR M05/M06 A3048",
      "metarObsTime": 1775645220
    },
    "KJST": {
      "status": "OK",
      "delay": "—",
      "metarCat": "—",
      "metarRaw": "METAR KJST 081054Z AUTO 00000KT M06/M11 A3042 RMK AO2 SLP332 T10611111 $",
      "metarObsTime": 1775645640
    },
    "KERI": {
      "status": "OK",
      "delay": "—",
      "metarCat": "VFR",
      "metarRaw": "METAR KERI 081051Z 13004KT 10SM CLR M06/M10 A3051 RMK AO2 SLP341 T10561100 $",
      "metarObsTime": 1775645460
    },
    "KDUJ": {
      "status": "OK",
      "delay": "—",
      "metarCat": "VFR",
      "metarRaw": "METAR KDUJ 081053Z AUTO 08006KT 10SM CLR M08/M11 A3045 RMK AO2 SLP337 T10781111",
      "metarObsTime": 1775645580
    },
    "KBFD": {
      "status": "OK",
      "delay": "—",
      "metarCat": "VFR",
      "metarRaw": "METAR KBFD 081053Z AUTO 00000KT 10SM CLR M11/M13 A3046 RMK AO2 SLP346 I1000 T11111128",
      "metarObsTime": 1775645580
    },
    "KBTP": {
      "status": "OK",
      "delay": "—",
      "metarCat": "VFR",
      "metarRaw": "METAR KBTP 081056Z AUTO 08006KT 10SM CLR M05/M09 A3048 RMK AO2 SLP343 T10501089 FZRANO $",
      "metarObsTime": 1775645760
    },
    "KFKL": {
      "status": "OK",
      "delay": "—",
      "metarCat": "VFR",
      "metarRaw": "METAR KFKL 081056Z AUTO 11003KT 10SM CLR M07/M09 A3047 RMK AO2 SLP342 T10671094 FZRANO",
      "metarObsTime": 1775645760
    },
    "KIDI": {
      "status": "OK",
      "delay": "—",
      "metarCat": "VFR",
      "metarRaw": "METAR KIDI 081115Z AUTO 08008KT 10SM CLR M05/M08 A3048 RMK A01",
      "metarObsTime": 1775646900
    },
    "KMDT": {
      "status": "OK",
      "delay": "—",
      "metarCat": "VFR",
      "metarRaw": "METAR KMDT 081056Z 00000KT 10SM FEW250 M01/M10 A3056 RMK AO2 SLP352 T10111100",
      "metarObsTime": 1775645760
    },
    "KCXY": {
      "status": "OK",
      "delay": "—",
      "metarCat": "VFR",
      "metarRaw": "METAR KCXY 081056Z 07006KT 10SM CLR M02/M11 A3057 RMK AO2 SLP356 T10171106 $",
      "metarObsTime": 1775645760
    },
    "KMUI": {
      "status": "OK",
      "delay": "—",
      "metarCat": "VFR",
      "metarRaw": "METAR KMUI 080955Z AUTO 03005KT 10SM CLR M02/M10 A3052 RMK AO2 SLP343 T10171100",
      "metarObsTime": 1775642100
    },
    "KUNV": {
      "status": "OK",
      "delay": "—",
      "metarCat": "VFR",
      "metarRaw": "METAR KUNV 081053Z 07005KT 10SM CLR M05/M10 A3053",
      "metarObsTime": 1775645580
    },
    "KAOO": {
      "status": "OK",
      "delay": "—",
      "metarCat": "VFR",
      "metarRaw": "METAR KAOO 081053Z AUTO 07006KT 10SM CLR M05/M11 A3050 RMK AO2 SLP347 T10501106 $",
      "metarObsTime": 1775645580
    },
    "KLNS": {
      "status": "OK",
      "delay": "—",
      "metarCat": "VFR",
      "metarRaw": "METAR KLNS 081053Z 00000KT 10SM CLR M03/M09 A3056 RMK AO2 SLP354 T10281089",
      "metarObsTime": 1775645580
    },
    "KIPT": {
      "status": "OK",
      "delay": "—",
      "metarCat": "VFR",
      "metarRaw": "METAR KIPT 081054Z 00000KT 10SM CLR M05/M08 A3057 RMK AO2 SLP360 T10501083",
      "metarObsTime": 1775645640
    },
    "KPHL": {
      "status": "OK",
      "delay": "—",
      "metarCat": "VFR",
      "metarRaw": "METAR KPHL 081054Z 03014G20KT 10SM CLR 00/M09 A3059 RMK AO2 SLP358 T00001094",
      "metarObsTime": 1775645640
    },
    "KABE": {
      "status": "OK",
      "delay": "—",
      "metarCat": "VFR",
      "metarRaw": "METAR KABE 081051Z AUTO 05009KT 10SM CLR M03/M10 A3057 RMK AO2 SLP357 T10281100 $",
      "metarObsTime": 1775645460
    },
    "KAVP": {
      "status": "OK",
      "delay": "—",
      "metarCat": "VFR",
      "metarRaw": "METAR KAVP 081054Z 07004KT 10SM CLR M05/M11 A3057 RMK AO2 SLP362 T10501106",
      "metarObsTime": 1775645640
    },
    "KHZL": {
      "status": "OK",
      "delay": "—",
      "metarCat": "VFR",
      "metarRaw": "METAR KHZL 081115Z AUTO 00000KT 10SM CLR M04/M11 A3054 RMK AO2",
      "metarObsTime": 1775646900
    }
  }
}