{
  "generatedAt": "2026-03-07T20:10:11.218Z",
  "airports": {
    "KPIT": {
      "status": "OK",
      "delay": "—",
      "metarCat": "VFR",
      "metarRaw": "SPECI KPIT 071956Z 22020G28KT 10SM TS FEW030 BKN047CB BKN100 26/13 A2979 RMK AO2 PK WND 22028/1956 TSB56 OCNL LTGICCG S TS S MOV NE T02560133 $",
      "metarObsTime": 1772913360
    },
    "KAGC": {
      "status": "OK",
      "delay": "—",
      "metarCat": "VFR",
      "metarRaw": "METAR KAGC 071953Z 21022G37KT 10SM SCT055 26/13 A2980 RMK AO2 PK WND 19037/1950 RAB30E42 SLP086 P0000 T02560133",
      "metarObsTime": 1772913180
    },
    "KLBE": {
      "status": "OK",
      "delay": "—",
      "metarCat": "VFR",
      "metarRaw": "METAR KLBE 071953Z 22015G28KT 10SM BKN060 BKN120 26/14 A2983",
      "metarObsTime": 1772913180
    },
    "KJST": {
      "status": "OK",
      "delay": "—",
      "metarCat": "VFR",
      "metarRaw": "METAR KJST 071954Z AUTO 21013G25KT 10SM SCT050 23/12 A2986 RMK AO2 PK WND 23030/1920 SLP106 T02280117",
      "metarObsTime": 1772913240
    },
    "KERI": {
      "status": "OK",
      "delay": "—",
      "metarCat": "VFR",
      "metarRaw": "METAR KERI 071951Z 21018G28KT 10SM -RA OVC100 20/15 A2969 RMK AO2 PK WND 20028/1942 LTG DSNT E AND SE RAE1859B11 SLP053 P0000 T02000150",
      "metarObsTime": 1772913060
    },
    "KDUJ": {
      "status": "OK",
      "delay": "—",
      "metarCat": "VFR",
      "metarRaw": "METAR KDUJ 071953Z AUTO 22016G26KT 10SM SCT050 BKN060 BKN075 23/12 A2979 RMK AO2 PK WND 23035/1920 SLP081 T02330122",
      "metarObsTime": 1772913180
    },
    "KBFD": {
      "status": "OK",
      "delay": "—",
      "metarCat": "VFR",
      "metarRaw": "METAR KBFD 071953Z AUTO 21008G21KT 10SM SCT049 SCT055 BKN075 22/12 A2975 RMK AO2 PK WND 19031/1943 SLP068 T02170117",
      "metarObsTime": 1772913180
    },
    "KBTP": {
      "status": "OK",
      "delay": "—",
      "metarCat": "VFR",
      "metarRaw": "METAR KBTP 071956Z AUTO 23012G24KT 10SM BKN060 BKN080 25/14 A2978 RMK AO2 PK WND 24030/1902 LTG DSNT SW AND NW SLP083 T02500139 $",
      "metarObsTime": 1772913360
    },
    "KFKL": {
      "status": "OK",
      "delay": "—",
      "metarCat": "VFR",
      "metarRaw": "METAR KFKL 071956Z AUTO 21013G20KT 10SM BKN050 BKN060 OVC120 23/14 A2975 RMK AO2 PK WND 21029/1934 LTG DSNT W-NE RAE13 SLP067 P0000 T02330139",
      "metarObsTime": 1772913360
    },
    "KIDI": {
      "status": "OK",
      "delay": "—",
      "metarCat": "VFR",
      "metarRaw": "METAR KIDI 071955Z AUTO 23020G28KT 10SM FEW060 FEW120 26/14 A2981 RMK A01",
      "metarObsTime": 1772913300
    },
    "KMDT": {
      "status": "OK",
      "delay": "—",
      "metarCat": "MVFR",
      "metarRaw": "METAR KMDT 071956Z 13006KT 10SM OVC011 09/07 A2999 RMK AO2 SLP156 T00940072",
      "metarObsTime": 1772913360
    },
    "KCXY": {
      "status": "OK",
      "delay": "—",
      "metarCat": "IFR",
      "metarRaw": "METAR KCXY 071956Z 10006KT 3SM HZ OVC009 09/07 A2999 RMK AO2 SLP159 T00940067",
      "metarObsTime": 1772913360
    },
    "KMUI": {
      "status": "OK",
      "delay": "—",
      "metarCat": "IFR",
      "metarRaw": "METAR KMUI 071955Z AUTO 15004KT 10SM OVC005 08/08 A2998 RMK AO2 SLP158 T00790076",
      "metarObsTime": 1772913300
    },
    "KUNV": {
      "status": "OK",
      "delay": "—",
      "metarCat": "VFR",
      "metarRaw": "METAR KUNV 071953Z 20006KT 10SM SCT040 15/10 A2988",
      "metarObsTime": 1772913180
    },
    "KAOO": {
      "status": "OK",
      "delay": "—",
      "metarCat": "—",
      "metarRaw": "—",
      "metarObsTime": null
    },
    "KLNS": {
      "status": "OK",
      "delay": "—",
      "metarCat": "IFR",
      "metarRaw": "METAR KLNS 071953Z 14008KT 10SM OVC007 08/07 A3001 RMK AO2 SLP163 T00830072",
      "metarObsTime": 1772913180
    },
    "KIPT": {
      "status": "OK",
      "delay": "—",
      "metarCat": "IFR",
      "metarRaw": "METAR KIPT 071954Z 08008KT 10SM OVC009 08/06 A2992 RMK AO2 SLP135 T00780061",
      "metarObsTime": 1772913240
    },
    "KPHL": {
      "status": "OK",
      "delay": "—",
      "metarCat": "IFR",
      "metarRaw": "METAR KPHL 071954Z 20004KT 9SM OVC009 11/08 A3005 RMK AO2 SLP176 T01110078 $",
      "metarObsTime": 1772913240
    },
    "KABE": {
      "status": "OK",
      "delay": "—",
      "metarCat": "IFR",
      "metarRaw": "METAR KABE 071951Z 19004KT 10SM OVC008 07/06 A3003 RMK AO2 SLP170 T00720056",
      "metarObsTime": 1772913060
    },
    "KAVP": {
      "status": "OK",
      "delay": "—",
      "metarCat": "VFR",
      "metarRaw": "METAR KAVP 071954Z AUTO 22009G15KT 10SM FEW017 12/07 A2994 RMK AO2 SLP139 T01170072",
      "metarObsTime": 1772913240
    },
    "KHZL": {
      "status": "OK",
      "delay": "—",
      "metarCat": "LIFR",
      "metarRaw": "METAR KHZL 071955Z AUTO 17003KT 1 1/4SM BR OVC002 06/05 A2999 RMK AO2",
      "metarObsTime": 1772913300
    }
  }
}