{
  "generatedAt": "2026-03-12T09:30:14.566Z",
  "airports": {
    "KPIT": {
      "status": "OK",
      "delay": "—",
      "metarCat": "MVFR",
      "metarRaw": "SPECI KPIT 120904Z 32015KT 10SM -SN OVC017 01/M02 A2996 RMK AO2 SNB03 P0000 T00111022 $",
      "metarObsTime": 1773306240
    },
    "KAGC": {
      "status": "OK",
      "delay": "—",
      "metarCat": "MVFR",
      "metarRaw": "METAR KAGC 120853Z 34012G34KT 10SM OVC016 01/M02 A2992 RMK AO2 PK WND 34034/0844 UPB0757E01SNB01E24 SLP140 P0001 60004 T00061017 50022",
      "metarObsTime": 1773305580
    },
    "KLBE": {
      "status": "OK",
      "delay": "—",
      "metarCat": "MVFR",
      "metarRaw": "METAR KLBE 120915Z AUTO 30010G16KT 4SM -RA BR SCT010 OVC014 02/01 A2995 RMK AO2",
      "metarObsTime": 1773306900
    },
    "KJST": {
      "status": "OK",
      "delay": "—",
      "metarCat": "IFR",
      "metarRaw": "METAR KJST 120854Z AUTO 29014G24KT 1 1/4SM -SN BR BKN006 OVC010 01/00 A2981 RMK AO2 PK WND 27029/0816 RAE12SNB12 SLP101 P0001 60003 T00060000 53023",
      "metarObsTime": 1773305640
    },
    "KERI": {
      "status": "OK",
      "delay": "—",
      "metarCat": "MVFR",
      "metarRaw": "METAR KERI 120851Z AUTO 29012G21KT 10SM OVC025 01/M03 A2996 RMK AO2 SLP149 T00061033 51029",
      "metarObsTime": 1773305460
    },
    "KDUJ": {
      "status": "OK",
      "delay": "—",
      "metarCat": "IFR",
      "metarRaw": "SPECI KDUJ 120925Z AUTO 31014G27KT 1 1/4SM -SN BR BKN009 OVC016 M02/M03 A2985 RMK AO2 PK WND 29027/0925 P0001 T10171033",
      "metarObsTime": 1773307500
    },
    "KBFD": {
      "status": "OK",
      "delay": "—",
      "metarCat": "IFR",
      "metarRaw": "METAR KBFD 120853Z AUTO 30013G24KT 10SM OVC007 M03/M04 A2981 RMK AO2 PK WND 28030/0755 SNE29 PRESRR SLP098 P0000 60000 T10281039 51031",
      "metarObsTime": 1773305580
    },
    "KBTP": {
      "status": "OK",
      "delay": "—",
      "metarCat": "MVFR",
      "metarRaw": "METAR KBTP 120856Z AUTO 31009G17KT 10SM OVC017 M01/M01 A2996 RMK AO2 SNE14 SLP154 P0000 60001 T10111011 53026 FZRANO $",
      "metarObsTime": 1773305760
    },
    "KFKL": {
      "status": "OK",
      "delay": "—",
      "metarCat": "MVFR",
      "metarRaw": "METAR KFKL 120856Z AUTO 30010G20KT 10SM OVC015 A2992 RMK AO2 SNE01B35E46 SLPNO P0000 60001 53029 FZRANO $",
      "metarObsTime": 1773305760
    },
    "KIDI": {
      "status": "OK",
      "delay": "—",
      "metarCat": "—",
      "metarRaw": "—",
      "metarObsTime": null
    },
    "KMDT": {
      "status": "OK",
      "delay": "—",
      "metarCat": "VFR",
      "metarRaw": "METAR KMDT 120856Z 31020G31KT 10SM -RA SCT028 BKN043 OVC055 13/09 A2963 RMK AO2 PK WND 30032/0832 RAE03B17 SLP033 P0001 60001 T01280089 53016",
      "metarObsTime": 1773305760
    },
    "KCXY": {
      "status": "OK",
      "delay": "—",
      "metarCat": "VFR",
      "metarRaw": "METAR KCXY 120856Z AUTO 29014G25KT 10SM FEW029 BKN045 OVC055 13/08 A2966 RMK AO2 PK WND 28029/0808 PRESRR SLP043 P0001 60002 T01330078 53027",
      "metarObsTime": 1773305760
    },
    "KMUI": {
      "status": "OK",
      "delay": "—",
      "metarCat": "VFR",
      "metarRaw": "SPECI KMUI 120926Z AUTO 30011G30KT 10SM -RA FEW017 FEW026 SCT032 OVC055 14/10 A2963 RMK AO2 RAE0855RAB10E11DZB11E19RAB19 SLP035",
      "metarObsTime": 1773307560
    },
    "KUNV": {
      "status": "OK",
      "delay": "—",
      "metarCat": "VFR",
      "metarRaw": "METAR KUNV 120915Z AUTO 30013G23KT 10SM SCT023 SCT049 OVC090 04/M01 A2982 RMK AO2 T00371009",
      "metarObsTime": 1773306900
    },
    "KAOO": {
      "status": "OK",
      "delay": "—",
      "metarCat": "MVFR",
      "metarRaw": "METAR KAOO 120853Z AUTO 31018G27KT 10SM BKN020 OVC027 04/01 A2980 RMK AO2 PK WND 31029/0805 RAB19E28 SLP093 P0000 60000 T00440011 51043",
      "metarObsTime": 1773305580
    },
    "KLNS": {
      "status": "OK",
      "delay": "—",
      "metarCat": "MVFR",
      "metarRaw": "SPECI KLNS 120917Z AUTO 31019G31KT 10SM FEW014 BKN026 OVC080 12/10 A2961 RMK AO2 PK WND 29035/0903 PRESRR T01220100",
      "metarObsTime": 1773307020
    },
    "KIPT": {
      "status": "OK",
      "delay": "—",
      "metarCat": "MVFR",
      "metarRaw": "METAR KIPT 120854Z AUTO 29016G27KT 10SM BKN027 OVC085 08/03 A2970 RMK AO2 PK WND 29036/0824 SLP056 60000 T00830033 53046 $",
      "metarObsTime": 1773305640
    },
    "KPHL": {
      "status": "OK",
      "delay": "—",
      "metarCat": "VFR",
      "metarRaw": "METAR KPHL 120854Z 23004KT 10SM FEW180 SCT220 BKN250 16/14 A2955 RMK AO2 SLP004 T01610144 58016 $",
      "metarObsTime": 1773305640
    },
    "KABE": {
      "status": "OK",
      "delay": "—",
      "metarCat": "LIFR",
      "metarRaw": "SPECI KABE 120905Z 25004KT 1/2SM FG SCT004 BKN047 OVC080 14/14 A2955 RMK AO2 TWR VIS 2 1/2 T01440144 $",
      "metarObsTime": 1773306300
    },
    "KAVP": {
      "status": "OK",
      "delay": "—",
      "metarCat": "MVFR",
      "metarRaw": "METAR KAVP 120854Z 34011G26KT 10SM -RA BKN015 OVC024 12/10 A2960 RMK AO2 PK WND 33035/0840 WSHFT 0831 RAB34 PRESRR SLP020 P0002 60003 T01170100 53008",
      "metarObsTime": 1773305640
    },
    "KHZL": {
      "status": "OK",
      "delay": "—",
      "metarCat": "MVFR",
      "metarRaw": "METAR KHZL 120915Z AUTO 29006KT 250V310 10SM SCT010 BKN018 OVC035 11/08 A2962 RMK AO2",
      "metarObsTime": 1773306900
    }
  }
}