{
  "generatedAt": "2026-03-08T23:20:13.296Z",
  "airports": {
    "KPIT": {
      "status": "OK",
      "delay": "—",
      "metarCat": "VFR",
      "metarRaw": "METAR KPIT 082251Z 23011G19KT 10SM CLR 15/M04 A2991 RMK AO2 SLP136 T01501039",
      "metarObsTime": 1773010260
    },
    "KAGC": {
      "status": "OK",
      "delay": "—",
      "metarCat": "VFR",
      "metarRaw": "METAR KAGC 082253Z 24011G16KT 10SM CLR 14/M04 A2991 RMK AO2 SLP132 T01441044",
      "metarObsTime": 1773010380
    },
    "KLBE": {
      "status": "OK",
      "delay": "—",
      "metarCat": "VFR",
      "metarRaw": "METAR KLBE 082255Z 24009KT 10SM CLR 15/M02 A2992",
      "metarObsTime": 1773010500
    },
    "KJST": {
      "status": "OK",
      "delay": "—",
      "metarCat": "VFR",
      "metarRaw": "METAR KJST 082254Z AUTO 25011KT 10SM CLR 12/M05 A2990 RMK AO2 SLP124 T01221050",
      "metarObsTime": 1773010440
    },
    "KERI": {
      "status": "OK",
      "delay": "—",
      "metarCat": "VFR",
      "metarRaw": "METAR KERI 082251Z 23008KT 10SM CLR 13/M02 A2984 RMK AO2 SLP108 T01331017",
      "metarObsTime": 1773010260
    },
    "KDUJ": {
      "status": "OK",
      "delay": "—",
      "metarCat": "VFR",
      "metarRaw": "METAR KDUJ 082253Z AUTO 26013G20KT 10SM CLR 12/M06 A2988 RMK AO2 SLP119 T01221056",
      "metarObsTime": 1773010380
    },
    "KBFD": {
      "status": "OK",
      "delay": "—",
      "metarCat": "VFR",
      "metarRaw": "METAR KBFD 082253Z AUTO 26008G17KT 10SM CLR 11/M05 A2986 RMK AO2 SLP114 T01111050",
      "metarObsTime": 1773010380
    },
    "KBTP": {
      "status": "OK",
      "delay": "—",
      "metarCat": "VFR",
      "metarRaw": "METAR KBTP 082256Z AUTO 25010KT 10SM CLR 14/M03 A2992 RMK AO2 SLP139 T01391028 $",
      "metarObsTime": 1773010560
    },
    "KFKL": {
      "status": "OK",
      "delay": "—",
      "metarCat": "VFR",
      "metarRaw": "METAR KFKL 082256Z AUTO 24011G16KT 10SM CLR 12/M03 A2990 RMK AO2 SLP129 T01221028",
      "metarObsTime": 1773010560
    },
    "KIDI": {
      "status": "OK",
      "delay": "—",
      "metarCat": "VFR",
      "metarRaw": "METAR KIDI 082315Z AUTO 25010KT 10SM CLR 14/M03 A2991 RMK A01",
      "metarObsTime": 1773011700
    },
    "KMDT": {
      "status": "OK",
      "delay": "—",
      "metarCat": "VFR",
      "metarRaw": "METAR KMDT 082256Z 27006KT 10SM SCT200 15/03 A2987 RMK AO2 SLP115 T01500033",
      "metarObsTime": 1773010560
    },
    "KCXY": {
      "status": "OK",
      "delay": "—",
      "metarCat": "VFR",
      "metarRaw": "METAR KCXY 082256Z 27003KT 10SM CLR 18/02 A2987 RMK AO2 SLP117 T01780022",
      "metarObsTime": 1773010560
    },
    "KMUI": {
      "status": "OK",
      "delay": "—",
      "metarCat": "VFR",
      "metarRaw": "METAR KMUI 082255Z AUTO 26008KT 10SM CLR 18/03 A2984 RMK AO2 SLP108 T01780033",
      "metarObsTime": 1773010500
    },
    "KUNV": {
      "status": "OK",
      "delay": "—",
      "metarCat": "VFR",
      "metarRaw": "METAR KUNV 082253Z 27011KT 10SM CLR 15/M06 A2987",
      "metarObsTime": 1773010380
    },
    "KAOO": {
      "status": "OK",
      "delay": "—",
      "metarCat": "VFR",
      "metarRaw": "METAR KAOO 082253Z AUTO 27010KT 10SM CLR 14/M04 A2990 RMK AO2 SLP128 T01391039",
      "metarObsTime": 1773010380
    },
    "KLNS": {
      "status": "OK",
      "delay": "—",
      "metarCat": "VFR",
      "metarRaw": "METAR KLNS 082253Z 28005KT 10SM CLR 17/07 A2987 RMK AO2 SLP114 T01670067",
      "metarObsTime": 1773010380
    },
    "KIPT": {
      "status": "OK",
      "delay": "—",
      "metarCat": "VFR",
      "metarRaw": "METAR KIPT 082254Z 26005KT 10SM CLR 15/M03 A2984 RMK AO2 SLP104 T01501028",
      "metarObsTime": 1773010440
    },
    "KPHL": {
      "status": "OK",
      "delay": "—",
      "metarCat": "VFR",
      "metarRaw": "METAR KPHL 082254Z 30007KT 10SM SCT065 BKN220 20/09 A2987 RMK AO2 SLP115 T02000094 $",
      "metarObsTime": 1773010440
    },
    "KABE": {
      "status": "OK",
      "delay": "—",
      "metarCat": "VFR",
      "metarRaw": "METAR KABE 082251Z 26007KT 10SM CLR 16/06 A2986 RMK AO2 SLP112 T01560056",
      "metarObsTime": 1773010260
    },
    "KAVP": {
      "status": "OK",
      "delay": "—",
      "metarCat": "VFR",
      "metarRaw": "METAR KAVP 082254Z AUTO 21005KT 10SM CLR 15/03 A2984 RMK AO2 SLP101 T01500033",
      "metarObsTime": 1773010440
    },
    "KHZL": {
      "status": "OK",
      "delay": "—",
      "metarCat": "VFR",
      "metarRaw": "METAR KHZL 082255Z AUTO 21003KT 10SM CLR 13/02 A2989 RMK AO2",
      "metarObsTime": 1773010500
    }
  }
}