{
  "generatedAt": "2026-04-22T09:01:07.065Z",
  "airports": {
    "KPIT": {
      "status": "OK",
      "delay": "—",
      "metarCat": "VFR",
      "metarRaw": "METAR KPIT 220851Z 29018G24KT 10SM -RA SCT055 OVC080 14/08 A2998 RMK AO2 RAB23 SLP156 P0001 60001 T01440083 53004",
      "metarObsTime": 1776847860
    },
    "KAGC": {
      "status": "OK",
      "delay": "—",
      "metarCat": "VFR",
      "metarRaw": "METAR KAGC 220853Z 24005KT 10SM -RA OVC080 16/05 A2997 RMK AO2 RAB52 SLP147 P0000 60000 T01610050 55001",
      "metarObsTime": 1776847980
    },
    "KLBE": {
      "status": "OK",
      "delay": "—",
      "metarCat": "VFR",
      "metarRaw": "METAR KLBE 220855Z AUTO 21007KT 10SM OVC075 14/09 A2999 RMK AO2",
      "metarObsTime": 1776848100
    },
    "KJST": {
      "status": "OK",
      "delay": "—",
      "metarCat": "VFR",
      "metarRaw": "METAR KJST 220854Z AUTO 25009KT 10SM OVC070 13/05 A2997 RMK AO2 PK WND 27027/0814 RAB0759E25 SLP145 P0000 60000 T01330050 56008",
      "metarObsTime": 1776848040
    },
    "KERI": {
      "status": "OK",
      "delay": "—",
      "metarCat": "VFR",
      "metarRaw": "METAR KERI 220851Z AUTO 20008KT 10SM BKN050 BKN065 BKN085 14/09 A2989 RMK AO2 RAE0759 SLP122 P0000 60001 T01440089 58005",
      "metarObsTime": 1776847860
    },
    "KDUJ": {
      "status": "OK",
      "delay": "—",
      "metarCat": "VFR",
      "metarRaw": "METAR KDUJ 220853Z AUTO 00000KT 10SM OVC060 09/07 A2995 RMK AO2 RAB11E45 SLP141 P0003 60003 T00890072 55002",
      "metarObsTime": 1776847980
    },
    "KBFD": {
      "status": "OK",
      "delay": "—",
      "metarCat": "VFR",
      "metarRaw": "METAR KBFD 220853Z AUTO 13004KT 10SM OVC055 07/03 A2994 RMK AO2 SLP141 60000 T00670033 56007 $",
      "metarObsTime": 1776847980
    },
    "KBTP": {
      "status": "OK",
      "delay": "—",
      "metarCat": "VFR",
      "metarRaw": "METAR KBTP 220856Z AUTO 26013G23KT 9SM RA FEW046 OVC065 13/09 A3000 RMK AO2 RAB00 SLP160 P0000 60000 T01280089 53007 $",
      "metarObsTime": 1776848160
    },
    "KFKL": {
      "status": "OK",
      "delay": "—",
      "metarCat": "—",
      "metarRaw": "—",
      "metarObsTime": null
    },
    "KIDI": {
      "status": "OK",
      "delay": "—",
      "metarCat": "—",
      "metarRaw": "—",
      "metarObsTime": null
    },
    "KMDT": {
      "status": "OK",
      "delay": "—",
      "metarCat": "VFR",
      "metarRaw": "METAR KMDT 220856Z 10008KT 10SM SCT110 08/03 A3005 RMK AO2 SLP176 T00830028 56016",
      "metarObsTime": 1776848160
    },
    "KCXY": {
      "status": "OK",
      "delay": "—",
      "metarCat": "VFR",
      "metarRaw": "METAR KCXY 220856Z AUTO 10007KT 10SM FEW120 08/03 A3005 RMK AO2 SLP177 T00830033 56017",
      "metarObsTime": 1776848160
    },
    "KMUI": {
      "status": "OK",
      "delay": "—",
      "metarCat": "VFR",
      "metarRaw": "METAR KMUI 220755Z AUTO 09003KT 10SM OVC100 08/06 A3005 RMK AO2 RAB0655E15 SLP180 P0000 T00820055",
      "metarObsTime": 1776844500
    },
    "KUNV": {
      "status": "OK",
      "delay": "—",
      "metarCat": "VFR",
      "metarRaw": "METAR KUNV 220855Z AUTO 00000KT 10SM BKN075 OVC090 10/M01 A2999 RMK AO2 T00981013",
      "metarObsTime": 1776848100
    },
    "KAOO": {
      "status": "OK",
      "delay": "—",
      "metarCat": "VFR",
      "metarRaw": "METAR KAOO 220853Z AUTO 00000KT 10SM -RA SCT080 BKN090 BKN110 08/01 A2999 RMK AO2 RAB48 SLP157 P0000 60000 T00830011 55007",
      "metarObsTime": 1776847980
    },
    "KLNS": {
      "status": "OK",
      "delay": "—",
      "metarCat": "VFR",
      "metarRaw": "METAR KLNS 220853Z AUTO 13008KT 10SM BKN120 07/03 A3006 RMK AO2 SLP180 T00670033 58019",
      "metarObsTime": 1776847980
    },
    "KIPT": {
      "status": "OK",
      "delay": "—",
      "metarCat": "VFR",
      "metarRaw": "METAR KIPT 220854Z AUTO 09008KT 10SM OVC110 09/02 A3002 RMK AO2 SLP168 60000 T00890017 55012 $",
      "metarObsTime": 1776848040
    },
    "KPHL": {
      "status": "OK",
      "delay": "—",
      "metarCat": "VFR",
      "metarRaw": "METAR KPHL 220854Z 12007KT 10SM BKN110 OVC150 09/04 A3013 RMK AO2 SLP202 T00890044 58021 $",
      "metarObsTime": 1776848040
    },
    "KABE": {
      "status": "OK",
      "delay": "—",
      "metarCat": "VFR",
      "metarRaw": "METAR KABE 220851Z 10004KT 10SM -RA SCT075 BKN110 07/03 A3009 RMK AO2 SLP190 P0001 60001 T00670033 58025",
      "metarObsTime": 1776847860
    },
    "KAVP": {
      "status": "OK",
      "delay": "—",
      "metarCat": "VFR",
      "metarRaw": "METAR KAVP 220854Z AUTO VRB03KT 10SM FEW060 OVC100 06/03 A3005 RMK AO2 RAE35 SLP179 P0002 60004 T00560028 56011",
      "metarObsTime": 1776848040
    },
    "KHZL": {
      "status": "OK",
      "delay": "—",
      "metarCat": "VFR",
      "metarRaw": "METAR KHZL 220855Z AUTO 15004KT 10SM SCT013 SCT020 OVC110 05/01 A3007 RMK AO2",
      "metarObsTime": 1776848100
    }
  }
}