{
  "generatedAt": "2026-04-20T16:10:59.620Z",
  "airports": {
    "KPIT": {
      "status": "OK",
      "delay": "—",
      "metarCat": "VFR",
      "metarRaw": "METAR KPIT 201551Z 29012G29KT 10SM BKN049 04/M08 A3031 RMK AO2 PK WND 33029/1547 SLP281 T00441078",
      "metarObsTime": 1776700260
    },
    "KAGC": {
      "status": "OK",
      "delay": "—",
      "metarCat": "VFR",
      "metarRaw": "METAR KAGC 201553Z 34011G22KT 10SM BKN049 05/M08 A3030 RMK AO2 SLP274 T00501078",
      "metarObsTime": 1776700380
    },
    "KLBE": {
      "status": "OK",
      "delay": "—",
      "metarCat": "VFR",
      "metarRaw": "METAR KLBE 201547Z 32010G20KT 10SM BKN046 BKN055 04/M05 A3031",
      "metarObsTime": 1776700020
    },
    "KJST": {
      "status": "OK",
      "delay": "—",
      "metarCat": "VFR",
      "metarRaw": "METAR KJST 201554Z AUTO 31016G22KT 10SM BKN042 01/M06 A3021 RMK AO2 SLP251 T00111056",
      "metarObsTime": 1776700440
    },
    "KERI": {
      "status": "OK",
      "delay": "—",
      "metarCat": "VFR",
      "metarRaw": "METAR KERI 201551Z 32011G16KT 10SM SCT042 BKN048 02/M09 A3036 RMK AO2 SLP290 T00171089",
      "metarObsTime": 1776700260
    },
    "KDUJ": {
      "status": "OK",
      "delay": "—",
      "metarCat": "VFR",
      "metarRaw": "METAR KDUJ 201553Z AUTO 31010G18KT 10SM BKN040 OVC048 01/M08 A3025 RMK AO2 SLP261 T00061083",
      "metarObsTime": 1776700380
    },
    "KBFD": {
      "status": "OK",
      "delay": "—",
      "metarCat": "VFR",
      "metarRaw": "METAR KBFD 201553Z AUTO 32014G20KT 10SM BKN042 M01/M09 A3023 RMK AO2 SLP256 T10111094",
      "metarObsTime": 1776700380
    },
    "KBTP": {
      "status": "OK",
      "delay": "—",
      "metarCat": "VFR",
      "metarRaw": "METAR KBTP 201556Z AUTO 32011G17KT 280V340 10SM BKN047 03/M08 A3032 RMK AO2 SLP284 T00331078 $",
      "metarObsTime": 1776700560
    },
    "KFKL": {
      "status": "OK",
      "delay": "—",
      "metarCat": "—",
      "metarRaw": "—",
      "metarObsTime": null
    },
    "KIDI": {
      "status": "OK",
      "delay": "—",
      "metarCat": "VFR",
      "metarRaw": "METAR KIDI 201555Z AUTO 31012G20KT 10SM BKN044 OVC050 03/M07 A3029 RMK A01",
      "metarObsTime": 1776700500
    },
    "KMDT": {
      "status": "OK",
      "delay": "—",
      "metarCat": "VFR",
      "metarRaw": "METAR KMDT 201556Z 31014KT 10SM FEW040 SCT070 08/M03 A3020 RMK AO2 RAE14 SLP230 P0000 T00831033",
      "metarObsTime": 1776700560
    },
    "KCXY": {
      "status": "OK",
      "delay": "—",
      "metarCat": "VFR",
      "metarRaw": "METAR KCXY 201556Z 30013G19KT 280V340 10SM -RA FEW048 SCT055 BKN070 09/M03 A3021 RMK AO2 SLP233 P0000 T00941028",
      "metarObsTime": 1776700560
    },
    "KMUI": {
      "status": "OK",
      "delay": "—",
      "metarCat": "VFR",
      "metarRaw": "METAR KMUI 201555Z 26010G17KT 10SM VCSH BKN049 BKN070 09/M02 A3018 RMK AO2A SLP225 T00881025",
      "metarObsTime": 1776700500
    },
    "KUNV": {
      "status": "OK",
      "delay": "—",
      "metarCat": "VFR",
      "metarRaw": "METAR KUNV 201553Z 30012G16KT 270V330 10SM BKN049 05/M06 A3024",
      "metarObsTime": 1776700380
    },
    "KAOO": {
      "status": "OK",
      "delay": "—",
      "metarCat": "VFR",
      "metarRaw": "METAR KAOO 201553Z AUTO 35011G20KT 10SM FEW049 04/M07 A3024 RMK AO2 PK WND 33026/1511 SLP251 T00441072",
      "metarObsTime": 1776700380
    },
    "KLNS": {
      "status": "OK",
      "delay": "—",
      "metarCat": "VFR",
      "metarRaw": "METAR KLNS 201553Z 30015G21KT 10SM FEW050 BKN070 BKN085 09/00 A3020 RMK AO2 SLP227 T00940000",
      "metarObsTime": 1776700380
    },
    "KIPT": {
      "status": "OK",
      "delay": "—",
      "metarCat": "VFR",
      "metarRaw": "METAR KIPT 201554Z 30008KT 10SM SCT065 07/M08 A3022 RMK AO2 SLP236 T00721083 $",
      "metarObsTime": 1776700440
    },
    "KPHL": {
      "status": "OK",
      "delay": "—",
      "metarCat": "VFR",
      "metarRaw": "METAR KPHL 201554Z 35006G16KT 10SM FEW035 BKN055 BKN110 11/00 A3019 RMK AO2 SLP222 VCSH T01060000 $",
      "metarObsTime": 1776700440
    },
    "KABE": {
      "status": "OK",
      "delay": "—",
      "metarCat": "VFR",
      "metarRaw": "METAR KABE 201551Z VRB06G19KT 10SM SCT050 OVC060 07/M04 A3019 RMK AO2 SLP224 T00721039",
      "metarObsTime": 1776700260
    },
    "KAVP": {
      "status": "OK",
      "delay": "—",
      "metarCat": "VFR",
      "metarRaw": "METAR KAVP 201554Z 33013G19KT 10SM FEW043 BKN060 04/M05 A3020 RMK AO2 SLP232 T00441050",
      "metarObsTime": 1776700440
    },
    "KHZL": {
      "status": "OK",
      "delay": "—",
      "metarCat": "VFR",
      "metarRaw": "METAR KHZL 201555Z AUTO 32004KT 10SM SCT034 BKN041 BKN060 03/M05 A3019 RMK AO2",
      "metarObsTime": 1776700500
    }
  }
}