{
  "generatedAt": "2026-04-17T13:30:57.445Z",
  "airports": {
    "KPIT": {
      "status": "OK",
      "delay": "—",
      "metarCat": "IFR",
      "metarRaw": "METAR KPIT 171251Z 31008KT 10SM OVC009 14/12 A3001 RMK AO2 SLP167 T01440122",
      "metarObsTime": 1776430260
    },
    "KAGC": {
      "status": "OK",
      "delay": "—",
      "metarCat": "MVFR",
      "metarRaw": "METAR KAGC 171253Z 35005KT 9SM SCT006 BKN014 15/12 A3000 RMK AO2 SLP160 T01500122",
      "metarObsTime": 1776430380
    },
    "KLBE": {
      "status": "OK",
      "delay": "—",
      "metarCat": "MVFR",
      "metarRaw": "METAR KLBE 171250Z 31008KT 10SM OVC010 14/13 A3002",
      "metarObsTime": 1776430200
    },
    "KJST": {
      "status": "OK",
      "delay": "—",
      "metarCat": "MVFR",
      "metarRaw": "SPECI KJST 171320Z AUTO 29011KT 9SM FEW002 BKN015 13/12 A3000 RMK AO2 T01280117",
      "metarObsTime": 1776432000
    },
    "KERI": {
      "status": "OK",
      "delay": "—",
      "metarCat": "IFR",
      "metarRaw": "SPECI KERI 171327Z 25006KT 2 1/2SM BR SCT002 OVC010 10/10 A3002 RMK AO2 T01000100 $",
      "metarObsTime": 1776432420
    },
    "KDUJ": {
      "status": "OK",
      "delay": "—",
      "metarCat": "MVFR",
      "metarRaw": "SPECI KDUJ 171304Z AUTO 32009KT 10SM BKN011 OVC015 14/12 A2997 RMK AO2 CIG 007V013 T01390117",
      "metarObsTime": 1776431040
    },
    "KBFD": {
      "status": "OK",
      "delay": "—",
      "metarCat": "MVFR",
      "metarRaw": "SPECI KBFD 171301Z AUTO 32008KT 10SM SCT008 BKN021 OVC026 13/12 A2999 RMK AO2 T01280117",
      "metarObsTime": 1776430860
    },
    "KBTP": {
      "status": "OK",
      "delay": "—",
      "metarCat": "MVFR",
      "metarRaw": "METAR KBTP 171256Z AUTO 30005KT 10SM OVC010 14/ A3002 RMK AO2 CIG 007V014 SLP169 T0139 PNO $",
      "metarObsTime": 1776430560
    },
    "KFKL": {
      "status": "OK",
      "delay": "—",
      "metarCat": "—",
      "metarRaw": "—",
      "metarObsTime": null
    },
    "KIDI": {
      "status": "OK",
      "delay": "—",
      "metarCat": "MVFR",
      "metarRaw": "METAR KIDI 171315Z AUTO 29006KT 10SM FEW011 OVC016 15/14 A3000 RMK A01",
      "metarObsTime": 1776431700
    },
    "KMDT": {
      "status": "OK",
      "delay": "—",
      "metarCat": "VFR",
      "metarRaw": "METAR KMDT 171256Z 31012G18KT 10SM FEW055 FEW250 21/13 A2990 RMK AO2 SLP122 T02060133",
      "metarObsTime": 1776430560
    },
    "KCXY": {
      "status": "OK",
      "delay": "—",
      "metarCat": "VFR",
      "metarRaw": "METAR KCXY 171256Z 30010G19KT 10SM CLR 20/13 A2990 RMK AO2 SLP124 T02000133 $",
      "metarObsTime": 1776430560
    },
    "KMUI": {
      "status": "OK",
      "delay": "—",
      "metarCat": "VFR",
      "metarRaw": "METAR KMUI 171255Z 29013G19KT 10SM SCT030 21/15 A2988 RMK AO2A SLP118 T02130151",
      "metarObsTime": 1776430500
    },
    "KUNV": {
      "status": "OK",
      "delay": "—",
      "metarCat": "MVFR",
      "metarRaw": "METAR KUNV 171253Z 00000KT 10SM OVC020 16/13 A2995",
      "metarObsTime": 1776430380
    },
    "KAOO": {
      "status": "OK",
      "delay": "—",
      "metarCat": "MVFR",
      "metarRaw": "METAR KAOO 171253Z AUTO 30007KT 10SM OVC024 14/11 A2997 RMK AO2 SLP145 T01440111",
      "metarObsTime": 1776430380
    },
    "KLNS": {
      "status": "OK",
      "delay": "—",
      "metarCat": "VFR",
      "metarRaw": "METAR KLNS 171253Z 30011G16KT 10SM CLR 21/14 A2989 RMK AO2 SLP118 T02060139",
      "metarObsTime": 1776430380
    },
    "KIPT": {
      "status": "OK",
      "delay": "—",
      "metarCat": "VFR",
      "metarRaw": "METAR KIPT 171254Z 28007KT 10SM FEW040 BKN065 18/13 A2990 RMK AO2 SLP122 T01830133 $",
      "metarObsTime": 1776430440
    },
    "KPHL": {
      "status": "OK",
      "delay": "—",
      "metarCat": "VFR",
      "metarRaw": "METAR KPHL 171254Z 34005G20KT 10SM FEW050 FEW075 SCT120 BKN200 BKN260 22/14 A2987 RMK AO2 SLP116 T02220139 $",
      "metarObsTime": 1776430440
    },
    "KABE": {
      "status": "OK",
      "delay": "—",
      "metarCat": "VFR",
      "metarRaw": "METAR KABE 171251Z 31005KT 10SM FEW027 19/14 A2988 RMK AO2 SLP115 T01940139",
      "metarObsTime": 1776430260
    },
    "KAVP": {
      "status": "OK",
      "delay": "—",
      "metarCat": "VFR",
      "metarRaw": "METAR KAVP 171254Z 27004KT 10SM SCT025 OVC033 17/14 A2989 RMK AO2 SLP115 T01670144",
      "metarObsTime": 1776430440
    },
    "KHZL": {
      "status": "OK",
      "delay": "—",
      "metarCat": "MVFR",
      "metarRaw": "METAR KHZL 171315Z AUTO 32004KT 10SM BKN016 BKN043 17/13 A2995 RMK AO2",
      "metarObsTime": 1776431700
    }
  }
}