{
  "generatedAt": "2026-05-16T22:00:34.891Z",
  "faaFlow": {
    "updatedAt": "2026-05-16T22:00:34.673Z",
    "source": "https://www.fly.faa.gov/adv/adv_spt",
    "terminal": [
      {
        "time": "—",
        "text": "UNTIL",
        "code": "FLOW",
        "label": "FAA flow impact",
        "level": "yellow",
        "section": "Terminal Planned",
        "airports": []
      },
      {
        "time": "0000",
        "text": "DEN GROUND STOP POSSIBLE",
        "code": "GS",
        "label": "Ground stop possible",
        "level": "yellow",
        "section": "Terminal Planned",
        "airports": []
      }
    ],
    "enroute": [
      {
        "time": "—",
        "text": "UNTIL",
        "code": "FLOW",
        "label": "FAA flow impact",
        "level": "yellow",
        "section": "En Route Planned",
        "airports": []
      },
      {
        "time": "0200",
        "text": "MIA/FLL/PBI CDRS/SWAP POSSIBLE",
        "code": "ROUTE",
        "label": "Route impact possible",
        "level": "blue",
        "section": "En Route Planned",
        "airports": []
      },
      {
        "time": "—",
        "text": "UNTIL",
        "code": "FLOW",
        "label": "FAA flow impact",
        "level": "yellow",
        "section": "En Route Planned",
        "airports": []
      },
      {
        "time": "0300",
        "text": "DEN ARRIVAL ROUTES POSSIBLE CDRS/SWAP/CAPPING/TUNNELING/HOTLINE/DIVERSION RECOVERY:",
        "code": "ROUTE",
        "label": "Route impact possible",
        "level": "blue",
        "section": "En Route Planned",
        "airports": []
      },
      {
        "time": "—",
        "text": "UNTIL",
        "code": "FLOW",
        "label": "FAA flow impact",
        "level": "yellow",
        "section": "En Route Planned",
        "airports": []
      },
      {
        "time": "2300",
        "text": "ORD_MDW CDRS",
        "code": "ROUTE",
        "label": "Route impact possible",
        "level": "blue",
        "section": "En Route Planned",
        "airports": []
      },
      {
        "time": "—",
        "text": "UNTIL",
        "code": "FLOW",
        "label": "FAA flow impact",
        "level": "yellow",
        "section": "En Route Planned",
        "airports": []
      },
      {
        "time": "2300",
        "text": "ZAU SWAP STATEMENT",
        "code": "ROUTE",
        "label": "Route impact possible",
        "level": "blue",
        "section": "En Route Planned",
        "airports": []
      },
      {
        "time": "—",
        "text": "UNTIL",
        "code": "FLOW",
        "label": "FAA flow impact",
        "level": "yellow",
        "section": "En Route Planned",
        "airports": []
      },
      {
        "time": "0000",
        "text": "ZDC SWAP STATEMENT",
        "code": "ROUTE",
        "label": "Route impact possible",
        "level": "blue",
        "section": "En Route Planned",
        "airports": []
      },
      {
        "time": "—",
        "text": "UNTIL",
        "code": "FLOW",
        "label": "FAA flow impact",
        "level": "yellow",
        "section": "En Route Planned",
        "airports": []
      },
      {
        "time": "0100",
        "text": "DEN CAPPING/TUNNELING",
        "code": "FLOW",
        "label": "FAA flow impact",
        "level": "yellow",
        "section": "En Route Planned",
        "airports": []
      },
      {
        "time": "—",
        "text": "UNTIL",
        "code": "FLOW",
        "label": "FAA flow impact",
        "level": "yellow",
        "section": "En Route Planned",
        "airports": []
      },
      {
        "time": "0300",
        "text": "ZDV SWAP STATEMENT",
        "code": "ROUTE",
        "label": "Route impact possible",
        "level": "blue",
        "section": "En Route Planned",
        "airports": []
      },
      {
        "time": "—",
        "text": "UNTIL",
        "code": "FLOW",
        "label": "FAA flow impact",
        "level": "yellow",
        "section": "En Route Planned",
        "airports": []
      },
      {
        "time": "0400",
        "text": "ZNY SWAP STATEMENT RUNWAY/EQUIPMENT/POSSIBLE SYSTEM IMPACT REPORTS(SIRs): PDX - RWYs 10R/28L & 03/21 CLOSED UNTIL 05/22/26",
        "code": "CLOSURE",
        "label": "Closure possible",
        "level": "yellow",
        "section": "En Route Planned",
        "airports": []
      }
    ],
    "airports": {
      "KPIT": null,
      "KAGC": null,
      "KLBE": null,
      "KJST": null,
      "KERI": null,
      "KDUJ": null,
      "KBFD": null,
      "KBTP": null,
      "KFKL": null,
      "KIDI": null,
      "KMDT": null,
      "KCXY": null,
      "KMUI": null,
      "KUNV": null,
      "KAOO": null,
      "KLNS": null,
      "KIPT": null,
      "KPHL": null,
      "KABE": null,
      "KAVP": null,
      "KHZL": null
    }
  },
  "airports": {
    "KPIT": {
      "status": "OK",
      "delay": "—",
      "metarCat": "MVFR",
      "metarRaw": "METAR KPIT 162151Z 22012G19KT 10SM BKN021 OVC090 19/14 A2998 RMK AO2 SLP157 T01890144",
      "metarObsTime": 1778968260,
      "faaFlow": null
    },
    "KAGC": {
      "status": "OK",
      "delay": "—",
      "metarCat": "MVFR",
      "metarRaw": "METAR KAGC 162153Z 20008KT 10SM BKN015 OVC020 18/15 A2999 RMK AO2 SLP159 T01780150",
      "metarObsTime": 1778968380,
      "faaFlow": null
    },
    "KLBE": {
      "status": "OK",
      "delay": "—",
      "metarCat": "VFR",
      "metarRaw": "METAR KLBE 162047Z 21015G25KT 6SM -RA SCT035 OVC070 18/17 A3002",
      "metarObsTime": 1778964420,
      "faaFlow": null
    },
    "KJST": {
      "status": "OK",
      "delay": "—",
      "metarCat": "VFR",
      "metarRaw": "METAR KJST 162154Z AUTO 23008KT 10SM FEW021 SCT041 OVC055 17/14 A3002 RMK AO2 RAE18 SLP163 P0000 T01720144",
      "metarObsTime": 1778968440,
      "faaFlow": null
    },
    "KERI": {
      "status": "OK",
      "delay": "—",
      "metarCat": "MVFR",
      "metarRaw": "METAR KERI 162151Z 21012KT 10SM SCT017 SCT025 BKN029 18/16 A2991 RMK AO2 SLP128 T01830156",
      "metarObsTime": 1778968260,
      "faaFlow": null
    },
    "KDUJ": {
      "status": "OK",
      "delay": "—",
      "metarCat": "MVFR",
      "metarRaw": "METAR KDUJ 162153Z AUTO 22017G25KT 10SM OVC023 18/13 A2996 RMK AO2 PK WND 23026/2104 RAE2054 SLP145 P0000 T01780133",
      "metarObsTime": 1778968380,
      "faaFlow": null
    },
    "KBFD": {
      "status": "OK",
      "delay": "—",
      "metarCat": "MVFR",
      "metarRaw": "METAR KBFD 162153Z AUTO 23007G14KT 10SM OVC022 17/12 A2997 RMK AO2 RAE07 SLP146 P0000 T01720117",
      "metarObsTime": 1778968380,
      "faaFlow": null
    },
    "KBTP": {
      "status": "OK",
      "delay": "—",
      "metarCat": "VFR",
      "metarRaw": "METAR KBTP 162156Z AUTO 19006KT 10SM -RA SCT021 BKN075 OVC100 17/17 A2998 RMK AO2 SLP159 P0004 T01670167 $",
      "metarObsTime": 1778968560,
      "faaFlow": null
    },
    "KFKL": {
      "status": "OK",
      "delay": "—",
      "metarCat": "IFR",
      "metarRaw": "METAR KFKL 162156Z AUTO 22009G14KT 10SM -RA OVC008 16/15 A2997 RMK AO2 CIG 006V011 SLP150 P0003 T01560150",
      "metarObsTime": 1778968560,
      "faaFlow": null
    },
    "KIDI": {
      "status": "OK",
      "delay": "—",
      "metarCat": "MVFR",
      "metarRaw": "METAR KIDI 162155Z AUTO 22008KT 9SM OVC016 17/15 A3001 RMK A01",
      "metarObsTime": 1778968500,
      "faaFlow": null
    },
    "KMDT": {
      "status": "OK",
      "delay": "—",
      "metarCat": "VFR",
      "metarRaw": "METAR KMDT 162156Z VRB04KT 10SM OVC075 26/10 A2994 RMK AO2 SLP140 T02610100",
      "metarObsTime": 1778968560,
      "faaFlow": null
    },
    "KCXY": {
      "status": "OK",
      "delay": "—",
      "metarCat": "VFR",
      "metarRaw": "METAR KCXY 162156Z 20007KT 10SM OVC075 26/10 A2995 RMK AO2 SLP142 T02560100",
      "metarObsTime": 1778968560,
      "faaFlow": null
    },
    "KMUI": {
      "status": "OK",
      "delay": "—",
      "metarCat": "VFR",
      "metarRaw": "METAR KMUI 162055Z AUTO 23010G18KT 10SM BKN070 BKN095 29/10 A2993 RMK AO2 SLP136 T02850102 56020 $",
      "metarObsTime": 1778964900,
      "faaFlow": null
    },
    "KUNV": {
      "status": "OK",
      "delay": "—",
      "metarCat": "VFR",
      "metarRaw": "METAR KUNV 162153Z 21005KT 10SM SCT075 BKN095 21/13 A2997",
      "metarObsTime": 1778968380,
      "faaFlow": null
    },
    "KAOO": {
      "status": "OK",
      "delay": "—",
      "metarCat": "VFR",
      "metarRaw": "METAR KAOO 162153Z AUTO 24011KT 10SM -RA OVC095 19/16 A3000 RMK AO2 SLP158 P0001 T01890156",
      "metarObsTime": 1778968380,
      "faaFlow": null
    },
    "KLNS": {
      "status": "OK",
      "delay": "—",
      "metarCat": "VFR",
      "metarRaw": "METAR KLNS 162153Z 23008KT 10SM OVC085 26/08 A2996 RMK AO2 SLP143 T02560083",
      "metarObsTime": 1778968380,
      "faaFlow": null
    },
    "KIPT": {
      "status": "OK",
      "delay": "—",
      "metarCat": "VFR",
      "metarRaw": "METAR KIPT 162154Z 19011G15KT 10SM BKN065 OVC080 24/10 A2991 RMK AO2 SLP127 T02440100",
      "metarObsTime": 1778968440,
      "faaFlow": null
    },
    "KPHL": {
      "status": "OK",
      "delay": "—",
      "metarCat": "VFR",
      "metarRaw": "METAR KPHL 162154Z 23016G22KT 10SM BKN300 28/09 A2997 RMK AO2 SLP147 T02830089 $",
      "metarObsTime": 1778968440,
      "faaFlow": null
    },
    "KABE": {
      "status": "OK",
      "delay": "—",
      "metarCat": "VFR",
      "metarRaw": "METAR KABE 162151Z 23009G18KT 10SM BKN070 BKN085 26/08 A2993 RMK AO2 SLP135 T02560083",
      "metarObsTime": 1778968260,
      "faaFlow": null
    },
    "KAVP": {
      "status": "OK",
      "delay": "—",
      "metarCat": "VFR",
      "metarRaw": "METAR KAVP 162154Z 24010KT 10SM OVC065 25/09 A2992 RMK AO2 SLP129 T02500094",
      "metarObsTime": 1778968440,
      "faaFlow": null
    },
    "KHZL": {
      "status": "OK",
      "delay": "—",
      "metarCat": "VFR",
      "metarRaw": "METAR KHZL 162155Z AUTO 21004KT 10SM OVC060 23/06 A3001 RMK AO2",
      "metarObsTime": 1778968500,
      "faaFlow": null
    }
  }
}