{
  "generatedAt": "2026-03-05T17:22:39.131Z",
  "airports": {
    "KPIT": {
      "status": "OK",
      "delay": "—",
      "metarCat": "IFR",
      "metarRaw": "METAR KPIT 051651Z 18007KT 10SM BKN008 BKN034 OVC085 16/14 A3004 RMK AO2 RAB15E34 SLP180 P0000 T01610139",
      "metarObsTime": 1772729460
    },
    "KAGC": {
      "status": "OK",
      "delay": "—",
      "metarCat": "IFR",
      "metarRaw": "METAR KAGC 051653Z 18008KT 9SM BKN006 14/14 A3004 RMK AO2 CIG 004V008 SLP178 T01440144",
      "metarObsTime": 1772729580
    },
    "KLBE": {
      "status": "OK",
      "delay": "—",
      "metarCat": "VFR",
      "metarRaw": "METAR KLBE 051647Z 21010KT 8SM SCT015 OVC040 16/16 A3009",
      "metarObsTime": 1772729220
    },
    "KJST": {
      "status": "OK",
      "delay": "—",
      "metarCat": "IFR",
      "metarRaw": "METAR KJST 051654Z AUTO 20009KT 10SM BKN006 BKN041 BKN110 14/13 A3009 RMK AO2 RAB07E27 CIG 004V008 SLP191 P0001 T01390128",
      "metarObsTime": 1772729640
    },
    "KERI": {
      "status": "OK",
      "delay": "—",
      "metarCat": "IFR",
      "metarRaw": "SPECI KERI 051711Z 05006KT 2SM BR BKN007 OVC013 07/06 A3005 RMK AO2 T00670056",
      "metarObsTime": 1772730660
    },
    "KDUJ": {
      "status": "OK",
      "delay": "—",
      "metarCat": "LIFR",
      "metarRaw": "METAR KDUJ 051653Z AUTO 10004KT 1/2SM -RA FG VV003 08/08 A3008 RMK AO2 SLP191 P0003 T00830078",
      "metarObsTime": 1772729580
    },
    "KBFD": {
      "status": "OK",
      "delay": "—",
      "metarCat": "LIFR",
      "metarRaw": "SPECI KBFD 051711Z AUTO 12005KT 1 1/2SM BR OVC002 06/06 A3009 RMK AO2 T00610061",
      "metarObsTime": 1772730660
    },
    "KBTP": {
      "status": "OK",
      "delay": "—",
      "metarCat": "IFR",
      "metarRaw": "METAR KBTP 051656Z AUTO 16006KT 9SM OVC005 14/ A3005 RMK AO2 RAB16E39 SLP183 P0000 T0144 $",
      "metarObsTime": 1772729760
    },
    "KFKL": {
      "status": "OK",
      "delay": "—",
      "metarCat": "LIFR",
      "metarRaw": "SPECI KFKL 051721Z AUTO 09004KT 1/4SM -RA FG OVC003 10/10 A3004 RMK AO2 P0000",
      "metarObsTime": 1772731260
    },
    "KIDI": {
      "status": "OK",
      "delay": "—",
      "metarCat": "IFR",
      "metarRaw": "METAR KIDI 051715Z AUTO 21007KT 10SM BKN006 OVC009 15/15 A3007 RMK A01",
      "metarObsTime": 1772730900
    },
    "KMDT": {
      "status": "OK",
      "delay": "—",
      "metarCat": "LIFR",
      "metarRaw": "METAR KMDT 051656Z 00000KT 1SM R13/3500VP6000FT -RA BR OVC004 07/07 A3019 RMK AO2 TWR VIS 2 1/2 RAB31 SLP225 P0002 T00670067",
      "metarObsTime": 1772729760
    },
    "KCXY": {
      "status": "OK",
      "delay": "—",
      "metarCat": "LIFR",
      "metarRaw": "SPECI KCXY 051717Z 12004KT 2 1/2SM -RA BR OVC004 08/07 A3018 RMK AO2 CIG 002V007 P0001 T00780072",
      "metarObsTime": 1772731020
    },
    "KMUI": {
      "status": "OK",
      "delay": "—",
      "metarCat": "LIFR",
      "metarRaw": "METAR KMUI 051655Z 08003KT 2SM -RA BR OVC003 08/08 A3018 RMK AO2A RAB23 SLP226 T00790076",
      "metarObsTime": 1772729700
    },
    "KUNV": {
      "status": "OK",
      "delay": "—",
      "metarCat": "LIFR",
      "metarRaw": "METAR KUNV 051653Z 00000KT 2 1/2SM -DZ OVC004 06/06 A3015",
      "metarObsTime": 1772729580
    },
    "KAOO": {
      "status": "OK",
      "delay": "—",
      "metarCat": "IFR",
      "metarRaw": "METAR KAOO 051653Z AUTO 04005KT 10SM OVC005 08/07 A3012 RMK AO2 RAE1559B12E51 CIG 003V007 SLP209 P0001 T00780072",
      "metarObsTime": 1772729580
    },
    "KLNS": {
      "status": "OK",
      "delay": "—",
      "metarCat": "LIFR",
      "metarRaw": "SPECI KLNS 051704Z 07005KT 1 3/4SM -RA BR OVC003 08/07 A3018 RMK AO2 P0002 T00780072",
      "metarObsTime": 1772730240
    },
    "KIPT": {
      "status": "OK",
      "delay": "—",
      "metarCat": "IFR",
      "metarRaw": "METAR KIPT 051654Z VRB03KT 4SM BR OVC007 07/06 A3018 RMK AO2 SLP223 T00670061 $",
      "metarObsTime": 1772729640
    },
    "KPHL": {
      "status": "OK",
      "delay": "—",
      "metarCat": "IFR",
      "metarRaw": "METAR KPHL 051654Z 06006KT 6SM BR OVC008 08/06 A3022 RMK AO2 SLP231 T00830061 $",
      "metarObsTime": 1772729640
    },
    "KABE": {
      "status": "OK",
      "delay": "—",
      "metarCat": "IFR",
      "metarRaw": "SPECI KABE 051714Z VRB03KT 2 1/2SM BR OVC005 07/07 A3021 RMK AO2 SFC VIS 6 T00720067",
      "metarObsTime": 1772730840
    },
    "KAVP": {
      "status": "OK",
      "delay": "—",
      "metarCat": "IFR",
      "metarRaw": "SPECI KAVP 051708Z 00000KT 1 1/2SM BR OVC010 07/07 A3018 RMK AO2 SFC VIS 3 RAE07 P0000 T00720072",
      "metarObsTime": 1772730480
    },
    "KHZL": {
      "status": "OK",
      "delay": "—",
      "metarCat": "LIFR",
      "metarRaw": "METAR KHZL 051715Z AUTO 00000KT 1SM BR OVC002 07/06 A3019 RMK AO2",
      "metarObsTime": 1772730900
    }
  }
}