{
  "generatedAt": "2026-04-05T03:40:38.762Z",
  "airports": {
    "KPIT": {
      "status": "OK",
      "delay": "—",
      "metarCat": "VFR",
      "metarRaw": "METAR KPIT 050251Z 25019G33KT 10SM -RA FEW040 BKN070 OVC100 23/13 A2986 RMK AO2 PK WND 25033/0235 RAB35 SLP110 P0000 60000 T02280133 53004 $",
      "metarObsTime": 1775357460
    },
    "KAGC": {
      "status": "OK",
      "delay": "—",
      "metarCat": "VFR",
      "metarRaw": "METAR KAGC 050253Z 24007KT 10SM FEW100 FEW120 24/11 A2985 RMK AO2 SLP103 T02390106 58001",
      "metarObsTime": 1775357580
    },
    "KLBE": {
      "status": "OK",
      "delay": "—",
      "metarCat": "VFR",
      "metarRaw": "METAR KLBE 050335Z AUTO 17006KT 10SM BKN080 BKN110 24/12 A2986 RMK AO2",
      "metarObsTime": 1775360100
    },
    "KJST": {
      "status": "OK",
      "delay": "—",
      "metarCat": "VFR",
      "metarRaw": "METAR KJST 050254Z AUTO 18010KT 10SM BKN075 OVC090 21/12 A2992 RMK AO2 SLP119 T02060117 58007",
      "metarObsTime": 1775357640
    },
    "KERI": {
      "status": "OK",
      "delay": "—",
      "metarCat": "IFR",
      "metarRaw": "SPECI KERI 050337Z 26012G30KT 2SM RA BR OVC009 11/10 A2984 RMK AO2 PK WND 27030/0254 P0006 T01060100",
      "metarObsTime": 1775360220
    },
    "KDUJ": {
      "status": "OK",
      "delay": "—",
      "metarCat": "VFR",
      "metarRaw": "METAR KDUJ 050253Z AUTO 18009G18KT 10SM FEW090 BKN110 21/12 A2985 RMK AO2 SLP097 T02110122 58010",
      "metarObsTime": 1775357580
    },
    "KBFD": {
      "status": "OK",
      "delay": "—",
      "metarCat": "VFR",
      "metarRaw": "METAR KBFD 050253Z AUTO 17009G20KT 130V210 10SM SCT070 BKN100 21/12 A2983 RMK AO2 SLP090 T02060122 57015",
      "metarObsTime": 1775357580
    },
    "KBTP": {
      "status": "OK",
      "delay": "—",
      "metarCat": "VFR",
      "metarRaw": "METAR KBTP 050256Z AUTO 24021G34KT 10SM OVC070 22/13 A2986 RMK AO2 PK WND 25034/0255 RAB13E25 SLP110 P0000 60000 T02220133 50004 $",
      "metarObsTime": 1775357760
    },
    "KFKL": {
      "status": "OK",
      "delay": "—",
      "metarCat": "VFR",
      "metarRaw": "METAR KFKL 050256Z AUTO 25007KT 10SM FEW050 SCT075 OVC095 17/16 A2986 RMK AO2 RAE56 SLP106 P0003 60007 T01720156 50006",
      "metarObsTime": 1775357760
    },
    "KIDI": {
      "status": "OK",
      "delay": "—",
      "metarCat": "VFR",
      "metarRaw": "METAR KIDI 050335Z AUTO 20005KT 10SM FEW080 BKN095 23/11 A2985 RMK A01",
      "metarObsTime": 1775360100
    },
    "KMDT": {
      "status": "OK",
      "delay": "—",
      "metarCat": "MVFR",
      "metarRaw": "METAR KMDT 050256Z 10017G22KT 10SM BKN017 OVC022 14/11 A3002 RMK AO2 SLP164 T01440106 50016 $",
      "metarObsTime": 1775357760
    },
    "KCXY": {
      "status": "OK",
      "delay": "—",
      "metarCat": "MVFR",
      "metarRaw": "SPECI KCXY 050314Z AUTO 10017G26KT 10SM BKN016 14/11 A3000 RMK AO2 PK WND 10026/0312 T01390106 $",
      "metarObsTime": 1775358840
    },
    "KMUI": {
      "status": "OK",
      "delay": "—",
      "metarCat": "MVFR",
      "metarRaw": "SPECI KMUI 050303Z AUTO 07012KT 10SM OVC014 13/11 A3003 RMK AO2 SLP171",
      "metarObsTime": 1775358180
    },
    "KUNV": {
      "status": "OK",
      "delay": "—",
      "metarCat": "VFR",
      "metarRaw": "METAR KUNV 050235Z AUTO 17004KT 10SM SCT080 BKN100 22/15 A2992 RMK AO2 T02170153",
      "metarObsTime": 1775356500
    },
    "KAOO": {
      "status": "OK",
      "delay": "—",
      "metarCat": "VFR",
      "metarRaw": "METAR KAOO 050253Z AUTO 18012G19KT 10SM OVC100 21/13 A2992 RMK AO2 SLP121 T02110133 58010",
      "metarObsTime": 1775357580
    },
    "KLNS": {
      "status": "OK",
      "delay": "—",
      "metarCat": "MVFR",
      "metarRaw": "METAR KLNS 050253Z 10015G25KT 10SM OVC012 11/09 A3005 RMK AO2 SLP176 T01110094 50007",
      "metarObsTime": 1775357580
    },
    "KIPT": {
      "status": "OK",
      "delay": "—",
      "metarCat": "VFR",
      "metarRaw": "METAR KIPT 050254Z AUTO 12018G27KT 10SM FEW110 14/10 A2995 RMK AO2 PK WND 14030/0157 RAE26 SLP143 P0000 60006 T01390100 50012",
      "metarObsTime": 1775357640
    },
    "KPHL": {
      "status": "OK",
      "delay": "—",
      "metarCat": "IFR",
      "metarRaw": "SPECI KPHL 050308Z 07014G20KT 6SM BR OVC005 09/08 A3013 RMK AO2 T00940078 $",
      "metarObsTime": 1775358480
    },
    "KABE": {
      "status": "OK",
      "delay": "—",
      "metarCat": "IFR",
      "metarRaw": "METAR KABE 050251Z 09013G19KT 7SM OVC007 07/06 A3014 RMK AO2 SLP208 T00670056 50000 $",
      "metarObsTime": 1775357460
    },
    "KAVP": {
      "status": "OK",
      "delay": "—",
      "metarCat": "MVFR",
      "metarRaw": "SPECI KAVP 050305Z AUTO 11008KT 10SM OVC014 10/07 A3005 RMK AO2 T01000067",
      "metarObsTime": 1775358300
    },
    "KHZL": {
      "status": "OK",
      "delay": "—",
      "metarCat": "IFR",
      "metarRaw": "METAR KHZL 050235Z AUTO 14009G22KT 100V220 10SM OVC006 07/05 A3007 RMK AO2",
      "metarObsTime": 1775356500
    }
  }
}