{
  "generatedAt": "2026-04-06T19:21:22.468Z",
  "airports": {
    "KPIT": {
      "status": "OK",
      "delay": "—",
      "metarCat": "VFR",
      "metarRaw": "METAR KPIT 061851Z 26011G18KT 10SM BKN040 BKN060 10/M01 A3005 RMK AO2 PK WND 29028/1805 SLP188 T01001006",
      "metarObsTime": 1775501460
    },
    "KAGC": {
      "status": "OK",
      "delay": "—",
      "metarCat": "VFR",
      "metarRaw": "METAR KAGC 061853Z 27009G21KT 10SM SCT048 BKN070 10/01 A3005 RMK AO2 PK WND 24027/1841 RAB24E35 SLP186 P0000 T01000006",
      "metarObsTime": 1775501580
    },
    "KLBE": {
      "status": "OK",
      "delay": "—",
      "metarCat": "VFR",
      "metarRaw": "METAR KLBE 061847Z 26012G21KT 10SM BKN049 SCT060 11/01 A3007",
      "metarObsTime": 1775501220
    },
    "KJST": {
      "status": "OK",
      "delay": "—",
      "metarCat": "VFR",
      "metarRaw": "METAR KJST 061854Z AUTO 27007KT 10SM BKN040 OVC055 07/M02 A3001 RMK AO2 SLP179 T00671017",
      "metarObsTime": 1775501640
    },
    "KERI": {
      "status": "OK",
      "delay": "—",
      "metarCat": "MVFR",
      "metarRaw": "METAR KERI 061851Z VRB03KT 8SM OVC023 06/01 A3007 RMK AO2 SLP190 T00560011 $",
      "metarObsTime": 1775501460
    },
    "KDUJ": {
      "status": "OK",
      "delay": "—",
      "metarCat": "MVFR",
      "metarRaw": "METAR KDUJ 061853Z AUTO 28008KT 10SM BKN024 OVC030 03/M01 A3004 RMK AO2 SNE1756 SLP186 P0000 T00331011",
      "metarObsTime": 1775501580
    },
    "KBFD": {
      "status": "OK",
      "delay": "—",
      "metarCat": "MVFR",
      "metarRaw": "METAR KBFD 061853Z AUTO 23005KT 5SM -SN FEW018 BKN024 OVC038 02/M01 A3002 RMK AO2 SLP183 P0000 T00171011",
      "metarObsTime": 1775501580
    },
    "KBTP": {
      "status": "OK",
      "delay": "—",
      "metarCat": "VFR",
      "metarRaw": "METAR KBTP 061856Z AUTO 30011KT 10SM -RA SCT035 SCT046 OVC065 09/01 A3006 RMK AO2 RAB39 SLP192 P0000 T00890011 $",
      "metarObsTime": 1775501760
    },
    "KFKL": {
      "status": "OK",
      "delay": "—",
      "metarCat": "MVFR",
      "metarRaw": "METAR KFKL 061856Z AUTO 25006KT 10SM OVC019 06/01 A3006 RMK AO2 SLP192 T00560011",
      "metarObsTime": 1775501760
    },
    "KIDI": {
      "status": "OK",
      "delay": "—",
      "metarCat": "VFR",
      "metarRaw": "METAR KIDI 061915Z AUTO 29016KT 10SM SCT044 BKN050 OVC065 09/M00 A3004 RMK A01",
      "metarObsTime": 1775502900
    },
    "KMDT": {
      "status": "OK",
      "delay": "—",
      "metarCat": "VFR",
      "metarRaw": "METAR KMDT 061856Z 27010KT 10SM OVC065 12/M02 A3004 RMK AO2 SLP176 T01171017",
      "metarObsTime": 1775501760
    },
    "KCXY": {
      "status": "OK",
      "delay": "—",
      "metarCat": "VFR",
      "metarRaw": "METAR KCXY 061856Z 29008KT 10SM OVC070 12/M03 A3005 RMK AO2 SLP177 T01221028",
      "metarObsTime": 1775501760
    },
    "KMUI": {
      "status": "OK",
      "delay": "—",
      "metarCat": "—",
      "metarRaw": "—",
      "metarObsTime": null
    },
    "KUNV": {
      "status": "OK",
      "delay": "—",
      "metarCat": "VFR",
      "metarRaw": "METAR KUNV 061853Z 25012G17KT 10SM BKN048 08/M02 A3005",
      "metarObsTime": 1775501580
    },
    "KAOO": {
      "status": "OK",
      "delay": "—",
      "metarCat": "VFR",
      "metarRaw": "METAR KAOO 061853Z AUTO 28014G21KT 10SM BKN050 BKN075 10/M01 A3004 RMK AO2 SLP177 T01001011 $",
      "metarObsTime": 1775501580
    },
    "KLNS": {
      "status": "OK",
      "delay": "—",
      "metarCat": "VFR",
      "metarRaw": "METAR KLNS 061853Z 26008KT 10SM BKN065 OVC080 11/M02 A3004 RMK AO2 WSHFT 1740 SLP174 T01061022",
      "metarObsTime": 1775501580
    },
    "KIPT": {
      "status": "OK",
      "delay": "—",
      "metarCat": "VFR",
      "metarRaw": "METAR KIPT 061854Z 26015G22KT 10SM FEW043 SCT055 OVC070 09/M03 A3003 RMK AO2 SLP172 T00941028",
      "metarObsTime": 1775501640
    },
    "KPHL": {
      "status": "OK",
      "delay": "—",
      "metarCat": "VFR",
      "metarRaw": "METAR KPHL 061854Z 30015G23KT 10SM FEW070 14/M04 A3006 RMK AO2 PK WND 32027/1829 SLP177 T01441039 $",
      "metarObsTime": 1775501640
    },
    "KABE": {
      "status": "OK",
      "delay": "—",
      "metarCat": "VFR",
      "metarRaw": "METAR KABE 061851Z 29011G24KT 10SM OVC080 11/M05 A3003 RMK AO2 PK WND 28026/1829 SLP169 T01111050 $",
      "metarObsTime": 1775501460
    },
    "KAVP": {
      "status": "OK",
      "delay": "—",
      "metarCat": "VFR",
      "metarRaw": "SPECI KAVP 061911Z 01007KT 10SM BKN060 OVC075 08/M06 A3000 RMK AO2 T00831056",
      "metarObsTime": 1775502660
    },
    "KHZL": {
      "status": "OK",
      "delay": "—",
      "metarCat": "VFR",
      "metarRaw": "METAR KHZL 061915Z AUTO 30007KT 270V330 10SM BKN055 08/M05 A3003 RMK AO2",
      "metarObsTime": 1775502900
    }
  }
}