{
  "generatedAt": "2026-03-16T21:10:18.841Z",
  "airports": {
    "KPIT": {
      "status": "OK",
      "delay": "—",
      "metarCat": "LIFR",
      "metarRaw": "METAR KPIT 162051Z 25010G23KT 1/4SM R28R/3500V4500FT +SN FG VV007 01/M01 A2949 RMK AO2 RAE24SNB06 SLP997 P0004 60005 T00061006 53013 $",
      "metarObsTime": 1773694260
    },
    "KAGC": {
      "status": "OK",
      "delay": "—",
      "metarCat": "LIFR",
      "metarRaw": "METAR KAGC 162053Z 26013G24KT 1/2SM R28/P6000FT -SN FG BKN007 OVC012 01/00 A2949 RMK AO2 RAB13E20PLB20E53SNB53 SLP994 P0004 60005 T00060000 53017",
      "metarObsTime": 1773694380
    },
    "KLBE": {
      "status": "OK",
      "delay": "—",
      "metarCat": "IFR",
      "metarRaw": "METAR KLBE 162047Z 25016G27KT 2 1/2SM -RA BR BKN013 BKN019 OVC029 04/02 A2947",
      "metarObsTime": 1773694020
    },
    "KJST": {
      "status": "OK",
      "delay": "—",
      "metarCat": "LIFR",
      "metarRaw": "METAR KJST 162054Z AUTO 27017G25KT 3SM RA BR OVC004 03/02 A2938 RMK AO2 CIG 002V006 SLP954 P0003 60008 T00280022 51006",
      "metarObsTime": 1773694440
    },
    "KERI": {
      "status": "OK",
      "delay": "—",
      "metarCat": "MVFR",
      "metarRaw": "SPECI KERI 162104Z 25016G35KT 4SM -SN BKN026 OVC033 01/M03 A2944 RMK AO2 PK WND 27035/2102 P0000 T00061033 $",
      "metarObsTime": 1773695040
    },
    "KDUJ": {
      "status": "OK",
      "delay": "—",
      "metarCat": "IFR",
      "metarRaw": "METAR KDUJ 162053Z AUTO 26015G22KT 9SM OVC008 04/02 A2936 RMK AO2 PK WND 25027/2016 RAE02 CIG 006V012 SLP944 P0000 60001 T00390022 50006",
      "metarObsTime": 1773694380
    },
    "KBFD": {
      "status": "OK",
      "delay": "—",
      "metarCat": "MVFR",
      "metarRaw": "SPECI KBFD 162105Z AUTO 28012G21KT 10SM SCT008 BKN013 OVC033 04/03 A2932 RMK AO2 RAE04 P0000 T00390028",
      "metarObsTime": 1773695100
    },
    "KBTP": {
      "status": "OK",
      "delay": "—",
      "metarCat": "—",
      "metarRaw": "—",
      "metarObsTime": null
    },
    "KFKL": {
      "status": "OK",
      "delay": "—",
      "metarCat": "IFR",
      "metarRaw": "METAR KFKL 162056Z AUTO 26008G17KT 1SM -SN BR BKN008 BKN013 OVC022 01/M01 A2944 RMK AO2 RAB40E43 CIG 005V011 SLP974 P0002 60006 T00061006 51010 FZRANO",
      "metarObsTime": 1773694560
    },
    "KIDI": {
      "status": "OK",
      "delay": "—",
      "metarCat": "MVFR",
      "metarRaw": "METAR KIDI 162055Z AUTO 26013G19KT 10SM FEW014 SCT021 OVC028 04/03 A2943 RMK A01 P0001",
      "metarObsTime": 1773694500
    },
    "KMDT": {
      "status": "OK",
      "delay": "—",
      "metarCat": "VFR",
      "metarRaw": "METAR KMDT 162056Z 15010KT 10SM -RA FEW020 SCT060 OVC100 16/13 A2935 RMK AO2 RAB05 SLP940 P0001 60006 T01560133 56034",
      "metarObsTime": 1773694560
    },
    "KCXY": {
      "status": "OK",
      "delay": "—",
      "metarCat": "VFR",
      "metarRaw": "METAR KCXY 162056Z 15013G21KT 10SM -RA OVC100 17/14 A2933 RMK AO2 PRESFR SLP934 P0002 60007 T01670139 56040",
      "metarObsTime": 1773694560
    },
    "KMUI": {
      "status": "OK",
      "delay": "—",
      "metarCat": "VFR",
      "metarRaw": "METAR KMUI 162055Z 16009KT 8SM -RA FEW007 SCT025 BKN055 OVC090 17/17 A2935 RMK AO2A SLP941 60012 T01690166 57033",
      "metarObsTime": 1773694500
    },
    "KUNV": {
      "status": "OK",
      "delay": "—",
      "metarCat": "MVFR",
      "metarRaw": "SPECI KUNV 162102Z 27015G23KT 6SM RA BR BKN019 OVC025 12/08 A2929",
      "metarObsTime": 1773694920
    },
    "KAOO": {
      "status": "OK",
      "delay": "—",
      "metarCat": "IFR",
      "metarRaw": "SPECI KAOO 162106Z AUTO 30014G22KT 2 1/2SM -RA BR FEW010 BKN020 OVC030 07/06 A2932 RMK AO2 P0003 T00720056",
      "metarObsTime": 1773695160
    },
    "KLNS": {
      "status": "OK",
      "delay": "—",
      "metarCat": "VFR",
      "metarRaw": "METAR KLNS 162053Z 17010KT 10SM -RA FEW060 SCT080 OVC100 16/14 A2940 RMK AO2 PK WND 19027/2000 SLP954 P0006 60023 T01560139 56019",
      "metarObsTime": 1773694380
    },
    "KIPT": {
      "status": "OK",
      "delay": "—",
      "metarCat": "MVFR",
      "metarRaw": "METAR KIPT 162054Z 08011G17KT 10SM OVC018 17/14 A2927 RMK AO2 RAB1955E47 SLP911 P0001 60009 T01720144 58031",
      "metarObsTime": 1773694440
    },
    "KPHL": {
      "status": "OK",
      "delay": "—",
      "metarCat": "MVFR",
      "metarRaw": "SPECI KPHL 162105Z 17014KT 10SM BKN014 BKN080 OVC100 18/16 A2946 RMK AO2 RAE05 VCSH P0000 T01830156 $",
      "metarObsTime": 1773695100
    },
    "KABE": {
      "status": "OK",
      "delay": "—",
      "metarCat": "MVFR",
      "metarRaw": "METAR KABE 162051Z 16015G24KT 10SM SCT018 BKN026 OVC034 18/15 A2942 RMK AO2 PK WND 21027/2000 RAB1954E13B31E41 SLP962 P0001 60001 T01830150 58033",
      "metarObsTime": 1773694260
    },
    "KAVP": {
      "status": "OK",
      "delay": "—",
      "metarCat": "MVFR",
      "metarRaw": "METAR KAVP 162054Z 17013G26KT 5SM -RA FEW050 BKN080 OVC095 16/13 A2936 RMK AO2 PK WND 16029/2001 RAB1959 SLP939 P0009 60019 T01610128 56034",
      "metarObsTime": 1773694440
    },
    "KHZL": {
      "status": "OK",
      "delay": "—",
      "metarCat": "MVFR",
      "metarRaw": "METAR KHZL 162055Z AUTO 16007G17KT 10SM -RA BKN012 BKN038 OVC095 15/13 A2941 RMK AO2 P0006",
      "metarObsTime": 1773694500
    }
  }
}