{
  "generatedAt": "2026-03-06T14:00:15.276Z",
  "airports": {
    "KPIT": {
      "status": "OK",
      "delay": "—",
      "metarCat": "IFR",
      "metarRaw": "METAR KPIT 061351Z 20005KT 10SM BKN007 OVC021 15/13 A3018 RMK AO2 SLP227 T01500133",
      "metarObsTime": 1772805060
    },
    "KAGC": {
      "status": "OK",
      "delay": "—",
      "metarCat": "MVFR",
      "metarRaw": "METAR KAGC 061353Z 16004KT 5SM BR SCT017 BKN024 14/13 A3019 RMK AO2 SLP225 T01390133",
      "metarObsTime": 1772805180
    },
    "KLBE": {
      "status": "OK",
      "delay": "—",
      "metarCat": "MVFR",
      "metarRaw": "METAR KLBE 061347Z 00000KT 5SM BR OVC025 14/14 A3022",
      "metarObsTime": 1772804820
    },
    "KJST": {
      "status": "OK",
      "delay": "—",
      "metarCat": "VFR",
      "metarRaw": "METAR KJST 061354Z AUTO 20003KT 10SM SCT018 BKN032 13/11 A3021 RMK AO2 SLP228 T01280111",
      "metarObsTime": 1772805240
    },
    "KERI": {
      "status": "OK",
      "delay": "—",
      "metarCat": "LIFR",
      "metarRaw": "METAR KERI 061351Z 03004KT 1/4SM R06/2200V5000FT FG OVC002 01/01 A3020 RMK AO2 SLP236 T00110006",
      "metarObsTime": 1772805060
    },
    "KDUJ": {
      "status": "OK",
      "delay": "—",
      "metarCat": "IFR",
      "metarRaw": "METAR KDUJ 061353Z AUTO 22005KT 9SM BKN005 OVC021 11/11 A3018 RMK AO2 SLP222 T01110106",
      "metarObsTime": 1772805180
    },
    "KBFD": {
      "status": "OK",
      "delay": "—",
      "metarCat": "IFR",
      "metarRaw": "METAR KBFD 061353Z AUTO VRB04KT 10SM BKN006 OVC011 09/08 A3018 RMK AO2 CIG 004V009 SLP226 T00940083",
      "metarObsTime": 1772805180
    },
    "KBTP": {
      "status": "OK",
      "delay": "—",
      "metarCat": "LIFR",
      "metarRaw": "METAR KBTP 061356Z AUTO 18006KT 7SM BKN004 OVC023 14/ A3019 RMK AO2 SLP230 T0139 $",
      "metarObsTime": 1772805360
    },
    "KFKL": {
      "status": "OK",
      "delay": "—",
      "metarCat": "LIFR",
      "metarRaw": "METAR KFKL 061356Z AUTO 19005KT 5SM BR BKN004 OVC007 11/11 A3019 RMK AO2 SLP227 T01060106",
      "metarObsTime": 1772805360
    },
    "KIDI": {
      "status": "OK",
      "delay": "—",
      "metarCat": "MVFR",
      "metarRaw": "METAR KIDI 061355Z AUTO 00000KT 6SM BR FEW007 BKN024 OVC050 14/14 A3021 RMK A01",
      "metarObsTime": 1772805300
    },
    "KMDT": {
      "status": "OK",
      "delay": "—",
      "metarCat": "LIFR",
      "metarRaw": "METAR KMDT 061356Z 08005KT 3/4SM R13/P6000FT BR OVC003 05/04 A3030 RMK AO2 SLP263 T00500044",
      "metarObsTime": 1772805360
    },
    "KCXY": {
      "status": "OK",
      "delay": "—",
      "metarCat": "LIFR",
      "metarRaw": "METAR KCXY 061356Z 09006KT 1/2SM R08/5000V5500FT FG OVC003 04/04 A3031 RMK AO2 SLP266 T00440044",
      "metarObsTime": 1772805360
    },
    "KMUI": {
      "status": "OK",
      "delay": "—",
      "metarCat": "LIFR",
      "metarRaw": "METAR KMUI 061355Z 08008KT 3SM BR OVC004 05/04 A3029 RMK AO2A SLP263 T00460043",
      "metarObsTime": 1772805300
    },
    "KUNV": {
      "status": "OK",
      "delay": "—",
      "metarCat": "LIFR",
      "metarRaw": "METAR KUNV 061353Z 00000KT 1/8SM R24/2400FT FG OVC003 08/07 A3023",
      "metarObsTime": 1772805180
    },
    "KAOO": {
      "status": "OK",
      "delay": "—",
      "metarCat": "MVFR",
      "metarRaw": "METAR KAOO 061353Z AUTO 06004KT 3SM BR OVC025 10/09 A3022 RMK AO2 SLP237 T01000089",
      "metarObsTime": 1772805180
    },
    "KLNS": {
      "status": "OK",
      "delay": "—",
      "metarCat": "LIFR",
      "metarRaw": "METAR KLNS 061353Z 07007KT 1 1/2SM BR OVC003 04/03 A3030 RMK AO2 SLP264 T00390033",
      "metarObsTime": 1772805180
    },
    "KIPT": {
      "status": "OK",
      "delay": "—",
      "metarCat": "IFR",
      "metarRaw": "METAR KIPT 061354Z 09006KT 5SM BR OVC006 06/04 A3026 RMK AO2 SLP251 T00560044",
      "metarObsTime": 1772805240
    },
    "KPHL": {
      "status": "OK",
      "delay": "—",
      "metarCat": "IFR",
      "metarRaw": "METAR KPHL 061354Z 07006G16KT 10SM OVC008 06/03 A3034 RMK AO2 SLP273 T00560033 $",
      "metarObsTime": 1772805240
    },
    "KABE": {
      "status": "OK",
      "delay": "—",
      "metarCat": "IFR",
      "metarRaw": "METAR KABE 061351Z AUTO 05008KT 10SM OVC006 03/02 A3033 RMK AO2 UPB14E23RAB23E48 SLP273 P0000 T00280017",
      "metarObsTime": 1772805060
    },
    "KAVP": {
      "status": "OK",
      "delay": "—",
      "metarCat": "MVFR",
      "metarRaw": "METAR KAVP 061354Z AUTO 06005KT 10SM OVC012 03/01 A3029 RMK AO2 SLP261 T00330011",
      "metarObsTime": 1772805240
    },
    "KHZL": {
      "status": "OK",
      "delay": "—",
      "metarCat": "LIFR",
      "metarRaw": "METAR KHZL 061355Z AUTO 13004KT 1 3/4SM BR OVC002 01/01 A3029 RMK AO2",
      "metarObsTime": 1772805300
    }
  }
}