{
  "generatedAt": "2026-03-28T06:40:23.096Z",
  "airports": {
    "KPIT": {
      "status": "OK",
      "delay": "—",
      "metarCat": "VFR",
      "metarRaw": "METAR KPIT 280551Z 32008KT 10SM FEW040 M02/M08 A3037 RMK AO2 SLP303 T10221078 10050 21022 51015",
      "metarObsTime": 1774677060
    },
    "KAGC": {
      "status": "OK",
      "delay": "—",
      "metarCat": "VFR",
      "metarRaw": "METAR KAGC 280553Z 32007KT 10SM CLR M02/M08 A3036 RMK AO2 SLP298 T10221083 10044 21022 51020",
      "metarObsTime": 1774677180
    },
    "KLBE": {
      "status": "OK",
      "delay": "—",
      "metarCat": "VFR",
      "metarRaw": "METAR KLBE 280635Z AUTO 26006KT 10SM CLR M02/M08 A3039 RMK AO2",
      "metarObsTime": 1774679700
    },
    "KJST": {
      "status": "OK",
      "delay": "—",
      "metarCat": "VFR",
      "metarRaw": "METAR KJST 280554Z AUTO 30013KT 10SM CLR M04/M11 A3024 RMK AO2 SLP266 T10441106 10028 21044 51023",
      "metarObsTime": 1774677240
    },
    "KERI": {
      "status": "OK",
      "delay": "—",
      "metarCat": "VFR",
      "metarRaw": "METAR KERI 280551Z AUTO 31005KT 10SM BKN095 M02/M08 A3038 RMK AO2 SLP297 T10221083 11006 21022 51013 $",
      "metarObsTime": 1774677060
    },
    "KDUJ": {
      "status": "OK",
      "delay": "—",
      "metarCat": "VFR",
      "metarRaw": "SPECI KDUJ 280629Z AUTO 28006KT 10SM BKN032 M04/M09 A3028 RMK AO2 T10441089",
      "metarObsTime": 1774679340
    },
    "KBFD": {
      "status": "OK",
      "delay": "—",
      "metarCat": "VFR",
      "metarRaw": "SPECI KBFD 280632Z AUTO 30009KT 10SM SCT022 SCT032 M06/M09 A3025 RMK AO2 T10611089",
      "metarObsTime": 1774679520
    },
    "KBTP": {
      "status": "OK",
      "delay": "—",
      "metarCat": "VFR",
      "metarRaw": "METAR KBTP 280556Z AUTO 28005KT 10SM CLR M04/M07 A3037 RMK AO2 SLP304 T10391072 10017 21039 51014 FZRANO $",
      "metarObsTime": 1774677360
    },
    "KFKL": {
      "status": "OK",
      "delay": "—",
      "metarCat": "VFR",
      "metarRaw": "METAR KFKL 280556Z AUTO 31007KT 290V350 10SM CLR M04/M08 A3034 RMK AO2 SLP292 T10441083 11022 21044 51011 FZRANO",
      "metarObsTime": 1774677360
    },
    "KIDI": {
      "status": "OK",
      "delay": "—",
      "metarCat": "VFR",
      "metarRaw": "METAR KIDI 280635Z AUTO 28006KT 10SM SCT032 M04/M08 A3035 RMK A01",
      "metarObsTime": 1774679700
    },
    "KMDT": {
      "status": "OK",
      "delay": "—",
      "metarCat": "VFR",
      "metarRaw": "METAR KMDT 280556Z 33005KT 10SM FEW060 BKN075 00/M04 A3025 RMK AO2 SLP246 T00001039 10050 21006 51014",
      "metarObsTime": 1774677360
    },
    "KCXY": {
      "status": "OK",
      "delay": "—",
      "metarCat": "VFR",
      "metarRaw": "METAR KCXY 280556Z AUTO 33006KT 10SM FEW055 BKN075 01/M04 A3026 RMK AO2 SLP250 T00061039 10050 21011 53014",
      "metarObsTime": 1774677360
    },
    "KMUI": {
      "status": "OK",
      "delay": "—",
      "metarCat": "—",
      "metarRaw": "—",
      "metarObsTime": null
    },
    "KUNV": {
      "status": "OK",
      "delay": "—",
      "metarCat": "VFR",
      "metarRaw": "METAR KUNV 280635Z AUTO 31006KT 10SM SCT036 SCT044 M01/M10 A3029 RMK AO2 T10121101",
      "metarObsTime": 1774679700
    },
    "KAOO": {
      "status": "OK",
      "delay": "—",
      "metarCat": "VFR",
      "metarRaw": "METAR KAOO 280553Z AUTO 32009KT 10SM CLR M02/M12 A3027 RMK AO2 SLP264 T10171117 10056 21017 51029",
      "metarObsTime": 1774677180
    },
    "KLNS": {
      "status": "OK",
      "delay": "—",
      "metarCat": "VFR",
      "metarRaw": "METAR KLNS 280553Z AUTO 36006KT 10SM FEW065 00/M07 A3023 RMK AO2 SLP241 T00001072 10044 20000 51015",
      "metarObsTime": 1774677180
    },
    "KIPT": {
      "status": "OK",
      "delay": "—",
      "metarCat": "VFR",
      "metarRaw": "METAR KIPT 280554Z AUTO 32004KT 10SM OVC055 M02/M10 A3030 RMK AO2 SLP265 T10171100 10033 21022 51024",
      "metarObsTime": 1774677240
    },
    "KPHL": {
      "status": "OK",
      "delay": "—",
      "metarCat": "VFR",
      "metarRaw": "METAR KPHL 280554Z 34009KT 10SM FEW250 04/M07 A3022 RMK AO2 SLP233 T00391067 10083 20039 51004 $",
      "metarObsTime": 1774677240
    },
    "KABE": {
      "status": "OK",
      "delay": "—",
      "metarCat": "VFR",
      "metarRaw": "METAR KABE 280551Z 33009KT 10SM CLR M01/M08 A3024 RMK AO2 SLP243 T10111083 10039 21017 52014 $",
      "metarObsTime": 1774677060
    },
    "KAVP": {
      "status": "OK",
      "delay": "—",
      "metarCat": "VFR",
      "metarRaw": "METAR KAVP 280554Z 34010KT 10SM CLR M03/M13 A3025 RMK AO2 SLP251 T10331133 10022 21033 53015",
      "metarObsTime": 1774677240
    },
    "KHZL": {
      "status": "OK",
      "delay": "—",
      "metarCat": "VFR",
      "metarRaw": "METAR KHZL 280635Z AUTO 33011G15KT 10SM CLR M03/M14 A3024 RMK AO2",
      "metarObsTime": 1774679700
    }
  }
}