{
  "generatedAt": "2026-04-20T08:20:55.289Z",
  "airports": {
    "KPIT": {
      "status": "OK",
      "delay": "—",
      "metarCat": "IFR",
      "metarRaw": "SPECI KPIT 200816Z 35011KT 9SM -SNRA BKN009 OVC045 03/M01 A3016 RMK AO2 RAE0755B16 P0000 T00281006 $",
      "metarObsTime": 1776672960
    },
    "KAGC": {
      "status": "OK",
      "delay": "—",
      "metarCat": "MVFR",
      "metarRaw": "METAR KAGC 200753Z 35006KT 9SM BKN017 OVC022 03/01 A3013 RMK AO2 SLP215 T00330006",
      "metarObsTime": 1776671580
    },
    "KLBE": {
      "status": "OK",
      "delay": "—",
      "metarCat": "MVFR",
      "metarRaw": "METAR KLBE 200815Z AUTO 31006KT 10SM SCT018 BKN025 OVC032 04/02 A3016 RMK AO2",
      "metarObsTime": 1776672900
    },
    "KJST": {
      "status": "OK",
      "delay": "—",
      "metarCat": "IFR",
      "metarRaw": "SPECI KJST 200816Z AUTO 28006KT 6SM BR BKN005 01/00 A3007 RMK AO2 T00060000 $",
      "metarObsTime": 1776672960
    },
    "KERI": {
      "status": "OK",
      "delay": "—",
      "metarCat": "VFR",
      "metarRaw": "METAR KERI 200751Z AUTO 34013G19KT 10SM FEW060 01/M08 A3020 RMK AO2 SLP233 T00061083 $",
      "metarObsTime": 1776671460
    },
    "KDUJ": {
      "status": "OK",
      "delay": "—",
      "metarCat": "IFR",
      "metarRaw": "METAR KDUJ 200753Z AUTO 30007KT 10SM BKN005 OVC009 00/M01 A3008 RMK AO2 SNE09 SLP200 P0000 T00001006 $",
      "metarObsTime": 1776671580
    },
    "KBFD": {
      "status": "OK",
      "delay": "—",
      "metarCat": "VFR",
      "metarRaw": "METAR KBFD 200753Z AUTO 33010KT 10SM SCT015 SCT020 OVC036 M01/M04 A3007 RMK AO2 SNE10 SLP199 P0000 T10111039",
      "metarObsTime": 1776671580
    },
    "KBTP": {
      "status": "OK",
      "delay": "—",
      "metarCat": "MVFR",
      "metarRaw": "METAR KBTP 200756Z AUTO 29006KT 10SM -RA SCT007 BKN014 OVC055 02/02 A3016 RMK AO2 RAB21 SLP227 P0000 T00170017 FZRANO $",
      "metarObsTime": 1776671760
    },
    "KFKL": {
      "status": "OK",
      "delay": "—",
      "metarCat": "—",
      "metarRaw": "—",
      "metarObsTime": null
    },
    "KIDI": {
      "status": "OK",
      "delay": "—",
      "metarCat": "VFR",
      "metarRaw": "METAR KIDI 200815Z AUTO 31003KT 10SM FEW009 BKN035 OVC048 01/00 A3013 RMK A01",
      "metarObsTime": 1776672900
    },
    "KMDT": {
      "status": "OK",
      "delay": "—",
      "metarCat": "VFR",
      "metarRaw": "METAR KMDT 200756Z 33004KT 10SM FEW075 04/00 A3011 RMK AO2 SLP197 T00440000",
      "metarObsTime": 1776671760
    },
    "KCXY": {
      "status": "OK",
      "delay": "—",
      "metarCat": "VFR",
      "metarRaw": "METAR KCXY 200756Z AUTO 23004KT 10SM CLR 02/M01 A3011 RMK AO2 SLP200 T00171006 $",
      "metarObsTime": 1776671760
    },
    "KMUI": {
      "status": "OK",
      "delay": "—",
      "metarCat": "VFR",
      "metarRaw": "METAR KMUI 200755Z AUTO 00000KT 10SM CLR 04/02 A3008 RMK AO2 SLP191 T00430015",
      "metarObsTime": 1776671700
    },
    "KUNV": {
      "status": "OK",
      "delay": "—",
      "metarCat": "VFR",
      "metarRaw": "METAR KUNV 200815Z AUTO 00000KT 10SM SCT018 SCT038 BKN080 01/01 A3010 RMK AO2 T00130013",
      "metarObsTime": 1776672900
    },
    "KAOO": {
      "status": "OK",
      "delay": "—",
      "metarCat": "MVFR",
      "metarRaw": "METAR KAOO 200753Z AUTO 28008KT 10SM -RA FEW016 BKN023 OVC040 03/00 A3009 RMK AO2 RAB07E21B44UPB19E20 SLP200 P0000 T00330000",
      "metarObsTime": 1776671580
    },
    "KLNS": {
      "status": "OK",
      "delay": "—",
      "metarCat": "VFR",
      "metarRaw": "METAR KLNS 200753Z AUTO 00000KT 10SM CLR 04/M02 A3011 RMK AO2 SLP197 T00391017",
      "metarObsTime": 1776671580
    },
    "KIPT": {
      "status": "OK",
      "delay": "—",
      "metarCat": "VFR",
      "metarRaw": "METAR KIPT 200754Z AUTO 26007KT 10SM SCT065 BKN080 OVC095 04/01 A3009 RMK AO2 SLP192 T00390011 $",
      "metarObsTime": 1776671640
    },
    "KPHL": {
      "status": "OK",
      "delay": "—",
      "metarCat": "VFR",
      "metarRaw": "METAR KPHL 200754Z 23005KT 10SM FEW080 06/M02 A3012 RMK AO2 SLP199 T00611017 $",
      "metarObsTime": 1776671640
    },
    "KABE": {
      "status": "OK",
      "delay": "—",
      "metarCat": "VFR",
      "metarRaw": "METAR KABE 200751Z 00000KT 10SM FEW080 00/M01 A3009 RMK AO2 SLP193 T00001011 $",
      "metarObsTime": 1776671460
    },
    "KAVP": {
      "status": "OK",
      "delay": "—",
      "metarCat": "VFR",
      "metarRaw": "METAR KAVP 200754Z 00000KT 10SM BKN065 OVC110 00/M01 A3006 RMK AO2 SLP184 T00001011",
      "metarObsTime": 1776671640
    },
    "KHZL": {
      "status": "OK",
      "delay": "—",
      "metarCat": "VFR",
      "metarRaw": "METAR KHZL 200815Z AUTO 00000KT 10SM SCT050 BKN070 OVC080 02/M02 A3008 RMK AO2",
      "metarObsTime": 1776672900
    }
  }
}