{
  "generatedAt": "2026-03-10T12:00:15.165Z",
  "airports": {
    "KPIT": {
      "status": "OK",
      "delay": "—",
      "metarCat": "MVFR",
      "metarRaw": "METAR KPIT 101151Z 20005KT 10SM OVC029 16/03 A2999 RMK AO2 SLP159 T01560033 10161 20106 50005",
      "metarObsTime": 1773143460
    },
    "KAGC": {
      "status": "OK",
      "delay": "—",
      "metarCat": "MVFR",
      "metarRaw": "METAR KAGC 101153Z 19010KT 10SM OVC029 14/01 A3000 RMK AO2 SLP162 T01390011 10139 20111 53005",
      "metarObsTime": 1773143580
    },
    "KLBE": {
      "status": "OK",
      "delay": "—",
      "metarCat": "MVFR",
      "metarRaw": "METAR KLBE 101050Z 22009KT 10SM BKN030 OVC040 15/05 A3003",
      "metarObsTime": 1773139800
    },
    "KJST": {
      "status": "OK",
      "delay": "—",
      "metarCat": "VFR",
      "metarRaw": "METAR KJST 101154Z AUTO 20007KT 10SM SCT021 SCT029 13/01 A3003 RMK AO2 SLP168 T01330006 10144 20128 53005",
      "metarObsTime": 1773143640
    },
    "KERI": {
      "status": "OK",
      "delay": "—",
      "metarCat": "MVFR",
      "metarRaw": "METAR KERI 101151Z 20009KT 10SM BKN028 BKN036 17/09 A2991 RMK AO2 SLP127 T01670094 10172 20150 53007",
      "metarObsTime": 1773143460
    },
    "KDUJ": {
      "status": "OK",
      "delay": "—",
      "metarCat": "MVFR",
      "metarRaw": "METAR KDUJ 101153Z AUTO 22008KT 10SM OVC023 14/03 A2998 RMK AO2 SLP151 T01440033 10144 20106 51005",
      "metarObsTime": 1773143580
    },
    "KBFD": {
      "status": "OK",
      "delay": "—",
      "metarCat": "VFR",
      "metarRaw": "METAR KBFD 101153Z AUTO 22006KT 10SM SCT021 OVC050 13/06 A2997 RMK AO2 SLP145 T01330056 10133 20117 51006",
      "metarObsTime": 1773143580
    },
    "KBTP": {
      "status": "OK",
      "delay": "—",
      "metarCat": "VFR",
      "metarRaw": "METAR KBTP 101156Z AUTO 18007KT 10SM OVC036 14/03 A3000 RMK AO2 SLP163 60000 T01440028 10144 20117 51006 $",
      "metarObsTime": 1773143760
    },
    "KFKL": {
      "status": "OK",
      "delay": "—",
      "metarCat": "MVFR",
      "metarRaw": "METAR KFKL 101156Z AUTO 21007KT 10SM BKN022 BKN029 OVC037 15/07 A2997 RMK AO2 SLP149 T01500072 10156 20139 51007",
      "metarObsTime": 1773143760
    },
    "KIDI": {
      "status": "OK",
      "delay": "—",
      "metarCat": "MVFR",
      "metarRaw": "METAR KIDI 101155Z AUTO 22008KT 10SM OVC028 14/03 A3002 RMK A01",
      "metarObsTime": 1773143700
    },
    "KMDT": {
      "status": "OK",
      "delay": "—",
      "metarCat": "VFR",
      "metarRaw": "METAR KMDT 101056Z 00000KT 10SM SCT250 04/03 A3003 RMK AO2 SLP169 T00440033",
      "metarObsTime": 1773140160
    },
    "KCXY": {
      "status": "OK",
      "delay": "—",
      "metarCat": "VFR",
      "metarRaw": "METAR KCXY 101056Z 00000KT 10SM CLR 04/03 A3003 RMK AO2 SLP171 T00440028",
      "metarObsTime": 1773140160
    },
    "KMUI": {
      "status": "OK",
      "delay": "—",
      "metarCat": "VFR",
      "metarRaw": "METAR KMUI 101155Z 00000KT 10SM SCT250 04/04 A3002 RMK AO2A SLP170 T00430040 10064 20030 52010",
      "metarObsTime": 1773143700
    },
    "KUNV": {
      "status": "OK",
      "delay": "—",
      "metarCat": "VFR",
      "metarRaw": "METAR KUNV 101153Z 22003KT 10SM CLR 07/M01 A3000",
      "metarObsTime": 1773143580
    },
    "KAOO": {
      "status": "OK",
      "delay": "—",
      "metarCat": "VFR",
      "metarRaw": "METAR KAOO 101153Z AUTO 22007KT 10SM CLR 11/00 A3003 RMK AO2 SLP169 T01060000 10144 20072 53005",
      "metarObsTime": 1773143580
    },
    "KLNS": {
      "status": "OK",
      "delay": "—",
      "metarCat": "VFR",
      "metarRaw": "METAR KLNS 101153Z 00000KT 10SM CLR 06/03 A3004 RMK AO2 SLP174 T00560033 10100 20044 53012",
      "metarObsTime": 1773143580
    },
    "KIPT": {
      "status": "OK",
      "delay": "—",
      "metarCat": "VFR",
      "metarRaw": "METAR KIPT 101154Z 00000KT 10SM CLR 02/01 A3002 RMK AO2 SLP169 T00220006 10044 20011 51007 $",
      "metarObsTime": 1773143640
    },
    "KPHL": {
      "status": "OK",
      "delay": "—",
      "metarCat": "MVFR",
      "metarRaw": "METAR KPHL 101154Z 00000KT 4SM BR FEW002 BKN260 06/06 A3005 RMK AO2 SLP174 VIS W 1/2 T00610056 10106 20044 53009 $",
      "metarObsTime": 1773143640
    },
    "KABE": {
      "status": "OK",
      "delay": "—",
      "metarCat": "VFR",
      "metarRaw": "METAR KABE 101151Z 00000KT 10SM CLR 03/02 A3004 RMK AO2 SLP175 T00280017 10067 20022 53013",
      "metarObsTime": 1773143460
    },
    "KAVP": {
      "status": "OK",
      "delay": "—",
      "metarCat": "VFR",
      "metarRaw": "METAR KAVP 101154Z 00000KT 10SM CLR 04/01 A3002 RMK AO2 SLP165 T00440011 10111 20044 52009",
      "metarObsTime": 1773143640
    },
    "KHZL": {
      "status": "OK",
      "delay": "—",
      "metarCat": "VFR",
      "metarRaw": "METAR KHZL 101135Z AUTO 00000KT 10SM CLR 02/01 A3005 RMK AO2",
      "metarObsTime": 1773142500
    }
  }
}