{
  "generatedAt": "2026-04-11T02:10:41.089Z",
  "airports": {
    "KPIT": {
      "status": "OK",
      "delay": "—",
      "metarCat": "MVFR",
      "metarRaw": "SPECI KPIT 110204Z 29008KT 9SM BKN015 BKN050 OVC070 14/13 A3022 RMK AO2 RAE01 P0000 T01390128 $",
      "metarObsTime": 1775873040
    },
    "KAGC": {
      "status": "OK",
      "delay": "—",
      "metarCat": "MVFR",
      "metarRaw": "SPECI KAGC 110207Z 27005KT 8SM FEW010 BKN023 OVC050 14/13 A3021 RMK AO2 T01390128",
      "metarObsTime": 1775873220
    },
    "KLBE": {
      "status": "OK",
      "delay": "—",
      "metarCat": "MVFR",
      "metarRaw": "METAR KLBE 110147Z 00000KT 6SM BR BKN014 14/14 A3023",
      "metarObsTime": 1775872020
    },
    "KJST": {
      "status": "OK",
      "delay": "—",
      "metarCat": "MVFR",
      "metarRaw": "SPECI KJST 110201Z AUTO 28006KT 3SM +RA BR FEW007 BKN035 OVC043 12/11 A3022 RMK AO2 P0003 T01170111",
      "metarObsTime": 1775872860
    },
    "KERI": {
      "status": "OK",
      "delay": "—",
      "metarCat": "LIFR",
      "metarRaw": "METAR KERI 110151Z 27005KT 3SM BR BKN003 OVC016 06/06 A3027 RMK AO2 SLP253 T00610056 $",
      "metarObsTime": 1775872260
    },
    "KDUJ": {
      "status": "OK",
      "delay": "—",
      "metarCat": "IFR",
      "metarRaw": "METAR KDUJ 110153Z AUTO 27007KT 10SM OVC005 12/11 A3018 RMK AO2 RAE02 CIG 004V009 SLP216 P0000 T01220111",
      "metarObsTime": 1775872380
    },
    "KBFD": {
      "status": "OK",
      "delay": "—",
      "metarCat": "IFR",
      "metarRaw": "SPECI KBFD 110156Z AUTO 28009G17KT 250V320 6SM RA BR BKN008 BKN013 OVC019 10/09 A3018 RMK AO2 P0000 T01000089",
      "metarObsTime": 1775872560
    },
    "KBTP": {
      "status": "OK",
      "delay": "—",
      "metarCat": "MVFR",
      "metarRaw": "METAR KBTP 110156Z AUTO 27007KT 10SM OVC010 13/ A3022 RMK AO2 CIG 006V012 SLP238 P0001 T0133 $",
      "metarObsTime": 1775872560
    },
    "KFKL": {
      "status": "OK",
      "delay": "—",
      "metarCat": "IFR",
      "metarRaw": "METAR KFKL 110156Z AUTO 30007KT 8SM OVC005 09/08 A3023 RMK AO2 RAE51 CIG 003V007 SLP239 P0000 T00890083",
      "metarObsTime": 1775872560
    },
    "KIDI": {
      "status": "OK",
      "delay": "—",
      "metarCat": "IFR",
      "metarRaw": "METAR KIDI 110155Z AUTO 23005KT 10SM OVC009 13/13 A3021 RMK A01 P0006",
      "metarObsTime": 1775872500
    },
    "KMDT": {
      "status": "OK",
      "delay": "—",
      "metarCat": "VFR",
      "metarRaw": "METAR KMDT 110156Z 00000KT 10SM OVC120 18/07 A3014 RMK AO2 SLP207 T01830072",
      "metarObsTime": 1775872560
    },
    "KCXY": {
      "status": "OK",
      "delay": "—",
      "metarCat": "VFR",
      "metarRaw": "METAR KCXY 110156Z AUTO 19006KT 10SM OVC110 19/08 A3014 RMK AO2 SLP209 T01940078 $",
      "metarObsTime": 1775872560
    },
    "KMUI": {
      "status": "OK",
      "delay": "—",
      "metarCat": "—",
      "metarRaw": "—",
      "metarObsTime": null
    },
    "KUNV": {
      "status": "OK",
      "delay": "—",
      "metarCat": "VFR",
      "metarRaw": "METAR KUNV 110153Z 27011G18KT 10SM -RA SCT026 SCT042 14/12 A3018",
      "metarObsTime": 1775872380
    },
    "KAOO": {
      "status": "OK",
      "delay": "—",
      "metarCat": "VFR",
      "metarRaw": "METAR KAOO 110153Z AUTO 31013G24KT 10SM -RA FEW024 OVC080 15/11 A3020 RMK AO2 RAB05 SLP225 P0000 T01500111",
      "metarObsTime": 1775872380
    },
    "KLNS": {
      "status": "OK",
      "delay": "—",
      "metarCat": "VFR",
      "metarRaw": "METAR KLNS 110153Z 19005KT 10SM CLR 17/06 A3013 RMK AO2 SLP201 T01670061",
      "metarObsTime": 1775872380
    },
    "KIPT": {
      "status": "OK",
      "delay": "—",
      "metarCat": "MVFR",
      "metarRaw": "METAR KIPT 110154Z 26011G18KT 4SM RA BR BKN060 OVC075 14/13 A3017 RMK AO2 SLP216 P0013 T01440128",
      "metarObsTime": 1775872440
    },
    "KPHL": {
      "status": "OK",
      "delay": "—",
      "metarCat": "VFR",
      "metarRaw": "METAR KPHL 110154Z 20003KT 10SM BKN210 13/06 A3017 RMK AO2 SLP215 T01330061 $",
      "metarObsTime": 1775872440
    },
    "KABE": {
      "status": "OK",
      "delay": "—",
      "metarCat": "VFR",
      "metarRaw": "METAR KABE 110151Z 19008KT 10SM BKN120 17/07 A3012 RMK AO2 SLP199 T01720067 $",
      "metarObsTime": 1775872260
    },
    "KAVP": {
      "status": "OK",
      "delay": "—",
      "metarCat": "VFR",
      "metarRaw": "METAR KAVP 110154Z AUTO 00000KT 6SM -RA BKN055 OVC065 14/10 A3017 RMK AO2 RAB16 SLP214 P0000 T01440100",
      "metarObsTime": 1775872440
    },
    "KHZL": {
      "status": "OK",
      "delay": "—",
      "metarCat": "VFR",
      "metarRaw": "METAR KHZL 110155Z AUTO 30004KT 10SM -RA BKN065 OVC075 15/08 A3021 RMK AO2",
      "metarObsTime": 1775872500
    }
  }
}