{
  "generatedAt": "2026-07-13T01:14:11.350Z",
  "faaFlow": {
    "updatedAt": "2026-07-13T01:14:11.089Z",
    "source": "https://www.fly.faa.gov/adv/adv_spt",
    "terminal": [
      {
        "time": "—",
        "text": "AFTER",
        "code": "FLOW",
        "label": "FAA flow impact",
        "level": "yellow",
        "section": "Terminal Planned",
        "airports": []
      },
      {
        "time": "0100",
        "text": "SAN GROUND DELAY PROGRAM EXPECTED",
        "code": "GDP",
        "label": "Ground delay possible",
        "level": "orange",
        "section": "Terminal Planned",
        "airports": []
      },
      {
        "time": "—",
        "text": "UNTIL",
        "code": "FLOW",
        "label": "FAA flow impact",
        "level": "yellow",
        "section": "Terminal Planned",
        "airports": []
      },
      {
        "time": "0200",
        "text": "LGA GROUND STOP POSSIBLE",
        "code": "GS",
        "label": "Ground stop possible",
        "level": "yellow",
        "section": "Terminal Planned",
        "airports": []
      },
      {
        "time": "—",
        "text": "UNTIL",
        "code": "FLOW",
        "label": "FAA flow impact",
        "level": "yellow",
        "section": "Terminal Planned",
        "airports": []
      },
      {
        "time": "0200",
        "text": "PHX GROUND STOP POSSIBLE",
        "code": "GS",
        "label": "Ground stop possible",
        "level": "yellow",
        "section": "Terminal Planned",
        "airports": []
      }
    ],
    "enroute": [
      {
        "time": "—",
        "text": "UNTIL",
        "code": "FLOW",
        "label": "FAA flow impact",
        "level": "yellow",
        "section": "En Route Planned",
        "airports": []
      },
      {
        "time": "0300",
        "text": "ZDC SWAP STATEMENT",
        "code": "ROUTE",
        "label": "Route impact possible",
        "level": "blue",
        "section": "En Route Planned",
        "airports": []
      },
      {
        "time": "—",
        "text": "UNTIL",
        "code": "FLOW",
        "label": "FAA flow impact",
        "level": "yellow",
        "section": "En Route Planned",
        "airports": []
      },
      {
        "time": "0300",
        "text": "ATL CDRS",
        "code": "ROUTE",
        "label": "Route impact possible",
        "level": "blue",
        "section": "En Route Planned",
        "airports": []
      },
      {
        "time": "—",
        "text": "UNTIL",
        "code": "FLOW",
        "label": "FAA flow impact",
        "level": "yellow",
        "section": "En Route Planned",
        "airports": []
      },
      {
        "time": "0300",
        "text": "CLT CDRS",
        "code": "ROUTE",
        "label": "Route impact possible",
        "level": "blue",
        "section": "En Route Planned",
        "airports": []
      },
      {
        "time": "—",
        "text": "UNTIL",
        "code": "FLOW",
        "label": "FAA flow impact",
        "level": "yellow",
        "section": "En Route Planned",
        "airports": []
      },
      {
        "time": "0400",
        "text": "ZFW SWAP STATEMENT RUNWAY/EQUIPMENT/POSSIBLE SYSTEM IMPACT REPORTS(SIRs): HOU - PROCEDURAL ADJUSTMENT UNTIL 07/13/26 AT",
        "code": "ROUTE",
        "label": "Route impact possible",
        "level": "blue",
        "section": "En Route Planned",
        "airports": []
      }
    ],
    "airports": {
      "KPIT": null,
      "KAGC": null,
      "KLBE": null,
      "KJST": null,
      "KERI": null,
      "KDUJ": null,
      "KBFD": null,
      "KBTP": null,
      "KFKL": null,
      "KIDI": null,
      "KMDT": null,
      "KCXY": null,
      "KMUI": null,
      "KUNV": null,
      "KAOO": null,
      "KLNS": null,
      "KIPT": null,
      "KPHL": null,
      "KABE": null,
      "KAVP": null,
      "KHZL": null
    }
  },
  "airports": {
    "KPIT": {
      "status": "OK",
      "delay": "—",
      "metarCat": "VFR",
      "metarRaw": "METAR KPIT 130051Z 04005KT 10SM FEW055 FEW090 FEW250 28/17 A3012 RMK AO2 SLP199 T02780167 $",
      "metarObsTime": 1783903860,
      "faaFlow": null
    },
    "KAGC": {
      "status": "OK",
      "delay": "—",
      "metarCat": "VFR",
      "metarRaw": "METAR KAGC 130053Z 13004KT 10SM FEW050 26/18 A3012 RMK AO2 SLP195 T02610178",
      "metarObsTime": 1783903980,
      "faaFlow": null
    },
    "KLBE": {
      "status": "OK",
      "delay": "—",
      "metarCat": "VFR",
      "metarRaw": "METAR KLBE 130047Z 00000KT 10SM SCT095 26/19 A3015",
      "metarObsTime": 1783903620,
      "faaFlow": null
    },
    "KJST": {
      "status": "OK",
      "delay": "—",
      "metarCat": "VFR",
      "metarRaw": "METAR KJST 130054Z AUTO 14003KT 10SM CLR 22/17 A3020 RMK AO2 SLP214 T02170172",
      "metarObsTime": 1783904040,
      "faaFlow": null
    },
    "KERI": {
      "status": "OK",
      "delay": "—",
      "metarCat": "VFR",
      "metarRaw": "METAR KERI 130051Z 05007KT 9SM CLR 24/14 A3014 RMK AO2 SLP202 T02390139 $",
      "metarObsTime": 1783903860,
      "faaFlow": null
    },
    "KDUJ": {
      "status": "OK",
      "delay": "—",
      "metarCat": "VFR",
      "metarRaw": "METAR KDUJ 130053Z AUTO 09003KT 10SM CLR 23/17 A3018 RMK AO2 SLP208 T02280172",
      "metarObsTime": 1783903980,
      "faaFlow": null
    },
    "KBFD": {
      "status": "OK",
      "delay": "—",
      "metarCat": "VFR",
      "metarRaw": "METAR KBFD 130053Z AUTO 00000KT 10SM OVC055 23/16 A3021 RMK AO2 SLP214 T02280156",
      "metarObsTime": 1783903980,
      "faaFlow": null
    },
    "KBTP": {
      "status": "OK",
      "delay": "—",
      "metarCat": "—",
      "metarRaw": "—",
      "metarObsTime": null,
      "faaFlow": null
    },
    "KFKL": {
      "status": "OK",
      "delay": "—",
      "metarCat": "VFR",
      "metarRaw": "METAR KFKL 130056Z AUTO 35003KT 10SM SCT050 BKN060 24/17 A3018 RMK AO2 SLP209 T02440172",
      "metarObsTime": 1783904160,
      "faaFlow": null
    },
    "KIDI": {
      "status": "OK",
      "delay": "—",
      "metarCat": "VFR",
      "metarRaw": "METAR KIDI 130055Z AUTO 00000KT 10SM CLR 24/19 A3017 RMK A01",
      "metarObsTime": 1783904100,
      "faaFlow": null
    },
    "KMDT": {
      "status": "OK",
      "delay": "—",
      "metarCat": "VFR",
      "metarRaw": "METAR KMDT 130056Z 18008KT 10SM FEW090 FEW250 26/17 A3015 RMK AO2 SLP208 T02610172",
      "metarObsTime": 1783904160,
      "faaFlow": null
    },
    "KCXY": {
      "status": "OK",
      "delay": "—",
      "metarCat": "VFR",
      "metarRaw": "METAR KCXY 130056Z 19006KT 10SM CLR 26/17 A3015",
      "metarObsTime": 1783904160,
      "faaFlow": null
    },
    "KMUI": {
      "status": "OK",
      "delay": "—",
      "metarCat": "VFR",
      "metarRaw": "METAR KMUI 130055Z AUTO 19005KT 10SM SCT050 OVC095 26/17 A3014 RMK AO2 SLP205 T02640169",
      "metarObsTime": 1783904100,
      "faaFlow": null
    },
    "KUNV": {
      "status": "OK",
      "delay": "—",
      "metarCat": "VFR",
      "metarRaw": "METAR KUNV 130053Z 14005KT 10SM FEW045 25/18 A3017",
      "metarObsTime": 1783903980,
      "faaFlow": null
    },
    "KAOO": {
      "status": "OK",
      "delay": "—",
      "metarCat": "VFR",
      "metarRaw": "METAR KAOO 130053Z AUTO 15004KT 10SM FEW038 23/18 A3018 RMK AO2 SLP210 T02330178",
      "metarObsTime": 1783903980,
      "faaFlow": null
    },
    "KLNS": {
      "status": "OK",
      "delay": "—",
      "metarCat": "VFR",
      "metarRaw": "METAR KLNS 130053Z 18007KT 10SM CLR 24/16 A3017 RMK AO2 SLP214 T02390156",
      "metarObsTime": 1783903980,
      "faaFlow": null
    },
    "KIPT": {
      "status": "OK",
      "delay": "—",
      "metarCat": "VFR",
      "metarRaw": "METAR KIPT 130054Z 00000KT 10SM BKN080 26/18 A3013 RMK AO2 SLP199 T02610183 $",
      "metarObsTime": 1783904040,
      "faaFlow": null
    },
    "KPHL": {
      "status": "OK",
      "delay": "—",
      "metarCat": "VFR",
      "metarRaw": "METAR KPHL 130054Z 17004KT 10SM FEW065 SCT250 25/15 A3019 RMK AO2 SLP221 T02500150 $",
      "metarObsTime": 1783904040,
      "faaFlow": null
    },
    "KABE": {
      "status": "OK",
      "delay": "—",
      "metarCat": "VFR",
      "metarRaw": "METAR KABE 130051Z 18006KT 10SM FEW060 27/17 A3016 RMK AO2 SLP210 T02670167 $",
      "metarObsTime": 1783903860,
      "faaFlow": null
    },
    "KAVP": {
      "status": "OK",
      "delay": "—",
      "metarCat": "VFR",
      "metarRaw": "METAR KAVP 130054Z 00000KT 10SM SCT060 OVC095 24/16 A3017 RMK AO2 SLP209 T02440161 $",
      "metarObsTime": 1783904040,
      "faaFlow": null
    },
    "KHZL": {
      "status": "OK",
      "delay": "—",
      "metarCat": "VFR",
      "metarRaw": "METAR KHZL 130055Z AUTO 00000KT 10SM CLR 22/16 A3024 RMK AO2",
      "metarObsTime": 1783904100,
      "faaFlow": null
    }
  }
}