{
  "generatedAt": "2026-03-28T07:40:23.022Z",
  "airports": {
    "KPIT": {
      "status": "OK",
      "delay": "—",
      "metarCat": "VFR",
      "metarRaw": "METAR KPIT 280651Z 31006KT 10SM FEW050 M03/M07 A3038 RMK AO2 SLP307 T10281072",
      "metarObsTime": 1774680660
    },
    "KAGC": {
      "status": "OK",
      "delay": "—",
      "metarCat": "VFR",
      "metarRaw": "METAR KAGC 280653Z 29006KT 10SM CLR M03/M08 A3037 RMK AO2 SLP301 T10281078",
      "metarObsTime": 1774680780
    },
    "KLBE": {
      "status": "OK",
      "delay": "—",
      "metarCat": "VFR",
      "metarRaw": "METAR KLBE 280735Z AUTO 28006KT 10SM CLR M02/M07 A3040 RMK AO2",
      "metarObsTime": 1774683300
    },
    "KJST": {
      "status": "OK",
      "delay": "—",
      "metarCat": "VFR",
      "metarRaw": "SPECI KJST 280735Z AUTO 31020G27KT 10SM SCT022 M06/M09 A3027 RMK AO2 PK WND 30028/0700 T10561089",
      "metarObsTime": 1774683300
    },
    "KERI": {
      "status": "OK",
      "delay": "—",
      "metarCat": "VFR",
      "metarRaw": "METAR KERI 280651Z AUTO 31009KT 10SM FEW055 BKN080 OVC095 M02/M10 A3039 RMK AO2 SLP302 T10171100 $",
      "metarObsTime": 1774680660
    },
    "KDUJ": {
      "status": "OK",
      "delay": "—",
      "metarCat": "VFR",
      "metarRaw": "SPECI KDUJ 280720Z AUTO 30006KT 10SM SCT024 BKN033 M04/M09 A3029 RMK AO2 T10441089",
      "metarObsTime": 1774682400
    },
    "KBFD": {
      "status": "OK",
      "delay": "—",
      "metarCat": "VFR",
      "metarRaw": "SPECI KBFD 280728Z AUTO 28008KT 10SM SCT014 SCT022 M06/M08 A3026 RMK AO2 T10611083",
      "metarObsTime": 1774682880
    },
    "KBTP": {
      "status": "OK",
      "delay": "—",
      "metarCat": "VFR",
      "metarRaw": "METAR KBTP 280656Z AUTO 28005KT 10SM CLR M04/M07 A3038 RMK AO2 SLP307 T10391072 FZRANO $",
      "metarObsTime": 1774680960
    },
    "KFKL": {
      "status": "OK",
      "delay": "—",
      "metarCat": "VFR",
      "metarRaw": "METAR KFKL 280656Z AUTO 30006KT 10SM CLR M05/M09 A3035 RMK AO2 SLP297 T10501089 FZRANO",
      "metarObsTime": 1774680960
    },
    "KIDI": {
      "status": "OK",
      "delay": "—",
      "metarCat": "VFR",
      "metarRaw": "METAR KIDI 280735Z AUTO 27008KT 10SM CLR M04/M07 A3036 RMK A01",
      "metarObsTime": 1774683300
    },
    "KMDT": {
      "status": "OK",
      "delay": "—",
      "metarCat": "VFR",
      "metarRaw": "METAR KMDT 280656Z 34008KT 10SM BKN050 OVC055 02/M08 A3027 RMK AO2 SLP255 T00171078",
      "metarObsTime": 1774680960
    },
    "KCXY": {
      "status": "OK",
      "delay": "—",
      "metarCat": "VFR",
      "metarRaw": "METAR KCXY 280656Z AUTO VRB05KT 10SM OVC055 02/M09 A3028 RMK AO2 SLP258 T00221094",
      "metarObsTime": 1774680960
    },
    "KMUI": {
      "status": "OK",
      "delay": "—",
      "metarCat": "VFR",
      "metarRaw": "SPECI KMUI 280710Z AUTO 35010G16KT 10SM SCT065 01/M09 A3025 RMK AO2 WSHFT 08 LTG DSNT NW SLP251",
      "metarObsTime": 1774681800
    },
    "KUNV": {
      "status": "OK",
      "delay": "—",
      "metarCat": "VFR",
      "metarRaw": "METAR KUNV 280735Z AUTO 30005KT 10SM SCT043 M02/M11 A3032 RMK AO2 T10201107",
      "metarObsTime": 1774683300
    },
    "KAOO": {
      "status": "OK",
      "delay": "—",
      "metarCat": "VFR",
      "metarRaw": "METAR KAOO 280653Z AUTO 35008KT 10SM CLR M03/M11 A3030 RMK AO2 SLP276 T10281111",
      "metarObsTime": 1774680780
    },
    "KLNS": {
      "status": "OK",
      "delay": "—",
      "metarCat": "VFR",
      "metarRaw": "METAR KLNS 280653Z AUTO 01004KT 10SM CLR 00/M08 A3026 RMK AO2 SLP249 T00001078",
      "metarObsTime": 1774680780
    },
    "KIPT": {
      "status": "OK",
      "delay": "—",
      "metarCat": "VFR",
      "metarRaw": "METAR KIPT 280654Z AUTO 33005KT 10SM CLR M03/M11 A3031 RMK AO2 SLP270 T10281106",
      "metarObsTime": 1774680840
    },
    "KPHL": {
      "status": "OK",
      "delay": "—",
      "metarCat": "VFR",
      "metarRaw": "METAR KPHL 280654Z 35009KT 10SM FEW250 03/M07 A3024 RMK AO2 SLP238 T00281067 $",
      "metarObsTime": 1774680840
    },
    "KABE": {
      "status": "OK",
      "delay": "—",
      "metarCat": "VFR",
      "metarRaw": "METAR KABE 280651Z AUTO 34006KT 10SM CLR M02/M09 A3026 RMK AO2 SLP249 T10171094 $",
      "metarObsTime": 1774680660
    },
    "KAVP": {
      "status": "OK",
      "delay": "—",
      "metarCat": "VFR",
      "metarRaw": "METAR KAVP 280654Z 36009G15KT 10SM CLR M04/M15 A3026 RMK AO2 SLP257 T10441150",
      "metarObsTime": 1774680840
    },
    "KHZL": {
      "status": "OK",
      "delay": "—",
      "metarCat": "VFR",
      "metarRaw": "METAR KHZL 280735Z AUTO 33009KT 10SM CLR M03/M14 A3026 RMK AO2",
      "metarObsTime": 1774683300
    }
  }
}