{
  "generatedAt": "2026-03-31T18:20:33.116Z",
  "airports": {
    "KPIT": {
      "status": "OK",
      "delay": "—",
      "metarCat": "VFR",
      "metarRaw": "METAR KPIT 311751Z 23014G25KT 10SM BKN037 OVC055 22/13 A2995 RMK AO2 PK WND 22027/1702 SLP144 T02220128 10222 20183 58017",
      "metarObsTime": 1774979460
    },
    "KAGC": {
      "status": "OK",
      "delay": "—",
      "metarCat": "VFR",
      "metarRaw": "METAR KAGC 311753Z 20014G22KT 10SM OVC046 22/13 A2997 RMK AO2 PK WND 21029/1714 SLP147 T02220133 10222 20178 56018",
      "metarObsTime": 1774979580
    },
    "KLBE": {
      "status": "OK",
      "delay": "—",
      "metarCat": "VFR",
      "metarRaw": "METAR KLBE 311747Z 22020G30KT 15SM SCT045 BKN100 24/14 A3000",
      "metarObsTime": 1774979220
    },
    "KJST": {
      "status": "OK",
      "delay": "—",
      "metarCat": "VFR",
      "metarRaw": "METAR KJST 311754Z AUTO 23018G29KT 10SM BKN043 22/12 A3001 RMK AO2 PK WND 23031/1724 SLP151 T02170117 10217 20161 58016",
      "metarObsTime": 1774979640
    },
    "KERI": {
      "status": "OK",
      "delay": "—",
      "metarCat": "VFR",
      "metarRaw": "METAR KERI 311751Z 20015G26KT 10SM FEW070 24/14 A2982 RMK AO2 PK WND 21029/1712 SLP095 60012 T02440139 10244 20133 56025",
      "metarObsTime": 1774979460
    },
    "KDUJ": {
      "status": "OK",
      "delay": "—",
      "metarCat": "VFR",
      "metarRaw": "METAR KDUJ 311753Z AUTO 22016G21KT 10SM OVC031 19/13 A2995 RMK AO2 SLP134 60009 T01890133 10194 20156 58014",
      "metarObsTime": 1774979580
    },
    "KBFD": {
      "status": "OK",
      "delay": "—",
      "metarCat": "VFR",
      "metarRaw": "METAR KBFD 311753Z AUTO 21010G18KT 10SM FEW018 OVC038 18/13 A2993 RMK AO2 SLP127 P0001 60006 T01780133 10178 20139 56026",
      "metarObsTime": 1774979580
    },
    "KBTP": {
      "status": "OK",
      "delay": "—",
      "metarCat": "VFR",
      "metarRaw": "METAR KBTP 311756Z AUTO 23012G16KT 10SM OVC037 22/14 A2996 RMK AO2 SLP144 T02170139 10228 20178 58014 $",
      "metarObsTime": 1774979760
    },
    "KFKL": {
      "status": "OK",
      "delay": "—",
      "metarCat": "VFR",
      "metarRaw": "METAR KFKL 311756Z AUTO 21018G26KT 10SM OVC032 21/13 A2992 RMK AO2 PK WND 19026/1754 SLP125 T02060133 10206 20172 58021",
      "metarObsTime": 1774979760
    },
    "KIDI": {
      "status": "OK",
      "delay": "—",
      "metarCat": "VFR",
      "metarRaw": "METAR KIDI 311815Z AUTO 22020G28KT 10SM BKN042 OVC047 23/13 A2996 RMK A01",
      "metarObsTime": 1774980900
    },
    "KMDT": {
      "status": "OK",
      "delay": "—",
      "metarCat": "VFR",
      "metarRaw": "METAR KMDT 311756Z 23012KT 10SM BKN060 BKN075 OVC250 23/12 A2998 RMK AO2 SLP151 T02330122 10239 20161 58018",
      "metarObsTime": 1774979760
    },
    "KCXY": {
      "status": "OK",
      "delay": "—",
      "metarCat": "VFR",
      "metarRaw": "METAR KCXY 311756Z 21007KT 10SM OVC065 24/13 A2998 RMK AO2 SLP153 T02440128 10256 20139 58017",
      "metarObsTime": 1774979760
    },
    "KMUI": {
      "status": "OK",
      "delay": "—",
      "metarCat": "VFR",
      "metarRaw": "METAR KMUI 311755Z 23014G21KT 10SM BKN050 BKN070 BKN250 27/14 A2996 RMK AO2A SLP146 T02670138 10268 20100 57018",
      "metarObsTime": 1774979700
    },
    "KUNV": {
      "status": "OK",
      "delay": "—",
      "metarCat": "VFR",
      "metarRaw": "METAR KUNV 311753Z 24006KT 10SM BKN042 BKN055 22/13 A2997",
      "metarObsTime": 1774979580
    },
    "KAOO": {
      "status": "OK",
      "delay": "—",
      "metarCat": "VFR",
      "metarRaw": "METAR KAOO 311753Z AUTO 23015G23KT 10SM FEW050 BKN060 24/12 A2999 RMK AO2 SLP149 T02390122 10244 20172 58017",
      "metarObsTime": 1774979580
    },
    "KLNS": {
      "status": "OK",
      "delay": "—",
      "metarCat": "VFR",
      "metarRaw": "METAR KLNS 311753Z 25013KT 10SM OVC085 24/13 A3000 RMK AO2 SLP158 T02390128 10250 20156 58013",
      "metarObsTime": 1774979580
    },
    "KIPT": {
      "status": "OK",
      "delay": "—",
      "metarCat": "VFR",
      "metarRaw": "METAR KIPT 311754Z 16007G17KT 130V210 10SM CLR 23/13 A2992 RMK AO2 RAB00E10 SLP128 P0000 60002 T02280133 10228 20117 58018",
      "metarObsTime": 1774979640
    },
    "KPHL": {
      "status": "OK",
      "delay": "—",
      "metarCat": "VFR",
      "metarRaw": "METAR KPHL 311754Z 23016KT 10SM FEW055 BKN280 26/12 A3003 RMK AO2 PK WND 22029/1707 SLP168 T02560117 10261 20172 58011 $",
      "metarObsTime": 1774979640
    },
    "KABE": {
      "status": "OK",
      "delay": "—",
      "metarCat": "VFR",
      "metarRaw": "METAR KABE 311751Z 23014G19KT 10SM FEW055 BKN075 24/13 A3000 RMK AO2 SLP156 T02440133 10244 20167 58011 $",
      "metarObsTime": 1774979460
    },
    "KAVP": {
      "status": "OK",
      "delay": "—",
      "metarCat": "VFR",
      "metarRaw": "METAR KAVP 311754Z 22013G24KT 10SM SCT110 21/12 A2997 RMK AO2 SLP142 T02110117 10211 20156 58010",
      "metarObsTime": 1774979640
    },
    "KHZL": {
      "status": "OK",
      "delay": "—",
      "metarCat": "VFR",
      "metarRaw": "METAR KHZL 311815Z AUTO 22007KT 10SM SCT100 23/11 A3002 RMK AO2 LTG DSNT SE",
      "metarObsTime": 1774980900
    }
  }
}