{
  "generatedAt": "2026-03-22T20:00:19.852Z",
  "airports": {
    "KPIT": {
      "status": "OK",
      "delay": "—",
      "metarCat": "VFR",
      "metarRaw": "METAR KPIT 221951Z 24020G29KT 10SM SCT043 BKN110 BKN250 28/08 A2958 RMK AO2 PK WND 24030/1927 SLP014 T02830083",
      "metarObsTime": 1774209060
    },
    "KAGC": {
      "status": "OK",
      "delay": "—",
      "metarCat": "VFR",
      "metarRaw": "METAR KAGC 221953Z 23017G31KT 10SM CLR 29/09 A2959 RMK AO2 PK WND 26031/1945 SLP015 T02890089",
      "metarObsTime": 1774209180
    },
    "KLBE": {
      "status": "OK",
      "delay": "—",
      "metarCat": "VFR",
      "metarRaw": "METAR KLBE 221947Z 23022G38KT 10SM CLR 29/10 A2961",
      "metarObsTime": 1774208820
    },
    "KJST": {
      "status": "OK",
      "delay": "—",
      "metarCat": "VFR",
      "metarRaw": "METAR KJST 221954Z AUTO 24014G34KT 10SM FEW090 26/07 A2964 RMK AO2 PK WND 27035/1859 SLP022 T02560067",
      "metarObsTime": 1774209240
    },
    "KERI": {
      "status": "OK",
      "delay": "—",
      "metarCat": "VFR",
      "metarRaw": "METAR KERI 221951Z 04007KT 7SM OVC075 06/03 A2972 RMK AO2 SLP066 T00610033",
      "metarObsTime": 1774209060
    },
    "KDUJ": {
      "status": "OK",
      "delay": "—",
      "metarCat": "VFR",
      "metarRaw": "METAR KDUJ 221953Z AUTO 08003KT 10SM -RA SCT043 BKN070 OVC090 19/14 A2960 RMK AO2 PK WND 25029/1857 LTG DSNT E AND SE RAB20 TSB19E41 PRESFR SLP019 P0003 T01890139",
      "metarObsTime": 1774209180
    },
    "KBFD": {
      "status": "OK",
      "delay": "—",
      "metarCat": "VFR",
      "metarRaw": "METAR KBFD 221953Z AUTO 33011KT 10SM OVC037 14/09 A2968 RMK AO2 RAE21 SLP047 P0000 T01440089 $",
      "metarObsTime": 1774209180
    },
    "KBTP": {
      "status": "OK",
      "delay": "—",
      "metarCat": "VFR",
      "metarRaw": "METAR KBTP 221956Z AUTO 31007KT 10SM SCT080 24/13 A2960 RMK AO2 RAB16E31 SLP023 P0000 T02440128 $",
      "metarObsTime": 1774209360
    },
    "KFKL": {
      "status": "OK",
      "delay": "—",
      "metarCat": "VFR",
      "metarRaw": "METAR KFKL 221956Z AUTO 34008G14KT 10SM -RA FEW046 SCT070 SCT095 17/10 A2968 RMK AO2 RAE19B53 SLP050 P0000 T01670100",
      "metarObsTime": 1774209360
    },
    "KIDI": {
      "status": "OK",
      "delay": "—",
      "metarCat": "VFR",
      "metarRaw": "METAR KIDI 221955Z AUTO 27014G21KT 230V290 10SM CLR 26/09 A2960 RMK A01",
      "metarObsTime": 1774209300
    },
    "KMDT": {
      "status": "OK",
      "delay": "—",
      "metarCat": "VFR",
      "metarRaw": "METAR KMDT 221856Z VRB06G18KT 10SM SCT150 BKN250 24/09 A2963 RMK AO2 PRESFR SLP035 T02390089",
      "metarObsTime": 1774205760
    },
    "KCXY": {
      "status": "OK",
      "delay": "—",
      "metarCat": "VFR",
      "metarRaw": "METAR KCXY 221856Z 18008KT 10SM CLR 26/10 A2963 RMK AO2 SLP035 T02610100",
      "metarObsTime": 1774205760
    },
    "KMUI": {
      "status": "OK",
      "delay": "—",
      "metarCat": "VFR",
      "metarRaw": "METAR KMUI 221955Z AUTO 14003KT 10SM FEW150 FEW210 25/11 A2959 RMK AO2 LTG DSNT SE RAB00E10DZB16E25 SLP021 P0000 T02470113",
      "metarObsTime": 1774209300
    },
    "KUNV": {
      "status": "OK",
      "delay": "—",
      "metarCat": "VFR",
      "metarRaw": "METAR KUNV 221953Z 26020G30KT 10SM SCT090 28/08 A2957",
      "metarObsTime": 1774209180
    },
    "KAOO": {
      "status": "OK",
      "delay": "—",
      "metarCat": "VFR",
      "metarRaw": "METAR KAOO 221953Z AUTO 23019G28KT 10SM CLR 27/06 A2961 RMK AO2 PK WND 25034/1922 SLP020 T02670056",
      "metarObsTime": 1774209180
    },
    "KLNS": {
      "status": "OK",
      "delay": "—",
      "metarCat": "VFR",
      "metarRaw": "METAR KLNS 221953Z AUTO 16013G18KT 10SM CLR 24/10 A2962 RMK AO2 SLP029 T02390100",
      "metarObsTime": 1774209180
    },
    "KIPT": {
      "status": "OK",
      "delay": "—",
      "metarCat": "VFR",
      "metarRaw": "METAR KIPT 221954Z 09008KT 10SM CLR 20/09 A2957 RMK AO2 LTG DSNT W AND NW SLP013 T02000094 $",
      "metarObsTime": 1774209240
    },
    "KPHL": {
      "status": "OK",
      "delay": "—",
      "metarCat": "VFR",
      "metarRaw": "METAR KPHL 221954Z 21011KT 10SM SCT110 BKN290 23/11 A2968 RMK AO2 SLP048 T02280106 $",
      "metarObsTime": 1774209240
    },
    "KABE": {
      "status": "OK",
      "delay": "—",
      "metarCat": "VFR",
      "metarRaw": "METAR KABE 221951Z VRB04KT 10SM CLR 20/09 A2964 RMK AO2 SLP037 T02000089 $",
      "metarObsTime": 1774209060
    },
    "KAVP": {
      "status": "OK",
      "delay": "—",
      "metarCat": "VFR",
      "metarRaw": "METAR KAVP 221954Z VRB04KT 10SM BKN110 16/08 A2963 RMK AO2 PRESFR SLP033 T01610078",
      "metarObsTime": 1774209240
    },
    "KHZL": {
      "status": "OK",
      "delay": "—",
      "metarCat": "VFR",
      "metarRaw": "METAR KHZL 221935Z AUTO 14004KT 10SM CLR 21/07 A2969 RMK AO2",
      "metarObsTime": 1774208100
    }
  }
}