{
  "generatedAt": "2026-03-13T14:40:13.888Z",
  "airports": {
    "KPIT": {
      "status": "OK",
      "delay": "—",
      "metarCat": "VFR",
      "metarRaw": "METAR KPIT 131351Z 16009KT 10SM SCT055 BKN070 OVC095 02/M06 A2989 RMK AO2 SLP140 VIRGA T00171061",
      "metarObsTime": 1773409860
    },
    "KAGC": {
      "status": "OK",
      "delay": "—",
      "metarCat": "VFR",
      "metarRaw": "METAR KAGC 131353Z 17012KT 10SM OVC100 02/M06 A2992 RMK AO2 SLP146 T00171061",
      "metarObsTime": 1773409980
    },
    "KLBE": {
      "status": "OK",
      "delay": "—",
      "metarCat": "VFR",
      "metarRaw": "METAR KLBE 131351Z 15008G19KT 10SM BKN090 04/M06 A2994",
      "metarObsTime": 1773409860
    },
    "KJST": {
      "status": "OK",
      "delay": "—",
      "metarCat": "VFR",
      "metarRaw": "METAR KJST 131354Z AUTO 15010KT 10SM FEW036 BKN046 OVC065 M01/M07 A2990 RMK AO2 PRESFR SLP148 T10061072",
      "metarObsTime": 1773410040
    },
    "KERI": {
      "status": "OK",
      "delay": "—",
      "metarCat": "VFR",
      "metarRaw": "SPECI KERI 131427Z 15015G23KT 9SM SCT022 BKN075 OVC110 01/M02 A2971 RMK AO2 PK WND 14028/1416 SNE23 P0001 T00111017",
      "metarObsTime": 1773412020
    },
    "KDUJ": {
      "status": "OK",
      "delay": "—",
      "metarCat": "IFR",
      "metarRaw": "SPECI KDUJ 131421Z AUTO 18007KT 130V210 2 1/2SM -SN BKN029 M01/M07 A2988 RMK AO2 SNB15 P0000 T10111067",
      "metarObsTime": 1773411660
    },
    "KBFD": {
      "status": "OK",
      "delay": "—",
      "metarCat": "VFR",
      "metarRaw": "METAR KBFD 131353Z AUTO 15009G17KT 10SM BKN075 OVC090 M02/M07 A2986 RMK AO2 PRESFR SLP133 T10221072",
      "metarObsTime": 1773409980
    },
    "KBTP": {
      "status": "OK",
      "delay": "—",
      "metarCat": "VFR",
      "metarRaw": "METAR KBTP 131356Z AUTO 16009KT 10SM OVC080 01/M05 A2990 RMK AO2 UPB07E25RAB25E26SNB09E21 SLP144 P0000 T00061050 FZRANO $",
      "metarObsTime": 1773410160
    },
    "KFKL": {
      "status": "OK",
      "delay": "—",
      "metarCat": "VFR",
      "metarRaw": "SPECI KFKL 131406Z AUTO 15011KT 9SM -SN FEW019 BKN039 OVC046 A2981 RMK AO2 PRESFR P0000 FZRANO $",
      "metarObsTime": 1773410760
    },
    "KIDI": {
      "status": "OK",
      "delay": "—",
      "metarCat": "VFR",
      "metarRaw": "METAR KIDI 131415Z AUTO VRB04KT 10SM FEW050 SCT100 02/M06 A2993 RMK A01",
      "metarObsTime": 1773411300
    },
    "KMDT": {
      "status": "OK",
      "delay": "—",
      "metarCat": "VFR",
      "metarRaw": "METAR KMDT 131356Z 17005KT 10SM BKN100 OVC250 02/M06 A3012 RMK AO2 SLP202 T00171056 $",
      "metarObsTime": 1773410160
    },
    "KCXY": {
      "status": "OK",
      "delay": "—",
      "metarCat": "VFR",
      "metarRaw": "METAR KCXY 131356Z 13007KT 10SM BKN100 BKN120 02/M07 A3012 RMK AO2 SLP204 T00171072",
      "metarObsTime": 1773410160
    },
    "KMUI": {
      "status": "OK",
      "delay": "—",
      "metarCat": "VFR",
      "metarRaw": "METAR KMUI 131355Z 00000KT 10SM FEW095 SCT130 OVC150 01/M06 A3010 RMK AO2A SLP200 T00121062",
      "metarObsTime": 1773410100
    },
    "KUNV": {
      "status": "OK",
      "delay": "—",
      "metarCat": "VFR",
      "metarRaw": "METAR KUNV 131353Z 21006KT 10SM OVC090 00/M06 A3003",
      "metarObsTime": 1773409980
    },
    "KAOO": {
      "status": "OK",
      "delay": "—",
      "metarCat": "VFR",
      "metarRaw": "METAR KAOO 131353Z AUTO 20006KT 10SM BKN075 OVC090 01/M06 A3000 RMK AO2 SLP174 T00111061",
      "metarObsTime": 1773409980
    },
    "KLNS": {
      "status": "OK",
      "delay": "—",
      "metarCat": "VFR",
      "metarRaw": "METAR KLNS 131353Z 17006KT 10SM CLR 03/M06 A3013 RMK AO2 SLP205 T00281061",
      "metarObsTime": 1773409980
    },
    "KIPT": {
      "status": "OK",
      "delay": "—",
      "metarCat": "VFR",
      "metarRaw": "METAR KIPT 131354Z VRB03KT 10SM BKN100 00/M07 A3006 RMK AO2 SLP183 T00001067 $",
      "metarObsTime": 1773410040
    },
    "KPHL": {
      "status": "OK",
      "delay": "—",
      "metarCat": "VFR",
      "metarRaw": "METAR KPHL 131354Z 19008KT 10SM FEW090 BKN210 BKN280 04/M07 A3018 RMK AO2 SLP219 T00391067 $",
      "metarObsTime": 1773410040
    },
    "KABE": {
      "status": "OK",
      "delay": "—",
      "metarCat": "VFR",
      "metarRaw": "METAR KABE 131351Z 21007KT 10SM CLR 02/M08 A3014 RMK AO2 SLP211 T00221078",
      "metarObsTime": 1773409860
    },
    "KAVP": {
      "status": "OK",
      "delay": "—",
      "metarCat": "VFR",
      "metarRaw": "METAR KAVP 131354Z 20007KT 10SM CLR 01/M08 A3006 RMK AO2 SLP188 T00061083",
      "metarObsTime": 1773410040
    },
    "KHZL": {
      "status": "OK",
      "delay": "—",
      "metarCat": "VFR",
      "metarRaw": "METAR KHZL 131415Z AUTO 17006KT 10SM CLR 00/M09 A3006 RMK AO2",
      "metarObsTime": 1773411300
    }
  }
}