{
  "generatedAt": "2026-04-05T10:00:44.853Z",
  "airports": {
    "KPIT": {
      "status": "OK",
      "delay": "—",
      "metarCat": "MVFR",
      "metarRaw": "METAR KPIT 050951Z 26008KT 10SM -RA FEW005 BKN018 OVC035 09/08 A2989 RMK AO2 SLP123 P0001 T00940078 $",
      "metarObsTime": 1775382660
    },
    "KAGC": {
      "status": "OK",
      "delay": "—",
      "metarCat": "MVFR",
      "metarRaw": "METAR KAGC 050953Z 28010G17KT 4SM -RA BR BKN010 BKN023 OVC040 10/09 A2988 RMK AO2 SLP117 P0003 T01000089",
      "metarObsTime": 1775382780
    },
    "KLBE": {
      "status": "OK",
      "delay": "—",
      "metarCat": "IFR",
      "metarRaw": "METAR KLBE 050955Z AUTO 24006KT 3SM -RA BR BKN006 BKN010 OVC014 11/11 A2991 RMK AO2 P0011",
      "metarObsTime": 1775382900
    },
    "KJST": {
      "status": "OK",
      "delay": "—",
      "metarCat": "IFR",
      "metarRaw": "METAR KJST 050954Z AUTO 27012G19KT 10SM -RA OVC006 11/10 A2985 RMK AO2 PK WND 28035/0902 WSHFT 0855 SLP101 P0015 T01060100",
      "metarObsTime": 1775382840
    },
    "KERI": {
      "status": "OK",
      "delay": "—",
      "metarCat": "MVFR",
      "metarRaw": "METAR KERI 050951Z 25015G24KT 10SM OVC026 06/03 A2988 RMK AO2 RAE08070852 SLP115 P0000 T00610028 $",
      "metarObsTime": 1775382660
    },
    "KDUJ": {
      "status": "OK",
      "delay": "—",
      "metarCat": "MVFR",
      "metarRaw": "METAR KDUJ 050953Z AUTO 26010KT 9SM -RA SCT007 BKN011 OVC044 08/07 A2984 RMK AO2 SLP096 P0004 T00830072",
      "metarObsTime": 1775382780
    },
    "KBFD": {
      "status": "OK",
      "delay": "—",
      "metarCat": "IFR",
      "metarRaw": "METAR KBFD 050953Z AUTO VRB05KT 9SM -RA BKN007 OVC075 09/08 A2980 RMK AO2 SLP082 P0002 T00940083",
      "metarObsTime": 1775382780
    },
    "KBTP": {
      "status": "OK",
      "delay": "—",
      "metarCat": "IFR",
      "metarRaw": "METAR KBTP 050956Z AUTO 28011KT 10SM -RA OVC009 09/ A2989 RMK AO2 CIG 007V015 SLP123 P0001 T0094 $",
      "metarObsTime": 1775382960
    },
    "KFKL": {
      "status": "OK",
      "delay": "—",
      "metarCat": "IFR",
      "metarRaw": "METAR KFKL 050956Z AUTO 29007KT 10SM BKN008 OVC013 08/07 A2987 RMK AO2 RAE06 CIG 006V011 SLP111 P0000 T00830072",
      "metarObsTime": 1775382960
    },
    "KIDI": {
      "status": "OK",
      "delay": "—",
      "metarCat": "MVFR",
      "metarRaw": "METAR KIDI 050955Z AUTO 27011G16KT 3SM BR BKN012 OVC018 10/09 A2988 RMK A01 P0005",
      "metarObsTime": 1775382900
    },
    "KMDT": {
      "status": "OK",
      "delay": "—",
      "metarCat": "LIFR",
      "metarRaw": "METAR KMDT 050956Z 11005KT 1 1/4SM BR OVC003 09/09 A2986 RMK AO2 SLP112 T00890089 $",
      "metarObsTime": 1775382960
    },
    "KCXY": {
      "status": "OK",
      "delay": "—",
      "metarCat": "LIFR",
      "metarRaw": "METAR KCXY 050956Z AUTO 10006KT 2SM BR OVC002 09/09 A2987 RMK AO2 SLP113 T00890089 $",
      "metarObsTime": 1775382960
    },
    "KMUI": {
      "status": "OK",
      "delay": "—",
      "metarCat": "LIFR",
      "metarRaw": "SPECI KMUI 050927Z AUTO 06008KT 3SM BR OVC002 08/07 A2987 RMK AO2 SLP116",
      "metarObsTime": 1775381220
    },
    "KUNV": {
      "status": "OK",
      "delay": "—",
      "metarCat": "MVFR",
      "metarRaw": "METAR KUNV 050953Z 30012KT 3SM +RA SCT012 BKN035 OVC047 15/15 A2982",
      "metarObsTime": 1775382780
    },
    "KAOO": {
      "status": "OK",
      "delay": "—",
      "metarCat": "MVFR",
      "metarRaw": "METAR KAOO 050953Z AUTO 26011KT 5SM RA BR FEW019 BKN028 OVC036 17/14 A2983 RMK AO2 SLP090 P0007 T01670144",
      "metarObsTime": 1775382780
    },
    "KLNS": {
      "status": "OK",
      "delay": "—",
      "metarCat": "LIFR",
      "metarRaw": "METAR KLNS 050953Z 08005KT 1 3/4SM BR OVC002 08/08 A2987 RMK AO2 SLP113 T00830083",
      "metarObsTime": 1775382780
    },
    "KIPT": {
      "status": "OK",
      "delay": "—",
      "metarCat": "IFR",
      "metarRaw": "METAR KIPT 050954Z AUTO 07009G18KT 030V110 10SM OVC009 11/09 A2982 RMK AO2 RAB25E50 SLP096 P0001 T01060089",
      "metarObsTime": 1775382840
    },
    "KPHL": {
      "status": "OK",
      "delay": "—",
      "metarCat": "LIFR",
      "metarRaw": "METAR KPHL 050954Z 06003KT 1SM -DZ BR OVC003 09/09 A2990 RMK AO2 DZB25 SLP126 P0000 T00940089 RVRNO $",
      "metarObsTime": 1775382840
    },
    "KABE": {
      "status": "OK",
      "delay": "—",
      "metarCat": "LIFR",
      "metarRaw": "METAR KABE 050951Z 10007KT 3SM BR OVC003 06/06 A2991 RMK AO2 SLP128 T00610056 $",
      "metarObsTime": 1775382660
    },
    "KAVP": {
      "status": "OK",
      "delay": "—",
      "metarCat": "MVFR",
      "metarRaw": "METAR KAVP 050954Z AUTO 00000KT 10SM OVC011 10/08 A2985 RMK AO2 SLP102 T01000078",
      "metarObsTime": 1775382840
    },
    "KHZL": {
      "status": "OK",
      "delay": "—",
      "metarCat": "—",
      "metarRaw": "—",
      "metarObsTime": null
    }
  }
}