{
  "generatedAt": "2026-03-10T08:20:15.610Z",
  "airports": {
    "KPIT": {
      "status": "OK",
      "delay": "—",
      "metarCat": "VFR",
      "metarRaw": "METAR KPIT 100751Z 17004KT 10SM BKN045 BKN250 11/01 A2997 RMK AO2 SLP153 T01110006",
      "metarObsTime": 1773129060
    },
    "KAGC": {
      "status": "OK",
      "delay": "—",
      "metarCat": "VFR",
      "metarRaw": "METAR KAGC 100753Z 18008KT 10SM BKN049 OVC060 13/01 A2998 RMK AO2 SLP151 T01330006",
      "metarObsTime": 1773129180
    },
    "KLBE": {
      "status": "OK",
      "delay": "—",
      "metarCat": "VFR",
      "metarRaw": "METAR KLBE 100815Z AUTO 20003KT 10SM BKN055 BKN065 09/04 A3001 RMK AO2",
      "metarObsTime": 1773130500
    },
    "KJST": {
      "status": "OK",
      "delay": "—",
      "metarCat": "VFR",
      "metarRaw": "METAR KJST 100754Z AUTO 22006KT 10SM FEW050 13/M01 A3002 RMK AO2 SLP158 T01281011",
      "metarObsTime": 1773129240
    },
    "KERI": {
      "status": "OK",
      "delay": "—",
      "metarCat": "VFR",
      "metarRaw": "METAR KERI 100751Z AUTO 20011KT 10SM OVC065 17/08 A2989 RMK AO2 SLP118 T01670078",
      "metarObsTime": 1773129060
    },
    "KDUJ": {
      "status": "OK",
      "delay": "—",
      "metarCat": "VFR",
      "metarRaw": "METAR KDUJ 100753Z AUTO 23006KT 10SM CLR 12/M01 A2997 RMK AO2 SLP144 T01171006",
      "metarObsTime": 1773129180
    },
    "KBFD": {
      "status": "OK",
      "delay": "—",
      "metarCat": "VFR",
      "metarRaw": "METAR KBFD 100753Z AUTO VRB06KT 10SM CLR 12/01 A2996 RMK AO2 SLP138 T01220011 $",
      "metarObsTime": 1773129180
    },
    "KBTP": {
      "status": "OK",
      "delay": "—",
      "metarCat": "VFR",
      "metarRaw": "METAR KBTP 100756Z AUTO 17006KT 10SM BKN039 BKN047 OVC060 14/01 A2998 RMK AO2 SLP154 T01390011 $",
      "metarObsTime": 1773129360
    },
    "KFKL": {
      "status": "OK",
      "delay": "—",
      "metarCat": "MVFR",
      "metarRaw": "METAR KFKL 100756Z AUTO 22007KT 10SM OVC030 14/04 A2996 RMK AO2 SLP140 T01440044",
      "metarObsTime": 1773129360
    },
    "KIDI": {
      "status": "OK",
      "delay": "—",
      "metarCat": "VFR",
      "metarRaw": "METAR KIDI 100815Z AUTO 22006KT 10SM SCT043 SCT055 OVC065 13/02 A3000 RMK A01",
      "metarObsTime": 1773130500
    },
    "KMDT": {
      "status": "OK",
      "delay": "—",
      "metarCat": "VFR",
      "metarRaw": "METAR KMDT 100756Z 00000KT 10SM CLR 04/03 A3000 RMK AO2 SLP159 T00440033",
      "metarObsTime": 1773129360
    },
    "KCXY": {
      "status": "OK",
      "delay": "—",
      "metarCat": "VFR",
      "metarRaw": "METAR KCXY 100756Z AUTO 00000KT 10SM CLR 06/03 A3000 RMK AO2 SLP161 T00560033",
      "metarObsTime": 1773129360
    },
    "KMUI": {
      "status": "OK",
      "delay": "—",
      "metarCat": "VFR",
      "metarRaw": "METAR KMUI 100755Z AUTO 00000KT 10SM CLR 04/04 A2998 RMK AO2 SLP155 T00440041",
      "metarObsTime": 1773129300
    },
    "KUNV": {
      "status": "OK",
      "delay": "—",
      "metarCat": "VFR",
      "metarRaw": "METAR KUNV 100815Z AUTO 20003KT 10SM CLR 07/M01 A2999 RMK AO2 LTG DSNT SE T00651012",
      "metarObsTime": 1773130500
    },
    "KAOO": {
      "status": "OK",
      "delay": "—",
      "metarCat": "VFR",
      "metarRaw": "METAR KAOO 100753Z AUTO 21006KT 10SM CLR 11/M01 A3000 RMK AO2 SLP157 T01061011",
      "metarObsTime": 1773129180
    },
    "KLNS": {
      "status": "OK",
      "delay": "—",
      "metarCat": "VFR",
      "metarRaw": "METAR KLNS 100753Z AUTO 10003KT 10SM CLR 06/04 A3000 RMK AO2 SLP158 T00610039",
      "metarObsTime": 1773129180
    },
    "KIPT": {
      "status": "OK",
      "delay": "—",
      "metarCat": "VFR",
      "metarRaw": "METAR KIPT 100754Z AUTO 28003KT 10SM CLR 02/01 A2999 RMK AO2 SLP155 T00220011 $",
      "metarObsTime": 1773129240
    },
    "KPHL": {
      "status": "OK",
      "delay": "—",
      "metarCat": "MVFR",
      "metarRaw": "METAR KPHL 100754Z 25003KT 3SM MIFG BR CLR 09/08 A3002 RMK AO2 SLP164 VIS S 1/2 T00890078 $",
      "metarObsTime": 1773129240
    },
    "KABE": {
      "status": "OK",
      "delay": "—",
      "metarCat": "VFR",
      "metarRaw": "METAR KABE 100751Z 00000KT 10SM CLR 05/03 A3001 RMK AO2 SLP161 T00500028",
      "metarObsTime": 1773129060
    },
    "KAVP": {
      "status": "OK",
      "delay": "—",
      "metarCat": "VFR",
      "metarRaw": "METAR KAVP 100754Z 11006KT 10SM CLR 09/02 A2999 RMK AO2 SLP153 T00940022",
      "metarObsTime": 1773129240
    },
    "KHZL": {
      "status": "OK",
      "delay": "—",
      "metarCat": "VFR",
      "metarRaw": "METAR KHZL 100815Z AUTO 00000KT 10SM CLR 04/01 A3003 RMK AO2 LTG DSNT SE",
      "metarObsTime": 1773130500
    }
  }
}