{
  "generatedAt": "2026-04-25T21:01:07.129Z",
  "airports": {
    "KPIT": {
      "status": "OK",
      "delay": "—",
      "metarCat": "MVFR",
      "metarRaw": "METAR KPIT 252051Z 33012KT 10SM OVC012 14/11 A2984 RMK AO2 SLP109 60000 T01390106 51016",
      "metarObsTime": 1777150260
    },
    "KAGC": {
      "status": "OK",
      "delay": "—",
      "metarCat": "IFR",
      "metarRaw": "METAR KAGC 252053Z 33012G20KT 10SM BKN009 OVC019 14/12 A2982 RMK AO2 CIG 008V012 SLP097 T01390117 53012",
      "metarObsTime": 1777150380
    },
    "KLBE": {
      "status": "OK",
      "delay": "—",
      "metarCat": "IFR",
      "metarRaw": "METAR KLBE 252047Z 28010G20KT 10SM BKN007 OVC015 14/13 A2983",
      "metarObsTime": 1777150020
    },
    "KJST": {
      "status": "OK",
      "delay": "—",
      "metarCat": "IFR",
      "metarRaw": "METAR KJST 252054Z AUTO 12006KT 6SM -RA BR BKN009 BKN015 OVC020 12/12 A2979 RMK AO2 RAE01B06E19B51 CIG 004V010 SLP085 P0001 60018 T01220117 58001",
      "metarObsTime": 1777150440
    },
    "KERI": {
      "status": "OK",
      "delay": "—",
      "metarCat": "IFR",
      "metarRaw": "METAR KERI 252051Z 02010KT 5SM R06/4500VP6000FT BR OVC006 04/03 A2992 RMK AO2 SLP136 60000 T00390033 50006",
      "metarObsTime": 1777150260
    },
    "KDUJ": {
      "status": "OK",
      "delay": "—",
      "metarCat": "LIFR",
      "metarRaw": "METAR KDUJ 252053Z AUTO 00000KT 2SM -RA BR OVC004 11/11 A2980 RMK AO2 RAE28B49 SLP092 P0003 60014 T01110106 53010",
      "metarObsTime": 1777150380
    },
    "KBFD": {
      "status": "OK",
      "delay": "—",
      "metarCat": "IFR",
      "metarRaw": "METAR KBFD 252053Z AUTO 00000KT 1 1/2SM -RA BR OVC007 09/09 A2982 RMK AO2 RAE07B23 SLP098 P0001 60003 T00940089 53006 $",
      "metarObsTime": 1777150380
    },
    "KBTP": {
      "status": "OK",
      "delay": "—",
      "metarCat": "MVFR",
      "metarRaw": "METAR KBTP 252056Z AUTO 32008KT 10SM OVC012 12/11 A2986 RMK AO2 SLP115 T01220111 51019 $",
      "metarObsTime": 1777150560
    },
    "KFKL": {
      "status": "OK",
      "delay": "—",
      "metarCat": "—",
      "metarRaw": "—",
      "metarObsTime": null
    },
    "KIDI": {
      "status": "OK",
      "delay": "—",
      "metarCat": "MVFR",
      "metarRaw": "METAR KIDI 252055Z AUTO 31010G16KT 10SM BKN015 OVC020 15/13 A2981 RMK A01",
      "metarObsTime": 1777150500
    },
    "KMDT": {
      "status": "OK",
      "delay": "—",
      "metarCat": "MVFR",
      "metarRaw": "METAR KMDT 252056Z 11010KT 5SM -RA BR OVC012 09/08 A2990 RMK AO2 SLP128 P0006 60026 T00890078 58001",
      "metarObsTime": 1777150560
    },
    "KCXY": {
      "status": "OK",
      "delay": "—",
      "metarCat": "IFR",
      "metarRaw": "METAR KCXY 252056Z 09007KT 3SM -RA BR BKN008 OVC018 08/07 A2991 RMK AO2 CIG 007V013 SLP130 P0005 60021 T00830072 53001",
      "metarObsTime": 1777150560
    },
    "KMUI": {
      "status": "OK",
      "delay": "—",
      "metarCat": "IFR",
      "metarRaw": "SPECI KMUI 252019Z AUTO 09007KT 5SM -RA BR OVC006 10/10 A2990 RMK AO2 SLP129",
      "metarObsTime": 1777148340
    },
    "KUNV": {
      "status": "OK",
      "delay": "—",
      "metarCat": "MVFR",
      "metarRaw": "METAR KUNV 252053Z 17005KT 10SM OVC016 10/08 A2984",
      "metarObsTime": 1777150380
    },
    "KAOO": {
      "status": "OK",
      "delay": "—",
      "metarCat": "IFR",
      "metarRaw": "METAR KAOO 252053Z AUTO 11006KT 10SM OVC005 11/09 A2983 RMK AO2 RAE41 CIG 004V009 SLP103 P0003 60015 T01060094 58002",
      "metarObsTime": 1777150380
    },
    "KLNS": {
      "status": "OK",
      "delay": "—",
      "metarCat": "MVFR",
      "metarRaw": "METAR KLNS 252053Z 11011G18KT 8SM -RA BKN010 BKN016 OVC020 08/07 A2991 RMK AO2 CIG 006V013 SLP130 P0005 60025 T00830072 58008",
      "metarObsTime": 1777150380
    },
    "KIPT": {
      "status": "OK",
      "delay": "—",
      "metarCat": "MVFR",
      "metarRaw": "METAR KIPT 252054Z 08013KT 4SM BR OVC012 08/07 A2989 RMK AO2 RAE32 SLP121 P0003 60020 T00830072 50002 $",
      "metarObsTime": 1777150440
    },
    "KPHL": {
      "status": "OK",
      "delay": "—",
      "metarCat": "MVFR",
      "metarRaw": "METAR KPHL 252054Z 08008KT 4SM RA BR BKN014 OVC023 09/07 A2997 RMK AO2 SLP149 P0009 60009 T00890067 58002 $",
      "metarObsTime": 1777150440
    },
    "KABE": {
      "status": "OK",
      "delay": "—",
      "metarCat": "MVFR",
      "metarRaw": "METAR KABE 252051Z 09009KT 5SM RA BR SCT014 BKN018 OVC022 06/05 A2995 RMK AO2 SLP145 P0011 60025 T00610050 56019 $",
      "metarObsTime": 1777150260
    },
    "KAVP": {
      "status": "OK",
      "delay": "—",
      "metarCat": "MVFR",
      "metarRaw": "METAR KAVP 252054Z 00000KT 5SM -RA OVC019 06/03 A2993 RMK AO2 PRESRR SLP136 P0003 60010 T00610033 55007 $",
      "metarObsTime": 1777150440
    },
    "KHZL": {
      "status": "OK",
      "delay": "—",
      "metarCat": "IFR",
      "metarRaw": "METAR KHZL 252055Z AUTO 00000KT 4SM RA OVC008 04/02 A2994 RMK AO2 P0004",
      "metarObsTime": 1777150500
    }
  }
}