{
  "generatedAt": "2026-04-20T05:40:51.480Z",
  "airports": {
    "KPIT": {
      "status": "OK",
      "delay": "—",
      "metarCat": "MVFR",
      "metarRaw": "SPECI KPIT 200523Z 32012KT 10SM BKN029 OVC055 06/M01 A3013 RMK AO2 RAB04E22 P0000 T00561006 $",
      "metarObsTime": 1776662580
    },
    "KAGC": {
      "status": "OK",
      "delay": "—",
      "metarCat": "VFR",
      "metarRaw": "METAR KAGC 200453Z 29010G25KT 10SM FEW045 BKN055 OVC080 06/M01 A3011 RMK AO2 SLP206 T00561011 401000039",
      "metarObsTime": 1776660780
    },
    "KLBE": {
      "status": "OK",
      "delay": "—",
      "metarCat": "VFR",
      "metarRaw": "METAR KLBE 200535Z AUTO 28003G11KT 10SM FEW022 SCT041 BKN048 05/01 A3014 RMK AO2",
      "metarObsTime": 1776663300
    },
    "KJST": {
      "status": "OK",
      "delay": "—",
      "metarCat": "VFR",
      "metarRaw": "METAR KJST 200454Z AUTO 25006KT 10SM SCT047 BKN055 02/M02 A3006 RMK AO2 SLP194 T00221022 400940022",
      "metarObsTime": 1776660840
    },
    "KERI": {
      "status": "OK",
      "delay": "—",
      "metarCat": "MVFR",
      "metarRaw": "SPECI KERI 200537Z AUTO 36008KT 10SM BKN024 OVC060 02/M03 A3017 RMK AO2 T00221028 $",
      "metarObsTime": 1776663420
    },
    "KDUJ": {
      "status": "OK",
      "delay": "—",
      "metarCat": "LIFR",
      "metarRaw": "METAR KDUJ 200453Z AUTO 26004KT 6SM BR BKN003 OVC008 00/M01 A3007 RMK AO2 SNE15 SLP195 P0000 T00001006 400830000 $",
      "metarObsTime": 1776660780
    },
    "KBFD": {
      "status": "OK",
      "delay": "—",
      "metarCat": "MVFR",
      "metarRaw": "SPECI KBFD 200514Z AUTO 30008KT 8SM BKN019 BKN050 OVC060 00/M03 A3005 RMK AO2 SNB04E13 P0000 T00001028",
      "metarObsTime": 1776662040
    },
    "KBTP": {
      "status": "OK",
      "delay": "—",
      "metarCat": "VFR",
      "metarRaw": "SPECI KBTP 200532Z AUTO 32004KT 10SM SCT012 SCT029 OVC037 02/02 A3014 RMK AO2 FZRANO $",
      "metarObsTime": 1776663120
    },
    "KFKL": {
      "status": "OK",
      "delay": "—",
      "metarCat": "—",
      "metarRaw": "—",
      "metarObsTime": null
    },
    "KIDI": {
      "status": "OK",
      "delay": "—",
      "metarCat": "VFR",
      "metarRaw": "METAR KIDI 200535Z AUTO 31003KT 10SM SCT031 BKN045 OVC085 03/01 A3010 RMK A01",
      "metarObsTime": 1776663300
    },
    "KMDT": {
      "status": "OK",
      "delay": "—",
      "metarCat": "VFR",
      "metarRaw": "METAR KMDT 200456Z 30007KT 10SM FEW080 07/M02 A3012 RMK AO2 SLP201 T00671017 401440067",
      "metarObsTime": 1776660960
    },
    "KCXY": {
      "status": "OK",
      "delay": "—",
      "metarCat": "VFR",
      "metarRaw": "METAR KCXY 200456Z AUTO 26006KT 10SM FEW070 SCT085 06/M02 A3012 RMK AO2 SLP203 T00561017 401440056 $",
      "metarObsTime": 1776660960
    },
    "KMUI": {
      "status": "OK",
      "delay": "—",
      "metarCat": "VFR",
      "metarRaw": "METAR KMUI 200455Z AUTO 22003KT 10SM FEW033 FEW042 BKN060 OVC080 05/00 A3009 RMK AO2 SLP195 T00500004 401680037",
      "metarObsTime": 1776660900
    },
    "KUNV": {
      "status": "OK",
      "delay": "—",
      "metarCat": "VFR",
      "metarRaw": "METAR KUNV 200535Z AUTO 27005KT 10SM SCT035 BKN050 BKN055 03/02 A3009 RMK AO2 T00250021",
      "metarObsTime": 1776663300
    },
    "KAOO": {
      "status": "OK",
      "delay": "—",
      "metarCat": "VFR",
      "metarRaw": "METAR KAOO 200453Z AUTO 19005KT 10SM CLR 02/M01 A3009 RMK AO2 RAE06 SLP198 P0000 T00221011 401330022",
      "metarObsTime": 1776660780
    },
    "KLNS": {
      "status": "OK",
      "delay": "—",
      "metarCat": "VFR",
      "metarRaw": "METAR KLNS 200453Z AUTO 26003KT 10SM BKN100 05/M03 A3011 RMK AO2 SLP199 T00501028 401280033",
      "metarObsTime": 1776660780
    },
    "KIPT": {
      "status": "OK",
      "delay": "—",
      "metarCat": "VFR",
      "metarRaw": "METAR KIPT 200454Z AUTO 36005KT 10SM CLR 01/M02 A3009 RMK AO2 SLP192 T00111017 401670011 $",
      "metarObsTime": 1776660840
    },
    "KPHL": {
      "status": "OK",
      "delay": "—",
      "metarCat": "VFR",
      "metarRaw": "METAR KPHL 200454Z 28005KT 10SM CLR 08/M02 A3013 RMK AO2 SLP203 T00831022 401390067 $",
      "metarObsTime": 1776660840
    },
    "KABE": {
      "status": "OK",
      "delay": "—",
      "metarCat": "VFR",
      "metarRaw": "METAR KABE 200451Z 00000KT 10SM CLR 03/01 A3010 RMK AO2 SLP196 T00330011 401170017 $",
      "metarObsTime": 1776660660
    },
    "KAVP": {
      "status": "OK",
      "delay": "—",
      "metarCat": "VFR",
      "metarRaw": "METAR KAVP 200454Z 10004KT 10SM CLR 01/M01 A3007 RMK AO2 SLP189 T00061011 401330006",
      "metarObsTime": 1776660840
    },
    "KHZL": {
      "status": "OK",
      "delay": "—",
      "metarCat": "VFR",
      "metarRaw": "METAR KHZL 200535Z AUTO 00000KT 10SM SCT120 M01/M03 A3009 RMK AO2",
      "metarObsTime": 1776663300
    }
  }
}