{
  "generatedAt": "2026-04-16T16:50:49.845Z",
  "airports": {
    "KPIT": {
      "status": "OK",
      "delay": "—",
      "metarCat": "VFR",
      "metarRaw": "METAR KPIT 161551Z 23013G21KT 10SM SCT055 BKN250 25/12 A2991 RMK AO2 PK WND 22026/1524 SLP125 T02500122 $",
      "metarObsTime": 1776354660
    },
    "KAGC": {
      "status": "OK",
      "delay": "—",
      "metarCat": "VFR",
      "metarRaw": "METAR KAGC 161553Z 25018G27KT 10SM FEW050 25/12 A2991 RMK AO2 PK WND 26027/1543 SLP123 T02500122",
      "metarObsTime": 1776354780
    },
    "KLBE": {
      "status": "OK",
      "delay": "—",
      "metarCat": "VFR",
      "metarRaw": "METAR KLBE 161647Z 21014G23KT 10SM FEW070 26/14 A2992",
      "metarObsTime": 1776358020
    },
    "KJST": {
      "status": "OK",
      "delay": "—",
      "metarCat": "VFR",
      "metarRaw": "METAR KJST 161554Z AUTO 25015G24KT 10SM CLR 23/09 A2996 RMK AO2 PK WND 24027/1527 SLP128 T02330094",
      "metarObsTime": 1776354840
    },
    "KERI": {
      "status": "OK",
      "delay": "—",
      "metarCat": "VFR",
      "metarRaw": "METAR KERI 161551Z 23010G19KT 10SM FEW041 25/16 A2981 RMK AO2 SLP089 T02500156 $",
      "metarObsTime": 1776354660
    },
    "KDUJ": {
      "status": "OK",
      "delay": "—",
      "metarCat": "VFR",
      "metarRaw": "METAR KDUJ 161553Z AUTO 25015G22KT 10SM CLR 23/13 A2991 RMK AO2 SLP116 T02280128",
      "metarObsTime": 1776354780
    },
    "KBFD": {
      "status": "OK",
      "delay": "—",
      "metarCat": "VFR",
      "metarRaw": "METAR KBFD 161553Z AUTO 23010G20KT 10SM FEW028 FEW035 21/14 A2989 RMK AO2 SLP110 T02110144",
      "metarObsTime": 1776354780
    },
    "KBTP": {
      "status": "OK",
      "delay": "—",
      "metarCat": "VFR",
      "metarRaw": "METAR KBTP 161556Z AUTO 25015G26KT 10SM SCT049 SCT060 24/13 A2991 RMK AO2 PK WND 23026/1549 SLP126 T02440133 PNO $",
      "metarObsTime": 1776354960
    },
    "KFKL": {
      "status": "OK",
      "delay": "—",
      "metarCat": "—",
      "metarRaw": "—",
      "metarObsTime": null
    },
    "KIDI": {
      "status": "OK",
      "delay": "—",
      "metarCat": "VFR",
      "metarRaw": "METAR KIDI 161635Z AUTO 24012G21KT 220V280 10SM SCT050 BKN060 26/14 A2991 RMK A01",
      "metarObsTime": 1776357300
    },
    "KMDT": {
      "status": "OK",
      "delay": "—",
      "metarCat": "VFR",
      "metarRaw": "METAR KMDT 161556Z 27004KT 10SM FEW065 OVC250 28/14 A2988 RMK AO2 SLP116 T02830144",
      "metarObsTime": 1776354960
    },
    "KCXY": {
      "status": "OK",
      "delay": "—",
      "metarCat": "VFR",
      "metarRaw": "METAR KCXY 161556Z 24012G16KT 10SM CLR 29/13 A2989 RMK AO2 SLP118 T02940128 $",
      "metarObsTime": 1776354960
    },
    "KMUI": {
      "status": "OK",
      "delay": "—",
      "metarCat": "VFR",
      "metarRaw": "METAR KMUI 161555Z 21011G15KT 10SM FEW060 FEW220 BKN280 30/16 A2987 RMK AO2A SLP114 T03000160",
      "metarObsTime": 1776354900
    },
    "KUNV": {
      "status": "OK",
      "delay": "—",
      "metarCat": "VFR",
      "metarRaw": "METAR KUNV 161553Z 26016G23KT 10SM SCT060 27/13 A2990",
      "metarObsTime": 1776354780
    },
    "KAOO": {
      "status": "OK",
      "delay": "—",
      "metarCat": "VFR",
      "metarRaw": "METAR KAOO 161553Z AUTO 22016G24KT 10SM CLR 27/11 A2993 RMK AO2 SLP121 T02720106",
      "metarObsTime": 1776354780
    },
    "KLNS": {
      "status": "OK",
      "delay": "—",
      "metarCat": "VFR",
      "metarRaw": "METAR KLNS 161553Z 29008KT 10SM CLR 29/15 A2989 RMK AO2 SLP119 T02890150 $",
      "metarObsTime": 1776354780
    },
    "KIPT": {
      "status": "OK",
      "delay": "—",
      "metarCat": "VFR",
      "metarRaw": "METAR KIPT 161554Z 00000KT 10SM CLR 26/17 A2986 RMK AO2 SLP107 T02560167 $",
      "metarObsTime": 1776354840
    },
    "KPHL": {
      "status": "OK",
      "delay": "—",
      "metarCat": "VFR",
      "metarRaw": "METAR KPHL 161554Z 22005KT 10SM SCT280 BKN350 29/16 A2989 RMK AO2 SLP122 T02940156 $",
      "metarObsTime": 1776354840
    },
    "KABE": {
      "status": "OK",
      "delay": "—",
      "metarCat": "VFR",
      "metarRaw": "METAR KABE 161551Z 25009G16KT 10SM CLR 29/16 A2988 RMK AO2 SLP115 T02940156",
      "metarObsTime": 1776354660
    },
    "KAVP": {
      "status": "OK",
      "delay": "—",
      "metarCat": "VFR",
      "metarRaw": "METAR KAVP 161554Z 23009G19KT 10SM CLR 26/16 A2989 RMK AO2 SLP112 T02560156",
      "metarObsTime": 1776354840
    },
    "KHZL": {
      "status": "OK",
      "delay": "—",
      "metarCat": "VFR",
      "metarRaw": "METAR KHZL 161635Z AUTO 25004KT 10SM SCT050 28/12 A2993 RMK AO2",
      "metarObsTime": 1776357300
    }
  }
}