{
  "generatedAt": "2026-04-19T20:01:02.341Z",
  "airports": {
    "KPIT": {
      "status": "OK",
      "delay": "—",
      "metarCat": "VFR",
      "metarRaw": "METAR KPIT 191951Z 29015G27KT 10SM BKN060 08/M06 A3006 RMK AO2 PK WND 30033/1929 SLP191 T00831061 $",
      "metarObsTime": 1776628260
    },
    "KAGC": {
      "status": "OK",
      "delay": "—",
      "metarCat": "VFR",
      "metarRaw": "METAR KAGC 191953Z 29008G25KT 10SM BKN070 OVC090 09/M06 A3005 RMK AO2 PK WND 26030/1932 SLP183 T00941056",
      "metarObsTime": 1776628380
    },
    "KLBE": {
      "status": "OK",
      "delay": "—",
      "metarCat": "VFR",
      "metarRaw": "METAR KLBE 191950Z 28017G32KT 10SM SCT050 BKN070 BKN080 10/M05 A3007",
      "metarObsTime": 1776628200
    },
    "KJST": {
      "status": "OK",
      "delay": "—",
      "metarCat": "VFR",
      "metarRaw": "METAR KJST 191954Z AUTO 32020G33KT 10SM BKN060 OVC075 06/M06 A2999 RMK AO2 PK WND 30033/1914 SLP167 T00561056",
      "metarObsTime": 1776628440
    },
    "KERI": {
      "status": "OK",
      "delay": "—",
      "metarCat": "VFR",
      "metarRaw": "METAR KERI 191951Z 26017G26KT 10SM FEW110 08/M04 A3004 RMK AO2 PK WND 26027/1931 SLP178 T00781039 $",
      "metarObsTime": 1776628260
    },
    "KDUJ": {
      "status": "OK",
      "delay": "—",
      "metarCat": "VFR",
      "metarRaw": "METAR KDUJ 191953Z AUTO 29015G26KT 10SM BKN070 OVC085 07/M08 A2999 RMK AO2 PK WND 31028/1908 SLP164 T00671078",
      "metarObsTime": 1776628380
    },
    "KBFD": {
      "status": "OK",
      "delay": "—",
      "metarCat": "VFR",
      "metarRaw": "METAR KBFD 191953Z AUTO 28013G26KT 10SM BKN055 OVC070 04/M08 A2997 RMK AO2 PK WND 27033/1859 SLP160 T00391078",
      "metarObsTime": 1776628380
    },
    "KBTP": {
      "status": "OK",
      "delay": "—",
      "metarCat": "VFR",
      "metarRaw": "METAR KBTP 191956Z AUTO 27014G28KT 10SM FEW026 SCT041 OVC065 07/M04 A3007 RMK AO2 PK WND 28028/1952 SLP195 T00721044 $",
      "metarObsTime": 1776628560
    },
    "KFKL": {
      "status": "OK",
      "delay": "—",
      "metarCat": "—",
      "metarRaw": "—",
      "metarObsTime": null
    },
    "KIDI": {
      "status": "OK",
      "delay": "—",
      "metarCat": "VFR",
      "metarRaw": "METAR KIDI 191955Z AUTO 30020G29KT 260V320 10SM SCT060 SCT075 SCT085 09/M04 A3004 RMK A01",
      "metarObsTime": 1776628500
    },
    "KMDT": {
      "status": "OK",
      "delay": "—",
      "metarCat": "VFR",
      "metarRaw": "METAR KMDT 191956Z 33010KT 10SM FEW040 SCT060 BKN100 11/03 A2996 RMK AO2 RAB04E30 SLP145 P0000 T01110033",
      "metarObsTime": 1776628560
    },
    "KCXY": {
      "status": "OK",
      "delay": "—",
      "metarCat": "VFR",
      "metarRaw": "METAR KCXY 191956Z 30009G20KT 10SM SCT080 BKN090 11/01 A2996 RMK AO2 RAB1858E19 SLP146 P0000 T01110011 $",
      "metarObsTime": 1776628560
    },
    "KMUI": {
      "status": "OK",
      "delay": "—",
      "metarCat": "VFR",
      "metarRaw": "SPECI KMUI 191928Z AUTO 26014G22KT 10SM FEW045 SCT060 OVC070 11/00 A2993 RMK AO2 WSHFT 15 SLP138",
      "metarObsTime": 1776626880
    },
    "KUNV": {
      "status": "OK",
      "delay": "—",
      "metarCat": "VFR",
      "metarRaw": "METAR KUNV 191953Z 28015G28KT 10SM BKN060 09/M05 A2998",
      "metarObsTime": 1776628380
    },
    "KAOO": {
      "status": "OK",
      "delay": "—",
      "metarCat": "VFR",
      "metarRaw": "METAR KAOO 191953Z AUTO 31015G29KT 10SM SCT060 BKN080 OVC095 08/M04 A2999 RMK AO2 PK WND 28034/1924 WSHFT 1933 SLP161 T00781039",
      "metarObsTime": 1776628380
    },
    "KLNS": {
      "status": "OK",
      "delay": "—",
      "metarCat": "VFR",
      "metarRaw": "METAR KLNS 191953Z 31017G24KT 10SM -RA OVC055 10/01 A2996 RMK AO2 RAB46 SLP145 P0000 T01000011",
      "metarObsTime": 1776628380
    },
    "KIPT": {
      "status": "OK",
      "delay": "—",
      "metarCat": "VFR",
      "metarRaw": "METAR KIPT 191954Z 30012G17KT 10SM SCT055 SCT080 BKN095 11/00 A2992 RMK AO2 PK WND 26027/1936 WSHFT 1934 RAE1855 SLP132 P0000 T01060000 $",
      "metarObsTime": 1776628440
    },
    "KPHL": {
      "status": "OK",
      "delay": "—",
      "metarCat": "MVFR",
      "metarRaw": "METAR KPHL 191954Z 34009KT 10SM SCT020 BKN027 BKN039 11/06 A2995 RMK AO2 RAE07B25E36 SLP142 P0000 T01060056 $",
      "metarObsTime": 1776628440
    },
    "KABE": {
      "status": "OK",
      "delay": "—",
      "metarCat": "VFR",
      "metarRaw": "METAR KABE 191951Z 35006KT 10SM FEW031 BKN042 BKN065 09/02 A2993 RMK AO2 RAE1857 SLP135 P0000 T00890017 $",
      "metarObsTime": 1776628260
    },
    "KAVP": {
      "status": "OK",
      "delay": "—",
      "metarCat": "VFR",
      "metarRaw": "METAR KAVP 191954Z 33013G18KT 10SM FEW027 BKN042 OVC049 07/01 A2992 RMK AO2 SLP132 T00670006",
      "metarObsTime": 1776628440
    },
    "KHZL": {
      "status": "OK",
      "delay": "—",
      "metarCat": "MVFR",
      "metarRaw": "METAR KHZL 191955Z AUTO 28004KT 4SM -RA SCT010 OVC015 03/01 A2995 RMK AO2",
      "metarObsTime": 1776628500
    }
  }
}