{
  "generatedAt": "2026-05-16T20:59:59.891Z",
  "faaFlow": {
    "updatedAt": "2026-05-16T20:59:59.569Z",
    "source": "https://www.fly.faa.gov/adv/adv_spt",
    "terminal": [
      {
        "time": "—",
        "text": "AFTER",
        "code": "FLOW",
        "label": "FAA flow impact",
        "level": "yellow",
        "section": "Terminal Planned",
        "airports": []
      },
      {
        "time": "2000",
        "text": "DEN GROUND STOP/DELAY PROGRAM POSSIBLE",
        "code": "GS",
        "label": "Ground stop possible",
        "level": "yellow",
        "section": "Terminal Planned",
        "airports": []
      }
    ],
    "enroute": [
      {
        "time": "—",
        "text": "UNTIL",
        "code": "FLOW",
        "label": "FAA flow impact",
        "level": "yellow",
        "section": "En Route Planned",
        "airports": []
      },
      {
        "time": "0200",
        "text": "MIA/FLL/PBI CDRS/SWAP POSSIBLE",
        "code": "ROUTE",
        "label": "Route impact possible",
        "level": "blue",
        "section": "En Route Planned",
        "airports": []
      },
      {
        "time": "—",
        "text": "UNTIL",
        "code": "FLOW",
        "label": "FAA flow impact",
        "level": "yellow",
        "section": "En Route Planned",
        "airports": []
      },
      {
        "time": "0300",
        "text": "DEN ARRIVAL ROUTES POSSIBLE CDRS/SWAP/CAPPING/TUNNELING/HOTLINE/DIVERSION RECOVERY:",
        "code": "ROUTE",
        "label": "Route impact possible",
        "level": "blue",
        "section": "En Route Planned",
        "airports": []
      },
      {
        "time": "—",
        "text": "UNTIL",
        "code": "FLOW",
        "label": "FAA flow impact",
        "level": "yellow",
        "section": "En Route Planned",
        "airports": []
      },
      {
        "time": "2300",
        "text": "ORD_MDW CDRS",
        "code": "ROUTE",
        "label": "Route impact possible",
        "level": "blue",
        "section": "En Route Planned",
        "airports": []
      },
      {
        "time": "—",
        "text": "UNTIL",
        "code": "FLOW",
        "label": "FAA flow impact",
        "level": "yellow",
        "section": "En Route Planned",
        "airports": []
      },
      {
        "time": "2300",
        "text": "ZAU SWAP STATEMENT",
        "code": "ROUTE",
        "label": "Route impact possible",
        "level": "blue",
        "section": "En Route Planned",
        "airports": []
      },
      {
        "time": "—",
        "text": "UNTIL",
        "code": "FLOW",
        "label": "FAA flow impact",
        "level": "yellow",
        "section": "En Route Planned",
        "airports": []
      },
      {
        "time": "0000",
        "text": "ZDC SWAP STATEMENT",
        "code": "ROUTE",
        "label": "Route impact possible",
        "level": "blue",
        "section": "En Route Planned",
        "airports": []
      },
      {
        "time": "—",
        "text": "UNTIL",
        "code": "FLOW",
        "label": "FAA flow impact",
        "level": "yellow",
        "section": "En Route Planned",
        "airports": []
      },
      {
        "time": "0300",
        "text": "ZDV SWAP STATEMENT",
        "code": "ROUTE",
        "label": "Route impact possible",
        "level": "blue",
        "section": "En Route Planned",
        "airports": []
      },
      {
        "time": "—",
        "text": "UNTIL",
        "code": "FLOW",
        "label": "FAA flow impact",
        "level": "yellow",
        "section": "En Route Planned",
        "airports": []
      },
      {
        "time": "0400",
        "text": "ZNY SWAP STATEMENT RUNWAY/EQUIPMENT/POSSIBLE SYSTEM IMPACT REPORTS(SIRs): PDX - RWYs 10R/28L & 03/21 CLOSED UNTIL 05/22/26",
        "code": "CLOSURE",
        "label": "Closure possible",
        "level": "yellow",
        "section": "En Route Planned",
        "airports": []
      },
      {
        "time": "—",
        "text": "UNTIL",
        "code": "FLOW",
        "label": "FAA flow impact",
        "level": "yellow",
        "section": "En Route Planned",
        "airports": []
      },
      {
        "time": "0000",
        "text": "ORD/MDW SWAP/ARRIVAL ROUTES POSSIBLE SPACEX STARLINK 17-37, VANDENBERG SFB, CA PRIMARY: 05/23/26",
        "code": "ROUTE",
        "label": "Route impact possible",
        "level": "blue",
        "section": "En Route Planned",
        "airports": []
      }
    ],
    "airports": {
      "KPIT": null,
      "KAGC": null,
      "KLBE": null,
      "KJST": null,
      "KERI": null,
      "KDUJ": null,
      "KBFD": null,
      "KBTP": null,
      "KFKL": null,
      "KIDI": null,
      "KMDT": null,
      "KCXY": null,
      "KMUI": null,
      "KUNV": null,
      "KAOO": null,
      "KLNS": null,
      "KIPT": null,
      "KPHL": null,
      "KABE": null,
      "KAVP": null,
      "KHZL": null
    }
  },
  "airports": {
    "KPIT": {
      "status": "OK",
      "delay": "—",
      "metarCat": "MVFR",
      "metarRaw": "METAR KPIT 162051Z 21012G20KT 10SM FEW018 BKN026 OVC085 18/14 A2999 RMK AO2 RAE15 SLP161 P0000 60000 T01830139 55008",
      "metarObsTime": 1778964660,
      "faaFlow": null
    },
    "KAGC": {
      "status": "OK",
      "delay": "—",
      "metarCat": "VFR",
      "metarRaw": "METAR KAGC 162053Z 21009KT 10SM SCT014 BKN041 OVC050 17/15 A3000 RMK AO2 RAB20E32 SLP161 P0000 60000 T01720150 55005",
      "metarObsTime": 1778964780,
      "faaFlow": null
    },
    "KLBE": {
      "status": "OK",
      "delay": "—",
      "metarCat": "VFR",
      "metarRaw": "METAR KLBE 162047Z 21015G25KT 6SM -RA SCT035 OVC070 18/17 A3002",
      "metarObsTime": 1778964420,
      "faaFlow": null
    },
    "KJST": {
      "status": "OK",
      "delay": "—",
      "metarCat": "VFR",
      "metarRaw": "METAR KJST 162054Z AUTO 23011G20KT 10SM -RA OVC100 17/13 A3002 RMK AO2 RAE16B46 SLP163 P0000 60003 T01720133 58006",
      "metarObsTime": 1778964840,
      "faaFlow": null
    },
    "KERI": {
      "status": "OK",
      "delay": "—",
      "metarCat": "VFR",
      "metarRaw": "METAR KERI 162051Z 19012KT 10SM FEW047 SCT055 OVC080 17/16 A2990 RMK AO2 RAB1959E34 SLP124 P0006 60007 T01720156 56004",
      "metarObsTime": 1778964660,
      "faaFlow": null
    },
    "KDUJ": {
      "status": "OK",
      "delay": "—",
      "metarCat": "VFR",
      "metarRaw": "METAR KDUJ 162053Z AUTO 21007G18KT 10SM -RA OVC095 19/12 A2996 RMK AO2 RAB45 SLP141 P0000 60000 T01890122 58007",
      "metarObsTime": 1778964780,
      "faaFlow": null
    },
    "KBFD": {
      "status": "OK",
      "delay": "—",
      "metarCat": "VFR",
      "metarRaw": "METAR KBFD 162053Z AUTO 24008G19KT 10SM -RA OVC095 18/12 A2995 RMK AO2 RAB36 SLP143 P0000 60000 T01830117 55005",
      "metarObsTime": 1778964780,
      "faaFlow": null
    },
    "KBTP": {
      "status": "OK",
      "delay": "—",
      "metarCat": "MVFR",
      "metarRaw": "METAR KBTP 162056Z AUTO 20008KT 10SM -RA SCT023 OVC027 18/16 A2999 RMK AO2 RAE22B50 SLP163 P0000 60000 T01780156 55004 $",
      "metarObsTime": 1778964960,
      "faaFlow": null
    },
    "KFKL": {
      "status": "OK",
      "delay": "—",
      "metarCat": "MVFR",
      "metarRaw": "METAR KFKL 162056Z AUTO 20012KT 6SM +RA BR OVC012 16/15 A2997 RMK AO2 SLP148 P0003 60003 T01610150 55006",
      "metarObsTime": 1778964960,
      "faaFlow": null
    },
    "KIDI": {
      "status": "OK",
      "delay": "—",
      "metarCat": "VFR",
      "metarRaw": "METAR KIDI 162055Z AUTO 22013G24KT 9SM FEW021 SCT026 SCT050 18/15 A3000 RMK A01",
      "metarObsTime": 1778964900,
      "faaFlow": null
    },
    "KMDT": {
      "status": "OK",
      "delay": "—",
      "metarCat": "VFR",
      "metarRaw": "METAR KMDT 162056Z 23008G19KT 10SM BKN075 BKN090 OVC250 26/09 A2995 RMK AO2 SLP141 T02610089 56018",
      "metarObsTime": 1778964960,
      "faaFlow": null
    },
    "KCXY": {
      "status": "OK",
      "delay": "—",
      "metarCat": "VFR",
      "metarRaw": "METAR KCXY 162056Z 21008G18KT 10SM OVC070 26/10 A2995 RMK AO2 SLP142 T02610100 56019",
      "metarObsTime": 1778964960,
      "faaFlow": null
    },
    "KMUI": {
      "status": "OK",
      "delay": "—",
      "metarCat": "VFR",
      "metarRaw": "METAR KMUI 161955Z AUTO 22009KT 10SM CLR 29/10 A2994 RMK AO2 SLP139 T02910102 $",
      "metarObsTime": 1778961300,
      "faaFlow": null
    },
    "KUNV": {
      "status": "OK",
      "delay": "—",
      "metarCat": "VFR",
      "metarRaw": "METAR KUNV 162053Z 24016G31KT 10SM -RA BKN042 OVC050 20/13 A2998",
      "metarObsTime": 1778964780,
      "faaFlow": null
    },
    "KAOO": {
      "status": "OK",
      "delay": "—",
      "metarCat": "VFR",
      "metarRaw": "METAR KAOO 162053Z AUTO 22010G20KT 10SM -RA OVC110 18/14 A3000 RMK AO2 RAB1958 SLP157 P0002 60002 T01830144 58009",
      "metarObsTime": 1778964780,
      "faaFlow": null
    },
    "KLNS": {
      "status": "OK",
      "delay": "—",
      "metarCat": "VFR",
      "metarRaw": "METAR KLNS 162053Z 22010KT 10SM BKN070 26/08 A2995 RMK AO2 SLP142 T02610083 56022",
      "metarObsTime": 1778964780,
      "faaFlow": null
    },
    "KIPT": {
      "status": "OK",
      "delay": "—",
      "metarCat": "VFR",
      "metarRaw": "METAR KIPT 162054Z 21004KT 10SM OVC065 25/10 A2990 RMK AO2 SLP124 T02500100 56020",
      "metarObsTime": 1778964840,
      "faaFlow": null
    },
    "KPHL": {
      "status": "OK",
      "delay": "—",
      "metarCat": "VFR",
      "metarRaw": "METAR KPHL 162054Z 23012KT 10SM SCT300 28/08 A2997 RMK AO2 PK WND 24026/2012 SLP147 T02780083 58020 $",
      "metarObsTime": 1778964840,
      "faaFlow": null
    },
    "KABE": {
      "status": "OK",
      "delay": "—",
      "metarCat": "VFR",
      "metarRaw": "METAR KABE 162051Z 22010G20KT 10SM CLR 27/09 A2993 RMK AO2 SLP134 T02670094 56027",
      "metarObsTime": 1778964660,
      "faaFlow": null
    },
    "KAVP": {
      "status": "OK",
      "delay": "—",
      "metarCat": "VFR",
      "metarRaw": "METAR KAVP 162054Z 23013G19KT 10SM CLR 26/09 A2991 RMK AO2 SLP124 T02610089 56027",
      "metarObsTime": 1778964840,
      "faaFlow": null
    },
    "KHZL": {
      "status": "OK",
      "delay": "—",
      "metarCat": "VFR",
      "metarRaw": "METAR KHZL 162055Z AUTO 20005KT 10SM BKN060 24/07 A3000 RMK AO2",
      "metarObsTime": 1778964900,
      "faaFlow": null
    }
  }
}