{
  "generatedAt": "2026-03-11T03:10:16.101Z",
  "airports": {
    "KPIT": {
      "status": "OK",
      "delay": "—",
      "metarCat": "VFR",
      "metarRaw": "METAR KPIT 110251Z 00000KT 10SM FEW050 FEW250 16/13 A2996 RMK AO2 SLP149 T01560133 58007",
      "metarObsTime": 1773197460
    },
    "KAGC": {
      "status": "OK",
      "delay": "—",
      "metarCat": "VFR",
      "metarRaw": "METAR KAGC 110253Z 14005KT 10SM CLR 16/13 A2996 RMK AO2 SLP146 T01610133 58008",
      "metarObsTime": 1773197580
    },
    "KLBE": {
      "status": "OK",
      "delay": "—",
      "metarCat": "VFR",
      "metarRaw": "METAR KLBE 110255Z AUTO 00000KT 8SM CLR 14/13 A2999 RMK AO2",
      "metarObsTime": 1773197700
    },
    "KJST": {
      "status": "OK",
      "delay": "—",
      "metarCat": "VFR",
      "metarRaw": "METAR KJST 110254Z AUTO 21004KT 10SM CLR 16/13 A3002 RMK AO2 SLP158 T01560128 58005",
      "metarObsTime": 1773197640
    },
    "KERI": {
      "status": "OK",
      "delay": "—",
      "metarCat": "VFR",
      "metarRaw": "METAR KERI 110251Z 16008KT 10SM FEW049 17/13 A2991 RMK AO2 SLP125 T01670133 58009",
      "metarObsTime": 1773197460
    },
    "KDUJ": {
      "status": "OK",
      "delay": "—",
      "metarCat": "VFR",
      "metarRaw": "METAR KDUJ 110253Z AUTO 14003KT 10SM FEW042 SCT050 15/12 A2999 RMK AO2 SLP149 T01500122 58003",
      "metarObsTime": 1773197580
    },
    "KBFD": {
      "status": "OK",
      "delay": "—",
      "metarCat": "VFR",
      "metarRaw": "METAR KBFD 110253Z AUTO 13003KT 10SM FEW023 BKN050 13/12 A2999 RMK AO2 SLP151 T01330117 58002",
      "metarObsTime": 1773197580
    },
    "KBTP": {
      "status": "OK",
      "delay": "—",
      "metarCat": "VFR",
      "metarRaw": "METAR KBTP 110256Z AUTO 14005KT 10SM CLR 15/15 A2997 RMK AO2 SLP152 T01500150 58009 $",
      "metarObsTime": 1773197760
    },
    "KFKL": {
      "status": "OK",
      "delay": "—",
      "metarCat": "VFR",
      "metarRaw": "METAR KFKL 110256Z AUTO 15006KT 10SM CLR 15/13 A2997 RMK AO2 SLP146 T01500133 58008",
      "metarObsTime": 1773197760
    },
    "KIDI": {
      "status": "OK",
      "delay": "—",
      "metarCat": "—",
      "metarRaw": "—",
      "metarObsTime": null
    },
    "KMDT": {
      "status": "OK",
      "delay": "—",
      "metarCat": "VFR",
      "metarRaw": "METAR KMDT 110256Z 09003KT 10SM SCT080 17/08 A2997 RMK AO2 SLP151 60000 T01670083 50008",
      "metarObsTime": 1773197760
    },
    "KCXY": {
      "status": "OK",
      "delay": "—",
      "metarCat": "VFR",
      "metarRaw": "METAR KCXY 110256Z AUTO 00000KT 10SM SCT080 BKN110 17/09 A2997 RMK AO2 SLP149 T01720094 50006",
      "metarObsTime": 1773197760
    },
    "KMUI": {
      "status": "OK",
      "delay": "—",
      "metarCat": "VFR",
      "metarRaw": "METAR KMUI 110255Z AUTO 00000KT 10SM FEW110 16/13 A2997 RMK AO2 SLP151 T01590128 52010",
      "metarObsTime": 1773197700
    },
    "KUNV": {
      "status": "OK",
      "delay": "—",
      "metarCat": "VFR",
      "metarRaw": "METAR KUNV 110255Z AUTO 00000KT 10SM CLR 17/11 A2999 RMK AO2 T01650113",
      "metarObsTime": 1773197700
    },
    "KAOO": {
      "status": "OK",
      "delay": "—",
      "metarCat": "—",
      "metarRaw": "—",
      "metarObsTime": null
    },
    "KLNS": {
      "status": "OK",
      "delay": "—",
      "metarCat": "VFR",
      "metarRaw": "METAR KLNS 110253Z 00000KT 10SM BKN085 18/07 A2999 RMK AO2 SLP153 T01830072 51005",
      "metarObsTime": 1773197580
    },
    "KIPT": {
      "status": "OK",
      "delay": "—",
      "metarCat": "VFR",
      "metarRaw": "METAR KIPT 110254Z AUTO 00000KT 10SM CLR 12/11 A2997 RMK AO2 SLP149 T01220106 50002",
      "metarObsTime": 1773197640
    },
    "KPHL": {
      "status": "OK",
      "delay": "—",
      "metarCat": "VFR",
      "metarRaw": "METAR KPHL 110254Z 24003KT 10SM SCT080 18/04 A3000 RMK AO2 SLP159 T01780044 51006 $",
      "metarObsTime": 1773197640
    },
    "KABE": {
      "status": "OK",
      "delay": "—",
      "metarCat": "VFR",
      "metarRaw": "METAR KABE 110251Z 33003KT 10SM BKN080 16/09 A2999 RMK AO2 SLP154 T01560094 51007 $",
      "metarObsTime": 1773197460
    },
    "KAVP": {
      "status": "OK",
      "delay": "—",
      "metarCat": "VFR",
      "metarRaw": "METAR KAVP 110254Z 00000KT 10SM FEW075 16/09 A2999 RMK AO2 SLP152 T01610094 51004",
      "metarObsTime": 1773197640
    },
    "KHZL": {
      "status": "OK",
      "delay": "—",
      "metarCat": "VFR",
      "metarRaw": "METAR KHZL 110255Z AUTO 00000KT 10SM BKN060 BKN080 BKN100 17/08 A3004 RMK AO2",
      "metarObsTime": 1773197700
    }
  }
}