{
  "generatedAt": "2026-04-13T07:30:51.765Z",
  "airports": {
    "KPIT": {
      "status": "OK",
      "delay": "—",
      "metarCat": "VFR",
      "metarRaw": "METAR KPIT 130651Z 20007KT 10SM BKN140 BKN230 21/07 A3002 RMK AO2 SLP164 T02110067 $",
      "metarObsTime": 1776063060
    },
    "KAGC": {
      "status": "OK",
      "delay": "—",
      "metarCat": "VFR",
      "metarRaw": "METAR KAGC 130653Z 18007KT 10SM CLR 20/09 A3003 RMK AO2 SLP164 T02000094",
      "metarObsTime": 1776063180
    },
    "KLBE": {
      "status": "OK",
      "delay": "—",
      "metarCat": "VFR",
      "metarRaw": "METAR KLBE 130715Z AUTO 20006KT 10SM CLR 19/11 A3006 RMK AO2",
      "metarObsTime": 1776064500
    },
    "KJST": {
      "status": "OK",
      "delay": "—",
      "metarCat": "VFR",
      "metarRaw": "METAR KJST 130654Z AUTO 20008KT 10SM CLR 17/08 A3009 RMK AO2 SLP180 T01720083",
      "metarObsTime": 1776063240
    },
    "KERI": {
      "status": "OK",
      "delay": "—",
      "metarCat": "VFR",
      "metarRaw": "METAR KERI 130651Z AUTO 21012KT 10SM FEW110 22/07 A2991 RMK AO2 SLP126 T02170072 $",
      "metarObsTime": 1776063060
    },
    "KDUJ": {
      "status": "OK",
      "delay": "—",
      "metarCat": "VFR",
      "metarRaw": "METAR KDUJ 130653Z AUTO VRB04KT 10SM BKN120 17/09 A3003 RMK AO2 SLP160 T01720089",
      "metarObsTime": 1776063180
    },
    "KBFD": {
      "status": "OK",
      "delay": "—",
      "metarCat": "VFR",
      "metarRaw": "METAR KBFD 130653Z AUTO 18007KT 10SM BKN110 15/08 A3003 RMK AO2 SLP159 T01500078",
      "metarObsTime": 1776063180
    },
    "KBTP": {
      "status": "OK",
      "delay": "—",
      "metarCat": "VFR",
      "metarRaw": "METAR KBTP 130656Z AUTO 21008KT 10SM FEW120 21/08 A3002 RMK AO2 SLP165 T02060078 $",
      "metarObsTime": 1776063360
    },
    "KFKL": {
      "status": "OK",
      "delay": "—",
      "metarCat": "VFR",
      "metarRaw": "METAR KFKL 130656Z AUTO 19010KT 10SM SCT120 18/08 A3000 RMK AO2 SLP153 T01830083",
      "metarObsTime": 1776063360
    },
    "KIDI": {
      "status": "OK",
      "delay": "—",
      "metarCat": "VFR",
      "metarRaw": "METAR KIDI 130715Z AUTO 23005KT 10SM SCT120 19/10 A3005 RMK A01",
      "metarObsTime": 1776064500
    },
    "KMDT": {
      "status": "OK",
      "delay": "—",
      "metarCat": "VFR",
      "metarRaw": "METAR KMDT 130656Z 11004KT 10SM OVC200 11/08 A3016 RMK AO2 SLP213 T01060078",
      "metarObsTime": 1776063360
    },
    "KCXY": {
      "status": "OK",
      "delay": "—",
      "metarCat": "VFR",
      "metarRaw": "METAR KCXY 130656Z AUTO 13003KT 10SM CLR 11/08 A3016 RMK AO2 SLP213 T01110078 $",
      "metarObsTime": 1776063360
    },
    "KMUI": {
      "status": "OK",
      "delay": "—",
      "metarCat": "VFR",
      "metarRaw": "METAR KMUI 130655Z AUTO 00000KT 10SM BKN210 10/09 A3015 RMK AO2 SLP212 T01020088",
      "metarObsTime": 1776063300
    },
    "KUNV": {
      "status": "OK",
      "delay": "—",
      "metarCat": "VFR",
      "metarRaw": "METAR KUNV 130715Z AUTO 24004KT 10SM CLR 14/06 A3009 RMK AO2 T01420063",
      "metarObsTime": 1776064500
    },
    "KAOO": {
      "status": "OK",
      "delay": "—",
      "metarCat": "VFR",
      "metarRaw": "METAR KAOO 130653Z AUTO 17008KT 10SM CLR 16/08 A3010 RMK AO2 SLP185 T01610083",
      "metarObsTime": 1776063180
    },
    "KLNS": {
      "status": "OK",
      "delay": "—",
      "metarCat": "VFR",
      "metarRaw": "METAR KLNS 130653Z AUTO 09005KT 10SM FEW018 09/07 A3018 RMK AO2 SLP219 T00890067",
      "metarObsTime": 1776063180
    },
    "KIPT": {
      "status": "OK",
      "delay": "—",
      "metarCat": "VFR",
      "metarRaw": "METAR KIPT 130654Z AUTO 08009G19KT 10SM CLR 13/06 A3011 RMK AO2 SLP197 T01280061 $",
      "metarObsTime": 1776063240
    },
    "KPHL": {
      "status": "OK",
      "delay": "—",
      "metarCat": "VFR",
      "metarRaw": "METAR KPHL 130654Z 10003KT 10SM SCT200 BKN280 11/06 A3023 RMK AO2 SLP235 T01060056 $",
      "metarObsTime": 1776063240
    },
    "KABE": {
      "status": "OK",
      "delay": "—",
      "metarCat": "VFR",
      "metarRaw": "METAR KABE 130651Z 00000KT 10SM CLR 10/04 A3020 RMK AO2 SLP227 T01000044 $",
      "metarObsTime": 1776063060
    },
    "KAVP": {
      "status": "OK",
      "delay": "—",
      "metarCat": "VFR",
      "metarRaw": "METAR KAVP 130654Z 21007G14KT 10SM CLR 11/05 A3013 RMK AO2 SLP200 T01110050",
      "metarObsTime": 1776063240
    },
    "KHZL": {
      "status": "OK",
      "delay": "—",
      "metarCat": "VFR",
      "metarRaw": "METAR KHZL 130715Z AUTO 00000KT 10SM SCT015 OVC090 10/06 A3018 RMK AO2",
      "metarObsTime": 1776064500
    }
  }
}