{
  "generatedAt": "2026-03-10T18:30:18.966Z",
  "airports": {
    "KPIT": {
      "status": "OK",
      "delay": "—",
      "metarCat": "MVFR",
      "metarRaw": "METAR KPIT 101751Z 20012KT 10SM BKN028 19/12 A3000 RMK AO2 SLP162 T01890117 10194 20156 58006",
      "metarObsTime": 1773165060
    },
    "KAGC": {
      "status": "OK",
      "delay": "—",
      "metarCat": "VFR",
      "metarRaw": "METAR KAGC 101753Z 26007KT 10SM OVC033 20/12 A3000 RMK AO2 SLP159 T02000122 10206 20139 58007",
      "metarObsTime": 1773165180
    },
    "KLBE": {
      "status": "OK",
      "delay": "—",
      "metarCat": "VFR",
      "metarRaw": "METAR KLBE 101745Z 23010KT 10SM FEW040 24/13 A3000",
      "metarObsTime": 1773164700
    },
    "KJST": {
      "status": "OK",
      "delay": "—",
      "metarCat": "VFR",
      "metarRaw": "METAR KJST 101754Z AUTO 25016G22KT 10SM SCT042 BKN055 21/11 A3001 RMK AO2 SLP154 T02110106 10211 20133 58010",
      "metarObsTime": 1773165240
    },
    "KERI": {
      "status": "OK",
      "delay": "—",
      "metarCat": "LIFR",
      "metarRaw": "SPECI KERI 101827Z 26007KT 3SM -RA BR BKN003 BKN006 OVC030 15/14 A2993 RMK AO2 RAB1756 P0009 T01500144",
      "metarObsTime": 1773167220
    },
    "KDUJ": {
      "status": "OK",
      "delay": "—",
      "metarCat": "VFR",
      "metarRaw": "METAR KDUJ 101753Z AUTO 22010G17KT 10SM FEW020 OVC050 17/11 A3000 RMK AO2 SLP154 T01720111 10172 20139 58002",
      "metarObsTime": 1773165180
    },
    "KBFD": {
      "status": "OK",
      "delay": "—",
      "metarCat": "VFR",
      "metarRaw": "METAR KBFD 101753Z AUTO 21012G22KT 170V230 10SM CLR 19/09 A2997 RMK AO2 SLP141 T01940094 10194 20133 58008",
      "metarObsTime": 1773165180
    },
    "KBTP": {
      "status": "OK",
      "delay": "—",
      "metarCat": "MVFR",
      "metarRaw": "METAR KBTP 101756Z AUTO 19013G17KT 10SM BKN028 OVC035 19/13 A3001 RMK AO2 SLP163 T01940133 10194 20144 58005 $",
      "metarObsTime": 1773165360
    },
    "KFKL": {
      "status": "OK",
      "delay": "—",
      "metarCat": "VFR",
      "metarRaw": "METAR KFKL 101756Z AUTO 21014G19KT 10SM SCT032 21/13 A2997 RMK AO2 SLP146 T02060128 10206 20139 58006",
      "metarObsTime": 1773165360
    },
    "KIDI": {
      "status": "OK",
      "delay": "—",
      "metarCat": "VFR",
      "metarRaw": "METAR KIDI 101815Z AUTO 25013G19KT 10SM BKN040 22/12 A2999 RMK A01",
      "metarObsTime": 1773166500
    },
    "KMDT": {
      "status": "OK",
      "delay": "—",
      "metarCat": "VFR",
      "metarRaw": "METAR KMDT 101756Z 31006KT 10SM FEW055 FEW250 25/07 A2998 RMK AO2 SLP152 T02500072 10250 20050 56019",
      "metarObsTime": 1773165360
    },
    "KCXY": {
      "status": "OK",
      "delay": "—",
      "metarCat": "VFR",
      "metarRaw": "METAR KCXY 101756Z 02005KT 10SM CLR 24/07 A2999 RMK AO2 SLP155 T02440072 10244 20044 56018",
      "metarObsTime": 1773165360
    },
    "KMUI": {
      "status": "OK",
      "delay": "—",
      "metarCat": "VFR",
      "metarRaw": "METAR KMUI 101755Z 24011KT 10SM FEW065 FEW250 25/09 A2997 RMK AO2A SLP151 T02450088 10246 20035 57017",
      "metarObsTime": 1773165300
    },
    "KUNV": {
      "status": "OK",
      "delay": "—",
      "metarCat": "VFR",
      "metarRaw": "METAR KUNV 101753Z 23011G18KT 10SM BKN044 22/12 A3000",
      "metarObsTime": 1773165180
    },
    "KAOO": {
      "status": "OK",
      "delay": "—",
      "metarCat": "—",
      "metarRaw": "—",
      "metarObsTime": null
    },
    "KLNS": {
      "status": "OK",
      "delay": "—",
      "metarCat": "VFR",
      "metarRaw": "METAR KLNS 101753Z 21011G17KT 10SM CLR 26/10 A2998 RMK AO2 SLP151 T02560100 10261 20050 58021",
      "metarObsTime": 1773165180
    },
    "KIPT": {
      "status": "OK",
      "delay": "—",
      "metarCat": "VFR",
      "metarRaw": "METAR KIPT 101754Z 00000KT 10SM BKN055 22/07 A2998 RMK AO2 SLP150 6//// T02170067 10217 20022 56015",
      "metarObsTime": 1773165240
    },
    "KPHL": {
      "status": "OK",
      "delay": "—",
      "metarCat": "VFR",
      "metarRaw": "METAR KPHL 101754Z 22010KT 10SM FEW055 SCT280 26/04 A3000 RMK AO2 SLP159 T02610039 10261 20061 58019 $",
      "metarObsTime": 1773165240
    },
    "KABE": {
      "status": "OK",
      "delay": "—",
      "metarCat": "VFR",
      "metarRaw": "METAR KABE 101751Z 24010G19KT 10SM CLR 26/06 A2998 RMK AO2 SLP150 T02560056 10256 20033 58024 $",
      "metarObsTime": 1773165060
    },
    "KAVP": {
      "status": "OK",
      "delay": "—",
      "metarCat": "VFR",
      "metarRaw": "METAR KAVP 101754Z 25013G20KT 10SM CLR 23/09 A2997 RMK AO2 SLP145 T02330089 10233 20044 56017",
      "metarObsTime": 1773165240
    },
    "KHZL": {
      "status": "OK",
      "delay": "—",
      "metarCat": "VFR",
      "metarRaw": "METAR KHZL 101815Z AUTO 26006KT 10SM CLR 24/08 A3003 RMK AO2",
      "metarObsTime": 1773166500
    }
  }
}