{
  "generatedAt": "2026-03-08T08:40:13.352Z",
  "airports": {
    "KPIT": {
      "status": "OK",
      "delay": "—",
      "metarCat": "MVFR",
      "metarRaw": "METAR KPIT 080751Z 23010KT 10SM BKN020 OVC033 15/12 A2982 RMK AO2 SLP099 T01500117 $",
      "metarObsTime": 1772956260
    },
    "KAGC": {
      "status": "OK",
      "delay": "—",
      "metarCat": "MVFR",
      "metarRaw": "SPECI KAGC 080800Z 22009KT 10SM SCT023 BKN029 OVC055 14/12 A2983 RMK AO2 T01440117",
      "metarObsTime": 1772956800
    },
    "KLBE": {
      "status": "OK",
      "delay": "—",
      "metarCat": "MVFR",
      "metarRaw": "METAR KLBE 080835Z AUTO 20010KT 10SM SCT023 BKN027 OVC035 15/13 A2985 RMK AO2",
      "metarObsTime": 1772958900
    },
    "KJST": {
      "status": "OK",
      "delay": "—",
      "metarCat": "MVFR",
      "metarRaw": "METAR KJST 080754Z AUTO 26015G24KT 10SM SCT010 OVC014 12/11 A2983 RMK AO2 PK WND 27026/0655 RAE49 SLP092 P0000 T01220106",
      "metarObsTime": 1772956440
    },
    "KERI": {
      "status": "OK",
      "delay": "—",
      "metarCat": "MVFR",
      "metarRaw": "SPECI KERI 080834Z AUTO 24008KT 10SM BKN016 OVC031 06/03 A2984 RMK AO2 T00560028",
      "metarObsTime": 1772958840
    },
    "KDUJ": {
      "status": "OK",
      "delay": "—",
      "metarCat": "VFR",
      "metarRaw": "SPECI KDUJ 080815Z AUTO 24013G23KT 10SM SCT023 BKN060 13/11 A2976 RMK AO2 T01280106",
      "metarObsTime": 1772957700
    },
    "KBFD": {
      "status": "OK",
      "delay": "—",
      "metarCat": "MVFR",
      "metarRaw": "SPECI KBFD 080800Z AUTO 28012G19KT 10SM -RA SCT017 BKN021 BKN055 13/10 A2973 RMK AO2 RAB00 P0000 T01280100",
      "metarObsTime": 1772956800
    },
    "KBTP": {
      "status": "OK",
      "delay": "—",
      "metarCat": "MVFR",
      "metarRaw": "METAR KBTP 080756Z AUTO 23011KT 10SM BKN024 OVC065 14/13 A2981 RMK AO2 SLP094 T01440128 $",
      "metarObsTime": 1772956560
    },
    "KFKL": {
      "status": "OK",
      "delay": "—",
      "metarCat": "MVFR",
      "metarRaw": "METAR KFKL 080756Z AUTO 30009G20KT 10SM OVC014 11/08 A2982 RMK AO2 RAB15E37 SLP094 P0001 T01060078",
      "metarObsTime": 1772956560
    },
    "KIDI": {
      "status": "OK",
      "delay": "—",
      "metarCat": "MVFR",
      "metarRaw": "METAR KIDI 080835Z AUTO 24008G14KT 10SM BKN019 OVC025 14/12 A2981 RMK A01",
      "metarObsTime": 1772958900
    },
    "KMDT": {
      "status": "OK",
      "delay": "—",
      "metarCat": "LIFR",
      "metarRaw": "METAR KMDT 080756Z 00000KT 1/8SM R13/1200V1600FT FG VV002 07/07 A2981 RMK AO2 TWR VIS 1 1/2 SLP098 T00670067",
      "metarObsTime": 1772956560
    },
    "KCXY": {
      "status": "OK",
      "delay": "—",
      "metarCat": "LIFR",
      "metarRaw": "METAR KCXY 080756Z AUTO 00000KT 1/4SM R08/1400V1600FT FG VV002 08/08 A2982 RMK AO2 SLP099 T00780078",
      "metarObsTime": 1772956560
    },
    "KMUI": {
      "status": "OK",
      "delay": "—",
      "metarCat": "LIFR",
      "metarRaw": "SPECI KMUI 080819Z AUTO 00000KT 3/8SM FG VV002 09/08 A2978 RMK AO2 SLP089 RVRNO",
      "metarObsTime": 1772957940
    },
    "KUNV": {
      "status": "OK",
      "delay": "—",
      "metarCat": "MVFR",
      "metarRaw": "METAR KUNV 080835Z AUTO 24013G17KT 10SM BKN028 BKN035 OVC044 15/11 A2978 RMK AO2 T01490107",
      "metarObsTime": 1772958900
    },
    "KAOO": {
      "status": "OK",
      "delay": "—",
      "metarCat": "—",
      "metarRaw": "—",
      "metarObsTime": null
    },
    "KLNS": {
      "status": "OK",
      "delay": "—",
      "metarCat": "LIFR",
      "metarRaw": "SPECI KLNS 080823Z AUTO 00000KT 1/2SM FG OVC005 08/08 A2981 RMK AO2 T00830078",
      "metarObsTime": 1772958180
    },
    "KIPT": {
      "status": "OK",
      "delay": "—",
      "metarCat": "LIFR",
      "metarRaw": "SPECI KIPT 080803Z AUTO 11004KT 1/4SM FG VV002 07/07 A2975 RMK AO2 T00720067",
      "metarObsTime": 1772956980
    },
    "KPHL": {
      "status": "OK",
      "delay": "—",
      "metarCat": "LIFR",
      "metarRaw": "SPECI KPHL 080831Z 25004KT 1/4SM FG OVC002 09/08 A2980 RMK AO2 T00890078 RVRNO $",
      "metarObsTime": 1772958660
    },
    "KABE": {
      "status": "OK",
      "delay": "—",
      "metarCat": "IFR",
      "metarRaw": "METAR KABE 080751Z 20004KT 6SM BR OVC007 08/08 A2980 RMK AO2 RAB13E26 SLP092 P0000 T00830078",
      "metarObsTime": 1772956260
    },
    "KAVP": {
      "status": "OK",
      "delay": "—",
      "metarCat": "LIFR",
      "metarRaw": "SPECI KAVP 080837Z AUTO 22004KT 2SM BR OVC002 10/09 A2976 RMK AO2 T01000094",
      "metarObsTime": 1772959020
    },
    "KHZL": {
      "status": "OK",
      "delay": "—",
      "metarCat": "VFR",
      "metarRaw": "METAR KHZL 080835Z AUTO 00000KT 10SM SCT047 BKN070 BKN100 13/12 A2980 RMK AO2",
      "metarObsTime": 1772958900
    }
  }
}