{
  "generatedAt": "2026-04-16T09:50:51.601Z",
  "airports": {
    "KPIT": {
      "status": "OK",
      "delay": "—",
      "metarCat": "VFR",
      "metarRaw": "METAR KPIT 160151Z 00000KT 10SM FEW050 SCT100 23/15 A2994 RMK AO2 RAB04E21 SLP137 P0000 T02330150 $",
      "metarObsTime": 1776304260
    },
    "KAGC": {
      "status": "OK",
      "delay": "—",
      "metarCat": "VFR",
      "metarRaw": "METAR KAGC 160153Z 22011KT 10SM SCT110 25/13 A2994 RMK AO2 SLP133 T02500133",
      "metarObsTime": 1776304380
    },
    "KLBE": {
      "status": "OK",
      "delay": "—",
      "metarCat": "VFR",
      "metarRaw": "METAR KLBE 160147Z 21005KT 10SM CLR 24/15 A2996",
      "metarObsTime": 1776304020
    },
    "KJST": {
      "status": "OK",
      "delay": "—",
      "metarCat": "VFR",
      "metarRaw": "METAR KJST 160154Z AUTO 25008KT 10SM CLR 23/12 A3000 RMK AO2 SLP144 T02280122",
      "metarObsTime": 1776304440
    },
    "KERI": {
      "status": "OK",
      "delay": "—",
      "metarCat": "VFR",
      "metarRaw": "METAR KERI 160151Z 21008KT 10SM BKN055 OVC070 18/17 A2989 RMK AO2 SLP118 T01780167 $",
      "metarObsTime": 1776304260
    },
    "KDUJ": {
      "status": "OK",
      "delay": "—",
      "metarCat": "VFR",
      "metarRaw": "SPECI KDUJ 160208Z AUTO 31003KT 10SM BKN100 16/16 A2996 RMK AO2 LTG DSNT E RAE00 P0000 T01610156",
      "metarObsTime": 1776305280
    },
    "KBFD": {
      "status": "OK",
      "delay": "—",
      "metarCat": "VFR",
      "metarRaw": "METAR KBFD 160153Z AUTO 21004KT 7SM -RA FEW045 BKN080 OVC095 17/16 A2996 RMK AO2 LTG DSNT SE TSE06 SLP135 P0016 T01670156",
      "metarObsTime": 1776304380
    },
    "KBTP": {
      "status": "OK",
      "delay": "—",
      "metarCat": "VFR",
      "metarRaw": "METAR KBTP 160156Z AUTO 01003KT 10SM FEW060 22/16 A2995 RMK AO2 SLP140 T02170156 PNO $",
      "metarObsTime": 1776304560
    },
    "KFKL": {
      "status": "OK",
      "delay": "—",
      "metarCat": "—",
      "metarRaw": "—",
      "metarObsTime": null
    },
    "KIDI": {
      "status": "OK",
      "delay": "—",
      "metarCat": "VFR",
      "metarRaw": "METAR KIDI 160155Z AUTO 24007KT 10SM BKN110 24/14 A2996 RMK A01",
      "metarObsTime": 1776304500
    },
    "KMDT": {
      "status": "OK",
      "delay": "—",
      "metarCat": "VFR",
      "metarRaw": "METAR KMDT 160156Z 14006KT 10SM OVC200 26/14 A2987 RMK AO2 SLP114 T02560139",
      "metarObsTime": 1776304560
    },
    "KCXY": {
      "status": "OK",
      "delay": "—",
      "metarCat": "VFR",
      "metarRaw": "METAR KCXY 160156Z AUTO 20009KT 10SM CLR 28/13 A2987 RMK AO2 SLP114 T02830128 $",
      "metarObsTime": 1776304560
    },
    "KMUI": {
      "status": "OK",
      "delay": "—",
      "metarCat": "VFR",
      "metarRaw": "METAR KMUI 160155Z 00000KT 10SM FEW060 BKN230 23/17 A2987 RMK AO2A SLP115 T02280172",
      "metarObsTime": 1776304500
    },
    "KUNV": {
      "status": "OK",
      "delay": "—",
      "metarCat": "VFR",
      "metarRaw": "METAR KUNV 160153Z 00000KT 10SM CLR 23/14 A2993 RMK LTG DSNT N",
      "metarObsTime": 1776304380
    },
    "KAOO": {
      "status": "OK",
      "delay": "—",
      "metarCat": "VFR",
      "metarRaw": "METAR KAOO 160153Z AUTO 23010KT 10SM CLR 24/13 A2996 RMK AO2 SLP134 T02440128",
      "metarObsTime": 1776304380
    },
    "KLNS": {
      "status": "OK",
      "delay": "—",
      "metarCat": "VFR",
      "metarRaw": "METAR KLNS 160153Z 18004KT 10SM CLR 24/15 A2990 RMK AO2 SLP120 T02440150",
      "metarObsTime": 1776304380
    },
    "KIPT": {
      "status": "OK",
      "delay": "—",
      "metarCat": "VFR",
      "metarRaw": "METAR KIPT 160154Z 34003KT 10SM FEW110 24/16 A2986 RMK AO2 LTG DSNT NW SLP110 T02390156 $",
      "metarObsTime": 1776304440
    },
    "KPHL": {
      "status": "OK",
      "delay": "—",
      "metarCat": "VFR",
      "metarRaw": "METAR KPHL 160154Z 21007KT 10SM SCT200 BKN280 27/15 A2991 RMK AO2 SLP127 T02670150 $",
      "metarObsTime": 1776304440
    },
    "KABE": {
      "status": "OK",
      "delay": "—",
      "metarCat": "VFR",
      "metarRaw": "METAR KABE 160151Z 23007KT 10SM CLR 25/14 A2989 RMK AO2 SLP118 T02500144",
      "metarObsTime": 1776304260
    },
    "KAVP": {
      "status": "OK",
      "delay": "—",
      "metarCat": "VFR",
      "metarRaw": "METAR KAVP 160154Z 22006KT 10SM CLR 26/14 A2989 RMK AO2 SLP112 T02560139",
      "metarObsTime": 1776304440
    },
    "KHZL": {
      "status": "OK",
      "delay": "—",
      "metarCat": "VFR",
      "metarRaw": "METAR KHZL 160155Z AUTO 00000KT 10SM CLR 24/13 A2997 RMK AO2",
      "metarObsTime": 1776304500
    }
  }
}