{
  "generatedAt": "2026-03-12T19:40:13.069Z",
  "airports": {
    "KPIT": {
      "status": "OK",
      "delay": "—",
      "metarCat": "VFR",
      "metarRaw": "METAR KPIT 121851Z 29017G27KT 10SM SCT042 BKN200 05/M09 A3001 RMK AO2 PK WND 34028/1754 SLP178 T00501089 $",
      "metarObsTime": 1773341460
    },
    "KAGC": {
      "status": "OK",
      "delay": "—",
      "metarCat": "VFR",
      "metarRaw": "METAR KAGC 121853Z 32013G28KT 10SM FEW060 04/M09 A2999 RMK AO2 PK WND 29028/1848 SLP167 T00391089",
      "metarObsTime": 1773341580
    },
    "KLBE": {
      "status": "OK",
      "delay": "—",
      "metarCat": "VFR",
      "metarRaw": "METAR KLBE 121853Z 27010G23KT 10SM FEW090 FEW110 04/M07 A3000",
      "metarObsTime": 1773341580
    },
    "KJST": {
      "status": "OK",
      "delay": "—",
      "metarCat": "VFR",
      "metarRaw": "METAR KJST 121854Z AUTO 29011G21KT 10SM FEW035 M01/M07 A2989 RMK AO2 PK WND 30031/1801 SLP141 T10061067",
      "metarObsTime": 1773341640
    },
    "KERI": {
      "status": "OK",
      "delay": "—",
      "metarCat": "VFR",
      "metarRaw": "METAR KERI 121851Z AUTO 27015G24KT 10SM CLR 01/M07 A3005 RMK AO2 PK WND 30026/1819 SLP183 T00061067",
      "metarObsTime": 1773341460
    },
    "KDUJ": {
      "status": "OK",
      "delay": "—",
      "metarCat": "VFR",
      "metarRaw": "METAR KDUJ 121853Z AUTO 30016G23KT 10SM CLR 01/M09 A2991 RMK AO2 PK WND 30027/1832 SLP142 T00061089",
      "metarObsTime": 1773341580
    },
    "KBFD": {
      "status": "OK",
      "delay": "—",
      "metarCat": "VFR",
      "metarRaw": "METAR KBFD 121853Z AUTO 30016G25KT 10SM BKN033 BKN042 M01/M08 A2989 RMK AO2 PK WND 28027/1840 SLP140 T10111078",
      "metarObsTime": 1773341580
    },
    "KBTP": {
      "status": "OK",
      "delay": "—",
      "metarCat": "VFR",
      "metarRaw": "METAR KBTP 121856Z AUTO 32009G23KT 10SM BKN060 04/M08 A3001 RMK AO2 SLP177 T00391083 $",
      "metarObsTime": 1773341760
    },
    "KFKL": {
      "status": "OK",
      "delay": "—",
      "metarCat": "VFR",
      "metarRaw": "METAR KFKL 121856Z AUTO 30008G21KT 10SM SCT045 A2999 RMK AO2 SLPNO FZRANO $",
      "metarObsTime": 1773341760
    },
    "KIDI": {
      "status": "OK",
      "delay": "—",
      "metarCat": "VFR",
      "metarRaw": "METAR KIDI 121915Z AUTO 30018G24KT 10SM CLR 04/M07 A2997 RMK A01",
      "metarObsTime": 1773342900
    },
    "KMDT": {
      "status": "OK",
      "delay": "—",
      "metarCat": "VFR",
      "metarRaw": "METAR KMDT 121856Z 31013G21KT 10SM SCT070 OVC100 04/M05 A2989 RMK AO2 SLP124 T00441050 $",
      "metarObsTime": 1773341760
    },
    "KCXY": {
      "status": "OK",
      "delay": "—",
      "metarCat": "VFR",
      "metarRaw": "METAR KCXY 121856Z 30012G19KT 10SM OVC100 04/M06 A2990 RMK AO2 SLP127 T00441061",
      "metarObsTime": 1773341760
    },
    "KMUI": {
      "status": "OK",
      "delay": "—",
      "metarCat": "VFR",
      "metarRaw": "METAR KMUI 121855Z 29010G19KT 10SM SCT039 OVC090 05/M04 A2986 RMK AO2A SLP115 T00461039",
      "metarObsTime": 1773341700
    },
    "KUNV": {
      "status": "OK",
      "delay": "—",
      "metarCat": "VFR",
      "metarRaw": "METAR KUNV 121853Z 31017G23KT 10SM BKN039 02/M07 A2990",
      "metarObsTime": 1773341580
    },
    "KAOO": {
      "status": "OK",
      "delay": "—",
      "metarCat": "VFR",
      "metarRaw": "METAR KAOO 121853Z AUTO 31019G26KT 10SM FEW041 02/M07 A2992 RMK AO2 PK WND 31026/1853 SLP139 T00171067",
      "metarObsTime": 1773341580
    },
    "KLNS": {
      "status": "OK",
      "delay": "—",
      "metarCat": "VFR",
      "metarRaw": "METAR KLNS 121853Z 31010KT 10SM FEW040 SCT070 OVC085 04/M03 A2987 RMK AO2 SLP114 T00391028",
      "metarObsTime": 1773341580
    },
    "KIPT": {
      "status": "OK",
      "delay": "—",
      "metarCat": "VFR",
      "metarRaw": "METAR KIPT 121854Z 28014KT 10SM BKN043 04/M06 A2987 RMK AO2 SLP117 T00391056 $",
      "metarObsTime": 1773341640
    },
    "KPHL": {
      "status": "OK",
      "delay": "—",
      "metarCat": "IFR",
      "metarRaw": "SPECI KPHL 121920Z 30008KT 3SM -SN BR BKN008 OVC015 02/01 A2989 RMK AO2 RAE20 P0002 T00220006",
      "metarObsTime": 1773343200
    },
    "KABE": {
      "status": "OK",
      "delay": "—",
      "metarCat": "VFR",
      "metarRaw": "METAR KABE 121851Z 30012G18KT 10SM BKN046 OVC055 04/M04 A2985 RMK AO2 SLP109 T00391044 $",
      "metarObsTime": 1773341460
    },
    "KAVP": {
      "status": "OK",
      "delay": "—",
      "metarCat": "VFR",
      "metarRaw": "METAR KAVP 121854Z 32016G22KT 10SM OVC041 02/M06 A2983 RMK AO2 SLP100 T00221056",
      "metarObsTime": 1773341640
    },
    "KHZL": {
      "status": "OK",
      "delay": "—",
      "metarCat": "VFR",
      "metarRaw": "METAR KHZL 121915Z AUTO 31007KT 240V360 10SM OVC035 02/M05 A2983 RMK AO2",
      "metarObsTime": 1773342900
    }
  }
}