{
  "generatedAt": "2026-03-17T20:10:22.639Z",
  "airports": {
    "KPIT": {
      "status": "OK",
      "delay": "—",
      "metarCat": "VFR",
      "metarRaw": "METAR KPIT 171951Z 28017G25KT 7SM -SN FEW009 SCT022 BKN055 M04/M11 A3003 RMK AO2 PK WND 30030/1918 WSHFT 1841 SLP193 P0000 T10391111",
      "metarObsTime": 1773777060
    },
    "KAGC": {
      "status": "OK",
      "delay": "—",
      "metarCat": "IFR",
      "metarRaw": "METAR KAGC 171953Z 28016G29KT 240V300 2 1/2SM HZ FEW024 BKN032 BKN042 M04/M09 A3001 RMK AO2 PK WND 25029/1952 SNE42 SLP185 P0000 T10391094",
      "metarObsTime": 1773777180
    },
    "KLBE": {
      "status": "OK",
      "delay": "—",
      "metarCat": "MVFR",
      "metarRaw": "METAR KLBE 171947Z 27015G25KT 4SM -SN BKN030 M03/M11 A3002",
      "metarObsTime": 1773776820
    },
    "KJST": {
      "status": "OK",
      "delay": "—",
      "metarCat": "VFR",
      "metarRaw": "METAR KJST 171954Z AUTO 28015G28KT 6SM -SN FEW027 BKN036 OVC055 M06/M12 A2989 RMK AO2 PK WND 24029/1932 SNE06B54 SLP159 P0000 T10611122",
      "metarObsTime": 1773777240
    },
    "KERI": {
      "status": "OK",
      "delay": "—",
      "metarCat": "VFR",
      "metarRaw": "SPECI KERI 171958Z 27013G22KT 10SM SCT028 BKN036 OVC050 M04/M12 A3005 RMK AO2 T10441122",
      "metarObsTime": 1773777480
    },
    "KDUJ": {
      "status": "OK",
      "delay": "—",
      "metarCat": "LIFR",
      "metarRaw": "METAR KDUJ 171953Z AUTO 31008G19KT 1/4SM +SN BKN013 BKN025 OVC034 M07/M09 A2992 RMK AO2 PK WND 27027/1921 SLP160 P0000 T10671094",
      "metarObsTime": 1773777180
    },
    "KBFD": {
      "status": "OK",
      "delay": "—",
      "metarCat": "VFR",
      "metarRaw": "METAR KBFD 171953Z AUTO 28015G26KT 10SM BKN038 OVC048 M07/M15 A2989 RMK AO2 PK WND 27027/1926 SNB1855E18 SLP153 P0000 T10721150",
      "metarObsTime": 1773777180
    },
    "KBTP": {
      "status": "OK",
      "delay": "—",
      "metarCat": "VFR",
      "metarRaw": "METAR KBTP 171956Z AUTO 27010G15KT 9SM -SN SCT011 SCT027 BKN045 M04/M08 A3003 RMK AO2 PK WND 27026/1930 WSHFT 1844 SLPNO P0000 T10391083 FZRANO $",
      "metarObsTime": 1773777360
    },
    "KFKL": {
      "status": "OK",
      "delay": "—",
      "metarCat": "VFR",
      "metarRaw": "METAR KFKL 171956Z AUTO 28010KT 9SM FEW030 BKN036 OVC050 M05/M12 A2999 RMK AO2 SNE06B31E53 SLP179 P0000 T10501117 FZRANO",
      "metarObsTime": 1773777360
    },
    "KIDI": {
      "status": "OK",
      "delay": "—",
      "metarCat": "VFR",
      "metarRaw": "METAR KIDI 171955Z AUTO 28015G21KT 9SM FEW020 SCT031 BKN043 M04/M10 A2999 RMK A01",
      "metarObsTime": 1773777300
    },
    "KMDT": {
      "status": "OK",
      "delay": "—",
      "metarCat": "VFR",
      "metarRaw": "METAR KMDT 171956Z 29015G29KT 10SM SCT040 BKN050 BKN070 01/M10 A2998 RMK AO2 PK WND 30029/1951 SLP155 T00111100",
      "metarObsTime": 1773777360
    },
    "KCXY": {
      "status": "OK",
      "delay": "—",
      "metarCat": "VFR",
      "metarRaw": "METAR KCXY 171956Z 28015G24KT 10SM FEW050 BKN075 02/M11 A2998 RMK AO2 PK WND 26029/1908 SLP156 T00221111",
      "metarObsTime": 1773777360
    },
    "KMUI": {
      "status": "OK",
      "delay": "—",
      "metarCat": "VFR",
      "metarRaw": "METAR KMUI 171855Z 25008KT 10SM FEW013 SCT041 BKN060 OVC075 01/M06 A2993 RMK AO2A SNE37 SLP143 T00101063",
      "metarObsTime": 1773773700
    },
    "KUNV": {
      "status": "OK",
      "delay": "—",
      "metarCat": "IFR",
      "metarRaw": "METAR KUNV 171953Z 29014G24KT 2SM -SN SCT011 BKN031 BKN041 M03/M07 A2995",
      "metarObsTime": 1773777180
    },
    "KAOO": {
      "status": "OK",
      "delay": "—",
      "metarCat": "MVFR",
      "metarRaw": "SPECI KAOO 171956Z AUTO 30012G27KT 3SM -SN SCT028 BKN036 OVC060 M03/M09 A2995 RMK AO2 P0000 T10331089",
      "metarObsTime": 1773777360
    },
    "KLNS": {
      "status": "OK",
      "delay": "—",
      "metarCat": "VFR",
      "metarRaw": "METAR KLNS 171953Z 29018G29KT 10SM FEW060 FEW080 02/M11 A2996 RMK AO2 PK WND 26033/1930 SLP149 T00221111",
      "metarObsTime": 1773777180
    },
    "KIPT": {
      "status": "OK",
      "delay": "—",
      "metarCat": "VFR",
      "metarRaw": "METAR KIPT 171954Z 27009KT 10SM -SN BKN037 BKN047 OVC060 M02/M09 A2995 RMK AO2 PK WND 28027/1942 WSHFT 1858 SNB40 SLP148 P0001 T10171089",
      "metarObsTime": 1773777240
    },
    "KPHL": {
      "status": "OK",
      "delay": "—",
      "metarCat": "VFR",
      "metarRaw": "METAR KPHL 171954Z 29016G25KT 10SM BKN065 BKN250 05/M11 A2995 RMK AO2 PK WND 27030/1922 SLP143 T00501106 $",
      "metarObsTime": 1773777240
    },
    "KABE": {
      "status": "OK",
      "delay": "—",
      "metarCat": "VFR",
      "metarRaw": "METAR KABE 171951Z 28015G22KT 10SM SCT060 BKN075 02/M11 A2992 RMK AO2 PK WND 25026/1922 SLP136 T00171106 $",
      "metarObsTime": 1773777060
    },
    "KAVP": {
      "status": "OK",
      "delay": "—",
      "metarCat": "IFR",
      "metarRaw": "SPECI KAVP 171959Z 27014G28KT 1 3/4SM R04/5000VP6000FT -SN SCT032 BKN049 OVC070 M02/M08 A2989 RMK AO2 SNB55 P0000 T10221078",
      "metarObsTime": 1773777540
    },
    "KHZL": {
      "status": "OK",
      "delay": "—",
      "metarCat": "VFR",
      "metarRaw": "METAR KHZL 171955Z AUTO 28007KT 230V320 10SM SCT048 SCT060 BKN065 M01/M12 RMK AO2",
      "metarObsTime": 1773777300
    }
  }
}