{
  "generatedAt": "2026-03-19T04:00:18.957Z",
  "airports": {
    "KPIT": {
      "status": "OK",
      "delay": "—",
      "metarCat": "VFR",
      "metarRaw": "METAR KPIT 190351Z 15005KT 10SM OVC045 01/M08 A3015 RMK AO2 SLP230 T00111078 $",
      "metarObsTime": 1773892260
    },
    "KAGC": {
      "status": "OK",
      "delay": "—",
      "metarCat": "VFR",
      "metarRaw": "METAR KAGC 190353Z AUTO 16007KT 10SM OVC046 02/M07 A3015 RMK AO2 SLP229 T00171072",
      "metarObsTime": 1773892380
    },
    "KLBE": {
      "status": "OK",
      "delay": "—",
      "metarCat": "VFR",
      "metarRaw": "METAR KLBE 190355Z AUTO 13003KT 10SM OVC044 02/M06 A3020 RMK AO2",
      "metarObsTime": 1773892500
    },
    "KJST": {
      "status": "OK",
      "delay": "—",
      "metarCat": "MVFR",
      "metarRaw": "METAR KJST 190354Z AUTO 18005KT 9SM -SN OVC028 M02/M09 A3014 RMK AO2 SNB33E44B48 SLP238 P0000 T10171089",
      "metarObsTime": 1773892440
    },
    "KERI": {
      "status": "OK",
      "delay": "—",
      "metarCat": "VFR",
      "metarRaw": "METAR KERI 190351Z AUTO 18013G20KT 10SM OVC042 01/M07 A3014 RMK AO2 SLP216 T00061067",
      "metarObsTime": 1773892260
    },
    "KDUJ": {
      "status": "OK",
      "delay": "—",
      "metarCat": "MVFR",
      "metarRaw": "METAR KDUJ 190353Z AUTO 21010G17KT 10SM OVC026 M01/M09 A3015 RMK AO2 SNE0257 SLP232 P0000 T10111089",
      "metarObsTime": 1773892380
    },
    "KBFD": {
      "status": "OK",
      "delay": "—",
      "metarCat": "VFR",
      "metarRaw": "METAR KBFD 190353Z AUTO 17004KT 10SM OVC037 M03/M08 A3012 RMK AO2 SLP226 T10281083",
      "metarObsTime": 1773892380
    },
    "KBTP": {
      "status": "OK",
      "delay": "—",
      "metarCat": "VFR",
      "metarRaw": "METAR KBTP 190256Z AUTO 18006KT 10SM -RA OVC038 01/M08 A3018 RMK AO2 RAB0157UPB29E32 SLP240 P0000 60000 T00061078 50008 FZRANO $",
      "metarObsTime": 1773888960
    },
    "KFKL": {
      "status": "OK",
      "delay": "—",
      "metarCat": "MVFR",
      "metarRaw": "SPECI KFKL 190314Z AUTO 18008KT 10SM OVC030 M01/M06 A3016 RMK AO2 FZRANO",
      "metarObsTime": 1773890040
    },
    "KIDI": {
      "status": "OK",
      "delay": "—",
      "metarCat": "MVFR",
      "metarRaw": "METAR KIDI 190355Z AUTO 20006KT 10SM BKN030 OVC036 01/M08 A3018 RMK A01",
      "metarObsTime": 1773892500
    },
    "KMDT": {
      "status": "OK",
      "delay": "—",
      "metarCat": "VFR",
      "metarRaw": "METAR KMDT 190256Z 18008KT 10SM SCT075 OVC110 01/M07 A3032 RMK AO2 SLP270 T00111072 51006",
      "metarObsTime": 1773888960
    },
    "KCXY": {
      "status": "OK",
      "delay": "—",
      "metarCat": "VFR",
      "metarRaw": "METAR KCXY 190256Z AUTO 16009KT 10SM OVC075 01/M08 A3032 RMK AO2 SLP271 T00111083 51006",
      "metarObsTime": 1773888960
    },
    "KMUI": {
      "status": "OK",
      "delay": "—",
      "metarCat": "VFR",
      "metarRaw": "METAR KMUI 190355Z AUTO 00000KT 10SM OVC100 00/M07 A3029 RMK AO2 SLP266 T00021067",
      "metarObsTime": 1773892500
    },
    "KUNV": {
      "status": "OK",
      "delay": "—",
      "metarCat": "VFR",
      "metarRaw": "METAR KUNV 190335Z AUTO 18003KT 10SM OVC060 00/M11 A3022 RMK AO2 T00011110",
      "metarObsTime": 1773891300
    },
    "KAOO": {
      "status": "OK",
      "delay": "—",
      "metarCat": "VFR",
      "metarRaw": "METAR KAOO 190353Z AUTO 21006KT 10SM OVC050 00/M10 A3021 RMK AO2 SLP250 T00001100",
      "metarObsTime": 1773892380
    },
    "KLNS": {
      "status": "OK",
      "delay": "—",
      "metarCat": "VFR",
      "metarRaw": "METAR KLNS 190353Z AUTO 17006KT 10SM OVC075 00/M09 A3032 RMK AO2 SLP272 T00001094",
      "metarObsTime": 1773892380
    },
    "KIPT": {
      "status": "OK",
      "delay": "—",
      "metarCat": "VFR",
      "metarRaw": "METAR KIPT 190354Z AUTO 17017G25KT 10SM OVC070 01/M09 A3025 RMK AO2 SLP250 T00061094 $",
      "metarObsTime": 1773892440
    },
    "KPHL": {
      "status": "OK",
      "delay": "—",
      "metarCat": "VFR",
      "metarRaw": "METAR KPHL 190354Z 16006KT 10SM OVC140 01/M07 A3037 RMK AO2 SLP282 T00111072",
      "metarObsTime": 1773892440
    },
    "KABE": {
      "status": "OK",
      "delay": "—",
      "metarCat": "VFR",
      "metarRaw": "METAR KABE 190351Z AUTO 19005KT 10SM BKN095 OVC120 01/M11 A3033 RMK AO2 SLP274 T00061106",
      "metarObsTime": 1773892260
    },
    "KAVP": {
      "status": "OK",
      "delay": "—",
      "metarCat": "VFR",
      "metarRaw": "METAR KAVP 190354Z VRB05KT 10SM SCT080 OVC095 M01/M11 A3026 RMK AO2 SLP258 T10061106",
      "metarObsTime": 1773892440
    },
    "KHZL": {
      "status": "OK",
      "delay": "—",
      "metarCat": "VFR",
      "metarRaw": "METAR KHZL 190335Z AUTO 16003KT 10SM OVC085 M01/M10 RMK AO2",
      "metarObsTime": 1773891300
    }
  }
}