{
  "generatedAt": "2026-04-21T22:01:02.323Z",
  "airports": {
    "KPIT": {
      "status": "OK",
      "delay": "—",
      "metarCat": "VFR",
      "metarRaw": "METAR KPIT 212151Z 22014G20KT 10SM FEW065 SCT150 BKN250 20/01 A3001 RMK AO2 SLP173 T02000006",
      "metarObsTime": 1776808260
    },
    "KAGC": {
      "status": "OK",
      "delay": "—",
      "metarCat": "VFR",
      "metarRaw": "METAR KAGC 212153Z 22013KT 10SM CLR 20/02 A3001 RMK AO2 SLP172 T02000017",
      "metarObsTime": 1776808380
    },
    "KLBE": {
      "status": "OK",
      "delay": "—",
      "metarCat": "—",
      "metarRaw": "—",
      "metarObsTime": null
    },
    "KJST": {
      "status": "OK",
      "delay": "—",
      "metarCat": "VFR",
      "metarRaw": "METAR KJST 212154Z AUTO 23004KT 10SM FEW090 OVC120 16/M01 A3006 RMK AO2 SLP190 T01561006",
      "metarObsTime": 1776808440
    },
    "KERI": {
      "status": "OK",
      "delay": "—",
      "metarCat": "VFR",
      "metarRaw": "METAR KERI 212151Z 19013G19KT 10SM CLR 19/01 A2996 RMK AO2 RAE2052 SLP148 P0000 T01940011",
      "metarObsTime": 1776808260
    },
    "KDUJ": {
      "status": "OK",
      "delay": "—",
      "metarCat": "VFR",
      "metarRaw": "METAR KDUJ 212153Z AUTO 22007KT 10SM OVC100 14/M03 A3004 RMK AO2 SLP184 T01441028",
      "metarObsTime": 1776808380
    },
    "KBFD": {
      "status": "OK",
      "delay": "—",
      "metarCat": "VFR",
      "metarRaw": "METAR KBFD 212153Z AUTO 19008KT 10SM BKN090 13/M04 A3004 RMK AO2 SLP186 T01331039",
      "metarObsTime": 1776808380
    },
    "KBTP": {
      "status": "OK",
      "delay": "—",
      "metarCat": "VFR",
      "metarRaw": "METAR KBTP 212156Z AUTO 23011G18KT 10SM CLR 19/02 A3001 RMK AO2 SLP173 T01940022 $",
      "metarObsTime": 1776808560
    },
    "KFKL": {
      "status": "OK",
      "delay": "—",
      "metarCat": "—",
      "metarRaw": "—",
      "metarObsTime": null
    },
    "KIDI": {
      "status": "OK",
      "delay": "—",
      "metarCat": "—",
      "metarRaw": "—",
      "metarObsTime": null
    },
    "KMDT": {
      "status": "OK",
      "delay": "—",
      "metarCat": "VFR",
      "metarRaw": "METAR KMDT 212156Z VRB04KT 10SM CLR 14/M02 A3015 RMK AO2 SLP213 T01441022",
      "metarObsTime": 1776808560
    },
    "KCXY": {
      "status": "OK",
      "delay": "—",
      "metarCat": "VFR",
      "metarRaw": "METAR KCXY 212156Z 16010G16KT 10SM CLR 14/M04 A3015 RMK AO2 SLP215 T01441044",
      "metarObsTime": 1776808560
    },
    "KMUI": {
      "status": "OK",
      "delay": "—",
      "metarCat": "VFR",
      "metarRaw": "METAR KMUI 212055Z 17005KT 10SM FEW150 SCT200 16/M03 A3016 RMK AO2A SLP219 T01631027 57032",
      "metarObsTime": 1776804900
    },
    "KUNV": {
      "status": "OK",
      "delay": "—",
      "metarCat": "VFR",
      "metarRaw": "METAR KUNV 212053Z 23009G15KT 10SM SCT100 14/M05 A3011",
      "metarObsTime": 1776804780
    },
    "KAOO": {
      "status": "OK",
      "delay": "—",
      "metarCat": "VFR",
      "metarRaw": "METAR KAOO 212153Z AUTO 19007KT 10SM CLR 16/M04 A3008 RMK AO2 SLP195 T01561044",
      "metarObsTime": 1776808380
    },
    "KLNS": {
      "status": "OK",
      "delay": "—",
      "metarCat": "VFR",
      "metarRaw": "METAR KLNS 212153Z 22009KT 10SM FEW075 14/M04 A3017 RMK AO2 SLP219 T01391039",
      "metarObsTime": 1776808380
    },
    "KIPT": {
      "status": "OK",
      "delay": "—",
      "metarCat": "VFR",
      "metarRaw": "METAR KIPT 212154Z 13011G20KT 10SM OVC075 13/M04 A3011 RMK AO2 SLP201 T01331044 $",
      "metarObsTime": 1776808440
    },
    "KPHL": {
      "status": "OK",
      "delay": "—",
      "metarCat": "VFR",
      "metarRaw": "METAR KPHL 212154Z 19009KT 10SM SCT140 13/M06 A3023 RMK AO2 SLP235 T01331056 $",
      "metarObsTime": 1776808440
    },
    "KABE": {
      "status": "OK",
      "delay": "—",
      "metarCat": "VFR",
      "metarRaw": "METAR KABE 212151Z 25008KT 10SM SCT080 12/M06 A3020 RMK AO2 SLP229 T01171056",
      "metarObsTime": 1776808260
    },
    "KAVP": {
      "status": "OK",
      "delay": "—",
      "metarCat": "VFR",
      "metarRaw": "METAR KAVP 212154Z VRB03KT 10SM BKN090 BKN120 11/M09 A3015 RMK AO2 SLP215 T01111089",
      "metarObsTime": 1776808440
    },
    "KHZL": {
      "status": "OK",
      "delay": "—",
      "metarCat": "VFR",
      "metarRaw": "METAR KHZL 212155Z AUTO 16005KT 10SM SCT070 SCT080 OVC090 10/M07 A3018 RMK AO2",
      "metarObsTime": 1776808500
    }
  }
}