{
  "generatedAt": "2026-04-19T05:00:57.950Z",
  "airports": {
    "KPIT": {
      "status": "OK",
      "delay": "—",
      "metarCat": "VFR",
      "metarRaw": "METAR KPIT 190451Z 31018G29KT 10SM -RA SCT035 OVC049 10/03 A2994 RMK AO2 PK WND 31029/0442 RAB10 SLP141 P0000 T01000028 402780100 $",
      "metarObsTime": 1776574260
    },
    "KAGC": {
      "status": "OK",
      "delay": "—",
      "metarCat": "VFR",
      "metarRaw": "METAR KAGC 190453Z 31008KT 8SM -RA FEW017 SCT021 OVC046 11/09 A2992 RMK AO2 RAB38 SLP131 P0000 T01060089 402720106",
      "metarObsTime": 1776574380
    },
    "KLBE": {
      "status": "OK",
      "delay": "—",
      "metarCat": "MVFR",
      "metarRaw": "METAR KLBE 190455Z AUTO 03003KT 4SM -RA BR FEW010 OVC016 12/11 A2992 RMK AO2 P0004",
      "metarObsTime": 1776574500
    },
    "KJST": {
      "status": "OK",
      "delay": "—",
      "metarCat": "MVFR",
      "metarRaw": "METAR KJST 190454Z AUTO 31010KT 10SM -RA OVC010 09/08 A2987 RMK AO2 PK WND 32026/0400 WSHFT 0343 CIG 006V013 SLP108 P0000 T00940083 402500094",
      "metarObsTime": 1776574440
    },
    "KERI": {
      "status": "OK",
      "delay": "—",
      "metarCat": "VFR",
      "metarRaw": "METAR KERI 190451Z AUTO 27009G20KT 10SM OVC036 08/03 A2994 RMK AO2 SLP138 T00780033 402670078 $",
      "metarObsTime": 1776574260
    },
    "KDUJ": {
      "status": "OK",
      "delay": "—",
      "metarCat": "MVFR",
      "metarRaw": "METAR KDUJ 190453Z AUTO 28013G17KT 10SM BKN012 BKN019 OVC039 08/07 A2988 RMK AO2 SLP112 T00830067 402610083",
      "metarObsTime": 1776574380
    },
    "KBFD": {
      "status": "OK",
      "delay": "—",
      "metarCat": "MVFR",
      "metarRaw": "METAR KBFD 190453Z AUTO 30011KT 6SM -RA BR OVC010 08/07 A2988 RMK AO2 RAB32 CIG 007V014 SLP111 P0000 T00780067 402500078",
      "metarObsTime": 1776574380
    },
    "KBTP": {
      "status": "OK",
      "delay": "—",
      "metarCat": "VFR",
      "metarRaw": "METAR KBTP 190456Z AUTO 29011G18KT 10SM -RA SCT019 BKN032 OVC055 09/08 A2994 RMK AO2 RAB21 SLP141 P0000 T00940078 $",
      "metarObsTime": 1776574560
    },
    "KFKL": {
      "status": "OK",
      "delay": "—",
      "metarCat": "—",
      "metarRaw": "—",
      "metarObsTime": null
    },
    "KIDI": {
      "status": "OK",
      "delay": "—",
      "metarCat": "MVFR",
      "metarRaw": "METAR KIDI 190455Z AUTO 31006KT 10SM BKN021 BKN030 OVC035 10/08 A2991 RMK A01",
      "metarObsTime": 1776574500
    },
    "KMDT": {
      "status": "OK",
      "delay": "—",
      "metarCat": "VFR",
      "metarRaw": "METAR KMDT 190456Z 13010KT 7SM -RA BKN046 OVC095 14/13 A2983 RMK AO2 SLP101 P0005 T01440133 402390122",
      "metarObsTime": 1776574560
    },
    "KCXY": {
      "status": "OK",
      "delay": "—",
      "metarCat": "VFR",
      "metarRaw": "METAR KCXY 190456Z AUTO 10006KT 10SM -RA FEW050 OVC110 14/13 A2983 RMK AO2 SLP103 P0006 T01440133 402390133 $",
      "metarObsTime": 1776574560
    },
    "KMUI": {
      "status": "OK",
      "delay": "—",
      "metarCat": "VFR",
      "metarRaw": "SPECI KMUI 190428Z AUTO 00000KT 10SM -RA FEW005 FEW012 BKN049 OVC055 15/15 A2984 RMK AO2 RAE0355RAB04 SLP107",
      "metarObsTime": 1776572880
    },
    "KUNV": {
      "status": "OK",
      "delay": "—",
      "metarCat": "MVFR",
      "metarRaw": "METAR KUNV 190455Z AUTO 30010G17KT 10SM -RA SCT010 SCT015 OVC021 14/13 A2984 RMK AO2 T01430133",
      "metarObsTime": 1776574500
    },
    "KAOO": {
      "status": "OK",
      "delay": "—",
      "metarCat": "MVFR",
      "metarRaw": "METAR KAOO 190453Z AUTO 32011G20KT 10SM -RA BKN017 OVC026 14/12 A2984 RMK AO2 RAB12 SLP097 P0001 T01440122 402670100",
      "metarObsTime": 1776574380
    },
    "KLNS": {
      "status": "OK",
      "delay": "—",
      "metarCat": "VFR",
      "metarRaw": "METAR KLNS 190453Z AUTO 12008KT 9SM -RA OVC080 13/12 A2986 RMK AO2 RAB32 SLP110 P0000 T01330117 402280111",
      "metarObsTime": 1776574380
    },
    "KIPT": {
      "status": "OK",
      "delay": "—",
      "metarCat": "VFR",
      "metarRaw": "METAR KIPT 190454Z AUTO 19007G17KT 150V220 8SM -RA OVC080 17/15 A2979 RMK AO2 RAE25B44 SLP084 P0003 T01670150 402330083 $",
      "metarObsTime": 1776574440
    },
    "KPHL": {
      "status": "OK",
      "delay": "—",
      "metarCat": "IFR",
      "metarRaw": "METAR KPHL 190454Z 36005KT 10SM OVC005 12/10 A2991 RMK AO2 SLP128 T01170100 402560117 $",
      "metarObsTime": 1776574440
    },
    "KABE": {
      "status": "OK",
      "delay": "—",
      "metarCat": "MVFR",
      "metarRaw": "METAR KABE 190451Z 11006KT 10SM -RA OVC011 12/09 A2990 RMK AO2 RAB17E26B51 SLP126 P0000 T01170089 402390111 $",
      "metarObsTime": 1776574260
    },
    "KAVP": {
      "status": "OK",
      "delay": "—",
      "metarCat": "VFR",
      "metarRaw": "METAR KAVP 190454Z VRB03KT 10SM -RA SCT029 BKN037 OVC110 13/11 A2982 RMK AO2 SLP091 P0000 T01330106 402500111",
      "metarObsTime": 1776574440
    },
    "KHZL": {
      "status": "OK",
      "delay": "—",
      "metarCat": "VFR",
      "metarRaw": "METAR KHZL 190455Z AUTO 15004KT 7SM -RA SCT012 BKN050 OVC090 12/10 A2987 RMK AO2 P0003",
      "metarObsTime": 1776574500
    }
  }
}