{
  "generatedAt": "2026-04-07T06:50:41.692Z",
  "airports": {
    "KPIT": {
      "status": "OK",
      "delay": "—",
      "metarCat": "VFR",
      "metarRaw": "METAR KPIT 070551Z 30012KT 10SM FEW050 04/M04 A3014 RMK AO2 SLP220 T00441039 10072 20044 51013",
      "metarObsTime": 1775541060
    },
    "KAGC": {
      "status": "OK",
      "delay": "—",
      "metarCat": "VFR",
      "metarRaw": "METAR KAGC 070553Z AUTO 31009G17KT 10SM CLR 04/M04 A3012 RMK AO2 SLP210 60000 T00441044 10072 20044 51012",
      "metarObsTime": 1775541180
    },
    "KLBE": {
      "status": "OK",
      "delay": "—",
      "metarCat": "VFR",
      "metarRaw": "METAR KLBE 070635Z AUTO 26007KT 10SM CLR 05/M03 A3016 RMK AO2",
      "metarObsTime": 1775543700
    },
    "KJST": {
      "status": "OK",
      "delay": "—",
      "metarCat": "MVFR",
      "metarRaw": "METAR KJST 070554Z AUTO 30007KT 10SM FEW022 BKN027 OVC045 02/M01 A3007 RMK AO2 SLP199 60004 T00221006 10039 20022 53006",
      "metarObsTime": 1775541240
    },
    "KERI": {
      "status": "OK",
      "delay": "—",
      "metarCat": "MVFR",
      "metarRaw": "METAR KERI 070551Z AUTO 30014G27KT 10SM BKN016 BKN021 OVC033 01/M02 A3016 RMK AO2 PK WND 31027/0513 SLP220 60001 T00111022 10044 20011 53026 $",
      "metarObsTime": 1775541060
    },
    "KDUJ": {
      "status": "OK",
      "delay": "—",
      "metarCat": "MVFR",
      "metarRaw": "SPECI KDUJ 070634Z AUTO 27010KT 10SM BKN011 OVC060 01/M01 A3007 RMK AO2 SNE20 P0000 T00111006",
      "metarObsTime": 1775543640
    },
    "KBFD": {
      "status": "OK",
      "delay": "—",
      "metarCat": "LIFR",
      "metarRaw": "SPECI KBFD 070639Z AUTO 31014G18KT 1/2SM SN FG BKN007 OVC011 00/M01 A3003 RMK AO2 SNB00 P0002 T00001006",
      "metarObsTime": 1775543940
    },
    "KBTP": {
      "status": "OK",
      "delay": "—",
      "metarCat": "VFR",
      "metarRaw": "METAR KBTP 070556Z AUTO 29010KT 10SM FEW022 SCT029 BKN060 03/00 A3015 RMK AO2 RAB37E54 SLP223 P0001 60001 T00280000 10056 20028 53014 $",
      "metarObsTime": 1775541360
    },
    "KFKL": {
      "status": "OK",
      "delay": "—",
      "metarCat": "MVFR",
      "metarRaw": "METAR KFKL 070556Z AUTO 29009KT 250V330 5SM -SN BR BKN012 OVC018 01/M01 A3013 RMK AO2 RAE52SNB52 SLP215 P0000 60001 T00111006 10056 20011 53014 FZRANO",
      "metarObsTime": 1775541360
    },
    "KIDI": {
      "status": "OK",
      "delay": "—",
      "metarCat": "VFR",
      "metarRaw": "METAR KIDI 070635Z AUTO 26006KT 10SM SCT028 BKN042 OVC060 03/01 A3011 RMK A01",
      "metarObsTime": 1775543700
    },
    "KMDT": {
      "status": "OK",
      "delay": "—",
      "metarCat": "VFR",
      "metarRaw": "METAR KMDT 070556Z 23008KT 10SM BKN070 OVC100 08/02 A3009 RMK AO2 SLP192 60000 T00830022 10117 20061 55001",
      "metarObsTime": 1775541360
    },
    "KCXY": {
      "status": "OK",
      "delay": "—",
      "metarCat": "VFR",
      "metarRaw": "METAR KCXY 070556Z AUTO 24006KT 10SM BKN095 06/02 A3010 RMK AO2 SLP194 T00610017 10117 20050 55002",
      "metarObsTime": 1775541360
    },
    "KMUI": {
      "status": "OK",
      "delay": "—",
      "metarCat": "VFR",
      "metarRaw": "METAR KMUI 070555Z AUTO 00000KT 10SM FEW080 SCT100 07/04 A3006 RMK AO2 SLP184 60000 T00720040 10136 20062 55002",
      "metarObsTime": 1775541300
    },
    "KUNV": {
      "status": "OK",
      "delay": "—",
      "metarCat": "VFR",
      "metarRaw": "METAR KUNV 070635Z AUTO 26008KT 10SM BKN070 04/00 A3008 RMK AO2 T00391002",
      "metarObsTime": 1775543700
    },
    "KAOO": {
      "status": "OK",
      "delay": "—",
      "metarCat": "VFR",
      "metarRaw": "METAR KAOO 070553Z AUTO 30009KT 10SM FEW036 FEW047 04/01 A3009 RMK AO2 RAB0458E13 SLP199 P0000 60005 T00440006 10061 20028 53007",
      "metarObsTime": 1775541180
    },
    "KLNS": {
      "status": "OK",
      "delay": "—",
      "metarCat": "VFR",
      "metarRaw": "METAR KLNS 070553Z AUTO 00000KT 10SM BKN065 BKN080 07/01 A3010 RMK AO2 SLP192 T00670006 10111 20050 50005",
      "metarObsTime": 1775541180
    },
    "KIPT": {
      "status": "OK",
      "delay": "—",
      "metarCat": "VFR",
      "metarRaw": "METAR KIPT 070554Z AUTO 24003KT 10SM SCT075 BKN090 03/03 A3007 RMK AO2 RAE15 SLP185 P0003 60003 T00330028 10078 20033 52005",
      "metarObsTime": 1775541240
    },
    "KPHL": {
      "status": "OK",
      "delay": "—",
      "metarCat": "VFR",
      "metarRaw": "METAR KPHL 070554Z 22011KT 10SM SCT055 BKN075 OVC090 12/02 A3010 RMK AO2 RAE54 SLP191 P0000 60000 T01220017 10139 20117 50000 $",
      "metarObsTime": 1775541240
    },
    "KABE": {
      "status": "OK",
      "delay": "—",
      "metarCat": "VFR",
      "metarRaw": "METAR KABE 070551Z 22005KT 10SM BKN085 06/02 A3008 RMK AO2 SLP187 60000 T00560017 10089 20050 58000 $",
      "metarObsTime": 1775541060
    },
    "KAVP": {
      "status": "OK",
      "delay": "—",
      "metarCat": "VFR",
      "metarRaw": "METAR KAVP 070554Z VRB04KT 10SM BKN060 BKN070 BKN120 04/M01 A3004 RMK AO2 SLP173 T00441011 10050 20017 58006 $",
      "metarObsTime": 1775541240
    },
    "KHZL": {
      "status": "OK",
      "delay": "—",
      "metarCat": "VFR",
      "metarRaw": "METAR KHZL 070635Z AUTO 26003KT 10SM BKN095 04/00 A3006 RMK AO2",
      "metarObsTime": 1775543700
    }
  }
}