{
  "generatedAt": "2026-03-12T08:10:11.795Z",
  "airports": {
    "KPIT": {
      "status": "OK",
      "delay": "—",
      "metarCat": "MVFR",
      "metarRaw": "METAR KPIT 120751Z 33017KT 6SM -SN BKN011 OVC024 02/00 A2993 RMK AO2 PK WND 31028/0723 RAE45SNB10 PRESRR SLP144 P0000 T00170000 $",
      "metarObsTime": 1773301860
    },
    "KAGC": {
      "status": "OK",
      "delay": "—",
      "metarCat": "MVFR",
      "metarRaw": "SPECI KAGC 120807Z AUTO 34014G33KT 3SM -SN BR BKN012 OVC028 01/00 A2991 RMK AO2 PK WND 34033/0802 UPB0757E01SNB01 P0001 T00110000",
      "metarObsTime": 1773302820
    },
    "KLBE": {
      "status": "OK",
      "delay": "—",
      "metarCat": "MVFR",
      "metarRaw": "METAR KLBE 120755Z AUTO 27010KT 4SM -RA BR BKN014 OVC020 03/03 A2990 RMK AO2 P0005",
      "metarObsTime": 1773302100
    },
    "KJST": {
      "status": "OK",
      "delay": "—",
      "metarCat": "LIFR",
      "metarRaw": "METAR KJST 120754Z AUTO 29014G24KT 9SM -RA OVC004 02/02 A2978 RMK AO2 CIG 003V007 SLP087 P0001 T00220017",
      "metarObsTime": 1773302040
    },
    "KERI": {
      "status": "OK",
      "delay": "—",
      "metarCat": "MVFR",
      "metarRaw": "METAR KERI 120751Z AUTO 28015G28KT 10SM OVC025 00/M03 A2993 RMK AO2 PK WND 27028/0751 SLP137 T00001033",
      "metarObsTime": 1773301860
    },
    "KDUJ": {
      "status": "OK",
      "delay": "—",
      "metarCat": "MVFR",
      "metarRaw": "METAR KDUJ 120753Z AUTO 29015G23KT 9SM FEW010 BKN016 OVC033 01/M02 A2980 RMK AO2 PK WND 30027/0705 SNB36E50 SLP094 P0000 T00061017",
      "metarObsTime": 1773301980
    },
    "KBFD": {
      "status": "OK",
      "delay": "—",
      "metarCat": "IFR",
      "metarRaw": "SPECI KBFD 120807Z AUTO 30016G27KT 2 1/2SM -SN BR BKN010 BKN014 OVC026 M02/M03 A2978 RMK AO2 PK WND 28030/0755 P0000 T10171033",
      "metarObsTime": 1773302820
    },
    "KBTP": {
      "status": "OK",
      "delay": "—",
      "metarCat": "IFR",
      "metarRaw": "SPECI KBTP 120801Z AUTO 30013G20KT 3SM -SN BR BKN007 OVC013 00/00 A2994 RMK AO2 CIG 004V010 PRESRR P0000 FZRANO $",
      "metarObsTime": 1773302460
    },
    "KFKL": {
      "status": "OK",
      "delay": "—",
      "metarCat": "MVFR",
      "metarRaw": "METAR KFKL 120756Z AUTO 30012G19KT 9SM -SN OVC010 A2989 RMK AO2 SLPNO P0001 FZRANO $",
      "metarObsTime": 1773302160
    },
    "KIDI": {
      "status": "OK",
      "delay": "—",
      "metarCat": "—",
      "metarRaw": "—",
      "metarObsTime": null
    },
    "KMDT": {
      "status": "OK",
      "delay": "—",
      "metarCat": "MVFR",
      "metarRaw": "SPECI KMDT 120807Z 31004KT 3SM BR FEW020 SCT029 OVC055 16/16 A2958 RMK AO2 RAE03 P0001 T01560156",
      "metarObsTime": 1773302820
    },
    "KCXY": {
      "status": "OK",
      "delay": "—",
      "metarCat": "VFR",
      "metarRaw": "METAR KCXY 120756Z AUTO 24005KT 8SM FEW017 SCT023 OVC060 16/16 A2958 RMK AO2 RAB33E55 SLP016 P0001 T01610161",
      "metarObsTime": 1773302160
    },
    "KMUI": {
      "status": "OK",
      "delay": "—",
      "metarCat": "VFR",
      "metarRaw": "METAR KMUI 120755Z AUTO 25012KT 10SM BKN042 BKN049 18/17 A2955 RMK AO2 RAE0655RAB42E53 SLP007 P0000 T01790172",
      "metarObsTime": 1773302100
    },
    "KUNV": {
      "status": "OK",
      "delay": "—",
      "metarCat": "MVFR",
      "metarRaw": "METAR KUNV 120755Z AUTO 30013G21KT 10SM OVC020 06/02 A2975 RMK AO2 T00600023",
      "metarObsTime": 1773302100
    },
    "KAOO": {
      "status": "OK",
      "delay": "—",
      "metarCat": "MVFR",
      "metarRaw": "METAR KAOO 120753Z AUTO 29016G25KT 10SM OVC014 06/03 A2978 RMK AO2 PK WND 31028/0730 RAE03 PRESRR SLP084 P0000 T00560028",
      "metarObsTime": 1773301980
    },
    "KLNS": {
      "status": "OK",
      "delay": "—",
      "metarCat": "LIFR",
      "metarRaw": "METAR KLNS 120753Z AUTO 34004KT 1/4SM FG SCT003 OVC080 14/14 A2957 RMK AO2 SLP010 T01440144",
      "metarObsTime": 1773301980
    },
    "KIPT": {
      "status": "OK",
      "delay": "—",
      "metarCat": "VFR",
      "metarRaw": "METAR KIPT 120754Z AUTO 28020G31KT 10SM SCT028 BKN033 OVC090 12/06 A2962 RMK AO2 PK WND 27031/0749 SLP030 T01220061 $",
      "metarObsTime": 1773302040
    },
    "KPHL": {
      "status": "OK",
      "delay": "—",
      "metarCat": "VFR",
      "metarRaw": "METAR KPHL 120754Z 19003KT 10SM SCT180 BKN220 BKN250 19/15 A2957 RMK AO2 SLP013 T01890150 $",
      "metarObsTime": 1773302040
    },
    "KABE": {
      "status": "OK",
      "delay": "—",
      "metarCat": "LIFR",
      "metarRaw": "METAR KABE 120751Z 32003KT 1/4SM FG VV002 16/15 A2956 RMK AO2 TWR VIS 2 1/2 SLP007 T01560150 $",
      "metarObsTime": 1773301860
    },
    "KAVP": {
      "status": "OK",
      "delay": "—",
      "metarCat": "VFR",
      "metarRaw": "METAR KAVP 120754Z 23007KT 10SM FEW032 OVC100 16/14 A2956 RMK AO2 RAE25 SLP003 P0001 T01610144",
      "metarObsTime": 1773302040
    },
    "KHZL": {
      "status": "OK",
      "delay": "—",
      "metarCat": "VFR",
      "metarRaw": "METAR KHZL 120755Z AUTO 25004KT 10SM SCT020 BKN080 OVC090 16/13 A2961 RMK AO2",
      "metarObsTime": 1773302100
    }
  }
}