{
  "generatedAt": "2026-04-15T00:20:46.952Z",
  "airports": {
    "KPIT": {
      "status": "OK",
      "delay": "—",
      "metarCat": "VFR",
      "metarRaw": "METAR KPIT 142351Z 14003KT 10SM FEW060 SCT150 SCT250 19/18 A2994 RMK AO2 SLP141 60027 T01940178 10250 20194 51000 $",
      "metarObsTime": 1776210660
    },
    "KAGC": {
      "status": "OK",
      "delay": "—",
      "metarCat": "VFR",
      "metarRaw": "METAR KAGC 142353Z 15005KT 6SM BR CLR 18/18 A2994 RMK AO2 SLP140 60033 T01830178 10261 20178 50007",
      "metarObsTime": 1776210780
    },
    "KLBE": {
      "status": "OK",
      "delay": "—",
      "metarCat": "VFR",
      "metarRaw": "METAR KLBE 142355Z 00000KT 10SM CLR 18/17 A2997",
      "metarObsTime": 1776210900
    },
    "KJST": {
      "status": "OK",
      "delay": "—",
      "metarCat": "VFR",
      "metarRaw": "METAR KJST 142354Z AUTO 22006KT 10SM CLR 16/14 A2998 RMK AO2 LTG DSNT E-S RAE14 SLP147 P0000 60030 T01560144 10233 20156 50004",
      "metarObsTime": 1776210840
    },
    "KERI": {
      "status": "OK",
      "delay": "—",
      "metarCat": "VFR",
      "metarRaw": "METAR KERI 142351Z 00000KT 10SM CLR 14/12 A2991 RMK AO2 SLP126 T01440117 10256 20144 51010 $",
      "metarObsTime": 1776210660
    },
    "KDUJ": {
      "status": "OK",
      "delay": "—",
      "metarCat": "VFR",
      "metarRaw": "METAR KDUJ 142353Z AUTO 27008KT 10SM FEW055 BKN110 18/14 A2996 RMK AO2 SLP137 60000 T01830139 10239 20183 53013",
      "metarObsTime": 1776210780
    },
    "KBFD": {
      "status": "OK",
      "delay": "—",
      "metarCat": "MVFR",
      "metarRaw": "METAR KBFD 142353Z AUTO 00000KT 10SM FEW011 BKN024 OVC070 16/14 A2996 RMK AO2 RAB31E40 SLP138 P0000 60031 T01560144 10233 20156 51018",
      "metarObsTime": 1776210780
    },
    "KBTP": {
      "status": "OK",
      "delay": "—",
      "metarCat": "VFR",
      "metarRaw": "METAR KBTP 142356Z AUTO 15003KT 10SM CLR 18/18 A2995 RMK AO2 SLP144 6//// T01830183 10244 20183 55009 PNO $",
      "metarObsTime": 1776210960
    },
    "KFKL": {
      "status": "OK",
      "delay": "—",
      "metarCat": "VFR",
      "metarRaw": "METAR KFKL 142356Z AUTO 23003KT 10SM CLR 19/13 A2995 RMK AO2 SLP137 60007 T01890133 10250 20189 52007",
      "metarObsTime": 1776210960
    },
    "KIDI": {
      "status": "OK",
      "delay": "—",
      "metarCat": "VFR",
      "metarRaw": "METAR KIDI 150015Z AUTO 00000KT 10SM SCT044 16/16 A2997 RMK A01",
      "metarObsTime": 1776212100
    },
    "KMDT": {
      "status": "OK",
      "delay": "—",
      "metarCat": "VFR",
      "metarRaw": "METAR KMDT 142356Z 22012KT 10SM SCT050 BKN100 23/14 A2989 RMK AO2 PK WND 23026/2319 SLP119 60000 T02280144 10289 20228 53008",
      "metarObsTime": 1776210960
    },
    "KCXY": {
      "status": "OK",
      "delay": "—",
      "metarCat": "VFR",
      "metarRaw": "METAR KCXY 142356Z 27004KT 10SM CLR 24/13 A2989 RMK AO2 SLP120 T02390133 10300 20239 53008",
      "metarObsTime": 1776210960
    },
    "KMUI": {
      "status": "OK",
      "delay": "—",
      "metarCat": "VFR",
      "metarRaw": "METAR KMUI 142355Z 23012G18KT 10SM FEW045 SCT070 BKN140 BKN250 27/15 A2986 RMK AO2A LTG DSNT E SLP112 T02660150 10311 20264 50009",
      "metarObsTime": 1776210900
    },
    "KUNV": {
      "status": "OK",
      "delay": "—",
      "metarCat": "VFR",
      "metarRaw": "METAR KUNV 142353Z 28015G21KT 10SM BKN100 22/14 A2994 RMK LTG DSNT NE AND S",
      "metarObsTime": 1776210780
    },
    "KAOO": {
      "status": "OK",
      "delay": "—",
      "metarCat": "VFR",
      "metarRaw": "SPECI KAOO 150005Z AUTO 19004KT 10SM SCT100 BKN110 17/15 A2998 RMK AO2 LTG DSNT SE AND S RAE2355 P0000 T01720150",
      "metarObsTime": 1776211500
    },
    "KLNS": {
      "status": "OK",
      "delay": "—",
      "metarCat": "VFR",
      "metarRaw": "METAR KLNS 142353Z 22009KT 10SM CLR 23/13 A2989 RMK AO2 PK WND 23033/2314 SLP119 T02280133 10289 20228 53004",
      "metarObsTime": 1776210780
    },
    "KIPT": {
      "status": "OK",
      "delay": "—",
      "metarCat": "VFR",
      "metarRaw": "METAR KIPT 142354Z 27009G18KT 10SM FEW070 BKN100 BKN120 26/14 A2986 RMK AO2 LTG DSNT NE AND W SLP107 T02610139 10294 20256 53014 $",
      "metarObsTime": 1776210840
    },
    "KPHL": {
      "status": "OK",
      "delay": "—",
      "metarCat": "VFR",
      "metarRaw": "METAR KPHL 142354Z 22010KT 10SM FEW060 FEW090 SCT190 BKN240 28/12 A2987 RMK AO2 SLP115 T02780122 10311 20278 55001 $",
      "metarObsTime": 1776210840
    },
    "KABE": {
      "status": "OK",
      "delay": "—",
      "metarCat": "VFR",
      "metarRaw": "METAR KABE 142351Z 23007KT 10SM FEW075 25/13 A2985 RMK AO2 LTG DSNT NE SLP105 T02500133 10289 20250 51001 $",
      "metarObsTime": 1776210660
    },
    "KAVP": {
      "status": "OK",
      "delay": "—",
      "metarCat": "VFR",
      "metarRaw": "METAR KAVP 142354Z 24008KT 10SM CLR 25/13 A2986 RMK AO2 PK WND 25028/2255 LTG DSNT NW-NE SLP103 T02500133 10283 20250 53012",
      "metarObsTime": 1776210840
    },
    "KHZL": {
      "status": "OK",
      "delay": "—",
      "metarCat": "VFR",
      "metarRaw": "METAR KHZL 150015Z AUTO 23003KT 10SM CLR 21/14 A2995 RMK AO2 LTG DSNT NW",
      "metarObsTime": 1776212100
    }
  }
}