{
  "generatedAt": "2026-03-29T06:20:24.335Z",
  "airports": {
    "KPIT": {
      "status": "OK",
      "delay": "—",
      "metarCat": "VFR",
      "metarRaw": "METAR KPIT 290551Z 20003KT 10SM SCT150 BKN160 M01/M06 A3046 RMK AO2 SLP336 T10061061 10039 21017 58005",
      "metarObsTime": 1774763460
    },
    "KAGC": {
      "status": "OK",
      "delay": "—",
      "metarCat": "VFR",
      "metarRaw": "METAR KAGC 290553Z 16006KT 10SM CLR M01/M06 A3046 RMK AO2 SLP333 T10111056 10039 21011 58004",
      "metarObsTime": 1774763580
    },
    "KLBE": {
      "status": "OK",
      "delay": "—",
      "metarCat": "VFR",
      "metarRaw": "METAR KLBE 290615Z AUTO 00000KT 10SM CLR M02/M05 A3049 RMK AO2",
      "metarObsTime": 1774764900
    },
    "KJST": {
      "status": "OK",
      "delay": "—",
      "metarCat": "VFR",
      "metarRaw": "METAR KJST 290554Z AUTO 22005KT 10SM CLR M01/M09 A3043 RMK AO2 SLP329 T10111094 10006 21017 58005",
      "metarObsTime": 1774763640
    },
    "KERI": {
      "status": "OK",
      "delay": "—",
      "metarCat": "VFR",
      "metarRaw": "METAR KERI 290551Z AUTO 18010KT 10SM CLR M01/M09 A3044 RMK AO2 SLP317 T10061094 10000 21017 56014 $",
      "metarObsTime": 1774763460
    },
    "KDUJ": {
      "status": "OK",
      "delay": "—",
      "metarCat": "VFR",
      "metarRaw": "METAR KDUJ 290553Z AUTO 00000KT 10SM CLR M03/M12 A3042 RMK AO2 SLP323 T10331117 10000 21044 58010",
      "metarObsTime": 1774763580
    },
    "KBFD": {
      "status": "OK",
      "delay": "—",
      "metarCat": "VFR",
      "metarRaw": "METAR KBFD 290553Z AUTO 00000KT 10SM BKN120 M07/M10 A3040 RMK AO2 SLP322 T10721100 11017 21072 58009",
      "metarObsTime": 1774763580
    },
    "KBTP": {
      "status": "OK",
      "delay": "—",
      "metarCat": "VFR",
      "metarRaw": "METAR KBTP 290556Z AUTO 16006KT 10SM OVC120 M02/M07 A3046 RMK AO2 SLP333 T10171067 10022 21033 58013 FZRANO $",
      "metarObsTime": 1774763760
    },
    "KFKL": {
      "status": "OK",
      "delay": "—",
      "metarCat": "VFR",
      "metarRaw": "METAR KFKL 290556Z AUTO 20005KT 10SM OVC120 M03/M08 A3043 RMK AO2 SLP323 T10281078 10006 21039 56018 FZRANO",
      "metarObsTime": 1774763760
    },
    "KIDI": {
      "status": "OK",
      "delay": "—",
      "metarCat": "VFR",
      "metarRaw": "METAR KIDI 290615Z AUTO 00000KT 10SM CLR M04/M06 A3045 RMK A01",
      "metarObsTime": 1774764900
    },
    "KMDT": {
      "status": "OK",
      "delay": "—",
      "metarCat": "VFR",
      "metarRaw": "METAR KMDT 290556Z 07003KT 10SM CLR 00/M06 A3053 RMK AO2 SLP341 T00001056 10061 21011 50005",
      "metarObsTime": 1774763760
    },
    "KCXY": {
      "status": "OK",
      "delay": "—",
      "metarCat": "VFR",
      "metarRaw": "METAR KCXY 290556Z AUTO 00000KT 10SM CLR M01/M07 A3053 RMK AO2 SLP344 T10111067 10056 21011 50005",
      "metarObsTime": 1774763760
    },
    "KMUI": {
      "status": "OK",
      "delay": "—",
      "metarCat": "VFR",
      "metarRaw": "METAR KMUI 290455Z AUTO 00000KT 10SM FEW130 00/M06 A3050 RMK AO2 SLP336 T00001064 400841008",
      "metarObsTime": 1774760100
    },
    "KUNV": {
      "status": "OK",
      "delay": "—",
      "metarCat": "VFR",
      "metarRaw": "METAR KUNV 290615Z AUTO 26003KT 10SM CLR 00/M10 A3047 RMK AO2 T10051096",
      "metarObsTime": 1774764900
    },
    "KAOO": {
      "status": "OK",
      "delay": "—",
      "metarCat": "VFR",
      "metarRaw": "METAR KAOO 290553Z AUTO 19005KT 10SM CLR M01/M09 A3047 RMK AO2 SLP334 T10111094 10017 21033 58004 $",
      "metarObsTime": 1774763580
    },
    "KLNS": {
      "status": "OK",
      "delay": "—",
      "metarCat": "VFR",
      "metarRaw": "METAR KLNS 290553Z AUTO 00000KT 10SM CLR 00/M08 A3053 RMK AO2 SLP341 T00001078 10044 21011 50006",
      "metarObsTime": 1774763580
    },
    "KIPT": {
      "status": "OK",
      "delay": "—",
      "metarCat": "VFR",
      "metarRaw": "METAR KIPT 290554Z AUTO 00000KT 10SM CLR M03/M08 A3051 RMK AO2 SLP336 T10281078 10039 21033 50003",
      "metarObsTime": 1774763640
    },
    "KPHL": {
      "status": "OK",
      "delay": "—",
      "metarCat": "VFR",
      "metarRaw": "METAR KPHL 290554Z 28005KT 10SM FEW080 04/M09 A3056 RMK AO2 SLP346 T00391094 10078 20028 51009 $",
      "metarObsTime": 1774763640
    },
    "KABE": {
      "status": "OK",
      "delay": "—",
      "metarCat": "VFR",
      "metarRaw": "METAR KABE 290551Z 34003KT 10SM CLR M03/M10 A3054 RMK AO2 SLP344 T10281100 10039 21028 51013 $",
      "metarObsTime": 1774763460
    },
    "KAVP": {
      "status": "OK",
      "delay": "—",
      "metarCat": "VFR",
      "metarRaw": "METAR KAVP 290554Z AUTO 09003KT 10SM CLR M03/M11 A3049 RMK AO2 SLP334 T10331106 10011 21044 51005",
      "metarObsTime": 1774763640
    },
    "KHZL": {
      "status": "OK",
      "delay": "—",
      "metarCat": "VFR",
      "metarRaw": "METAR KHZL 290615Z AUTO 00000KT 10SM CLR M05/M08 A3049 RMK AO2",
      "metarObsTime": 1774764900
    }
  }
}