{
  "generatedAt": "2026-03-19T12:20:18.526Z",
  "airports": {
    "KPIT": {
      "status": "OK",
      "delay": "—",
      "metarCat": "VFR",
      "metarRaw": "METAR KPIT 191151Z 19003KT 10SM OVC040 03/M04 A3013 RMK AO2 SLP220 T00331044 10033 20011 53009",
      "metarObsTime": 1773921060
    },
    "KAGC": {
      "status": "OK",
      "delay": "—",
      "metarCat": "VFR",
      "metarRaw": "METAR KAGC 191153Z 20007KT 10SM OVC039 03/M04 A3013 RMK AO2 SLP218 T00331044 10033 20011 53009",
      "metarObsTime": 1773921180
    },
    "KLBE": {
      "status": "OK",
      "delay": "—",
      "metarCat": "VFR",
      "metarRaw": "METAR KLBE 191147Z 19007KT 10SM OVC039 04/M02 A3016",
      "metarObsTime": 1773920820
    },
    "KJST": {
      "status": "OK",
      "delay": "—",
      "metarCat": "MVFR",
      "metarRaw": "METAR KJST 191154Z AUTO 25007KT 10SM OVC028 02/M05 A3010 RMK AO2 SLP215 T00171050 10017 21011 53008",
      "metarObsTime": 1773921240
    },
    "KERI": {
      "status": "OK",
      "delay": "—",
      "metarCat": "VFR",
      "metarRaw": "METAR KERI 191151Z 18005KT 10SM OVC032 02/M04 A3011 RMK AO2 SLP204 T00221044 10022 20011 51012",
      "metarObsTime": 1773921060
    },
    "KDUJ": {
      "status": "OK",
      "delay": "—",
      "metarCat": "VFR",
      "metarRaw": "METAR KDUJ 191153Z AUTO 22006KT 10SM OVC032 01/M06 A3010 RMK AO2 SLP210 T00061056 10006 21011 53011",
      "metarObsTime": 1773921180
    },
    "KBFD": {
      "status": "OK",
      "delay": "—",
      "metarCat": "VFR",
      "metarRaw": "SPECI KBFD 191213Z AUTO VRB03KT 10SM SCT025 OVC031 M01/M06 A3008 RMK AO2 T10111061",
      "metarObsTime": 1773922380
    },
    "KBTP": {
      "status": "OK",
      "delay": "—",
      "metarCat": "VFR",
      "metarRaw": "METAR KBTP 191156Z AUTO 00000KT 10SM OVC038 02/M04 A3015 RMK AO2 SLP227 70003 T00221039 10028 20006 53013 FZRANO $",
      "metarObsTime": 1773921360
    },
    "KFKL": {
      "status": "OK",
      "delay": "—",
      "metarCat": "VFR",
      "metarRaw": "METAR KFKL 191156Z AUTO 20005KT 10SM OVC031 00/M04 A3011 RMK AO2 SLP216 T00001044 10000 21006 53010 FZRANO",
      "metarObsTime": 1773921360
    },
    "KIDI": {
      "status": "OK",
      "delay": "—",
      "metarCat": "VFR",
      "metarRaw": "METAR KIDI 191215Z AUTO 22005KT 10SM OVC037 03/M03 A3014 RMK A01",
      "metarObsTime": 1773922500
    },
    "KMDT": {
      "status": "OK",
      "delay": "—",
      "metarCat": "VFR",
      "metarRaw": "METAR KMDT 191156Z 12006KT 10SM BKN055 OVC070 01/M04 A3026 RMK AO2 SLP250 T00061044 10017 20006 53004",
      "metarObsTime": 1773921360
    },
    "KCXY": {
      "status": "OK",
      "delay": "—",
      "metarCat": "VFR",
      "metarRaw": "METAR KCXY 191156Z 11004KT 10SM OVC050 01/M05 A3026 RMK AO2 SLP250 T00111050 10011 20006 53003",
      "metarObsTime": 1773921360
    },
    "KMUI": {
      "status": "OK",
      "delay": "—",
      "metarCat": "VFR",
      "metarRaw": "METAR KMUI 191155Z 00000KT 10SM BKN055 01/M04 A3024 RMK AO2A SLP248 T00071040 10007 21002 53002",
      "metarObsTime": 1773921300
    },
    "KUNV": {
      "status": "OK",
      "delay": "—",
      "metarCat": "VFR",
      "metarRaw": "METAR KUNV 191153Z 23004KT 10SM OVC038 01/M09 A3016",
      "metarObsTime": 1773921180
    },
    "KAOO": {
      "status": "OK",
      "delay": "—",
      "metarCat": "VFR",
      "metarRaw": "METAR KAOO 191153Z AUTO 17004KT 10SM OVC038 01/M08 A3015 RMK AO2 SLP225 T00061078 10006 20000 53005",
      "metarObsTime": 1773921180
    },
    "KLNS": {
      "status": "OK",
      "delay": "—",
      "metarCat": "VFR",
      "metarRaw": "METAR KLNS 191153Z 12004KT 10SM OVC065 00/M04 A3026 RMK AO2 SLP249 T00001039 10000 21006 56002",
      "metarObsTime": 1773921180
    },
    "KIPT": {
      "status": "OK",
      "delay": "—",
      "metarCat": "VFR",
      "metarRaw": "METAR KIPT 191154Z 11005KT 10SM OVC060 01/M07 A3021 RMK AO2 SLP234 T00061072 10006 20000 53001",
      "metarObsTime": 1773921240
    },
    "KPHL": {
      "status": "OK",
      "delay": "—",
      "metarCat": "VFR",
      "metarRaw": "METAR KPHL 191154Z 18004KT 10SM BKN060 BKN100 02/M05 A3031 RMK AO2 SLP264 T00171050 10017 20011 55000",
      "metarObsTime": 1773921240
    },
    "KABE": {
      "status": "OK",
      "delay": "—",
      "metarCat": "VFR",
      "metarRaw": "METAR KABE 191151Z 18005KT 10SM OVC050 00/M06 A3027 RMK AO2 SLP256 T00001061 10006 20000 55000",
      "metarObsTime": 1773921060
    },
    "KAVP": {
      "status": "OK",
      "delay": "—",
      "metarCat": "VFR",
      "metarRaw": "METAR KAVP 191154Z AUTO 22004KT 10SM OVC060 M01/M08 A3019 RMK AO2 SLP233 T10061083 11006 21011 58002",
      "metarObsTime": 1773921240
    },
    "KHZL": {
      "status": "OK",
      "delay": "—",
      "metarCat": "VFR",
      "metarRaw": "METAR KHZL 191155Z AUTO 14004KT 10SM OVC055 M01/M07 RMK AO2",
      "metarObsTime": 1773921300
    }
  }
}