{
  "generatedAt": "2026-03-05T17:40:28.802Z",
  "airports": {
    "KPIT": {
      "status": "OK",
      "delay": "—",
      "metarCat": "IFR",
      "metarRaw": "SPECI KPIT 051736Z 24007KT 2 1/2SM -RA BR BKN009 BKN014 OVC027 16/14 A3006 RMK AO2 RAB16 P0000 T01560139",
      "metarObsTime": 1772732160
    },
    "KAGC": {
      "status": "OK",
      "delay": "—",
      "metarCat": "IFR",
      "metarRaw": "SPECI KAGC 051729Z 18012G18KT 10SM BKN007 OVC024 15/14 A3004 RMK AO2 T01500139",
      "metarObsTime": 1772731740
    },
    "KLBE": {
      "status": "OK",
      "delay": "—",
      "metarCat": "VFR",
      "metarRaw": "METAR KLBE 051647Z 21010KT 8SM SCT015 OVC040 16/16 A3009",
      "metarObsTime": 1772729220
    },
    "KJST": {
      "status": "OK",
      "delay": "—",
      "metarCat": "IFR",
      "metarRaw": "METAR KJST 051654Z AUTO 20009KT 10SM BKN006 BKN041 BKN110 14/13 A3009 RMK AO2 RAB07E27 CIG 004V008 SLP191 P0001 T01390128",
      "metarObsTime": 1772729640
    },
    "KERI": {
      "status": "OK",
      "delay": "—",
      "metarCat": "IFR",
      "metarRaw": "SPECI KERI 051731Z 04006KT 1 3/4SM BR OVC007 07/06 A3004 RMK AO2 CIG 006V010 T00670056",
      "metarObsTime": 1772731860
    },
    "KDUJ": {
      "status": "OK",
      "delay": "—",
      "metarCat": "LIFR",
      "metarRaw": "SPECI KDUJ 051726Z AUTO 10006KT 1/4SM RA FG VV002 08/08 A3005 RMK AO2 RAE1658B14 P0001 T00830078",
      "metarObsTime": 1772731560
    },
    "KBFD": {
      "status": "OK",
      "delay": "—",
      "metarCat": "LIFR",
      "metarRaw": "SPECI KBFD 051711Z AUTO 12005KT 1 1/2SM BR OVC002 06/06 A3009 RMK AO2 T00610061",
      "metarObsTime": 1772730660
    },
    "KBTP": {
      "status": "OK",
      "delay": "—",
      "metarCat": "IFR",
      "metarRaw": "SPECI KBTP 051736Z AUTO 23003KT 10SM -RA OVC007 14/ A3005 RMK AO2 RAB19 CIG 005V011 P0001 $",
      "metarObsTime": 1772732160
    },
    "KFKL": {
      "status": "OK",
      "delay": "—",
      "metarCat": "LIFR",
      "metarRaw": "SPECI KFKL 051721Z AUTO 09004KT 1/4SM -RA FG OVC003 10/10 A3004 RMK AO2 P0000",
      "metarObsTime": 1772731260
    },
    "KIDI": {
      "status": "OK",
      "delay": "—",
      "metarCat": "IFR",
      "metarRaw": "METAR KIDI 051735Z AUTO 21008KT 10SM BKN007 OVC012 15/15 A3006 RMK A01",
      "metarObsTime": 1772732100
    },
    "KMDT": {
      "status": "OK",
      "delay": "—",
      "metarCat": "IFR",
      "metarRaw": "SPECI KMDT 051731Z 00000KT 2SM R13/2000VP6000FT -RA BR OVC005 07/07 A3017 RMK AO2 TWR VIS 2 1/2 P0002 T00670067",
      "metarObsTime": 1772731860
    },
    "KCXY": {
      "status": "OK",
      "delay": "—",
      "metarCat": "LIFR",
      "metarRaw": "SPECI KCXY 051726Z 13003KT 3SM -RA BR OVC004 08/07 A3018 RMK AO2 CIG 002V006 P0002 T00780072",
      "metarObsTime": 1772731560
    },
    "KMUI": {
      "status": "OK",
      "delay": "—",
      "metarCat": "LIFR",
      "metarRaw": "SPECI KMUI 051731Z 08005KT 3SM -RA BR OVC003 08/08 A3015 RMK AO2A SLP215",
      "metarObsTime": 1772731860
    },
    "KUNV": {
      "status": "OK",
      "delay": "—",
      "metarCat": "LIFR",
      "metarRaw": "METAR KUNV 051653Z 00000KT 2 1/2SM -DZ OVC004 06/06 A3015",
      "metarObsTime": 1772729580
    },
    "KAOO": {
      "status": "OK",
      "delay": "—",
      "metarCat": "IFR",
      "metarRaw": "METAR KAOO 051653Z AUTO 04005KT 10SM OVC005 08/07 A3012 RMK AO2 RAE1559B12E51 CIG 003V007 SLP209 P0001 T00780072",
      "metarObsTime": 1772729580
    },
    "KLNS": {
      "status": "OK",
      "delay": "—",
      "metarCat": "LIFR",
      "metarRaw": "SPECI KLNS 051704Z 07005KT 1 3/4SM -RA BR OVC003 08/07 A3018 RMK AO2 P0002 T00780072",
      "metarObsTime": 1772730240
    },
    "KIPT": {
      "status": "OK",
      "delay": "—",
      "metarCat": "IFR",
      "metarRaw": "METAR KIPT 051654Z VRB03KT 4SM BR OVC007 07/06 A3018 RMK AO2 SLP223 T00670061 $",
      "metarObsTime": 1772729640
    },
    "KPHL": {
      "status": "OK",
      "delay": "—",
      "metarCat": "IFR",
      "metarRaw": "SPECI KPHL 051737Z 07005KT 7SM OVC007 09/07 A3021 RMK AO2 T00890067 $",
      "metarObsTime": 1772732220
    },
    "KABE": {
      "status": "OK",
      "delay": "—",
      "metarCat": "IFR",
      "metarRaw": "SPECI KABE 051714Z VRB03KT 2 1/2SM BR OVC005 07/07 A3021 RMK AO2 SFC VIS 6 T00720067",
      "metarObsTime": 1772730840
    },
    "KAVP": {
      "status": "OK",
      "delay": "—",
      "metarCat": "IFR",
      "metarRaw": "SPECI KAVP 051728Z 00000KT 1 1/2SM BR OVC009 08/07 A3017 RMK AO2 SFC VIS 3 RAE07 P0000 T00780072",
      "metarObsTime": 1772731680
    },
    "KHZL": {
      "status": "OK",
      "delay": "—",
      "metarCat": "LIFR",
      "metarRaw": "METAR KHZL 051715Z AUTO 00000KT 1SM BR OVC002 07/06 A3019 RMK AO2",
      "metarObsTime": 1772730900
    }
  }
}