{
  "generatedAt": "2026-03-23T13:10:18.464Z",
  "airports": {
    "KPIT": {
      "status": "OK",
      "delay": "—",
      "metarCat": "MVFR",
      "metarRaw": "METAR KPIT 231251Z 33015G23KT 10SM -RA BKN013 OVC024 02/00 A2997 RMK AO2 PK WND 32028/1208 RAB49 SLP162 P0000 T00220000",
      "metarObsTime": 1774270260
    },
    "KAGC": {
      "status": "OK",
      "delay": "—",
      "metarCat": "MVFR",
      "metarRaw": "METAR KAGC 231253Z 33016G24KT 10SM OVC016 02/00 A2995 RMK AO2 PK WND 32028/1221 RAB02E11 SLP150 P0000 T00220000",
      "metarObsTime": 1774270380
    },
    "KLBE": {
      "status": "OK",
      "delay": "—",
      "metarCat": "IFR",
      "metarRaw": "METAR KLBE 231150Z 29016KT 2SM BR OVC007 05/05 A2990",
      "metarObsTime": 1774266600
    },
    "KJST": {
      "status": "OK",
      "delay": "—",
      "metarCat": "LIFR",
      "metarRaw": "METAR KJST 231254Z AUTO 29020G30KT 1 1/4SM -RA BR OVC004 03/02 A2983 RMK AO2 PK WND 30030/1249 SLP109 P0001 T00280022",
      "metarObsTime": 1774270440
    },
    "KERI": {
      "status": "OK",
      "delay": "—",
      "metarCat": "VFR",
      "metarRaw": "METAR KERI 231251Z 05011G18KT 10SM FEW012 SCT036 OVC046 01/M02 A3003 RMK AO2 SLP175 T00061022",
      "metarObsTime": 1774270260
    },
    "KDUJ": {
      "status": "OK",
      "delay": "—",
      "metarCat": "LIFR",
      "metarRaw": "SPECI KDUJ 231303Z AUTO 32013G21KT 2 1/2SM -SN BR BKN004 OVC008 01/M01 A2988 RMK AO2 SNB02 P0000 T00061006",
      "metarObsTime": 1774270980
    },
    "KBFD": {
      "status": "OK",
      "delay": "—",
      "metarCat": "IFR",
      "metarRaw": "SPECI KBFD 231300Z AUTO 34007KT 3SM BR BKN006 BKN010 OVC024 M03/M03 A2989 RMK AO2 CIG 005V009 T10281033",
      "metarObsTime": 1774270800
    },
    "KBTP": {
      "status": "OK",
      "delay": "—",
      "metarCat": "MVFR",
      "metarRaw": "METAR KBTP 231256Z AUTO 34011G18KT 10SM OVC015 01/M01 A2998 RMK AO2 UPB40E56 SLP165 P0000 T00111006 FZRANO $",
      "metarObsTime": 1774270560
    },
    "KFKL": {
      "status": "OK",
      "delay": "—",
      "metarCat": "IFR",
      "metarRaw": "METAR KFKL 231256Z AUTO 35007G14KT 280V030 4SM -SN BR BKN008 BKN013 OVC020 M01/M02 A2997 RMK AO2 SNB12 CIG 007V010 SLP163 P0000 T10111017 FZRANO",
      "metarObsTime": 1774270560
    },
    "KIDI": {
      "status": "OK",
      "delay": "—",
      "metarCat": "MVFR",
      "metarRaw": "METAR KIDI 231255Z AUTO 32012G18KT 8SM BKN010 BKN016 04/03 A2990 RMK A01 P0001",
      "metarObsTime": 1774270500
    },
    "KMDT": {
      "status": "OK",
      "delay": "—",
      "metarCat": "MVFR",
      "metarRaw": "METAR KMDT 231256Z 32010KT 10SM FEW008 OVC014 08/07 A2976 RMK AO2 SLP078 T00830072",
      "metarObsTime": 1774270560
    },
    "KCXY": {
      "status": "OK",
      "delay": "—",
      "metarCat": "MVFR",
      "metarRaw": "METAR KCXY 231256Z 32007G15KT 10SM SCT010 OVC018 07/05 A2977 RMK AO2 SLP084 T00720050",
      "metarObsTime": 1774270560
    },
    "KMUI": {
      "status": "OK",
      "delay": "—",
      "metarCat": "IFR",
      "metarRaw": "METAR KMUI 231256Z 01011G18KT 320V090 10SM BKN009 OVC016 07/07 A2975 RMK AO2A SLP078 T00740065",
      "metarObsTime": 1774270560
    },
    "KUNV": {
      "status": "OK",
      "delay": "—",
      "metarCat": "IFR",
      "metarRaw": "METAR KUNV 231253Z 05008KT 3SM -DZ BR OVC008 03/03 A2985",
      "metarObsTime": 1774270380
    },
    "KAOO": {
      "status": "OK",
      "delay": "—",
      "metarCat": "VFR",
      "metarRaw": "METAR KAOO 231253Z AUTO 31017G24KT 9SM FEW010 OVC034 08/06 A2980 RMK AO2 PK WND 33028/1213 RAE29 SLP090 P0000 T00780061",
      "metarObsTime": 1774270380
    },
    "KLNS": {
      "status": "OK",
      "delay": "—",
      "metarCat": "IFR",
      "metarRaw": "METAR KLNS 231253Z 01008KT 10SM OVC008 10/09 A2974 RMK AO2 CIG 006V011 SLP069 T01000089",
      "metarObsTime": 1774270380
    },
    "KIPT": {
      "status": "OK",
      "delay": "—",
      "metarCat": "MVFR",
      "metarRaw": "METAR KIPT 231254Z VRB05KT 7SM OVC020 02/M01 A2987 RMK AO2 SLP118 T00221006 $",
      "metarObsTime": 1774270440
    },
    "KPHL": {
      "status": "OK",
      "delay": "—",
      "metarCat": "MVFR",
      "metarRaw": "METAR KPHL 231254Z 06007G18KT 10SM OVC011 11/09 A2973 RMK AO2 RAE24 SLP068 P0000 T01110089 $",
      "metarObsTime": 1774270440
    },
    "KABE": {
      "status": "OK",
      "delay": "—",
      "metarCat": "MVFR",
      "metarRaw": "METAR KABE 231251Z 04007KT 10SM FEW006 BKN011 OVC026 06/05 A2976 RMK AO2 RAE1157 SLP079 P0000 T00610050 $",
      "metarObsTime": 1774270260
    },
    "KAVP": {
      "status": "OK",
      "delay": "—",
      "metarCat": "IFR",
      "metarRaw": "METAR KAVP 231254Z 35009KT 2 1/2SM -RA BR OVC008 02/01 A2982 RMK AO2 SFC VIS 3 RAE1156B33UPB1156E33 CIG 006V010 SLP099 P0001 T00170006",
      "metarObsTime": 1774270440
    },
    "KHZL": {
      "status": "OK",
      "delay": "—",
      "metarCat": "LIFR",
      "metarRaw": "METAR KHZL 231255Z AUTO 34010G19KT 4SM -DZ OVC003 01/00 A2981 RMK AO2",
      "metarObsTime": 1774270500
    }
  }
}