{
  "generatedAt": "2026-04-10T12:00:48.541Z",
  "airports": {
    "KPIT": {
      "status": "OK",
      "delay": "—",
      "metarCat": "VFR",
      "metarRaw": "METAR KPIT 101151Z 20007KT 10SM FEW250 14/02 A3024 RMK AO2 SLP242 T01440017 10161 20117 51008",
      "metarObsTime": 1775821860
    },
    "KAGC": {
      "status": "OK",
      "delay": "—",
      "metarCat": "VFR",
      "metarRaw": "METAR KAGC 101153Z 19009KT 10SM CLR 13/02 A3025 RMK AO2 SLP244 T01280022 10150 20117 52009",
      "metarObsTime": 1775821980
    },
    "KLBE": {
      "status": "OK",
      "delay": "—",
      "metarCat": "VFR",
      "metarRaw": "METAR KLBE 101153Z 21010KT 10SM CLR 13/04 A3028",
      "metarObsTime": 1775821980
    },
    "KJST": {
      "status": "OK",
      "delay": "—",
      "metarCat": "VFR",
      "metarRaw": "METAR KJST 101154Z AUTO 19006KT 10SM CLR 13/M01 A3028 RMK AO2 SLP253 T01281006 10128 20094 51011",
      "metarObsTime": 1775822040
    },
    "KERI": {
      "status": "OK",
      "delay": "—",
      "metarCat": "VFR",
      "metarRaw": "METAR KERI 101151Z 19014G21KT 10SM CLR 17/07 A3013 RMK AO2 SLP201 70017 T01670072 10167 20117 58001 $",
      "metarObsTime": 1775821860
    },
    "KDUJ": {
      "status": "OK",
      "delay": "—",
      "metarCat": "VFR",
      "metarRaw": "METAR KDUJ 101153Z AUTO 17004KT 10SM CLR 11/00 A3024 RMK AO2 SLP237 T01110000 10111 20067 51007",
      "metarObsTime": 1775821980
    },
    "KBFD": {
      "status": "OK",
      "delay": "—",
      "metarCat": "VFR",
      "metarRaw": "METAR KBFD 101153Z AUTO 18005KT 10SM CLR 11/01 A3022 RMK AO2 SLP234 70004 T01060006 10106 20050 53002",
      "metarObsTime": 1775821980
    },
    "KBTP": {
      "status": "OK",
      "delay": "—",
      "metarCat": "VFR",
      "metarRaw": "METAR KBTP 101056Z AUTO 17006KT 10SM CLR 12/04 A3024 RMK AO2 SLP242 T01220039 $",
      "metarObsTime": 1775818560
    },
    "KFKL": {
      "status": "OK",
      "delay": "—",
      "metarCat": "VFR",
      "metarRaw": "METAR KFKL 101056Z AUTO 18007KT 10SM CLR 09/04 A3021 RMK AO2 SLP235 T00890044",
      "metarObsTime": 1775818560
    },
    "KIDI": {
      "status": "OK",
      "delay": "—",
      "metarCat": "VFR",
      "metarRaw": "METAR KIDI 101155Z AUTO 22006KT 10SM CLR 13/03 A3026 RMK A01",
      "metarObsTime": 1775822100
    },
    "KMDT": {
      "status": "OK",
      "delay": "—",
      "metarCat": "MVFR",
      "metarRaw": "METAR KMDT 101156Z 12003KT 7SM OVC011 07/06 A3037 RMK AO2 SLP284 T00720056 10072 20050 50008",
      "metarObsTime": 1775822160
    },
    "KCXY": {
      "status": "OK",
      "delay": "—",
      "metarCat": "MVFR",
      "metarRaw": "METAR KCXY 101156Z 09004KT 9SM OVC010 07/06 A3037 RMK AO2 SLP286 T00720056 10072 20044 53006 $",
      "metarObsTime": 1775822160
    },
    "KMUI": {
      "status": "OK",
      "delay": "—",
      "metarCat": "IFR",
      "metarRaw": "METAR KMUI 101055Z 00000KT 5SM OVC007 07/07 A3036 RMK AO2A SLP285 T00720069",
      "metarObsTime": 1775818500
    },
    "KUNV": {
      "status": "OK",
      "delay": "—",
      "metarCat": "VFR",
      "metarRaw": "METAR KUNV 101153Z 00000KT 10SM CLR 08/00 A3029",
      "metarObsTime": 1775821980
    },
    "KAOO": {
      "status": "OK",
      "delay": "—",
      "metarCat": "VFR",
      "metarRaw": "METAR KAOO 101153Z AUTO 29003KT 10SM CLR 07/M01 A3030 RMK AO2 SLP264 T00721011 10094 20044 51009 $",
      "metarObsTime": 1775821980
    },
    "KLNS": {
      "status": "OK",
      "delay": "—",
      "metarCat": "IFR",
      "metarRaw": "METAR KLNS 101153Z 14005KT 7SM OVC007 07/06 A3037 RMK AO2 SLP287 T00670056 10067 20039 50006",
      "metarObsTime": 1775821980
    },
    "KIPT": {
      "status": "OK",
      "delay": "—",
      "metarCat": "VFR",
      "metarRaw": "METAR KIPT 101154Z 08005KT 10SM CLR 08/03 A3032 RMK AO2 SLP268 T00780033 10106 20050 53006",
      "metarObsTime": 1775822040
    },
    "KPHL": {
      "status": "OK",
      "delay": "—",
      "metarCat": "MVFR",
      "metarRaw": "METAR KPHL 101154Z 24007KT 10SM BKN010 BKN280 08/04 A3041 RMK AO2 SLP298 T00780044 10078 20061 53004 $",
      "metarObsTime": 1775822040
    },
    "KABE": {
      "status": "OK",
      "delay": "—",
      "metarCat": "IFR",
      "metarRaw": "METAR KABE 101151Z 19006KT 9SM OVC007 06/04 A3038 RMK AO2 SLP289 T00610044 10067 20050 53003 $",
      "metarObsTime": 1775821860
    },
    "KAVP": {
      "status": "OK",
      "delay": "—",
      "metarCat": "VFR",
      "metarRaw": "METAR KAVP 101154Z VRB03KT 10SM CLR 07/02 A3032 RMK AO2 SLP268 T00670017 10072 20039 52005",
      "metarObsTime": 1775822040
    },
    "KHZL": {
      "status": "OK",
      "delay": "—",
      "metarCat": "LIFR",
      "metarRaw": "METAR KHZL 101155Z AUTO 00000KT 7SM BKN004 05/03 A3035 RMK AO2",
      "metarObsTime": 1775822100
    }
  }
}