{
  "generatedAt": "2026-03-06T06:10:12.746Z",
  "airports": {
    "KPIT": {
      "status": "OK",
      "delay": "—",
      "metarCat": "MVFR",
      "metarRaw": "METAR KPIT 060551Z 24003KT 10SM OVC017 14/13 A3013 RMK AO2 SLP207 T01440128 10156 20144 51009",
      "metarObsTime": 1772776260
    },
    "KAGC": {
      "status": "OK",
      "delay": "—",
      "metarCat": "VFR",
      "metarRaw": "METAR KAGC 060553Z 23006KT 10SM OVC037 14/13 A3012 RMK AO2 SLP204 T01390128 10150 20139 53004",
      "metarObsTime": 1772776380
    },
    "KLBE": {
      "status": "OK",
      "delay": "—",
      "metarCat": "VFR",
      "metarRaw": "METAR KLBE 060555Z AUTO 19006KT 10SM SCT016 OVC042 14/14 A3015 RMK AO2",
      "metarObsTime": 1772776500
    },
    "KJST": {
      "status": "OK",
      "delay": "—",
      "metarCat": "VFR",
      "metarRaw": "SPECI KJST 060603Z AUTO 26009KT 10SM FEW012 BKN035 OVC055 13/11 A3013 RMK AO2 T01280111",
      "metarObsTime": 1772776980
    },
    "KERI": {
      "status": "OK",
      "delay": "—",
      "metarCat": "LIFR",
      "metarRaw": "SPECI KERI 060604Z AUTO 04006KT 1SM R06/P6000FT BR OVC002 01/00 A3016 RMK AO2 T00060000",
      "metarObsTime": 1772777040
    },
    "KDUJ": {
      "status": "OK",
      "delay": "—",
      "metarCat": "MVFR",
      "metarRaw": "METAR KDUJ 060553Z AUTO 25007KT 10SM SCT008 SCT012 BKN022 12/11 A3010 RMK AO2 SLP195 60002 T01170111 10122 20100 51010",
      "metarObsTime": 1772776380
    },
    "KBFD": {
      "status": "OK",
      "delay": "—",
      "metarCat": "MVFR",
      "metarRaw": "METAR KBFD 060553Z AUTO VRB05KT 10SM FEW002 OVC018 10/10 A3009 RMK AO2 SLP193 60008 T01000100 10100 20056 53004",
      "metarObsTime": 1772776380
    },
    "KBTP": {
      "status": "OK",
      "delay": "—",
      "metarCat": "MVFR",
      "metarRaw": "SPECI KBTP 060606Z AUTO 25007KT 9SM BKN010 OVC034 13/ A3013 RMK AO2 RAE01 CIG 005V012 P0000 $",
      "metarObsTime": 1772777160
    },
    "KFKL": {
      "status": "OK",
      "delay": "—",
      "metarCat": "IFR",
      "metarRaw": "METAR KFKL 060556Z AUTO 28006KT 10SM OVC006 10/09 A3012 RMK AO2 SLP206 60003 T01000094 10133 20100 51014",
      "metarObsTime": 1772776560
    },
    "KIDI": {
      "status": "OK",
      "delay": "—",
      "metarCat": "IFR",
      "metarRaw": "METAR KIDI 060555Z AUTO 28006KT 6SM BR OVC005 13/13 A3013 RMK A01 P0001",
      "metarObsTime": 1772776500
    },
    "KMDT": {
      "status": "OK",
      "delay": "—",
      "metarCat": "IFR",
      "metarRaw": "METAR KMDT 060556Z 08003KT 9SM BKN008 OVC013 07/06 A3019 RMK AO2 CIG 006V010 SLP225 60054 T00670061 10078 20050 51008",
      "metarObsTime": 1772776560
    },
    "KCXY": {
      "status": "OK",
      "delay": "—",
      "metarCat": "IFR",
      "metarRaw": "METAR KCXY 060556Z AUTO 06005KT 10SM OVC008 07/06 A3020 RMK AO2 CIG 006V011 SLP229 60061 T00670056 10083 20067 53009",
      "metarObsTime": 1772776560
    },
    "KMUI": {
      "status": "OK",
      "delay": "—",
      "metarCat": "IFR",
      "metarRaw": "SPECI KMUI 060604Z AUTO 07006KT 10SM OVC006 06/06 A3019 RMK AO2 RAE04 CIG 006V008 SLP229",
      "metarObsTime": 1772777040
    },
    "KUNV": {
      "status": "OK",
      "delay": "—",
      "metarCat": "MVFR",
      "metarRaw": "METAR KUNV 060555Z AUTO 00000KT 7SM SCT007 BKN018 OVC031 08/08 A3013 RMK AO2 60012 T00760076 10076 20070",
      "metarObsTime": 1772776500
    },
    "KAOO": {
      "status": "OK",
      "delay": "—",
      "metarCat": "MVFR",
      "metarRaw": "METAR KAOO 060553Z AUTO 00000KT 6SM BR FEW024 BKN030 OVC045 10/09 A3013 RMK AO2 SLP209 60010 T01000094 10117 20072 51007",
      "metarObsTime": 1772776380
    },
    "KLNS": {
      "status": "OK",
      "delay": "—",
      "metarCat": "IFR",
      "metarRaw": "SPECI KLNS 060606Z AUTO 07004KT 10SM BKN009 OVC015 06/05 A3020 RMK AO2 T00560050",
      "metarObsTime": 1772777160
    },
    "KIPT": {
      "status": "OK",
      "delay": "—",
      "metarCat": "MVFR",
      "metarRaw": "METAR KIPT 060554Z AUTO 10007KT 9SM OVC010 07/06 A3017 RMK AO2 RAB0455E33 CIG 008V014 SLP218 P0001 60007 T00720061 10089 20072 53009 $",
      "metarObsTime": 1772776440
    },
    "KPHL": {
      "status": "OK",
      "delay": "—",
      "metarCat": "IFR",
      "metarRaw": "METAR KPHL 060554Z 05010KT 7SM FEW005 BKN009 OVC025 06/04 A3022 RMK AO2 RAE52 SLP233 P0004 60043 T00560039 10078 20056 50019 $",
      "metarObsTime": 1772776440
    },
    "KABE": {
      "status": "OK",
      "delay": "—",
      "metarCat": "IFR",
      "metarRaw": "METAR KABE 060551Z 06009KT 10SM OVC008 04/04 A3023 RMK AO2 RAE0457 SLP239 P0000 60092 T00440039 10056 20044 53005",
      "metarObsTime": 1772776260
    },
    "KAVP": {
      "status": "OK",
      "delay": "—",
      "metarCat": "MVFR",
      "metarRaw": "SPECI KAVP 060607Z AUTO 07004KT 10SM SCT014 OVC019 04/02 A3019 RMK AO2 T00390022",
      "metarObsTime": 1772777220
    },
    "KHZL": {
      "status": "OK",
      "delay": "—",
      "metarCat": "IFR",
      "metarRaw": "METAR KHZL 060555Z AUTO 14003KT 10SM -DZ OVC006 03/02 A3019 RMK AO2 P0001",
      "metarObsTime": 1772776500
    }
  }
}