{
  "generatedAt": "2026-03-23T18:50:20.867Z",
  "airports": {
    "KPIT": {
      "status": "OK",
      "delay": "—",
      "metarCat": "MVFR",
      "metarRaw": "SPECI KPIT 231820Z 30015G25KT 10SM -RA FEW008 OVC014 03/00 A3014 RMK AO2 SNE19 P0000 T00280000",
      "metarObsTime": 1774290000
    },
    "KAGC": {
      "status": "OK",
      "delay": "—",
      "metarCat": "MVFR",
      "metarRaw": "METAR KAGC 231753Z 30009G20KT 10SM SCT022 BKN027 OVC040 03/M01 A3011 RMK AO2 SLP208 60000 T00331011 10033 20022 51018",
      "metarObsTime": 1774288380
    },
    "KLBE": {
      "status": "OK",
      "delay": "—",
      "metarCat": "MVFR",
      "metarRaw": "METAR KLBE 231747Z 29009G22KT 10SM BKN030 OVC035 04/M01 A3012",
      "metarObsTime": 1774288020
    },
    "KJST": {
      "status": "OK",
      "delay": "—",
      "metarCat": "MVFR",
      "metarRaw": "METAR KJST 231754Z AUTO 30020G31KT 10SM OVC025 01/M03 A3001 RMK AO2 PK WND 32034/1707 SLP175 60004 T00111033 10028 21006 53008",
      "metarObsTime": 1774288440
    },
    "KERI": {
      "status": "OK",
      "delay": "—",
      "metarCat": "IFR",
      "metarRaw": "SPECI KERI 231757Z 30007KT 3SM -SN BR BKN007 OVC014 00/M01 A3016 RMK AO2 P0001 T00001011",
      "metarObsTime": 1774288620
    },
    "KDUJ": {
      "status": "OK",
      "delay": "—",
      "metarCat": "VFR",
      "metarRaw": "SPECI KDUJ 231834Z AUTO 32010G19KT 10SM SCT028 BKN036 OVC043 01/M04 A3005 RMK AO2 T00111039",
      "metarObsTime": 1774290840
    },
    "KBFD": {
      "status": "OK",
      "delay": "—",
      "metarCat": "MVFR",
      "metarRaw": "METAR KBFD 231753Z AUTO 33011G21KT 10SM SCT023 BKN029 OVC042 M01/M04 A3003 RMK AO2 SLP186 60000 I6001 T10061039 10000 21028 51021",
      "metarObsTime": 1774288380
    },
    "KBTP": {
      "status": "OK",
      "delay": "—",
      "metarCat": "MVFR",
      "metarRaw": "SPECI KBTP 231835Z AUTO 28015G23KT 10SM BKN015 OVC020 03/01 A3014 RMK AO2 RAE1759B19E34UPB17E19 P0000 $",
      "metarObsTime": 1774290900
    },
    "KFKL": {
      "status": "OK",
      "delay": "—",
      "metarCat": "IFR",
      "metarRaw": "SPECI KFKL 231842Z AUTO 30011G21KT 2SM -SN BR BKN013 OVC021 01/M02 A3012 RMK AO2 RAE18SNB18 P0000 FZRANO",
      "metarObsTime": 1774291320
    },
    "KIDI": {
      "status": "OK",
      "delay": "—",
      "metarCat": "VFR",
      "metarRaw": "METAR KIDI 231835Z AUTO 31016KT 10SM OVC034 03/M02 A3009 RMK A01",
      "metarObsTime": 1774290900
    },
    "KMDT": {
      "status": "OK",
      "delay": "—",
      "metarCat": "VFR",
      "metarRaw": "SPECI KMDT 231806Z 35009KT 10SM OVC031 07/01 A2997 RMK AO2 T00720011",
      "metarObsTime": 1774289160
    },
    "KCXY": {
      "status": "OK",
      "delay": "—",
      "metarCat": "MVFR",
      "metarRaw": "METAR KCXY 231756Z 36009KT 10SM BKN030 OVC035 07/01 A2998 RMK AO2 SLP154 T00720006 10078 20056 51028",
      "metarObsTime": 1774288560
    },
    "KMUI": {
      "status": "OK",
      "delay": "—",
      "metarCat": "MVFR",
      "metarRaw": "METAR KMUI 231755Z 34009G21KT 290V010 10SM BKN023 BKN028 06/01 A2997 RMK SLPNO WND DATA ESTMD ALSTG ESTMD 5////",
      "metarObsTime": 1774288500
    },
    "KUNV": {
      "status": "OK",
      "delay": "—",
      "metarCat": "MVFR",
      "metarRaw": "METAR KUNV 231753Z 33007G17KT 310V010 10SM VCSH BKN020 OVC026 03/M02 A3003",
      "metarObsTime": 1774288380
    },
    "KAOO": {
      "status": "OK",
      "delay": "—",
      "metarCat": "MVFR",
      "metarRaw": "SPECI KAOO 231830Z AUTO 33017G28KT 10SM OVC030 03/M04 A3004 RMK AO2 PK WND 34029/1802 T00281039",
      "metarObsTime": 1774290600
    },
    "KLNS": {
      "status": "OK",
      "delay": "—",
      "metarCat": "MVFR",
      "metarRaw": "METAR KLNS 231753Z 33015G23KT 10SM OVC023 07/02 A2996 RMK AO2 SLP145 T00670017 10100 20061 51036",
      "metarObsTime": 1774288380
    },
    "KIPT": {
      "status": "OK",
      "delay": "—",
      "metarCat": "VFR",
      "metarRaw": "SPECI KIPT 231824Z 32015G24KT 10SM OVC032 03/M04 A3004 RMK AO2 T00281044",
      "metarObsTime": 1774290240
    },
    "KPHL": {
      "status": "OK",
      "delay": "—",
      "metarCat": "MVFR",
      "metarRaw": "SPECI KPHL 231835Z 34016G24KT 6SM BR BKN012 BKN017 OVC022 08/06 A2992 RMK AO2 RAB1755E06 P0000 T00780056",
      "metarObsTime": 1774290900
    },
    "KABE": {
      "status": "OK",
      "delay": "—",
      "metarCat": "MVFR",
      "metarRaw": "METAR KABE 231751Z 31010G19KT 10SM BKN018 OVC036 04/01 A2993 RMK AO2 RAE1657 SLP136 P0000 60000 T00390006 10067 20039 53015 $",
      "metarObsTime": 1774288260
    },
    "KAVP": {
      "status": "OK",
      "delay": "—",
      "metarCat": "MVFR",
      "metarRaw": "SPECI KAVP 231823Z 30006G16KT 10SM OVC016 00/M03 A2998 RMK AO2 T00001033",
      "metarObsTime": 1774290180
    },
    "KHZL": {
      "status": "OK",
      "delay": "—",
      "metarCat": "MVFR",
      "metarRaw": "METAR KHZL 231835Z AUTO 32007G15KT 280V020 10SM OVC011 00/M02 A2997 RMK AO2",
      "metarObsTime": 1774290900
    }
  }
}