{
  "generatedAt": "2026-04-04T05:30:31.703Z",
  "airports": {
    "KPIT": {
      "status": "OK",
      "delay": "—",
      "metarCat": "VFR",
      "metarRaw": "METAR KPIT 040451Z 26003KT 9SM -RA SCT038 BKN070 OVC140 17/16 A3015 RMK AO2 SLP212 OCNL LTG DSNT SW P0001 T01670156 402500167 $",
      "metarObsTime": 1775278260
    },
    "KAGC": {
      "status": "OK",
      "delay": "—",
      "metarCat": "VFR",
      "metarRaw": "METAR KAGC 040453Z 22007KT 10SM FEW050 BKN070 OVC085 18/14 A3015 RMK AO2 RAE18 SLP206 P0001 T01830144 402440167",
      "metarObsTime": 1775278380
    },
    "KLBE": {
      "status": "OK",
      "delay": "—",
      "metarCat": "VFR",
      "metarRaw": "METAR KLBE 040515Z AUTO 16004KT 10SM FEW050 SCT060 SCT080 18/16 A3017 RMK AO2",
      "metarObsTime": 1775279700
    },
    "KJST": {
      "status": "OK",
      "delay": "—",
      "metarCat": "VFR",
      "metarRaw": "METAR KJST 040454Z AUTO 31003KT 10SM FEW036 BKN075 BKN090 16/13 A3020 RMK AO2 RAB33E53 SLP218 P0001 T01560128 402220100",
      "metarObsTime": 1775278440
    },
    "KERI": {
      "status": "OK",
      "delay": "—",
      "metarCat": "VFR",
      "metarRaw": "METAR KERI 040451Z AUTO 05009KT 10SM CLR 07/04 A3022 RMK AO2 SLP233 T00720039 402500072",
      "metarObsTime": 1775278260
    },
    "KDUJ": {
      "status": "OK",
      "delay": "—",
      "metarCat": "LIFR",
      "metarRaw": "SPECI KDUJ 040520Z AUTO 19003KT 1/4SM FG SCT005 OVC120 14/14 A3016 RMK AO2 P0001 T01440139",
      "metarObsTime": 1775280000
    },
    "KBFD": {
      "status": "OK",
      "delay": "—",
      "metarCat": "VFR",
      "metarRaw": "METAR KBFD 040453Z AUTO 35006KT 10SM CLR 12/11 A3017 RMK AO2 SLP213 T01170111 402280089",
      "metarObsTime": 1775278380
    },
    "KBTP": {
      "status": "OK",
      "delay": "—",
      "metarCat": "MVFR",
      "metarRaw": "SPECI KBTP 040516Z AUTO 22003KT 4SM -RA BKN110 16/ A3017 RMK AO2 RAB02 P0000 $",
      "metarObsTime": 1775279760
    },
    "KFKL": {
      "status": "OK",
      "delay": "—",
      "metarCat": "MVFR",
      "metarRaw": "METAR KFKL 040456Z AUTO 01004KT 10SM OVC026 16/14 A3017 RMK AO2 SLP212 T01560139 402440144",
      "metarObsTime": 1775278560
    },
    "KIDI": {
      "status": "OK",
      "delay": "—",
      "metarCat": "MVFR",
      "metarRaw": "METAR KIDI 040515Z AUTO 00000KT 5SM BR FEW055 SCT075 BKN110 16/15 A3017 RMK A01",
      "metarObsTime": 1775279700
    },
    "KMDT": {
      "status": "OK",
      "delay": "—",
      "metarCat": "MVFR",
      "metarRaw": "METAR KMDT 040456Z 00000KT 5SM BR SCT250 12/11 A3013 RMK AO2 SLP204 T01170111 401890061 $",
      "metarObsTime": 1775278560
    },
    "KCXY": {
      "status": "OK",
      "delay": "—",
      "metarCat": "VFR",
      "metarRaw": "METAR KCXY 040456Z AUTO 00000KT 6SM BR CLR 12/11 A3014 RMK AO2 SLP207 T01170111 401940061",
      "metarObsTime": 1775278560
    },
    "KMUI": {
      "status": "OK",
      "delay": "—",
      "metarCat": "MVFR",
      "metarRaw": "METAR KMUI 040455Z AUTO 00000KT 5SM BR SCT110 11/11 A3012 RMK AO2 SLP204 T01120109 401710050",
      "metarObsTime": 1775278500
    },
    "KUNV": {
      "status": "OK",
      "delay": "—",
      "metarCat": "VFR",
      "metarRaw": "METAR KUNV 040515Z AUTO 00000KT 10SM -RA SCT032 OVC095 17/16 A3016 RMK AO2 P0001 T01660156",
      "metarObsTime": 1775279700
    },
    "KAOO": {
      "status": "OK",
      "delay": "—",
      "metarCat": "VFR",
      "metarRaw": "METAR KAOO 040453Z AUTO 00000KT 10SM FEW080 16/12 A3017 RMK AO2 SLP212 T01560122 402500078",
      "metarObsTime": 1775278380
    },
    "KLNS": {
      "status": "OK",
      "delay": "—",
      "metarCat": "MVFR",
      "metarRaw": "METAR KLNS 040453Z AUTO 00000KT 3SM BR CLR 13/13 A3013 RMK AO2 SLP204 T01280128 402060056",
      "metarObsTime": 1775278380
    },
    "KIPT": {
      "status": "OK",
      "delay": "—",
      "metarCat": "MVFR",
      "metarRaw": "SPECI KIPT 040525Z AUTO 00000KT 3SM BR BKN039 11/11 A3014 RMK AO2 T01060106",
      "metarObsTime": 1775280300
    },
    "KPHL": {
      "status": "OK",
      "delay": "—",
      "metarCat": "VFR",
      "metarRaw": "METAR KPHL 040454Z 25004KT 10SM SCT140 SCT250 16/14 A3013 RMK AO2 SLP202 T01610139 402170067 $",
      "metarObsTime": 1775278440
    },
    "KABE": {
      "status": "OK",
      "delay": "—",
      "metarCat": "VFR",
      "metarRaw": "METAR KABE 040451Z 00000KT 7SM FEW065 SCT110 11/10 A3014 RMK AO2 SLP208 T01060100 401610044 $",
      "metarObsTime": 1775278260
    },
    "KAVP": {
      "status": "OK",
      "delay": "—",
      "metarCat": "VFR",
      "metarRaw": "METAR KAVP 040454Z 00000KT 10SM BKN048 14/13 A3013 RMK AO2 SLP199 T01440128 402000056",
      "metarObsTime": 1775278440
    },
    "KHZL": {
      "status": "OK",
      "delay": "—",
      "metarCat": "VFR",
      "metarRaw": "METAR KHZL 040515Z AUTO 00000KT 7SM BKN050 BKN120 12/11 A3018 RMK AO2",
      "metarObsTime": 1775279700
    }
  }
}