{
  "generatedAt": "2026-03-23T10:50:18.719Z",
  "airports": {
    "KPIT": {
      "status": "OK",
      "delay": "—",
      "metarCat": "IFR",
      "metarRaw": "SPECI KPIT 231041Z 33017KT 3SM -DZ BR OVC005 04/03 A2986 RMK AO2 PK WND 33026/0957 RAE14DZB14 P0000 T00390028",
      "metarObsTime": 1774262460
    },
    "KAGC": {
      "status": "OK",
      "delay": "—",
      "metarCat": "LIFR",
      "metarRaw": "SPECI KAGC 231045Z 33015G24KT 5SM BR BKN004 OVC008 04/03 A2984 RMK AO2 PK WND 32027/1024 RAB24E38 P0000 T00390033",
      "metarObsTime": 1774262700
    },
    "KLBE": {
      "status": "OK",
      "delay": "—",
      "metarCat": "LIFR",
      "metarRaw": "METAR KLBE 231035Z AUTO 27010KT 6SM BR OVC003 08/08 A2981 RMK AO2",
      "metarObsTime": 1774262100
    },
    "KJST": {
      "status": "OK",
      "delay": "—",
      "metarCat": "IFR",
      "metarRaw": "SPECI KJST 231043Z AUTO 31016KT 2 1/2SM -RA BR OVC006 09/08 A2972 RMK AO2 VIS 2V4 RAB20 CIG 002V011 P0000 T00890083",
      "metarObsTime": 1774262580
    },
    "KERI": {
      "status": "OK",
      "delay": "—",
      "metarCat": "MVFR",
      "metarRaw": "METAR KERI 230951Z AUTO 02014G22KT 9SM OVC011 01/M02 A2994 RMK AO2 CIG 008V014 SLP145 T00061017",
      "metarObsTime": 1774259460
    },
    "KDUJ": {
      "status": "OK",
      "delay": "—",
      "metarCat": "LIFR",
      "metarRaw": "SPECI KDUJ 231040Z AUTO 35009KT 3SM BR OVC003 03/03 A2977 RMK AO2 T00330028",
      "metarObsTime": 1774262400
    },
    "KBFD": {
      "status": "OK",
      "delay": "—",
      "metarCat": "LIFR",
      "metarRaw": "SPECI KBFD 231040Z AUTO 02008G15KT 3SM BR OVC003 M02/M02 A2981 RMK AO2 I1001 T10171022 $",
      "metarObsTime": 1774262400
    },
    "KBTP": {
      "status": "OK",
      "delay": "—",
      "metarCat": "IFR",
      "metarRaw": "SPECI KBTP 231039Z AUTO 30014G19KT 3SM BR OVC005 03/ A2986 RMK AO2 $",
      "metarObsTime": 1774262340
    },
    "KFKL": {
      "status": "OK",
      "delay": "—",
      "metarCat": "LIFR",
      "metarRaw": "SPECI KFKL 231029Z AUTO 33012G17KT 3SM UP BR OVC002 01/01 A2985 RMK AO2 P0000 FZRANO",
      "metarObsTime": 1774261740
    },
    "KIDI": {
      "status": "OK",
      "delay": "—",
      "metarCat": "LIFR",
      "metarRaw": "METAR KIDI 231035Z AUTO 34013G18KT 1 1/4SM BR OVC003 07/07 A2978 RMK A01",
      "metarObsTime": 1774262100
    },
    "KMDT": {
      "status": "OK",
      "delay": "—",
      "metarCat": "IFR",
      "metarRaw": "METAR KMDT 230956Z 35003KT 9SM -RA OVC007 12/11 A2967 RMK AO2 SLP048 P0007 T01170111 $",
      "metarObsTime": 1774259760
    },
    "KCXY": {
      "status": "OK",
      "delay": "—",
      "metarCat": "IFR",
      "metarRaw": "SPECI KCXY 231013Z AUTO 34005KT 9SM OVC005 11/11 A2969 RMK AO2 RAE0957 P0000 T01110106",
      "metarObsTime": 1774260780
    },
    "KMUI": {
      "status": "OK",
      "delay": "—",
      "metarCat": "IFR",
      "metarRaw": "SPECI KMUI 231039Z VRB05KT 3SM -RA BR BKN007 OVC010 11/11 A2968 RMK AO2A RAB39 SLP052",
      "metarObsTime": 1774262340
    },
    "KUNV": {
      "status": "OK",
      "delay": "—",
      "metarCat": "IFR",
      "metarRaw": "METAR KUNV 230953Z 04010KT 7SM OVC008 04/04 A2974",
      "metarObsTime": 1774259580
    },
    "KAOO": {
      "status": "OK",
      "delay": "—",
      "metarCat": "MVFR",
      "metarRaw": "SPECI KAOO 231027Z AUTO 33007KT 10SM BKN023 OVC030 12/09 A2970 RMK AO2 T01170094",
      "metarObsTime": 1774261620
    },
    "KLNS": {
      "status": "OK",
      "delay": "—",
      "metarCat": "LIFR",
      "metarRaw": "SPECI KLNS 231017Z 35004KT 4SM -RA BR BKN004 BKN016 OVC048 11/11 A2969 RMK AO2 P0005 T01110106",
      "metarObsTime": 1774261020
    },
    "KIPT": {
      "status": "OK",
      "delay": "—",
      "metarCat": "MVFR",
      "metarRaw": "METAR KIPT 230954Z AUTO 31004KT 10SM OVC022 03/02 A2978 RMK AO2 SLP087 T00330017 $",
      "metarObsTime": 1774259640
    },
    "KPHL": {
      "status": "OK",
      "delay": "—",
      "metarCat": "VFR",
      "metarRaw": "SPECI KPHL 231027Z 07007KT 6SM -RA BR SCT009 OVC075 12/11 A2968 RMK AO2 P0000 T01220106 $",
      "metarObsTime": 1774261620
    },
    "KABE": {
      "status": "OK",
      "delay": "—",
      "metarCat": "MVFR",
      "metarRaw": "SPECI KABE 231034Z 02007KT 10SM SCT007 OVC012 08/07 A2972 RMK AO2 RAE31 P0005 T00830072 $",
      "metarObsTime": 1774262040
    },
    "KAVP": {
      "status": "OK",
      "delay": "—",
      "metarCat": "IFR",
      "metarRaw": "SPECI KAVP 231027Z 02006KT 10SM OVC009 03/02 A2976 RMK AO2 CIG 006V011 T00330022",
      "metarObsTime": 1774261620
    },
    "KHZL": {
      "status": "OK",
      "delay": "—",
      "metarCat": "LIFR",
      "metarRaw": "METAR KHZL 231035Z AUTO 34003KT 1 1/2SM BR OVC003 02/02 A2976 RMK AO2",
      "metarObsTime": 1774262100
    }
  }
}