{
  "generatedAt": "2026-03-12T07:30:11.828Z",
  "airports": {
    "KPIT": {
      "status": "OK",
      "delay": "—",
      "metarCat": "MVFR",
      "metarRaw": "SPECI KPIT 120712Z 30018G28KT 9SM -RASN BKN013 OVC027 03/00 A2988 RMK AO2 PK WND 30028/0710 SNB10 P0000 T00280000 $",
      "metarObsTime": 1773299520
    },
    "KAGC": {
      "status": "OK",
      "delay": "—",
      "metarCat": "VFR",
      "metarRaw": "SPECI KAGC 120727Z 33012G24KT 10SM SCT012 SCT024 OVC043 02/01 A2987 RMK AO2 RAE25UPB25E27 P0001 T00220006",
      "metarObsTime": 1773300420
    },
    "KLBE": {
      "status": "OK",
      "delay": "—",
      "metarCat": "MVFR",
      "metarRaw": "METAR KLBE 120715Z AUTO 29009G19KT 4SM -RA BR BKN010 BKN015 OVC020 04/04 A2987 RMK AO2",
      "metarObsTime": 1773299700
    },
    "KJST": {
      "status": "OK",
      "delay": "—",
      "metarCat": "LIFR",
      "metarRaw": "SPECI KJST 120714Z AUTO 31016KT 10SM -RA OVC003 03/03 A2977 RMK AO2 P0000 T00330028",
      "metarObsTime": 1773299640
    },
    "KERI": {
      "status": "OK",
      "delay": "—",
      "metarCat": "MVFR",
      "metarRaw": "METAR KERI 120651Z AUTO 29013G28KT 10SM BKN022 OVC029 00/M04 A2993 RMK AO2 PK WND 29032/0635 SLP135 T00001039",
      "metarObsTime": 1773298260
    },
    "KDUJ": {
      "status": "OK",
      "delay": "—",
      "metarCat": "MVFR",
      "metarRaw": "METAR KDUJ 120653Z AUTO 30014G26KT 10SM FEW009 SCT019 OVC025 02/M01 A2976 RMK AO2 PK WND 30027/0642 RAE03UPB03E10B28E37 SLP081 P0000 T00171006",
      "metarObsTime": 1773298380
    },
    "KBFD": {
      "status": "OK",
      "delay": "—",
      "metarCat": "IFR",
      "metarRaw": "SPECI KBFD 120721Z AUTO 31012G22KT 1 1/2SM -SN BR BKN009 OVC014 M01/M02 A2974 RMK AO2 P0000 T10061017",
      "metarObsTime": 1773300060
    },
    "KBTP": {
      "status": "OK",
      "delay": "—",
      "metarCat": "IFR",
      "metarRaw": "SPECI KBTP 120723Z AUTO 30012G22KT 3SM -SN BR BKN009 OVC016 01/01 A2990 RMK AO2 RAB06E14SNB14 CIG 006V014 P0000 FZRANO $",
      "metarObsTime": 1773300180
    },
    "KFKL": {
      "status": "OK",
      "delay": "—",
      "metarCat": "IFR",
      "metarRaw": "SPECI KFKL 120724Z AUTO 30011G18KT 1 3/4SM -SN OVC010 A2988 RMK AO2 CIG 007V015 P0000 FZRANO $",
      "metarObsTime": 1773300240
    },
    "KIDI": {
      "status": "OK",
      "delay": "—",
      "metarCat": "—",
      "metarRaw": "—",
      "metarObsTime": null
    },
    "KMDT": {
      "status": "OK",
      "delay": "—",
      "metarCat": "LIFR",
      "metarRaw": "SPECI KMDT 120727Z 32006KT 1/2SM R13/2400V4500FT FG SCT003 BKN043 OVC055 15/15 A2958 RMK AO2 T01500150",
      "metarObsTime": 1773300420
    },
    "KCXY": {
      "status": "OK",
      "delay": "—",
      "metarCat": "IFR",
      "metarRaw": "SPECI KCXY 120716Z AUTO 00000KT 1 1/4SM R08/6000VP6000FT BR SCT002 BKN060 OVC100 16/16 A2959 RMK AO2 T01560156",
      "metarObsTime": 1773299760
    },
    "KMUI": {
      "status": "OK",
      "delay": "—",
      "metarCat": "LIFR",
      "metarRaw": "SPECI KMUI 120720Z AUTO 00000KT 3/8SM FG SCT001 BKN041 BKN048 OVC055 16/16 A2957 RMK AO2 SLP014 RVRNO",
      "metarObsTime": 1773300000
    },
    "KUNV": {
      "status": "OK",
      "delay": "—",
      "metarCat": "MVFR",
      "metarRaw": "METAR KUNV 120715Z AUTO 30015G20KT 10SM BKN020 OVC090 08/05 A2972 RMK AO2 T00810045",
      "metarObsTime": 1773299700
    },
    "KAOO": {
      "status": "OK",
      "delay": "—",
      "metarCat": "MVFR",
      "metarRaw": "METAR KAOO 120653Z AUTO 31010G23KT 10SM -RA BKN018 OVC070 08/06 A2972 RMK AO2 PK WND 32033/0556 WSHFT 0542 RAE0558B24 SLP062 P0000 T00830056",
      "metarObsTime": 1773298380
    },
    "KLNS": {
      "status": "OK",
      "delay": "—",
      "metarCat": "LIFR",
      "metarRaw": "SPECI KLNS 120725Z AUTO 00000KT 1/2SM FG BKN002 BKN090 OVC110 16/16 A2958 RMK AO2 T01560156",
      "metarObsTime": 1773300300
    },
    "KIPT": {
      "status": "OK",
      "delay": "—",
      "metarCat": "VFR",
      "metarRaw": "SPECI KIPT 120721Z AUTO 27017G27KT 10SM SCT022 SCT032 BKN038 14/10 A2962 RMK AO2 PK WND 28028/0656 PRESRR T01440100 $",
      "metarObsTime": 1773300060
    },
    "KPHL": {
      "status": "OK",
      "delay": "—",
      "metarCat": "VFR",
      "metarRaw": "METAR KPHL 120654Z 21004KT 10SM BKN190 17/14 A2959 RMK AO2 SLP020 T01720144 $",
      "metarObsTime": 1773298440
    },
    "KABE": {
      "status": "OK",
      "delay": "—",
      "metarCat": "LIFR",
      "metarRaw": "SPECI KABE 120658Z AUTO 00000KT 1/2SM FG BKN002 BKN060 OVC120 16/16 A2958 RMK AO2 TWR VIS 2 1/2 T01610156 $",
      "metarObsTime": 1773298680
    },
    "KAVP": {
      "status": "OK",
      "delay": "—",
      "metarCat": "VFR",
      "metarRaw": "METAR KAVP 120654Z 22009G18KT 10SM -RA FEW060 OVC095 17/14 A2958 RMK AO2 RAB27 SLP009 P0000 T01670144",
      "metarObsTime": 1773298440
    },
    "KHZL": {
      "status": "OK",
      "delay": "—",
      "metarCat": "VFR",
      "metarRaw": "METAR KHZL 120715Z AUTO 24004KT 10SM -RA SCT050 BKN070 OVC080 16/13 A2962 RMK AO2",
      "metarObsTime": 1773299700
    }
  }
}