{
  "generatedAt": "2026-03-25T20:50:20.869Z",
  "airports": {
    "KPIT": {
      "status": "OK",
      "delay": "—",
      "metarCat": "VFR",
      "metarRaw": "METAR KPIT 251951Z 20008KT 10SM SCT045 OVC100 16/M05 A3004 RMK AO2 SLP184 T01611050",
      "metarObsTime": 1774468260
    },
    "KAGC": {
      "status": "OK",
      "delay": "—",
      "metarCat": "VFR",
      "metarRaw": "METAR KAGC 251953Z 19008KT 140V220 10SM BKN120 16/M03 A3004 RMK AO2 SLP179 T01611033",
      "metarObsTime": 1774468380
    },
    "KLBE": {
      "status": "OK",
      "delay": "—",
      "metarCat": "VFR",
      "metarRaw": "METAR KLBE 251953Z 22010G19KT 10SM FEW046 SCT075 OVC110 17/M02 A3007",
      "metarObsTime": 1774468380
    },
    "KJST": {
      "status": "OK",
      "delay": "—",
      "metarCat": "VFR",
      "metarRaw": "METAR KJST 251954Z AUTO 15009G18KT 10SM CLR 13/M05 A3006 RMK AO2 SLP190 T01331050",
      "metarObsTime": 1774468440
    },
    "KERI": {
      "status": "OK",
      "delay": "—",
      "metarCat": "VFR",
      "metarRaw": "METAR KERI 251951Z 02005KT 10SM SCT110 09/M04 A3003 RMK AO2 SLP174 T00891044",
      "metarObsTime": 1774468260
    },
    "KDUJ": {
      "status": "OK",
      "delay": "—",
      "metarCat": "VFR",
      "metarRaw": "METAR KDUJ 251953Z AUTO 21008G17KT 10SM SCT120 13/M08 A3004 RMK AO2 SLP181 T01331083",
      "metarObsTime": 1774468380
    },
    "KBFD": {
      "status": "OK",
      "delay": "—",
      "metarCat": "VFR",
      "metarRaw": "METAR KBFD 251953Z AUTO 22010G16KT 10SM OVC110 11/M13 A3004 RMK AO2 SLP186 T01061128",
      "metarObsTime": 1774468380
    },
    "KBTP": {
      "status": "OK",
      "delay": "—",
      "metarCat": "VFR",
      "metarRaw": "METAR KBTP 251956Z AUTO 18007KT 10SM SCT100 15/M04 A3006 RMK AO2 SLP189 T01501039 $",
      "metarObsTime": 1774468560
    },
    "KFKL": {
      "status": "OK",
      "delay": "—",
      "metarCat": "VFR",
      "metarRaw": "METAR KFKL 251956Z AUTO 18010KT 10SM FEW075 13/M06 A3004 RMK AO2 SLP183 T01331061",
      "metarObsTime": 1774468560
    },
    "KIDI": {
      "status": "OK",
      "delay": "—",
      "metarCat": "VFR",
      "metarRaw": "METAR KIDI 252035Z AUTO 24009G17KT 10SM CLR 16/M05 A3004 RMK A01",
      "metarObsTime": 1774470900
    },
    "KMDT": {
      "status": "OK",
      "delay": "—",
      "metarCat": "VFR",
      "metarRaw": "METAR KMDT 251956Z 16011KT 10SM FEW050 SCT100 OVC200 13/M01 A3018 RMK AO2 SLP221 T01331006",
      "metarObsTime": 1774468560
    },
    "KCXY": {
      "status": "OK",
      "delay": "—",
      "metarCat": "VFR",
      "metarRaw": "METAR KCXY 251956Z 18016G24KT 10SM CLR 14/M03 A3017 RMK AO2 SLP220 T01441033",
      "metarObsTime": 1774468560
    },
    "KMUI": {
      "status": "OK",
      "delay": "—",
      "metarCat": "VFR",
      "metarRaw": "METAR KMUI 251955Z 17012G17KT 10SM SCT120 BKN200 15/M01 A3016 RMK AO2A SLP219 T01471014",
      "metarObsTime": 1774468500
    },
    "KUNV": {
      "status": "OK",
      "delay": "—",
      "metarCat": "—",
      "metarRaw": "—",
      "metarObsTime": null
    },
    "KAOO": {
      "status": "OK",
      "delay": "—",
      "metarCat": "VFR",
      "metarRaw": "METAR KAOO 251953Z AUTO 20014G22KT 10SM CLR 14/M04 A3011 RMK AO2 SLP202 T01391039",
      "metarObsTime": 1774468380
    },
    "KLNS": {
      "status": "OK",
      "delay": "—",
      "metarCat": "VFR",
      "metarRaw": "METAR KLNS 251953Z 19013G20KT 10SM CLR 12/M03 A3021 RMK AO2 SLP232 T01171033",
      "metarObsTime": 1774468380
    },
    "KIPT": {
      "status": "OK",
      "delay": "—",
      "metarCat": "VFR",
      "metarRaw": "METAR KIPT 251954Z 12008KT 10SM CLR 12/M02 A3014 RMK AO2 SLP210 T01221022 $",
      "metarObsTime": 1774468440
    },
    "KPHL": {
      "status": "OK",
      "delay": "—",
      "metarCat": "VFR",
      "metarRaw": "METAR KPHL 251954Z 20014KT 10SM FEW075 SCT130 BKN210 BKN280 13/M03 A3026 RMK AO2 SLP247 T01281033 $",
      "metarObsTime": 1774468440
    },
    "KABE": {
      "status": "OK",
      "delay": "—",
      "metarCat": "VFR",
      "metarRaw": "METAR KABE 251951Z 20012KT 10SM CLR 13/M03 A3022 RMK AO2 SLP235 T01331028 $",
      "metarObsTime": 1774468260
    },
    "KAVP": {
      "status": "OK",
      "delay": "—",
      "metarCat": "VFR",
      "metarRaw": "METAR KAVP 251954Z 22008G19KT 10SM FEW095 12/M03 A3016 RMK AO2 SLP216 T01221028",
      "metarObsTime": 1774468440
    },
    "KHZL": {
      "status": "OK",
      "delay": "—",
      "metarCat": "VFR",
      "metarRaw": "METAR KHZL 252035Z AUTO 18009G15KT 140V210 10SM SCT110 11/M01 A3017 RMK AO2",
      "metarObsTime": 1774470900
    }
  }
}