{
  "generatedAt": "2026-03-20T18:50:18.618Z",
  "airports": {
    "KPIT": {
      "status": "OK",
      "delay": "—",
      "metarCat": "VFR",
      "metarRaw": "METAR KPIT 201751Z 22012G19KT 7SM -RA SCT050 BKN075 OVC110 14/05 A2982 RMK AO2 PK WND 21031/1709 RAB14 SLP106 P0000 60000 T01440050 10156 20083 58029",
      "metarObsTime": 1774029060
    },
    "KAGC": {
      "status": "OK",
      "delay": "—",
      "metarCat": "VFR",
      "metarRaw": "METAR KAGC 201753Z 21015G27KT 10SM BKN075 OVC085 16/04 A2982 RMK AO2 PK WND 22027/1747 RAB34E50 SLP102 P0000 60000 T01610044 10161 20072 58033",
      "metarObsTime": 1774029180
    },
    "KLBE": {
      "status": "OK",
      "delay": "—",
      "metarCat": "VFR",
      "metarRaw": "METAR KLBE 201747Z 22018G26KT 10SM FEW038 SCT049 OVC090 17/05 A2985",
      "metarObsTime": 1774028820
    },
    "KJST": {
      "status": "OK",
      "delay": "—",
      "metarCat": "VFR",
      "metarRaw": "METAR KJST 201754Z AUTO 23019G32KT 10SM -RA BKN065 OVC085 14/03 A2984 RMK AO2 PK WND 26034/1741 RAB45 SLP106 P0000 60000 T01390028 10150 20072 58029",
      "metarObsTime": 1774029240
    },
    "KERI": {
      "status": "OK",
      "delay": "—",
      "metarCat": "MVFR",
      "metarRaw": "METAR KERI 201751Z 20010KT 3SM -RA BR BKN055 OVC070 10/08 A2973 RMK AO2 SLP071 P0008 60011 T01000083 10133 20078 58015",
      "metarObsTime": 1774029060
    },
    "KDUJ": {
      "status": "OK",
      "delay": "—",
      "metarCat": "VFR",
      "metarRaw": "METAR KDUJ 201753Z AUTO 23013G21KT 10SM -RA BKN060 OVC075 12/04 A2978 RMK AO2 RAE1656B47 SLP088 P0000 60000 T01220044 10133 20050 58030",
      "metarObsTime": 1774029180
    },
    "KBFD": {
      "status": "OK",
      "delay": "—",
      "metarCat": "MVFR",
      "metarRaw": "SPECI KBFD 201832Z AUTO 22007KT 3SM RA BR BKN024 OVC041 08/06 A2975 RMK AO2 P0006 T00780061",
      "metarObsTime": 1774031520
    },
    "KBTP": {
      "status": "OK",
      "delay": "—",
      "metarCat": "VFR",
      "metarRaw": "METAR KBTP 201756Z AUTO 21011G16KT 10SM -RA OVC065 14/06 A2980 RMK AO2 RAB14 SLP102 P0000 60000 T01390061 10150 20067 58033 $",
      "metarObsTime": 1774029360
    },
    "KFKL": {
      "status": "OK",
      "delay": "—",
      "metarCat": "VFR",
      "metarRaw": "METAR KFKL 201756Z AUTO 23006KT 10SM RA BKN041 OVC055 10/08 A2980 RMK AO2 SLP099 P0005 60005 T01000078 10122 20044 56018",
      "metarObsTime": 1774029360
    },
    "KIDI": {
      "status": "OK",
      "delay": "—",
      "metarCat": "VFR",
      "metarRaw": "METAR KIDI 201835Z AUTO 22010G17KT 6SM HZ BKN060 13/07 A2980 RMK A01",
      "metarObsTime": 1774031700
    },
    "KMDT": {
      "status": "OK",
      "delay": "—",
      "metarCat": "VFR",
      "metarRaw": "METAR KMDT 201756Z 21009G23KT 170V230 10SM FEW055 BKN200 19/03 A2985 RMK AO2 SLP110 T01940028 10194 20022 58053",
      "metarObsTime": 1774029360
    },
    "KCXY": {
      "status": "OK",
      "delay": "—",
      "metarCat": "VFR",
      "metarRaw": "METAR KCXY 201756Z 21010G26KT 190V250 10SM CLR 21/03 A2985 RMK AO2 PK WND 17027/1723 PRESFR SLP110 T02060033 10206 20017 58054",
      "metarObsTime": 1774029360
    },
    "KMUI": {
      "status": "OK",
      "delay": "—",
      "metarCat": "VFR",
      "metarRaw": "METAR KMUI 201755Z 18009G14KT 10SM FEW070 SCT140 BKN250 22/07 A2984 RMK AO2A PRESFR SLP108 T02200070 10220 20003 57051",
      "metarObsTime": 1774029300
    },
    "KUNV": {
      "status": "OK",
      "delay": "—",
      "metarCat": "VFR",
      "metarRaw": "METAR KUNV 201753Z 21009G14KT 180V240 10SM -DZ SCT036 SCT050 OVC065 16/04 A2981",
      "metarObsTime": 1774029180
    },
    "KAOO": {
      "status": "OK",
      "delay": "—",
      "metarCat": "VFR",
      "metarRaw": "METAR KAOO 201753Z AUTO 22019G25KT 10SM FEW048 SCT080 BKN095 17/03 A2984 RMK AO2 PK WND 22028/1716 SLP105 T01720028 10178 20028 58037",
      "metarObsTime": 1774029180
    },
    "KLNS": {
      "status": "OK",
      "delay": "—",
      "metarCat": "VFR",
      "metarRaw": "METAR KLNS 201753Z 20015G23KT 10SM CLR 19/04 A2989 RMK AO2 SLP120 T01940039 10194 20006 58046",
      "metarObsTime": 1774029180
    },
    "KIPT": {
      "status": "OK",
      "delay": "—",
      "metarCat": "VFR",
      "metarRaw": "METAR KIPT 201754Z VRB04KT 10SM CLR 12/03 A2981 RMK AO2 SLP096 T01220033 10122 21017 58052 $",
      "metarObsTime": 1774029240
    },
    "KPHL": {
      "status": "OK",
      "delay": "—",
      "metarCat": "VFR",
      "metarRaw": "METAR KPHL 201754Z 18014G23KT 10SM FEW110 FEW200 BKN270 17/03 A2995 RMK AO2 SLP141 T01720033 10183 20039 58042 $",
      "metarObsTime": 1774029240
    },
    "KABE": {
      "status": "OK",
      "delay": "—",
      "metarCat": "VFR",
      "metarRaw": "METAR KABE 201751Z 19012G21KT 10SM BKN100 17/03 A2989 RMK AO2 PRESFR SLP121 T01720033 10172 20006 58048 $",
      "metarObsTime": 1774029060
    },
    "KAVP": {
      "status": "OK",
      "delay": "—",
      "metarCat": "VFR",
      "metarRaw": "SPECI KAVP 201801Z 21011G21KT 10SM SCT049 BKN070 BKN090 15/02 A2982 RMK AO2 T01500022",
      "metarObsTime": 1774029660
    },
    "KHZL": {
      "status": "OK",
      "delay": "—",
      "metarCat": "VFR",
      "metarRaw": "METAR KHZL 201835Z AUTO 17006G15KT 10SM BKN075 BKN090 14/02 A2984 RMK AO2",
      "metarObsTime": 1774031700
    }
  }
}