{
  "generatedAt": "2026-03-23T11:10:22.499Z",
  "airports": {
    "KPIT": {
      "status": "OK",
      "delay": "—",
      "metarCat": "IFR",
      "metarRaw": "METAR KPIT 231051Z 33022G33KT 6SM -DZ BR BKN006 OVC012 03/02 A2988 RMK AO2 PK WND 32033/1048 RAE14DZB14 PRESRR SLP126 P0000 T00330022",
      "metarObsTime": 1774263060
    },
    "KAGC": {
      "status": "OK",
      "delay": "—",
      "metarCat": "IFR",
      "metarRaw": "METAR KAGC 231053Z 32016G28KT 5SM BR SCT004 OVC008 03/03 A2984 RMK AO2 PK WND 32028/1050 RAB24E38 CIG 006V011 SLP113 P0000 T00330028",
      "metarObsTime": 1774263180
    },
    "KLBE": {
      "status": "OK",
      "delay": "—",
      "metarCat": "LIFR",
      "metarRaw": "METAR KLBE 231035Z AUTO 27010KT 6SM BR OVC003 08/08 A2981 RMK AO2",
      "metarObsTime": 1774262100
    },
    "KJST": {
      "status": "OK",
      "delay": "—",
      "metarCat": "LIFR",
      "metarRaw": "METAR KJST 231054Z AUTO 30017KT 2 1/2SM -RA BR OVC004 09/08 A2973 RMK AO2 RAB20 CIG 002V009 SLP066 P0001 T00890083",
      "metarObsTime": 1774263240
    },
    "KERI": {
      "status": "OK",
      "delay": "—",
      "metarCat": "MVFR",
      "metarRaw": "METAR KERI 231051Z 01010KT 8SM BKN010 BKN015 OVC027 01/M02 A2999 RMK AO2 CIG 008V013 SLP161 T00061017",
      "metarObsTime": 1774263060
    },
    "KDUJ": {
      "status": "OK",
      "delay": "—",
      "metarCat": "LIFR",
      "metarRaw": "METAR KDUJ 231053Z AUTO 36011KT 3SM BR OVC004 03/02 A2978 RMK AO2 SLP088 T00330022",
      "metarObsTime": 1774263180
    },
    "KBFD": {
      "status": "OK",
      "delay": "—",
      "metarCat": "LIFR",
      "metarRaw": "METAR KBFD 231053Z AUTO 35011G17KT 3SM BR OVC004 M02/M03 A2982 RMK AO2 SLP108 I1003 T10171028 $",
      "metarObsTime": 1774263180
    },
    "KBTP": {
      "status": "OK",
      "delay": "—",
      "metarCat": "IFR",
      "metarRaw": "METAR KBTP 231056Z AUTO 31009KT 4SM HZ OVC005 03/ A2988 RMK AO2 PRESRR SLP127 T0028 $",
      "metarObsTime": 1774263360
    },
    "KFKL": {
      "status": "OK",
      "delay": "—",
      "metarCat": "LIFR",
      "metarRaw": "METAR KFKL 231056Z AUTO 33010G16KT 5SM UP BR OVC004 01/00 A2988 RMK AO2 CIG 003V008 SLP131 P0000 T00060000 FZRANO",
      "metarObsTime": 1774263360
    },
    "KIDI": {
      "status": "OK",
      "delay": "—",
      "metarCat": "LIFR",
      "metarRaw": "METAR KIDI 231055Z AUTO 34014KT 1 1/2SM BR OVC003 06/06 A2980 RMK A01",
      "metarObsTime": 1774263300
    },
    "KMDT": {
      "status": "OK",
      "delay": "—",
      "metarCat": "IFR",
      "metarRaw": "METAR KMDT 231056Z 36005KT 10SM OVC006 11/11 A2968 RMK AO2 RAE07 CIG 004V008 SLP051 P0000 T01110106 $",
      "metarObsTime": 1774263360
    },
    "KCXY": {
      "status": "OK",
      "delay": "—",
      "metarCat": "IFR",
      "metarRaw": "METAR KCXY 231056Z 33008KT 8SM OVC006 09/09 A2970 RMK AO2 RAE0957 SLP056 P0000 T00940089",
      "metarObsTime": 1774263360
    },
    "KMUI": {
      "status": "OK",
      "delay": "—",
      "metarCat": "IFR",
      "metarRaw": "METAR KMUI 231055Z VRB06KT 2SM -RA BR BKN005 OVC011 10/10 A2968 RMK AO2A RAB39 SLP053 T01030100",
      "metarObsTime": 1774263300
    },
    "KUNV": {
      "status": "OK",
      "delay": "—",
      "metarCat": "LIFR",
      "metarRaw": "METAR KUNV 231053Z 05012KT 6SM -DZ BR OVC004 03/93 A2976",
      "metarObsTime": 1774263180
    },
    "KAOO": {
      "status": "OK",
      "delay": "—",
      "metarCat": "MVFR",
      "metarRaw": "METAR KAOO 231053Z AUTO 33010G15KT 10SM OVC023 12/09 A2971 RMK AO2 SLP058 T01170089",
      "metarObsTime": 1774263180
    },
    "KLNS": {
      "status": "OK",
      "delay": "—",
      "metarCat": "LIFR",
      "metarRaw": "METAR KLNS 231053Z 01008KT 7SM OVC004 11/11 A2968 RMK AO2 RAE31 SLP050 P0005 T01110106",
      "metarObsTime": 1774263180
    },
    "KIPT": {
      "status": "OK",
      "delay": "—",
      "metarCat": "MVFR",
      "metarRaw": "METAR KIPT 231054Z 33005KT 10SM OVC017 03/01 A2980 RMK AO2 SLP093 T00280006 $",
      "metarObsTime": 1774263240
    },
    "KPHL": {
      "status": "OK",
      "delay": "—",
      "metarCat": "VFR",
      "metarRaw": "METAR KPHL 231054Z 09005KT 6SM -RA BR SCT009 OVC085 12/10 A2969 RMK AO2 PRESRR SLP054 P0000 T01170100 $",
      "metarObsTime": 1774263240
    },
    "KABE": {
      "status": "OK",
      "delay": "—",
      "metarCat": "MVFR",
      "metarRaw": "METAR KABE 231051Z 02009KT 10SM -RA OVC014 08/07 A2973 RMK AO2 RAE31B51 SLP066 P0005 T00830067 $",
      "metarObsTime": 1774263060
    },
    "KAVP": {
      "status": "OK",
      "delay": "—",
      "metarCat": "IFR",
      "metarRaw": "METAR KAVP 231054Z 01007KT 10SM OVC008 03/02 A2978 RMK AO2 CIG 006V011 SLP085 T00280017",
      "metarObsTime": 1774263240
    },
    "KHZL": {
      "status": "OK",
      "delay": "—",
      "metarCat": "LIFR",
      "metarRaw": "METAR KHZL 231055Z AUTO 34005KT 1/2SM FG OVC003 02/01 A2977 RMK AO2",
      "metarObsTime": 1774263300
    }
  }
}