{
  "generatedAt": "2026-04-08T13:00:48.547Z",
  "airports": {
    "KPIT": {
      "status": "OK",
      "delay": "—",
      "metarCat": "VFR",
      "metarRaw": "METAR KPIT 081251Z 09006KT 10SM FEW250 M01/M09 A3047 RMK AO2 SLP338 T10061089",
      "metarObsTime": 1775652660
    },
    "KAGC": {
      "status": "OK",
      "delay": "—",
      "metarCat": "VFR",
      "metarRaw": "METAR KAGC 081253Z 00000KT 9SM CLR 00/M09 A3046 RMK AO2 SLP334 T00001089",
      "metarObsTime": 1775652780
    },
    "KLBE": {
      "status": "OK",
      "delay": "—",
      "metarCat": "VFR",
      "metarRaw": "METAR KLBE 081247Z 00000KT 10SM CLR 01/M07 A3050",
      "metarObsTime": 1775652420
    },
    "KJST": {
      "status": "OK",
      "delay": "—",
      "metarCat": "VFR",
      "metarRaw": "METAR KJST 081254Z AUTO 00000KT 10SM CLR M02/M11 A3044 RMK AO2 SLP337 T10171111 $",
      "metarObsTime": 1775652840
    },
    "KERI": {
      "status": "OK",
      "delay": "—",
      "metarCat": "VFR",
      "metarRaw": "METAR KERI 081251Z 14006KT 10SM CLR 00/M08 A3052 RMK AO2 SLP344 T00001083 $",
      "metarObsTime": 1775652660
    },
    "KDUJ": {
      "status": "OK",
      "delay": "—",
      "metarCat": "VFR",
      "metarRaw": "METAR KDUJ 081253Z AUTO 11008KT 10SM CLR M03/M10 A3046 RMK AO2 SLP339 T10281100",
      "metarObsTime": 1775652780
    },
    "KBFD": {
      "status": "OK",
      "delay": "—",
      "metarCat": "VFR",
      "metarRaw": "METAR KBFD 081253Z AUTO 13005KT 10SM CLR M05/M09 A3046 RMK AO2 SLP345 T10501094",
      "metarObsTime": 1775652780
    },
    "KBTP": {
      "status": "OK",
      "delay": "—",
      "metarCat": "VFR",
      "metarRaw": "METAR KBTP 081256Z AUTO 09007KT 10SM CLR M01/M08 A3049 RMK AO2 SLP346 T10061078 FZRANO $",
      "metarObsTime": 1775652960
    },
    "KFKL": {
      "status": "OK",
      "delay": "—",
      "metarCat": "VFR",
      "metarRaw": "METAR KFKL 081256Z AUTO 11006KT 10SM CLR M02/M08 A3049 RMK AO2 SLP346 T10221078 FZRANO",
      "metarObsTime": 1775652960
    },
    "KIDI": {
      "status": "OK",
      "delay": "—",
      "metarCat": "VFR",
      "metarRaw": "METAR KIDI 081255Z AUTO 09007KT 10SM CLR 00/M07 A3049 RMK A01",
      "metarObsTime": 1775652900
    },
    "KMDT": {
      "status": "OK",
      "delay": "—",
      "metarCat": "VFR",
      "metarRaw": "METAR KMDT 081256Z VRB04KT 10SM FEW250 01/M11 A3061 RMK AO2 SLP368 T00111106 $",
      "metarObsTime": 1775652960
    },
    "KCXY": {
      "status": "OK",
      "delay": "—",
      "metarCat": "VFR",
      "metarRaw": "METAR KCXY 081256Z 09007KT 10SM CLR 01/M11 A3061 RMK AO2 SLP370 T00111111 $",
      "metarObsTime": 1775652960
    },
    "KMUI": {
      "status": "OK",
      "delay": "—",
      "metarCat": "VFR",
      "metarRaw": "METAR KMUI 081155Z 07003KT 10SM FEW250 M00/M09 A3057 RMK AO2A SLP360 T10031090 10008 21022 52021",
      "metarObsTime": 1775649300
    },
    "KUNV": {
      "status": "OK",
      "delay": "—",
      "metarCat": "VFR",
      "metarRaw": "METAR KUNV 081253Z 02006KT 10SM CLR M02/M09 A3055",
      "metarObsTime": 1775652780
    },
    "KAOO": {
      "status": "OK",
      "delay": "—",
      "metarCat": "VFR",
      "metarRaw": "METAR KAOO 081253Z AUTO 07004KT 10SM CLR M02/M09 A3053 RMK AO2 SLP359 T10221094 $",
      "metarObsTime": 1775652780
    },
    "KLNS": {
      "status": "OK",
      "delay": "—",
      "metarCat": "VFR",
      "metarRaw": "METAR KLNS 081253Z 06007KT 10SM CLR 01/M09 A3061 RMK AO2 SLP368 T00061094",
      "metarObsTime": 1775652780
    },
    "KIPT": {
      "status": "OK",
      "delay": "—",
      "metarCat": "VFR",
      "metarRaw": "METAR KIPT 081254Z 00000KT 10SM CLR M02/M09 A3059 RMK AO2 SLP367 T10171089",
      "metarObsTime": 1775652840
    },
    "KPHL": {
      "status": "OK",
      "delay": "—",
      "metarCat": "VFR",
      "metarRaw": "METAR KPHL 081254Z 03012KT 10SM FEW300 02/M09 A3063 RMK AO2 SLP372 T00221094",
      "metarObsTime": 1775652840
    },
    "KABE": {
      "status": "OK",
      "delay": "—",
      "metarCat": "VFR",
      "metarRaw": "METAR KABE 081251Z 05008KT 10SM CLR 01/M11 A3061 RMK AO2 SLP369 T00061111 $",
      "metarObsTime": 1775652660
    },
    "KAVP": {
      "status": "OK",
      "delay": "—",
      "metarCat": "VFR",
      "metarRaw": "METAR KAVP 081254Z AUTO 03010KT 10SM CLR M02/M11 A3058 RMK AO2 SLP365 T10171111",
      "metarObsTime": 1775652840
    },
    "KHZL": {
      "status": "OK",
      "delay": "—",
      "metarCat": "VFR",
      "metarRaw": "METAR KHZL 081255Z AUTO 06004KT 10SM CLR M01/M12 A3056 RMK AO2",
      "metarObsTime": 1775652900
    }
  }
}