{
  "generatedAt": "2026-03-30T03:50:27.976Z",
  "airports": {
    "KPIT": {
      "status": "OK",
      "delay": "—",
      "metarCat": "VFR",
      "metarRaw": "METAR KPIT 300251Z 17003KT 10SM FEW090 BKN110 14/M04 A3018 RMK AO2 SLP228 T01391039 55009",
      "metarObsTime": 1774839060
    },
    "KAGC": {
      "status": "OK",
      "delay": "—",
      "metarCat": "VFR",
      "metarRaw": "METAR KAGC 300253Z 17006KT 10SM BKN110 14/M04 A3018 RMK AO2 SLP226 T01391044 56009",
      "metarObsTime": 1774839180
    },
    "KLBE": {
      "status": "OK",
      "delay": "—",
      "metarCat": "VFR",
      "metarRaw": "METAR KLBE 300335Z AUTO 00000KT 10SM FEW120 10/01 A3020 RMK AO2",
      "metarObsTime": 1774841700
    },
    "KJST": {
      "status": "OK",
      "delay": "—",
      "metarCat": "VFR",
      "metarRaw": "METAR KJST 300254Z AUTO 19004KT 10SM FEW110 11/M04 A3020 RMK AO2 SLP237 T01061044 56008",
      "metarObsTime": 1774839240
    },
    "KERI": {
      "status": "OK",
      "delay": "—",
      "metarCat": "VFR",
      "metarRaw": "METAR KERI 300251Z 00000KT 10SM FEW120 07/M04 A3015 RMK AO2 SLP212 T00671044 58012 $",
      "metarObsTime": 1774839060
    },
    "KDUJ": {
      "status": "OK",
      "delay": "—",
      "metarCat": "VFR",
      "metarRaw": "METAR KDUJ 300253Z AUTO 00000KT 10SM CLR 10/M08 A3018 RMK AO2 SLP228 T01001078 56007",
      "metarObsTime": 1774839180
    },
    "KBFD": {
      "status": "OK",
      "delay": "—",
      "metarCat": "VFR",
      "metarRaw": "METAR KBFD 300253Z AUTO 00000KT 10SM BKN110 04/M08 A3018 RMK AO2 SLP232 T00391083 58007",
      "metarObsTime": 1774839180
    },
    "KBTP": {
      "status": "OK",
      "delay": "—",
      "metarCat": "VFR",
      "metarRaw": "METAR KBTP 300256Z AUTO 00000KT 10SM OVC120 11/M01 A3020 RMK AO2 SLP234 T01061006 55003 $",
      "metarObsTime": 1774839360
    },
    "KFKL": {
      "status": "OK",
      "delay": "—",
      "metarCat": "VFR",
      "metarRaw": "METAR KFKL 300256Z AUTO 15003KT 10SM OVC120 08/M04 A3019 RMK AO2 SLP231 T00831039 58004",
      "metarObsTime": 1774839360
    },
    "KIDI": {
      "status": "OK",
      "delay": "—",
      "metarCat": "VFR",
      "metarRaw": "METAR KIDI 300335Z AUTO 15006KT 10SM FEW065 BKN110 08/M02 A3018 RMK A01",
      "metarObsTime": 1774841700
    },
    "KMDT": {
      "status": "OK",
      "delay": "—",
      "metarCat": "VFR",
      "metarRaw": "METAR KMDT 300256Z 10007KT 10SM FEW150 08/00 A3030 RMK AO2 SLP263 T00830000 58002",
      "metarObsTime": 1774839360
    },
    "KCXY": {
      "status": "OK",
      "delay": "—",
      "metarCat": "VFR",
      "metarRaw": "METAR KCXY 300256Z AUTO 09006KT 10SM CLR 09/00 A3031 RMK AO2 SLP265 T00890000 55001",
      "metarObsTime": 1774839360
    },
    "KMUI": {
      "status": "OK",
      "delay": "—",
      "metarCat": "VFR",
      "metarRaw": "METAR KMUI 300255Z AUTO 00000KT 10SM CLR 07/01 A3030 RMK AO2 SLP266 T00650008 58001",
      "metarObsTime": 1774839300
    },
    "KUNV": {
      "status": "OK",
      "delay": "—",
      "metarCat": "VFR",
      "metarRaw": "METAR KUNV 300335Z AUTO 20004KT 10SM CLR 10/M03 A3022 RMK AO2 T01001027",
      "metarObsTime": 1774841700
    },
    "KAOO": {
      "status": "OK",
      "delay": "—",
      "metarCat": "VFR",
      "metarRaw": "METAR KAOO 300253Z AUTO 22003KT 10SM CLR 09/M03 A3023 RMK AO2 SLP242 T00941033 58004 $",
      "metarObsTime": 1774839180
    },
    "KLNS": {
      "status": "OK",
      "delay": "—",
      "metarCat": "VFR",
      "metarRaw": "METAR KLNS 300253Z 13007KT 10SM CLR 06/00 A3032 RMK AO2 SLP269 T00610000 58006",
      "metarObsTime": 1774839180
    },
    "KIPT": {
      "status": "OK",
      "delay": "—",
      "metarCat": "VFR",
      "metarRaw": "METAR KIPT 300254Z AUTO 15014G26KT 10SM CLR 12/M03 A3024 RMK AO2 PK WND 17027/0209 SLP241 T01221028 50001 $",
      "metarObsTime": 1774839240
    },
    "KPHL": {
      "status": "OK",
      "delay": "—",
      "metarCat": "VFR",
      "metarRaw": "METAR KPHL 300254Z 18005KT 10SM OVC140 09/01 A3039 RMK AO2 SLP291 T00940011 58001 $",
      "metarObsTime": 1774839240
    },
    "KABE": {
      "status": "OK",
      "delay": "—",
      "metarCat": "VFR",
      "metarRaw": "METAR KABE 300251Z 20010G18KT 10SM CLR 09/M03 A3034 RMK AO2 SLP275 T00941028 55004 $",
      "metarObsTime": 1774839060
    },
    "KAVP": {
      "status": "OK",
      "delay": "—",
      "metarCat": "VFR",
      "metarRaw": "METAR KAVP 300254Z AUTO 24004KT 10SM CLR 08/M03 A3028 RMK AO2 SLP258 T00831033 55004",
      "metarObsTime": 1774839240
    },
    "KHZL": {
      "status": "OK",
      "delay": "—",
      "metarCat": "VFR",
      "metarRaw": "METAR KHZL 300335Z AUTO 16006G14KT 120V200 10SM CLR 07/M02 A3030 RMK AO2",
      "metarObsTime": 1774841700
    }
  }
}