{
  "generatedAt": "2026-03-05T13:30:18.655Z",
  "airports": {
    "KPIT": {
      "status": "OK",
      "delay": "—",
      "metarCat": "MVFR",
      "metarRaw": "METAR KPIT 051251Z 20004KT 3SM -RA BR SCT007 BKN014 OVC070 12/12 A3006 RMK AO2 RAB29 SLP188 P0002 T01220117 $",
      "metarObsTime": 1772715060
    },
    "KAGC": {
      "status": "OK",
      "delay": "—",
      "metarCat": "IFR",
      "metarRaw": "SPECI KAGC 051313Z 20009KT 2SM -RA BR BKN009 OVC080 13/13 A3007 RMK AO2 P0003 T01280128",
      "metarObsTime": 1772716380
    },
    "KLBE": {
      "status": "OK",
      "delay": "—",
      "metarCat": "MVFR",
      "metarRaw": "METAR KLBE 051247Z 21010KT 6SM BR BKN025 OVC040 13/13 A3009",
      "metarObsTime": 1772714820
    },
    "KJST": {
      "status": "OK",
      "delay": "—",
      "metarCat": "IFR",
      "metarRaw": "SPECI KJST 051323Z AUTO 21006KT 10SM OVC008 12/11 A3009 RMK AO2 T01170111",
      "metarObsTime": 1772716980
    },
    "KERI": {
      "status": "OK",
      "delay": "—",
      "metarCat": "LIFR",
      "metarRaw": "SPECI KERI 051321Z 06006KT 3/4SM R06/5500FT -RA BR SCT003 OVC008 02/02 A3009 RMK AO2 RAB16 P0001 T00220017",
      "metarObsTime": 1772716860
    },
    "KDUJ": {
      "status": "OK",
      "delay": "—",
      "metarCat": "LIFR",
      "metarRaw": "SPECI KDUJ 051326Z AUTO 09004KT 1SM BR VV003 06/06 A3009 RMK AO2 T00610061",
      "metarObsTime": 1772717160
    },
    "KBFD": {
      "status": "OK",
      "delay": "—",
      "metarCat": "IFR",
      "metarRaw": "SPECI KBFD 051301Z AUTO 11004KT 1 1/4SM -RA BR BKN005 OVC009 05/04 A3009 RMK AO2 P0001 T00500044",
      "metarObsTime": 1772715660
    },
    "KBTP": {
      "status": "OK",
      "delay": "—",
      "metarCat": "LIFR",
      "metarRaw": "SPECI KBTP 051313Z AUTO VRB03KT 2 1/2SM BR OVC003 12/12 A3008 RMK AO2 VIS 1 3/4V4 CIG 002V006 $",
      "metarObsTime": 1772716380
    },
    "KFKL": {
      "status": "OK",
      "delay": "—",
      "metarCat": "LIFR",
      "metarRaw": "SPECI KFKL 051314Z AUTO 00000KT 1 1/2SM -RA BR OVC003 08/08 A3008 RMK AO2 RAB01 P0001",
      "metarObsTime": 1772716440
    },
    "KIDI": {
      "status": "OK",
      "delay": "—",
      "metarCat": "MVFR",
      "metarRaw": "METAR KIDI 051315Z AUTO 00000KT 5SM BR OVC011 10/10 A3008 RMK A01",
      "metarObsTime": 1772716500
    },
    "KMDT": {
      "status": "OK",
      "delay": "—",
      "metarCat": "LIFR",
      "metarRaw": "SPECI KMDT 051317Z 15003KT 1/4SM R13/2200V2800FT FG VV003 06/06 A3018 RMK AO2 TWR VIS 1/2 T00560056",
      "metarObsTime": 1772716620
    },
    "KCXY": {
      "status": "OK",
      "delay": "—",
      "metarCat": "LIFR",
      "metarRaw": "SPECI KCXY 051317Z 11005KT 1/2SM R08/1800V3500FT -RA FG VV003 06/06 A3018 RMK AO2 P0000 T00610061",
      "metarObsTime": 1772716620
    },
    "KMUI": {
      "status": "OK",
      "delay": "—",
      "metarCat": "LIFR",
      "metarRaw": "SPECI KMUI 051314Z 00000KT 2SM BR OVC003 07/06 A3016 RMK AO2A RAE14 SLP219",
      "metarObsTime": 1772716440
    },
    "KUNV": {
      "status": "OK",
      "delay": "—",
      "metarCat": "LIFR",
      "metarRaw": "SPECI KUNV 051302Z 00000KT 1/2SM R24/P6000FT -RA FG OVC003 04/04 A3014",
      "metarObsTime": 1772715720
    },
    "KAOO": {
      "status": "OK",
      "delay": "—",
      "metarCat": "IFR",
      "metarRaw": "METAR KAOO 051253Z AUTO 00000KT 4SM BR OVC007 05/05 A3012 RMK AO2 SLP210 T00500050",
      "metarObsTime": 1772715180
    },
    "KLNS": {
      "status": "OK",
      "delay": "—",
      "metarCat": "LIFR",
      "metarRaw": "SPECI KLNS 051325Z 11004KT 2 1/2SM BR OVC004 06/06 A3019 RMK AO2 T00610061",
      "metarObsTime": 1772717100
    },
    "KIPT": {
      "status": "OK",
      "delay": "—",
      "metarCat": "LIFR",
      "metarRaw": "SPECI KIPT 051322Z 00000KT 2SM -RA BR OVC003 04/04 A3017 RMK AO2 RAB15 P0001 T00440044 $",
      "metarObsTime": 1772716920
    },
    "KPHL": {
      "status": "OK",
      "delay": "—",
      "metarCat": "IFR",
      "metarRaw": "SPECI KPHL 051324Z 05004KT 2 1/2SM RA BR OVC008 07/05 A3021 RMK AO2 P0005 T00720050 $",
      "metarObsTime": 1772717040
    },
    "KABE": {
      "status": "OK",
      "delay": "—",
      "metarCat": "MVFR",
      "metarRaw": "SPECI KABE 051319Z 08003KT 3SM RA BR FEW004 OVC013 06/06 A3021 RMK AO2 P0008 T00560056",
      "metarObsTime": 1772716740
    },
    "KAVP": {
      "status": "OK",
      "delay": "—",
      "metarCat": "IFR",
      "metarRaw": "SPECI KAVP 051322Z AUTO 06003KT 2SM -RA BR OVC016 06/05 A3015 RMK AO2 P0002 T00560050",
      "metarObsTime": 1772716920
    },
    "KHZL": {
      "status": "OK",
      "delay": "—",
      "metarCat": "MVFR",
      "metarRaw": "METAR KHZL 051315Z AUTO 14003KT 7SM -RA SCT004 OVC018 05/05 A3017 RMK AO2",
      "metarObsTime": 1772716500
    }
  }
}