{
  "generatedAt": "2026-03-07T02:10:11.516Z",
  "airports": {
    "KPIT": {
      "status": "OK",
      "delay": "—",
      "metarCat": "VFR",
      "metarRaw": "METAR KPIT 070151Z 15004KT 10SM FEW070 FEW110 BKN250 17/14 A3011 RMK AO2 SLP201 T01720139",
      "metarObsTime": 1772848260
    },
    "KAGC": {
      "status": "OK",
      "delay": "—",
      "metarCat": "VFR",
      "metarRaw": "METAR KAGC 070153Z 16006KT 10SM CLR 17/14 A3012 RMK AO2 SLP202 T01720139",
      "metarObsTime": 1772848380
    },
    "KLBE": {
      "status": "OK",
      "delay": "—",
      "metarCat": "VFR",
      "metarRaw": "METAR KLBE 070153Z 00000KT 10SM CLR 19/14 A3016",
      "metarObsTime": 1772848380
    },
    "KJST": {
      "status": "OK",
      "delay": "—",
      "metarCat": "VFR",
      "metarRaw": "METAR KJST 070154Z AUTO 14008KT 10SM CLR 12/11 A3020 RMK AO2 SLP227 T01220106",
      "metarObsTime": 1772848440
    },
    "KERI": {
      "status": "OK",
      "delay": "—",
      "metarCat": "VFR",
      "metarRaw": "METAR KERI 070151Z 17012G20KT 10SM BKN095 18/13 A3002 RMK AO2 SLP169 T01830128 $",
      "metarObsTime": 1772848260
    },
    "KDUJ": {
      "status": "OK",
      "delay": "—",
      "metarCat": "VFR",
      "metarRaw": "METAR KDUJ 070153Z AUTO 12009KT 10SM CLR 12/10 A3016 RMK AO2 SLP214 T01220100",
      "metarObsTime": 1772848380
    },
    "KBFD": {
      "status": "OK",
      "delay": "—",
      "metarCat": "VFR",
      "metarRaw": "METAR KBFD 070153Z AUTO 14008KT 10SM CLR 12/09 A3015 RMK AO2 SLP209 T01170094",
      "metarObsTime": 1772848380
    },
    "KBTP": {
      "status": "OK",
      "delay": "—",
      "metarCat": "VFR",
      "metarRaw": "METAR KBTP 070156Z AUTO 15006KT 10SM CLR 17/14 A3013 RMK AO2 SLP208 T01670144 $",
      "metarObsTime": 1772848560
    },
    "KFKL": {
      "status": "OK",
      "delay": "—",
      "metarCat": "VFR",
      "metarRaw": "METAR KFKL 070156Z AUTO 15009KT 10SM CLR 16/13 A3011 RMK AO2 SLP197 T01610128",
      "metarObsTime": 1772848560
    },
    "KIDI": {
      "status": "OK",
      "delay": "—",
      "metarCat": "VFR",
      "metarRaw": "METAR KIDI 070155Z AUTO 14007KT 10SM FEW037 SCT048 SCT055 14/13 A3017 RMK A01",
      "metarObsTime": 1772848500
    },
    "KMDT": {
      "status": "OK",
      "delay": "—",
      "metarCat": "LIFR",
      "metarRaw": "METAR KMDT 070156Z 12006KT 1 1/2SM BR OVC004 05/05 A3037 RMK AO2 TWR VIS 2 SLP286 T00500050",
      "metarObsTime": 1772848560
    },
    "KCXY": {
      "status": "OK",
      "delay": "—",
      "metarCat": "LIFR",
      "metarRaw": "METAR KCXY 070156Z 11006KT 1 1/2SM BR OVC004 05/04 A3037 RMK AO2 SLP288 T00500044",
      "metarObsTime": 1772848560
    },
    "KMUI": {
      "status": "OK",
      "delay": "—",
      "metarCat": "LIFR",
      "metarRaw": "METAR KMUI 070155Z AUTO 08005KT 1 7/8SM BR OVC004 05/05 A3036 RMK AO2 SLP287 T00510048",
      "metarObsTime": 1772848500
    },
    "KUNV": {
      "status": "OK",
      "delay": "—",
      "metarCat": "IFR",
      "metarRaw": "METAR KUNV 070153Z 00000KT 3SM BR OVC005 06/06 A3027",
      "metarObsTime": 1772848380
    },
    "KAOO": {
      "status": "OK",
      "delay": "—",
      "metarCat": "LIFR",
      "metarRaw": "SPECI KAOO 070205Z AUTO 14007KT 1 1/2SM BR OVC002 09/08 A3026 RMK AO2 T00890083",
      "metarObsTime": 1772849100
    },
    "KLNS": {
      "status": "OK",
      "delay": "—",
      "metarCat": "IFR",
      "metarRaw": "METAR KLNS 070153Z 11006KT 2SM BR OVC005 05/04 A3037 RMK AO2 SLP288 T00500044",
      "metarObsTime": 1772848380
    },
    "KIPT": {
      "status": "OK",
      "delay": "—",
      "metarCat": "IFR",
      "metarRaw": "METAR KIPT 070154Z 08011G22KT 5SM BR OVC008 06/04 A3032 RMK AO2 SLP271 T00560039",
      "metarObsTime": 1772848440
    },
    "KPHL": {
      "status": "OK",
      "delay": "—",
      "metarCat": "MVFR",
      "metarRaw": "METAR KPHL 070154Z 09007KT 10SM OVC011 06/03 A3041 RMK AO2 SLP298 T00560028 $",
      "metarObsTime": 1772848440
    },
    "KABE": {
      "status": "OK",
      "delay": "—",
      "metarCat": "IFR",
      "metarRaw": "METAR KABE 070151Z 12007KT 8SM BKN008 OVC014 04/03 A3040 RMK AO2 SLP296 T00440028",
      "metarObsTime": 1772848260
    },
    "KAVP": {
      "status": "OK",
      "delay": "—",
      "metarCat": "MVFR",
      "metarRaw": "METAR KAVP 070154Z 09003KT 10SM OVC013 04/02 A3034 RMK AO2 SLP279 T00390017",
      "metarObsTime": 1772848440
    },
    "KHZL": {
      "status": "OK",
      "delay": "—",
      "metarCat": "LIFR",
      "metarRaw": "METAR KHZL 070155Z AUTO 14004KT 1/4SM FG OVC002 02/02 A3035 RMK AO2",
      "metarObsTime": 1772848500
    }
  }
}