{
  "generatedAt": "2026-03-08T09:50:14.112Z",
  "airports": {
    "KPIT": {
      "status": "OK",
      "delay": "—",
      "metarCat": "MVFR",
      "metarRaw": "METAR KPIT 080851Z 22010KT 10SM BKN022 OVC029 14/12 A2981 RMK AO2 SLP097 T01440117 57010 $",
      "metarObsTime": 1772959860
    },
    "KAGC": {
      "status": "OK",
      "delay": "—",
      "metarCat": "VFR",
      "metarRaw": "METAR KAGC 080853Z 23010KT 10SM SCT022 SCT055 14/11 A2982 RMK AO2 SLP096 60000 T01390111 56010",
      "metarObsTime": 1772959980
    },
    "KLBE": {
      "status": "OK",
      "delay": "—",
      "metarCat": "MVFR",
      "metarRaw": "METAR KLBE 080935Z AUTO 20011KT 10SM SCT021 BKN028 BKN065 14/13 A2985 RMK AO2",
      "metarObsTime": 1772962500
    },
    "KJST": {
      "status": "OK",
      "delay": "—",
      "metarCat": "MVFR",
      "metarRaw": "SPECI KJST 080942Z AUTO 24015G21KT 10SM -RA BKN014 OVC020 12/10 A2982 RMK AO2 RAB39 P0000 T01220100",
      "metarObsTime": 1772962920
    },
    "KERI": {
      "status": "OK",
      "delay": "—",
      "metarCat": "IFR",
      "metarRaw": "SPECI KERI 080930Z AUTO 26011KT 10SM OVC008 06/03 A2984 RMK AO2 T00560033",
      "metarObsTime": 1772962200
    },
    "KDUJ": {
      "status": "OK",
      "delay": "—",
      "metarCat": "MVFR",
      "metarRaw": "SPECI KDUJ 080914Z AUTO 30015G25KT 10SM -RA SCT017 BKN026 BKN047 11/09 A2977 RMK AO2 PK WND 24028/0857 WSHFT 0900 RAB07 P0000 T01110089",
      "metarObsTime": 1772961240
    },
    "KBFD": {
      "status": "OK",
      "delay": "—",
      "metarCat": "MVFR",
      "metarRaw": "SPECI KBFD 080909Z AUTO 27015G29KT 10SM BKN016 OVC022 09/06 A2977 RMK AO2 PK WND 28029/0906 T00890061",
      "metarObsTime": 1772960940
    },
    "KBTP": {
      "status": "OK",
      "delay": "—",
      "metarCat": "VFR",
      "metarRaw": "SPECI KBTP 080932Z AUTO 30008G15KT 10SM SCT028 SCT038 BKN050 11/09 A2984 RMK AO2 WSHFT 0851 RAE17 P0000 $",
      "metarObsTime": 1772962320
    },
    "KFKL": {
      "status": "OK",
      "delay": "—",
      "metarCat": "MVFR",
      "metarRaw": "SPECI KFKL 080927Z AUTO 29008G16KT 10SM OVC016 08/06 A2983 RMK AO2",
      "metarObsTime": 1772962020
    },
    "KIDI": {
      "status": "OK",
      "delay": "—",
      "metarCat": "MVFR",
      "metarRaw": "METAR KIDI 080935Z AUTO 24012KT 10SM BKN018 OVC022 14/12 A2982 RMK A01",
      "metarObsTime": 1772962500
    },
    "KMDT": {
      "status": "OK",
      "delay": "—",
      "metarCat": "LIFR",
      "metarRaw": "SPECI KMDT 080929Z 00000KT 1/4SM R13/2000V2600FT FG VV002 07/07 A2980 RMK AO2 TWR VIS 1 T00720072",
      "metarObsTime": 1772962140
    },
    "KCXY": {
      "status": "OK",
      "delay": "—",
      "metarCat": "LIFR",
      "metarRaw": "SPECI KCXY 080925Z AUTO 00000KT 1/2SM R08/1600VP6000FT FG VV004 08/08 A2981 RMK AO2 T00780078",
      "metarObsTime": 1772961900
    },
    "KMUI": {
      "status": "OK",
      "delay": "—",
      "metarCat": "LIFR",
      "metarRaw": "METAR KMUI 080855Z AUTO 00000KT 1/4SM FG VV001 09/08 A2978 RMK AO2 SLP089 60000 T00860083 57012 RVRNO",
      "metarObsTime": 1772960100
    },
    "KUNV": {
      "status": "OK",
      "delay": "—",
      "metarCat": "MVFR",
      "metarRaw": "METAR KUNV 080935Z AUTO 23011G16KT 10SM BKN029 OVC065 14/11 A2978 RMK AO2 T01440106",
      "metarObsTime": 1772962500
    },
    "KAOO": {
      "status": "OK",
      "delay": "—",
      "metarCat": "—",
      "metarRaw": "—",
      "metarObsTime": null
    },
    "KLNS": {
      "status": "OK",
      "delay": "—",
      "metarCat": "LIFR",
      "metarRaw": "SPECI KLNS 080936Z AUTO 00000KT 1SM BR OVC003 08/08 A2980 RMK AO2 T00830078",
      "metarObsTime": 1772962560
    },
    "KIPT": {
      "status": "OK",
      "delay": "—",
      "metarCat": "LIFR",
      "metarRaw": "METAR KIPT 080854Z AUTO 24003KT 1/4SM FG VV002 07/07 A2975 RMK AO2 SLP077 T00720072 58012",
      "metarObsTime": 1772960040
    },
    "KPHL": {
      "status": "OK",
      "delay": "—",
      "metarCat": "LIFR",
      "metarRaw": "SPECI KPHL 080930Z 22003KT 1/2SM FG VV003 09/08 A2981 RMK AO2 T00940083 RVRNO $",
      "metarObsTime": 1772962200
    },
    "KABE": {
      "status": "OK",
      "delay": "—",
      "metarCat": "IFR",
      "metarRaw": "SPECI KABE 080939Z 00000KT 2 1/2SM BR SCT006 BKN095 08/08 A2978 RMK AO2 T00780078",
      "metarObsTime": 1772962740
    },
    "KAVP": {
      "status": "OK",
      "delay": "—",
      "metarCat": "LIFR",
      "metarRaw": "SPECI KAVP 080940Z AUTO 29004KT 1/4SM R04/1600V2200FT FG VV002 09/09 A2976 RMK AO2 T00940089",
      "metarObsTime": 1772962800
    },
    "KHZL": {
      "status": "OK",
      "delay": "—",
      "metarCat": "VFR",
      "metarRaw": "METAR KHZL 080935Z AUTO 00000KT 10SM SCT042 BKN050 BKN085 13/11 A2980 RMK AO2",
      "metarObsTime": 1772962500
    }
  }
}