{
  "generatedAt": "2026-04-03T19:20:51.009Z",
  "airports": {
    "KPIT": {
      "status": "OK",
      "delay": "—",
      "metarCat": "VFR",
      "metarRaw": "METAR KPIT 031451Z 22013G32KT 10SM FEW038 SCT055 BKN100 OVC250 21/14 A3012 RMK AO2 PK WND 22032/1443 RAE27 SLP200 P0000 60003 T02110139 51002",
      "metarObsTime": 1775227860
    },
    "KAGC": {
      "status": "OK",
      "delay": "—",
      "metarCat": "VFR",
      "metarRaw": "METAR KAGC 031453Z 21020G29KT 10SM SCT043 BKN075 BKN110 21/14 A3013 RMK AO2 PK WND 21029/1452 SLP202 60005 T02110139 51005",
      "metarObsTime": 1775227980
    },
    "KLBE": {
      "status": "OK",
      "delay": "—",
      "metarCat": "VFR",
      "metarRaw": "METAR KLBE 031450Z 21010KT 10SM FEW048 SCT100 21/16 A3016",
      "metarObsTime": 1775227800
    },
    "KJST": {
      "status": "OK",
      "delay": "—",
      "metarCat": "VFR",
      "metarRaw": "METAR KJST 031454Z AUTO 23009KT 10SM FEW036 SCT047 OVC100 18/14 A3018 RMK AO2 RAB11E40 SLP217 P0002 60002 T01830139 50001",
      "metarObsTime": 1775228040
    },
    "KERI": {
      "status": "OK",
      "delay": "—",
      "metarCat": "VFR",
      "metarRaw": "METAR KERI 031451Z 21018G32KT 10SM BKN037 22/15 A2999 RMK AO2 PK WND 21033/1427 SLP151 T02220150 53005",
      "metarObsTime": 1775227860
    },
    "KDUJ": {
      "status": "OK",
      "delay": "—",
      "metarCat": "VFR",
      "metarRaw": "METAR KDUJ 031453Z AUTO VRB04KT 10SM OVC035 16/14 A3012 RMK AO2 SLP197 60017 T01560139 58002",
      "metarObsTime": 1775227980
    },
    "KBFD": {
      "status": "OK",
      "delay": "—",
      "metarCat": "MVFR",
      "metarRaw": "SPECI KBFD 031521Z AUTO 20007KT 10SM OVC010 16/14 A3009 RMK AO2 CIG 008V013 T01560139",
      "metarObsTime": 1775229660
    },
    "KBTP": {
      "status": "OK",
      "delay": "—",
      "metarCat": "VFR",
      "metarRaw": "METAR KBTP 031456Z AUTO 23015G23KT 10SM BKN036 BKN044 21/16 A3012 RMK AO2 SLP200 P0001 60003 T02060156 56002 $",
      "metarObsTime": 1775228160
    },
    "KFKL": {
      "status": "OK",
      "delay": "—",
      "metarCat": "MVFR",
      "metarRaw": "METAR KFKL 031456Z AUTO 22014G18KT 10SM OVC024 19/15 A3009 RMK AO2 SLP186 T01940150 53000",
      "metarObsTime": 1775228160
    },
    "KIDI": {
      "status": "OK",
      "delay": "—",
      "metarCat": "VFR",
      "metarRaw": "METAR KIDI 031535Z AUTO 24013G23KT 10SM FEW040 SCT075 OVC110 21/15 A3014 RMK A01",
      "metarObsTime": 1775230500
    },
    "KMDT": {
      "status": "OK",
      "delay": "—",
      "metarCat": "LIFR",
      "metarRaw": "METAR KMDT 031456Z 12005KT 1 1/4SM BR OVC004 08/08 A3027 RMK AO2 SFC VIS 2 SLP252 T00830078 56010 $",
      "metarObsTime": 1775228160
    },
    "KCXY": {
      "status": "OK",
      "delay": "—",
      "metarCat": "IFR",
      "metarRaw": "METAR KCXY 031456Z 11005KT 4SM BR OVC005 08/08 A3027 RMK AO2 SLP253 T00830078 56007",
      "metarObsTime": 1775228160
    },
    "KMUI": {
      "status": "OK",
      "delay": "—",
      "metarCat": "—",
      "metarRaw": "—",
      "metarObsTime": null
    },
    "KUNV": {
      "status": "OK",
      "delay": "—",
      "metarCat": "IFR",
      "metarRaw": "METAR KUNV 031453Z 22006KT 6SM BR OVC006 10/10 A3020",
      "metarObsTime": 1775227980
    },
    "KAOO": {
      "status": "OK",
      "delay": "—",
      "metarCat": "VFR",
      "metarRaw": "METAR KAOO 031453Z AUTO 22007KT 10SM SCT005 BKN100 12/11 A3020 RMK AO2 RAB02E11 SLP231 P0000 60000 T01170106 58006",
      "metarObsTime": 1775227980
    },
    "KLNS": {
      "status": "OK",
      "delay": "—",
      "metarCat": "LIFR",
      "metarRaw": "METAR KLNS 031453Z 18004KT 3SM BR OVC003 08/08 A3028 RMK AO2 SLP256 T00830078 56008",
      "metarObsTime": 1775227980
    },
    "KIPT": {
      "status": "OK",
      "delay": "—",
      "metarCat": "IFR",
      "metarRaw": "METAR KIPT 031454Z 09006KT 10SM OVC008 08/06 A3023 RMK AO2 SLP240 T00780061 58006",
      "metarObsTime": 1775228040
    },
    "KPHL": {
      "status": "OK",
      "delay": "—",
      "metarCat": "LIFR",
      "metarRaw": "SPECI KPHL 031530Z VRB03KT 5SM BR OVC004 11/09 A3030 RMK AO2 T01060094 $",
      "metarObsTime": 1775230200
    },
    "KABE": {
      "status": "OK",
      "delay": "—",
      "metarCat": "IFR",
      "metarRaw": "SPECI KABE 031458Z 00000KT 10SM OVC005 07/06 A3028 RMK AO2 T00720061 $",
      "metarObsTime": 1775228280
    },
    "KAVP": {
      "status": "OK",
      "delay": "—",
      "metarCat": "MVFR",
      "metarRaw": "SPECI KAVP 031520Z 26008KT 10SM OVC015 11/07 A3022 RMK AO2 T01060067",
      "metarObsTime": 1775229600
    },
    "KHZL": {
      "status": "OK",
      "delay": "—",
      "metarCat": "IFR",
      "metarRaw": "METAR KHZL 031515Z AUTO 00000KT 10SM OVC006 09/08 A3026 RMK AO2",
      "metarObsTime": 1775229300
    }
  }
}