{
  "generatedAt": "2026-04-07T07:50:41.114Z",
  "airports": {
    "KPIT": {
      "status": "OK",
      "delay": "—",
      "metarCat": "MVFR",
      "metarRaw": "SPECI KPIT 070726Z 31011KT 10SM BKN028 BKN040 03/M02 A3017 RMK AO2 T00331022",
      "metarObsTime": 1775546760
    },
    "KAGC": {
      "status": "OK",
      "delay": "—",
      "metarCat": "VFR",
      "metarRaw": "METAR KAGC 070653Z 31009G17KT 10SM CLR 04/M04 A3014 RMK AO2 SLP217 T00391039",
      "metarObsTime": 1775544780
    },
    "KLBE": {
      "status": "OK",
      "delay": "—",
      "metarCat": "VFR",
      "metarRaw": "METAR KLBE 070735Z AUTO 27007KT 10SM CLR 04/M02 A3018 RMK AO2",
      "metarObsTime": 1775547300
    },
    "KJST": {
      "status": "OK",
      "delay": "—",
      "metarCat": "MVFR",
      "metarRaw": "SPECI KJST 070745Z AUTO 26009G18KT 10SM BKN026 02/M03 A3009 RMK AO2 T00171028",
      "metarObsTime": 1775547900
    },
    "KERI": {
      "status": "OK",
      "delay": "—",
      "metarCat": "MVFR",
      "metarRaw": "METAR KERI 070651Z AUTO 30013G22KT 10SM BKN022 OVC029 01/M04 A3019 RMK AO2 SLP230 T00061044 $",
      "metarObsTime": 1775544660
    },
    "KDUJ": {
      "status": "OK",
      "delay": "—",
      "metarCat": "MVFR",
      "metarRaw": "SPECI KDUJ 070736Z AUTO 28010G20KT 7SM -SN SCT006 BKN010 BKN042 01/M02 A3008 RMK AO2 SNB21 CIG 008V014 P0001 T00061017",
      "metarObsTime": 1775547360
    },
    "KBFD": {
      "status": "OK",
      "delay": "—",
      "metarCat": "MVFR",
      "metarRaw": "SPECI KBFD 070712Z AUTO 29014G26KT 10SM SCT015 BKN021 OVC027 M01/M03 A3004 RMK AO2 PK WND 28026/0709 SNE0656 P0000 T10061033",
      "metarObsTime": 1775545920
    },
    "KBTP": {
      "status": "OK",
      "delay": "—",
      "metarCat": "VFR",
      "metarRaw": "SPECI KBTP 070736Z AUTO 31006G14KT 9SM FEW008 00/00 A3018 RMK AO2 RAE09SNB09E32 P0000 FZRANO $",
      "metarObsTime": 1775547360
    },
    "KFKL": {
      "status": "OK",
      "delay": "—",
      "metarCat": "MVFR",
      "metarRaw": "SPECI KFKL 070703Z AUTO 31008G14KT 10SM UP FEW012 BKN017 BKN029 00/M02 A3014 RMK AO2 UPB0657 P0000 FZRANO",
      "metarObsTime": 1775545380
    },
    "KIDI": {
      "status": "OK",
      "delay": "—",
      "metarCat": "MVFR",
      "metarRaw": "METAR KIDI 070735Z AUTO 30012G17KT 10SM SCT010 OVC022 02/00 A3014 RMK A01",
      "metarObsTime": 1775547300
    },
    "KMDT": {
      "status": "OK",
      "delay": "—",
      "metarCat": "VFR",
      "metarRaw": "METAR KMDT 070656Z 32005KT 10SM SCT085 BKN110 07/02 A3009 RMK AO2 SLP190 T00720017",
      "metarObsTime": 1775544960
    },
    "KCXY": {
      "status": "OK",
      "delay": "—",
      "metarCat": "VFR",
      "metarRaw": "METAR KCXY 070656Z AUTO 27005KT 10SM SCT075 OVC100 06/01 A3010 RMK AO2 SLP194 T00560011",
      "metarObsTime": 1775544960
    },
    "KMUI": {
      "status": "OK",
      "delay": "—",
      "metarCat": "VFR",
      "metarRaw": "METAR KMUI 070655Z AUTO 26003KT 10SM OVC075 07/04 A3006 RMK AO2 SLP184 T00720036",
      "metarObsTime": 1775544900
    },
    "KUNV": {
      "status": "OK",
      "delay": "—",
      "metarCat": "VFR",
      "metarRaw": "METAR KUNV 070735Z AUTO 27011KT 10SM SCT070 03/M01 A3008 RMK AO2 T00341008",
      "metarObsTime": 1775547300
    },
    "KAOO": {
      "status": "OK",
      "delay": "—",
      "metarCat": "VFR",
      "metarRaw": "METAR KAOO 070653Z AUTO 30006KT 10SM BKN035 BKN046 03/M01 A3009 RMK AO2 SLP198 T00331011",
      "metarObsTime": 1775544780
    },
    "KLNS": {
      "status": "OK",
      "delay": "—",
      "metarCat": "VFR",
      "metarRaw": "METAR KLNS 070653Z AUTO 00000KT 10SM BKN060 06/02 A3009 RMK AO2 SLP191 T00610017",
      "metarObsTime": 1775544780
    },
    "KIPT": {
      "status": "OK",
      "delay": "—",
      "metarCat": "VFR",
      "metarRaw": "METAR KIPT 070654Z AUTO 31003KT 10SM SCT090 03/03 A3006 RMK AO2 SLP181 T00330028",
      "metarObsTime": 1775544840
    },
    "KPHL": {
      "status": "OK",
      "delay": "—",
      "metarCat": "VFR",
      "metarRaw": "METAR KPHL 070654Z 30005KT 10SM BKN055 BKN075 OVC090 12/01 A3009 RMK AO2 SLP189 T01170006 $",
      "metarObsTime": 1775544840
    },
    "KABE": {
      "status": "OK",
      "delay": "—",
      "metarCat": "VFR",
      "metarRaw": "METAR KABE 070651Z 23004KT 10SM OVC100 06/01 A3006 RMK AO2 SLP181 T00610011 $",
      "metarObsTime": 1775544660
    },
    "KAVP": {
      "status": "OK",
      "delay": "—",
      "metarCat": "VFR",
      "metarRaw": "METAR KAVP 070654Z 16003KT 10SM FEW038 SCT080 BKN095 02/M01 A3002 RMK AO2 SLP171 T00221011 $",
      "metarObsTime": 1775544840
    },
    "KHZL": {
      "status": "OK",
      "delay": "—",
      "metarCat": "VFR",
      "metarRaw": "METAR KHZL 070735Z AUTO 00000KT 10SM SCT060 03/00 A3006 RMK AO2",
      "metarObsTime": 1775547300
    }
  }
}