{
  "generatedAt": "2026-03-17T03:50:18.275Z",
  "airports": {
    "KPIT": {
      "status": "OK",
      "delay": "—",
      "metarCat": "MVFR",
      "metarRaw": "SPECI KPIT 170321Z 24014G25KT 5SM -SN BR SCT007 BKN024 OVC090 M03/M04 A2960 RMK AO2 P0000 T10331044 $",
      "metarObsTime": 1773717660
    },
    "KAGC": {
      "status": "OK",
      "delay": "—",
      "metarCat": "MVFR",
      "metarRaw": "SPECI KAGC 170300Z 26016G31KT 5SM BR FEW023 SCT028 BKN080 M03/M05 A2959 RMK AO2 PK WND 26031/0257 T10331050 $",
      "metarObsTime": 1773716400
    },
    "KLBE": {
      "status": "OK",
      "delay": "—",
      "metarCat": "MVFR",
      "metarRaw": "METAR KLBE 170335Z AUTO 24018G27KT 8SM SCT022 BKN027 BKN033 M03/M05 A2962 RMK AO2",
      "metarObsTime": 1773718500
    },
    "KJST": {
      "status": "OK",
      "delay": "—",
      "metarCat": "MVFR",
      "metarRaw": "SPECI KJST 170340Z AUTO 27020G32KT 4SM UP BKN015 OVC023 M05/M08 A2950 RMK AO2 PK WND 27039/0321 UPB06SNE06 P0000 T10501078",
      "metarObsTime": 1773718800
    },
    "KERI": {
      "status": "OK",
      "delay": "—",
      "metarCat": "LIFR",
      "metarRaw": "SPECI KERI 170347Z 26019G33KT 3/4SM R06/3500VP6000FT -SN FEW009 BKN023 OVC029 M03/M07 A2951 RMK AO2 PK WND 27035/0335 VIS 1/4V2 1/2 UPE0252SNB0258 P0002 $",
      "metarObsTime": 1773719220
    },
    "KDUJ": {
      "status": "OK",
      "delay": "—",
      "metarCat": "IFR",
      "metarRaw": "SPECI KDUJ 170326Z AUTO 25017G24KT 2SM BR FEW009 BKN015 OVC065 M05/M07 A2947 RMK AO2 SNE0259 P0000 T10501072",
      "metarObsTime": 1773717960
    },
    "KBFD": {
      "status": "OK",
      "delay": "—",
      "metarCat": "MVFR",
      "metarRaw": "SPECI KBFD 170343Z AUTO 26010G19KT 9SM BKN019 M05/M08 A2941 RMK AO2 PK WND 27027/0319 SNE41 P0001 T10501078",
      "metarObsTime": 1773718980
    },
    "KBTP": {
      "status": "OK",
      "delay": "—",
      "metarCat": "—",
      "metarRaw": "—",
      "metarObsTime": null
    },
    "KFKL": {
      "status": "OK",
      "delay": "—",
      "metarCat": "MVFR",
      "metarRaw": "SPECI KFKL 170342Z AUTO 25015G22KT 4SM -SN BR FEW006 SCT015 OVC075 M05/M07 A2952 RMK AO2 SNB0259 P0000 FZRANO",
      "metarObsTime": 1773718920
    },
    "KIDI": {
      "status": "OK",
      "delay": "—",
      "metarCat": "MVFR",
      "metarRaw": "METAR KIDI 170335Z AUTO 26014G21KT 7SM FEW006 OVC018 M03/M05 A2956 RMK A01",
      "metarObsTime": 1773718500
    },
    "KMDT": {
      "status": "OK",
      "delay": "—",
      "metarCat": "IFR",
      "metarRaw": "SPECI KMDT 170345Z 29014G23KT 1 1/2SM -SN BR OVC006 01/00 A2952 RMK AO2 P0006 T00060000",
      "metarObsTime": 1773719100
    },
    "KCXY": {
      "status": "OK",
      "delay": "—",
      "metarCat": "IFR",
      "metarRaw": "SPECI KCXY 170347Z AUTO 27008KT 2SM -SN BR BKN008 OVC014 01/M01 A2952 RMK AO2 P0006 T00061006",
      "metarObsTime": 1773719220
    },
    "KMUI": {
      "status": "OK",
      "delay": "—",
      "metarCat": "LIFR",
      "metarRaw": "SPECI KMUI 170335Z AUTO 26012G18KT 4SM -SN BR BKN004 OVC019 02/02 A2947 RMK AO2 SNE0255RAB0255E01UPB01E19SNB19 BKN V SCT PRESRR SLP983",
      "metarObsTime": 1773718500
    },
    "KUNV": {
      "status": "OK",
      "delay": "—",
      "metarCat": "MVFR",
      "metarRaw": "METAR KUNV 170335Z AUTO 28013G26KT 7SM -SN SCT008 BKN018 OVC025 M01/M03 A2950 RMK AO2 T10121031",
      "metarObsTime": 1773718500
    },
    "KAOO": {
      "status": "OK",
      "delay": "—",
      "metarCat": "IFR",
      "metarRaw": "SPECI KAOO 170326Z AUTO 28025G45KT 1 3/4SM -SN FEW024 BKN037 OVC050 M02/M07 A2952 RMK AO2 PK WND 28045/0323 VIS 1V4 SNE0257B04 P0000 T10221067",
      "metarObsTime": 1773717960
    },
    "KLNS": {
      "status": "OK",
      "delay": "—",
      "metarCat": "IFR",
      "metarRaw": "SPECI KLNS 170340Z AUTO 30021G30KT 1 3/4SM -SN BR FEW009 SCT013 OVC022 01/00 A2948 RMK AO2 PK WND 27037/0301 RAE27SNB27 P0006 T00060000",
      "metarObsTime": 1773718800
    },
    "KIPT": {
      "status": "OK",
      "delay": "—",
      "metarCat": "LIFR",
      "metarRaw": "SPECI KIPT 170312Z AUTO 27009G22KT 3/4SM -SN BR SCT005 OVC009 00/00 A2944 RMK AO2 P0002 T00000000",
      "metarObsTime": 1773717120
    },
    "KPHL": {
      "status": "OK",
      "delay": "—",
      "metarCat": "VFR",
      "metarRaw": "SPECI KPHL 170336Z 28018G43KT 6SM -RA FEW023 OVC037 08/04 A2941 RMK AO2 PK WND 30052/0311 WSHFT 0304 P0008 T00780044 $",
      "metarObsTime": 1773718560
    },
    "KABE": {
      "status": "OK",
      "delay": "—",
      "metarCat": "VFR",
      "metarRaw": "SPECI KABE 170330Z 26020G32KT 8SM RA SCT019 SCT024 OVC039 06/03 A2939 RMK AO2 PK WND 28036/0256 WSHFT 0238 P0014 T00560028 $",
      "metarObsTime": 1773718200
    },
    "KAVP": {
      "status": "OK",
      "delay": "—",
      "metarCat": "IFR",
      "metarRaw": "SPECI KAVP 170346Z 25009G19KT 2SM +RA BR BKN008 OVC014 02/01 A2941 RMK AO2 PK WND 30027/0314 P0027 T00170011",
      "metarObsTime": 1773719160
    },
    "KHZL": {
      "status": "OK",
      "delay": "—",
      "metarCat": "LIFR",
      "metarRaw": "METAR KHZL 170335Z AUTO 27006G15KT 1 3/4SM -SN OVC003 01/00 RMK AO2 P0004",
      "metarObsTime": 1773718500
    }
  }
}