{
  "generatedAt": "2026-04-15T02:10:50.916Z",
  "airports": {
    "KPIT": {
      "status": "OK",
      "delay": "—",
      "metarCat": "VFR",
      "metarRaw": "METAR KPIT 150151Z 15003KT 10SM SCT060 BKN250 18/18 A2996 RMK AO2 SLP148 T01830178 $",
      "metarObsTime": 1776217860
    },
    "KAGC": {
      "status": "OK",
      "delay": "—",
      "metarCat": "VFR",
      "metarRaw": "METAR KAGC 150153Z 17009KT 10SM CLR 17/16 A2997 RMK AO2 SLP147 T01720161",
      "metarObsTime": 1776217980
    },
    "KLBE": {
      "status": "OK",
      "delay": "—",
      "metarCat": "VFR",
      "metarRaw": "METAR KLBE 150145Z 00000KT 7SM FEW050 16/16 A3000",
      "metarObsTime": 1776217500
    },
    "KJST": {
      "status": "OK",
      "delay": "—",
      "metarCat": "VFR",
      "metarRaw": "METAR KJST 150154Z AUTO 21005KT 10SM FEW042 BKN065 16/14 A3002 RMK AO2 SLP159 T01560144",
      "metarObsTime": 1776218040
    },
    "KERI": {
      "status": "OK",
      "delay": "—",
      "metarCat": "VFR",
      "metarRaw": "METAR KERI 150151Z 00000KT 10SM FEW039 SCT055 BKN085 16/13 A2991 RMK AO2 SLP127 T01610128 $",
      "metarObsTime": 1776217860
    },
    "KDUJ": {
      "status": "OK",
      "delay": "—",
      "metarCat": "VFR",
      "metarRaw": "METAR KDUJ 150153Z AUTO 19003KT 10SM CLR 17/14 A2999 RMK AO2 SLP147 T01670139",
      "metarObsTime": 1776217980
    },
    "KBFD": {
      "status": "OK",
      "delay": "—",
      "metarCat": "LIFR",
      "metarRaw": "SPECI KBFD 150206Z AUTO 00000KT 3/4SM BR CLR 13/13 A2998 RMK AO2 T01330133",
      "metarObsTime": 1776218760
    },
    "KBTP": {
      "status": "OK",
      "delay": "—",
      "metarCat": "VFR",
      "metarRaw": "METAR KBTP 150156Z AUTO 00000KT 10SM FEW060 17/ A2997 RMK AO2 SLP151 T0167 PNO $",
      "metarObsTime": 1776218160
    },
    "KFKL": {
      "status": "OK",
      "delay": "—",
      "metarCat": "VFR",
      "metarRaw": "METAR KFKL 150156Z AUTO 17005KT 10SM FEW080 16/14 A2997 RMK AO2 SLP146 T01610144",
      "metarObsTime": 1776218160
    },
    "KIDI": {
      "status": "OK",
      "delay": "—",
      "metarCat": "VFR",
      "metarRaw": "METAR KIDI 150155Z AUTO 00000KT 10SM FEW041 BKN065 OVC080 15/15 A3000 RMK A01",
      "metarObsTime": 1776218100
    },
    "KMDT": {
      "status": "OK",
      "delay": "—",
      "metarCat": "VFR",
      "metarRaw": "METAR KMDT 150156Z 00000KT 10SM -RA FEW100 BKN120 20/16 A2995 RMK AO2 SLP140 P0004 T02000161",
      "metarObsTime": 1776218160
    },
    "KCXY": {
      "status": "OK",
      "delay": "—",
      "metarCat": "VFR",
      "metarRaw": "METAR KCXY 150156Z AUTO 24011KT 10SM FEW100 SCT120 19/17 A2995 RMK AO2 RAE52 SLP140 P0005 T01940167",
      "metarObsTime": 1776218160
    },
    "KMUI": {
      "status": "OK",
      "delay": "—",
      "metarCat": "VFR",
      "metarRaw": "METAR KMUI 150155Z 22009KT 10SM VCSH SCT070 BKN100 25/16 A2992 RMK AO2A LTG DSNT N-NE AND SE-S RAE40 SLP131 T02460158",
      "metarObsTime": 1776218100
    },
    "KUNV": {
      "status": "OK",
      "delay": "—",
      "metarCat": "VFR",
      "metarRaw": "METAR KUNV 150153Z 22006KT 10SM SCT049 18/15 A2999",
      "metarObsTime": 1776217980
    },
    "KAOO": {
      "status": "OK",
      "delay": "—",
      "metarCat": "VFR",
      "metarRaw": "METAR KAOO 150153Z AUTO 00000KT 10SM CLR 16/14 A3001 RMK AO2 SLP155 T01560144",
      "metarObsTime": 1776217980
    },
    "KLNS": {
      "status": "OK",
      "delay": "—",
      "metarCat": "VFR",
      "metarRaw": "METAR KLNS 150153Z 25012G24KT 10SM FEW085 BKN100 22/16 A2996 RMK AO2 RAB15E29 SLP142 P0000 T02170156",
      "metarObsTime": 1776217980
    },
    "KIPT": {
      "status": "OK",
      "delay": "—",
      "metarCat": "VFR",
      "metarRaw": "METAR KIPT 150154Z 00000KT 10SM FEW075 BKN120 18/17 A2993 RMK AO2 RAE27 SLP132 P0001 T01830167 $",
      "metarObsTime": 1776218040
    },
    "KPHL": {
      "status": "OK",
      "delay": "—",
      "metarCat": "VFR",
      "metarRaw": "METAR KPHL 150154Z 22008KT 10SM BKN120 BKN230 25/13 A2991 RMK AO2 SLP128 T02500128 $",
      "metarObsTime": 1776218040
    },
    "KABE": {
      "status": "OK",
      "delay": "—",
      "metarCat": "VFR",
      "metarRaw": "METAR KABE 150151Z 24009KT 10SM CLR 25/13 A2990 RMK AO2 SLP122 T02500133 $",
      "metarObsTime": 1776217860
    },
    "KAVP": {
      "status": "OK",
      "delay": "—",
      "metarCat": "VFR",
      "metarRaw": "METAR KAVP 150154Z 00000KT 10SM FEW055 FEW090 BKN110 17/16 A2994 RMK AO2 RAE36 SLP134 P0016 T01720161",
      "metarObsTime": 1776218040
    },
    "KHZL": {
      "status": "OK",
      "delay": "—",
      "metarCat": "VFR",
      "metarRaw": "METAR KHZL 150155Z AUTO 27004KT 10SM RA SCT050 BKN075 OVC100 19/13 A3002 RMK AO2 P0001",
      "metarObsTime": 1776218100
    }
  }
}