{
  "generatedAt": "2026-04-06T11:40:36.261Z",
  "airports": {
    "KPIT": {
      "status": "OK",
      "delay": "—",
      "metarCat": "VFR",
      "metarRaw": "METAR KPIT 061051Z 25004KT 10SM FEW045 01/M03 A3013 RMK AO2 SLP218 T00111033 $",
      "metarObsTime": 1775472660
    },
    "KAGC": {
      "status": "OK",
      "delay": "—",
      "metarCat": "VFR",
      "metarRaw": "METAR KAGC 061053Z 26006KT 10SM CLR 02/M03 A3012 RMK AO2 SLP213 T00171033",
      "metarObsTime": 1775472780
    },
    "KLBE": {
      "status": "OK",
      "delay": "—",
      "metarCat": "VFR",
      "metarRaw": "METAR KLBE 061047Z 23011KT 10SM CLR 02/M02 A3014",
      "metarObsTime": 1775472420
    },
    "KJST": {
      "status": "OK",
      "delay": "—",
      "metarCat": "VFR",
      "metarRaw": "METAR KJST 061054Z AUTO 30011KT 10SM CLR 00/M05 A3005 RMK AO2 SLP196 T00001050",
      "metarObsTime": 1775472840
    },
    "KERI": {
      "status": "OK",
      "delay": "—",
      "metarCat": "VFR",
      "metarRaw": "METAR KERI 061051Z 26003KT 10SM OVC080 02/M01 A3011 RMK AO2 SLP202 T00221006 $",
      "metarObsTime": 1775472660
    },
    "KDUJ": {
      "status": "OK",
      "delay": "—",
      "metarCat": "VFR",
      "metarRaw": "METAR KDUJ 061053Z AUTO 26006KT 10SM CLR M01/M05 A3007 RMK AO2 SLP197 T10111050",
      "metarObsTime": 1775472780
    },
    "KBFD": {
      "status": "OK",
      "delay": "—",
      "metarCat": "VFR",
      "metarRaw": "METAR KBFD 061053Z AUTO 27005KT 10SM CLR M02/M05 A3004 RMK AO2 SLP189 T10221050",
      "metarObsTime": 1775472780
    },
    "KBTP": {
      "status": "OK",
      "delay": "—",
      "metarCat": "VFR",
      "metarRaw": "METAR KBTP 061056Z AUTO 24003KT 10SM CLR 01/M04 A3013 RMK AO2 SLP219 T00061044 FZRANO $",
      "metarObsTime": 1775472960
    },
    "KFKL": {
      "status": "OK",
      "delay": "—",
      "metarCat": "VFR",
      "metarRaw": "METAR KFKL 061056Z AUTO 22005KT 10SM BKN065 00/M03 A3009 RMK AO2 SLP205 T00001028 FZRANO",
      "metarObsTime": 1775472960
    },
    "KIDI": {
      "status": "OK",
      "delay": "—",
      "metarCat": "VFR",
      "metarRaw": "METAR KIDI 061135Z AUTO 24005KT 10SM CLR 01/M03 A3012 RMK A01",
      "metarObsTime": 1775475300
    },
    "KMDT": {
      "status": "OK",
      "delay": "—",
      "metarCat": "VFR",
      "metarRaw": "METAR KMDT 061056Z 32008KT 10SM FEW050 06/M04 A3008 RMK AO2 PK WND 32027/1013 SLP188 T00561044 $",
      "metarObsTime": 1775472960
    },
    "KCXY": {
      "status": "OK",
      "delay": "—",
      "metarCat": "VFR",
      "metarRaw": "METAR KCXY 061056Z 29012G17KT 10SM CLR 05/M05 A3008 RMK AO2 SLP189 T00501050 $",
      "metarObsTime": 1775472960
    },
    "KMUI": {
      "status": "OK",
      "delay": "—",
      "metarCat": "VFR",
      "metarRaw": "METAR KMUI 061055Z 28010G16KT 10SM FEW050 06/M05 A3005 RMK AO2A SLP181 T00561051",
      "metarObsTime": 1775472900
    },
    "KUNV": {
      "status": "OK",
      "delay": "—",
      "metarCat": "VFR",
      "metarRaw": "METAR KUNV 061053Z 32007KT 10SM SCT045 02/M06 A3006",
      "metarObsTime": 1775472780
    },
    "KAOO": {
      "status": "OK",
      "delay": "—",
      "metarCat": "VFR",
      "metarRaw": "METAR KAOO 061053Z AUTO 32005G15KT 10SM FEW041 02/M06 A3008 RMK AO2 SLP195 T00221061",
      "metarObsTime": 1775472780
    },
    "KLNS": {
      "status": "OK",
      "delay": "—",
      "metarCat": "VFR",
      "metarRaw": "METAR KLNS 061053Z 31009KT 10SM CLR 04/M03 A3007 RMK AO2 SLP183 T00391033",
      "metarObsTime": 1775472780
    },
    "KIPT": {
      "status": "OK",
      "delay": "—",
      "metarCat": "VFR",
      "metarRaw": "METAR KIPT 061054Z 28013G20KT 10SM CLR 03/M06 A3006 RMK AO2 SLP181 T00281056",
      "metarObsTime": 1775472840
    },
    "KPHL": {
      "status": "OK",
      "delay": "—",
      "metarCat": "VFR",
      "metarRaw": "METAR KPHL 061054Z 31008KT 10SM FEW050 FEW200 07/M04 A3007 RMK AO2 SLP182 T00671039 $",
      "metarObsTime": 1775472840
    },
    "KABE": {
      "status": "OK",
      "delay": "—",
      "metarCat": "VFR",
      "metarRaw": "METAR KABE 061051Z 28007G16KT 10SM FEW045 04/M05 A3004 RMK AO2 SLP173 T00391050 $",
      "metarObsTime": 1775472660
    },
    "KAVP": {
      "status": "OK",
      "delay": "—",
      "metarCat": "VFR",
      "metarRaw": "METAR KAVP 061054Z AUTO 30007KT 10SM OVC041 02/M06 A3003 RMK AO2 SLP171 T00221061",
      "metarObsTime": 1775472840
    },
    "KHZL": {
      "status": "OK",
      "delay": "—",
      "metarCat": "VFR",
      "metarRaw": "METAR KHZL 061135Z AUTO 27005KT 10SM OVC034 02/M05 A3004 RMK AO2",
      "metarObsTime": 1775475300
    }
  }
}