{
  "generatedAt": "2026-03-12T02:20:16.578Z",
  "airports": {
    "KPIT": {
      "status": "OK",
      "delay": "—",
      "metarCat": "VFR",
      "metarRaw": "METAR KPIT 120151Z 24011G18KT 8SM -RA SCT048 BKN065 OVC100 16/14 A2966 RMK AO2 SLP045 P0003 T01560139 $",
      "metarObsTime": 1773280260
    },
    "KAGC": {
      "status": "OK",
      "delay": "—",
      "metarCat": "VFR",
      "metarRaw": "METAR KAGC 120153Z 24012G20KT 10SM -RA BKN045 OVC100 16/14 A2966 RMK AO2 SLP042 P0004 T01560139",
      "metarObsTime": 1773280380
    },
    "KLBE": {
      "status": "OK",
      "delay": "—",
      "metarCat": "MVFR",
      "metarRaw": "METAR KLBE 120215Z AUTO 20008KT 4SM -RA BR FEW001 OVC014 16/16 A2969 RMK AO2",
      "metarObsTime": 1773281700
    },
    "KJST": {
      "status": "OK",
      "delay": "—",
      "metarCat": "MVFR",
      "metarRaw": "SPECI KJST 120205Z AUTO 26010G20KT 10SM -RA OVC013 14/13 A2970 RMK AO2 LTG DSNT E P0000 T01440133",
      "metarObsTime": 1773281100
    },
    "KERI": {
      "status": "OK",
      "delay": "—",
      "metarCat": "IFR",
      "metarRaw": "SPECI KERI 120216Z 28010G18KT 4SM -RA BR BKN006 OVC012 02/02 A2976 RMK AO2 P0000 T00220017",
      "metarObsTime": 1773281760
    },
    "KDUJ": {
      "status": "OK",
      "delay": "—",
      "metarCat": "VFR",
      "metarRaw": "METAR KDUJ 120153Z AUTO 22012G26KT 10SM -RA FEW012 BKN070 OVC085 15/13 A2963 RMK AO2 PK WND 22026/0145 SLP027 P0002 T01500133",
      "metarObsTime": 1773280380
    },
    "KBFD": {
      "status": "OK",
      "delay": "—",
      "metarCat": "MVFR",
      "metarRaw": "SPECI KBFD 120214Z AUTO 21011G21KT 180V250 10SM -RA SCT011 BKN017 OVC021 14/13 A2958 RMK AO2 RAB04 P0000 T01440128",
      "metarObsTime": 1773281640
    },
    "KBTP": {
      "status": "OK",
      "delay": "—",
      "metarCat": "MVFR",
      "metarRaw": "SPECI KBTP 120212Z AUTO 23010KT 9SM -RA FEW009 BKN013 OVC070 15/ A2965 RMK AO2 P0000 $",
      "metarObsTime": 1773281520
    },
    "KFKL": {
      "status": "OK",
      "delay": "—",
      "metarCat": "IFR",
      "metarRaw": "METAR KFKL 120156Z AUTO 29016KT 10SM -RA BKN008 OVC014 A2966 RMK AO2 WSHFT 0114 RAB06 SLPNO P0002 FZRANO $",
      "metarObsTime": 1773280560
    },
    "KIDI": {
      "status": "OK",
      "delay": "—",
      "metarCat": "—",
      "metarRaw": "—",
      "metarObsTime": null
    },
    "KMDT": {
      "status": "OK",
      "delay": "—",
      "metarCat": "VFR",
      "metarRaw": "METAR KMDT 120156Z 00000KT 7SM -RA BKN080 OVC095 16/16 A2964 RMK AO2 LTG DSNT E-SW RAB35 SLP038 P0001 T01560156",
      "metarObsTime": 1773280560
    },
    "KCXY": {
      "status": "OK",
      "delay": "—",
      "metarCat": "VFR",
      "metarRaw": "METAR KCXY 120156Z AUTO 34006KT 10SM -RA FEW070 SCT085 OVC100 17/16 A2966 RMK AO2 LTG DSNT SE AND S RAB44 SLP045 P0001 T01670156",
      "metarObsTime": 1773280560
    },
    "KMUI": {
      "status": "OK",
      "delay": "—",
      "metarCat": "VFR",
      "metarRaw": "SPECI KMUI 120203Z AUTO 15004KT 10SM FEW027 SCT090 OVC120 17/17 A2965 RMK AO2 LTG DSNT NE AND S-SW RAE03 PRESFR SLP042",
      "metarObsTime": 1773280980
    },
    "KUNV": {
      "status": "OK",
      "delay": "—",
      "metarCat": "VFR",
      "metarRaw": "METAR KUNV 120215Z AUTO 21009KT 10SM RA SCT070 OVC095 16/16 A2967 RMK AO2 LTG DSNT SW P0002 T01610161",
      "metarObsTime": 1773281700
    },
    "KAOO": {
      "status": "OK",
      "delay": "—",
      "metarCat": "VFR",
      "metarRaw": "SPECI KAOO 120209Z AUTO 00000KT 7SM VCTS -RA FEW019 BKN044 BKN070 16/14 A2969 RMK AO2 LTG DSNT SE P0004 T01560144",
      "metarObsTime": 1773281340
    },
    "KLNS": {
      "status": "OK",
      "delay": "—",
      "metarCat": "VFR",
      "metarRaw": "SPECI KLNS 120216Z VRB04KT 6SM -RA BR FEW041 BKN070 OVC120 17/16 A2964 RMK AO2 LTG DSNT W LTG W MOV E P0004 T01720161",
      "metarObsTime": 1773281760
    },
    "KIPT": {
      "status": "OK",
      "delay": "—",
      "metarCat": "VFR",
      "metarRaw": "METAR KIPT 120154Z 25006KT 10SM FEW065 OVC085 18/15 A2963 RMK AO2 RAE43 SLP033 P0002 T01780150 $",
      "metarObsTime": 1773280440
    },
    "KPHL": {
      "status": "OK",
      "delay": "—",
      "metarCat": "VFR",
      "metarRaw": "METAR KPHL 120154Z 19007KT 10SM FEW035 BKN090 OVC110 19/16 A2971 RMK AO2 PK WND 21039/0058 RAE43 TSE43 SLP059 P0001 T01890156 $",
      "metarObsTime": 1773280440
    },
    "KABE": {
      "status": "OK",
      "delay": "—",
      "metarCat": "VFR",
      "metarRaw": "METAR KABE 120151Z 18003KT 10SM CLR 18/16 A2965 RMK AO2 RAE0058 SLP040 P0000 T01780161 $",
      "metarObsTime": 1773280260
    },
    "KAVP": {
      "status": "OK",
      "delay": "—",
      "metarCat": "VFR",
      "metarRaw": "METAR KAVP 120154Z 21009G19KT 180V240 8SM -RA FEW045 OVC080 16/14 A2969 RMK AO2 PK WND 26028/0125 RAB21 SLP048 P0030 T01610144",
      "metarObsTime": 1773280440
    },
    "KHZL": {
      "status": "OK",
      "delay": "—",
      "metarCat": "MVFR",
      "metarRaw": "METAR KHZL 120215Z AUTO 23003KT 5SM RA SCT021 BKN044 OVC070 16/14 A2971 RMK AO2 P0007",
      "metarObsTime": 1773281700
    }
  }
}