{
  "generatedAt": "2026-03-17T19:20:18.016Z",
  "airports": {
    "KPIT": {
      "status": "OK",
      "delay": "—",
      "metarCat": "MVFR",
      "metarRaw": "SPECI KPIT 171901Z 29015KT 4SM -SN SCT014 BKN028 BKN040 M04/M08 A3001 RMK AO2 WSHFT 1841 P0000 T10391083 $",
      "metarObsTime": 1773774060
    },
    "KAGC": {
      "status": "OK",
      "delay": "—",
      "metarCat": "LIFR",
      "metarRaw": "SPECI KAGC 171914Z 27009G22KT 3/4SM R28/4000VP6000FT -SN BKN019 BKN029 OVC045 M04/M08 A3000 RMK AO2 P0000 T10441078",
      "metarObsTime": 1773774840
    },
    "KLBE": {
      "status": "OK",
      "delay": "—",
      "metarCat": "MVFR",
      "metarRaw": "METAR KLBE 171847Z 27015G30KT 3SM -SN BKN030 M03/M10 A3001",
      "metarObsTime": 1773773220
    },
    "KJST": {
      "status": "OK",
      "delay": "—",
      "metarCat": "MVFR",
      "metarRaw": "SPECI KJST 171904Z AUTO 27012G26KT 3SM -SN FEW029 BKN043 OVC055 M07/M10 A2989 RMK AO2 PK WND 28026/1855 P0000 T10671100",
      "metarObsTime": 1773774240
    },
    "KERI": {
      "status": "OK",
      "delay": "—",
      "metarCat": "IFR",
      "metarRaw": "SPECI KERI 171912Z 28010G21KT 2 1/2SM -SN SCT013 BKN019 OVC065 M05/M09 A3003 RMK AO2 P0000 T10501094",
      "metarObsTime": 1773774720
    },
    "KDUJ": {
      "status": "OK",
      "delay": "—",
      "metarCat": "MVFR",
      "metarRaw": "SPECI KDUJ 171910Z AUTO 26010KT 3SM -SN BKN018 BKN035 M06/M09 A2990 RMK AO2 P0000 T10611094",
      "metarObsTime": 1773774600
    },
    "KBFD": {
      "status": "OK",
      "delay": "—",
      "metarCat": "MVFR",
      "metarRaw": "SPECI KBFD 171914Z AUTO 28013G26KT 3SM -SN SCT036 BKN044 OVC060 M08/M13 A2988 RMK AO2 PK WND 30027/1858 SNB1855 P0000 T10781133",
      "metarObsTime": 1773774840
    },
    "KBTP": {
      "status": "OK",
      "delay": "—",
      "metarCat": "IFR",
      "metarRaw": "SPECI KBTP 171911Z AUTO 28009G19KT 2SM -SN FEW015 BKN025 OVC029 M04/M08 A3002 RMK AO2 WSHFT 1844 VIS 1 1/4V4 P0000 FZRANO $",
      "metarObsTime": 1773774660
    },
    "KFKL": {
      "status": "OK",
      "delay": "—",
      "metarCat": "MVFR",
      "metarRaw": "SPECI KFKL 171903Z AUTO 27013G19KT 250V320 5SM -SN FEW026 BKN034 BKN044 M04/M12 A2997 RMK AO2 P0000 FZRANO",
      "metarObsTime": 1773774180
    },
    "KIDI": {
      "status": "OK",
      "delay": "—",
      "metarCat": "LIFR",
      "metarRaw": "METAR KIDI 171915Z AUTO 29011G21KT 1/2SM HZ SCT003 BKN030 OVC065 M05/M08 A2997 RMK A01",
      "metarObsTime": 1773774900
    },
    "KMDT": {
      "status": "OK",
      "delay": "—",
      "metarCat": "VFR",
      "metarRaw": "METAR KMDT 171856Z 27016G25KT 10SM BKN055 02/M10 A2996 RMK AO2 PK WND 27029/1802 SLP149 T00221100",
      "metarObsTime": 1773773760
    },
    "KCXY": {
      "status": "OK",
      "delay": "—",
      "metarCat": "VFR",
      "metarRaw": "METAR KCXY 171856Z 26017G25KT 10SM BKN065 OVC080 03/M11 A2997 RMK AO2 PK WND 25026/1759 SLP151 T00281106",
      "metarObsTime": 1773773760
    },
    "KMUI": {
      "status": "OK",
      "delay": "—",
      "metarCat": "VFR",
      "metarRaw": "METAR KMUI 171855Z 25008KT 10SM FEW013 SCT041 BKN060 OVC075 01/M06 A2993 RMK AO2A SNE37 SLP143 T00101063",
      "metarObsTime": 1773773700
    },
    "KUNV": {
      "status": "OK",
      "delay": "—",
      "metarCat": "MVFR",
      "metarRaw": "METAR KUNV 171853Z 28013G25KT 5SM VCSH SCT013 BKN032 BKN042 M03/M08 A2993",
      "metarObsTime": 1773773580
    },
    "KAOO": {
      "status": "OK",
      "delay": "—",
      "metarCat": "MVFR",
      "metarRaw": "SPECI KAOO 171858Z AUTO 28016G23KT 3SM -SN SCT025 SCT030 BKN040 M03/M10 A2994 RMK AO2 P0000 T10331100",
      "metarObsTime": 1773773880
    },
    "KLNS": {
      "status": "OK",
      "delay": "—",
      "metarCat": "VFR",
      "metarRaw": "METAR KLNS 171853Z 26020G28KT 10SM OVC065 03/M11 A2994 RMK AO2 PK WND 28029/1839 SLP141 T00331106",
      "metarObsTime": 1773773580
    },
    "KIPT": {
      "status": "OK",
      "delay": "—",
      "metarCat": "VFR",
      "metarRaw": "METAR KIPT 171854Z 26016G27KT 10SM BKN060 BKN080 01/M10 A2991 RMK AO2 PK WND 25027/1755 SLP133 T00061100",
      "metarObsTime": 1773773640
    },
    "KPHL": {
      "status": "OK",
      "delay": "—",
      "metarCat": "VFR",
      "metarRaw": "METAR KPHL 171854Z 29015KT 10SM BKN065 BKN250 04/M11 A2994 RMK AO2 PK WND 31030/1838 SLP138 T00441106 $",
      "metarObsTime": 1773773640
    },
    "KABE": {
      "status": "OK",
      "delay": "—",
      "metarCat": "VFR",
      "metarRaw": "METAR KABE 171851Z 30013G22KT 10SM BKN060 BKN070 02/M11 A2991 RMK AO2 PK WND 30026/1814 SLP131 T00221111 $",
      "metarObsTime": 1773773460
    },
    "KAVP": {
      "status": "OK",
      "delay": "—",
      "metarCat": "VFR",
      "metarRaw": "SPECI KAVP 171907Z 24012G18KT 9SM BKN039 BKN050 OVC065 01/M07 A2987 RMK AO2 SNE04 P0000 T00061067",
      "metarObsTime": 1773774420
    },
    "KHZL": {
      "status": "OK",
      "delay": "—",
      "metarCat": "—",
      "metarRaw": "—",
      "metarObsTime": null
    }
  }
}