{
  "generatedAt": "2026-04-28T14:11:16.693Z",
  "faaFlow": {
    "updatedAt": "2026-04-28T14:11:15.826Z",
    "source": "https://www.fly.faa.gov/adv/adv_spt",
    "terminal": [
      {
        "time": "—",
        "text": "AFTER",
        "code": "FLOW",
        "label": "FAA flow impact",
        "level": "yellow",
        "section": "Terminal Planned",
        "airports": []
      },
      {
        "time": "1500",
        "text": "SFO GROUND STOP/DELAY PROGRAM POSSIBLE",
        "code": "GS",
        "label": "Ground stop possible",
        "level": "yellow",
        "section": "Terminal Planned",
        "airports": []
      },
      {
        "time": "—",
        "text": "AFTER",
        "code": "FLOW",
        "label": "FAA flow impact",
        "level": "yellow",
        "section": "Terminal Planned",
        "airports": []
      },
      {
        "time": "2000",
        "text": "BNA GROUND STOP POSSIBLE",
        "code": "GS",
        "label": "Ground stop possible",
        "level": "yellow",
        "section": "Terminal Planned",
        "airports": []
      },
      {
        "time": "—",
        "text": "AFTER",
        "code": "FLOW",
        "label": "FAA flow impact",
        "level": "yellow",
        "section": "Terminal Planned",
        "airports": []
      },
      {
        "time": "2200",
        "text": "JFK GROUND DELAY PROGRAM POSSIBLE",
        "code": "GDP",
        "label": "Ground delay possible",
        "level": "yellow",
        "section": "Terminal Planned",
        "airports": []
      },
      {
        "time": "—",
        "text": "AFTER",
        "code": "FLOW",
        "label": "FAA flow impact",
        "level": "yellow",
        "section": "Terminal Planned",
        "airports": []
      },
      {
        "time": "0200",
        "text": "MEM GROUND STOP/DELAY PROGRAM POSSIBLE",
        "code": "GS",
        "label": "Ground stop possible",
        "level": "yellow",
        "section": "Terminal Planned",
        "airports": []
      }
    ],
    "enroute": [],
    "airports": {
      "KPIT": null,
      "KAGC": null,
      "KLBE": null,
      "KJST": null,
      "KERI": null,
      "KDUJ": null,
      "KBFD": null,
      "KBTP": null,
      "KFKL": null,
      "KIDI": null,
      "KMDT": null,
      "KCXY": null,
      "KMUI": null,
      "KUNV": null,
      "KAOO": null,
      "KLNS": null,
      "KIPT": null,
      "KPHL": null,
      "KABE": null,
      "KAVP": null,
      "KHZL": null
    }
  },
  "airports": {
    "KPIT": {
      "status": "OK",
      "delay": "—",
      "metarCat": "MVFR",
      "metarRaw": "METAR KPIT 281351Z 16008KT 10SM FEW011 OVC022 12/10 A2993 RMK AO2 SLP142 T01220100",
      "metarObsTime": 1777384260,
      "faaFlow": null
    },
    "KAGC": {
      "status": "OK",
      "delay": "—",
      "metarCat": "MVFR",
      "metarRaw": "METAR KAGC 281353Z 15007KT 9SM OVC020 12/10 A2994 RMK AO2 SLP140 T01220100",
      "metarObsTime": 1777384380,
      "faaFlow": null
    },
    "KLBE": {
      "status": "OK",
      "delay": "—",
      "metarCat": "VFR",
      "metarRaw": "METAR KLBE 281355Z 15006KT 10SM OVC036 14/10 A2997",
      "metarObsTime": 1777384500,
      "faaFlow": null
    },
    "KJST": {
      "status": "OK",
      "delay": "—",
      "metarCat": "IFR",
      "metarRaw": "METAR KJST 281354Z AUTO 15012G21KT 10SM OVC008 08/07 A3000 RMK AO2 RAE03 SLP162 P0000 T00830067",
      "metarObsTime": 1777384440,
      "faaFlow": null
    },
    "KERI": {
      "status": "OK",
      "delay": "—",
      "metarCat": "VFR",
      "metarRaw": "METAR KERI 281351Z 18025G35KT 10SM BKN070 OVC100 16/09 A2985 RMK AO2 PK WND 17037/1339 SLP105 T01560089",
      "metarObsTime": 1777384260,
      "faaFlow": null
    },
    "KDUJ": {
      "status": "OK",
      "delay": "—",
      "metarCat": "MVFR",
      "metarRaw": "SPECI KDUJ 281404Z AUTO 14010KT 4SM BR FEW009 FEW015 OVC030 09/07 A2998 RMK AO2 RAE1359 P0000 T00890072",
      "metarObsTime": 1777385040,
      "faaFlow": null
    },
    "KBFD": {
      "status": "OK",
      "delay": "—",
      "metarCat": "—",
      "metarRaw": "METAR KBFD 281253Z AUTO A2996 RMK AO2 SLPNO PWINO FZRANO $",
      "metarObsTime": 1777380780,
      "faaFlow": null
    },
    "KBTP": {
      "status": "OK",
      "delay": "—",
      "metarCat": "MVFR",
      "metarRaw": "METAR KBTP 281356Z AUTO 14007KT 10SM FEW014 OVC026 12/11 A2995 RMK AO2 SLP148 T01170111 $",
      "metarObsTime": 1777384560,
      "faaFlow": null
    },
    "KFKL": {
      "status": "OK",
      "delay": "—",
      "metarCat": "—",
      "metarRaw": "—",
      "metarObsTime": null,
      "faaFlow": null
    },
    "KIDI": {
      "status": "OK",
      "delay": "—",
      "metarCat": "VFR",
      "metarRaw": "METAR KIDI 281355Z AUTO 14007G13KT 110V170 10SM OVC039 11/08 A2998 RMK A01",
      "metarObsTime": 1777384500,
      "faaFlow": null
    },
    "KMDT": {
      "status": "OK",
      "delay": "—",
      "metarCat": "VFR",
      "metarRaw": "METAR KMDT 281356Z 19005KT 10SM BKN110 OVC250 12/06 A3016 RMK AO2 PRESRR SLP214 T01170056",
      "metarObsTime": 1777384560,
      "faaFlow": null
    },
    "KCXY": {
      "status": "OK",
      "delay": "—",
      "metarCat": "VFR",
      "metarRaw": "METAR KCXY 281356Z 00000KT 10SM BKN095 OVC110 12/06 A3017 RMK AO2 SLP216 T01170056",
      "metarObsTime": 1777384560,
      "faaFlow": null
    },
    "KMUI": {
      "status": "OK",
      "delay": "—",
      "metarCat": "VFR",
      "metarRaw": "METAR KMUI 281355Z 00000KT 10SM -RA SCT065 BKN095 OVC160 13/10 A3014 RMK AO2A RAB51 SLP209 T01320104",
      "metarObsTime": 1777384500,
      "faaFlow": null
    },
    "KUNV": {
      "status": "OK",
      "delay": "—",
      "metarCat": "VFR",
      "metarRaw": "METAR KUNV 281353Z 20015G27KT 10SM -RA OVC080 12/03 A3006",
      "metarObsTime": 1777384380,
      "faaFlow": null
    },
    "KAOO": {
      "status": "OK",
      "delay": "—",
      "metarCat": "VFR",
      "metarRaw": "METAR KAOO 281353Z AUTO 21006KT 10SM OVC032 09/06 A3005 RMK AO2 RAE44 SLP180 P0001 T00890061",
      "metarObsTime": 1777384380,
      "faaFlow": null
    },
    "KLNS": {
      "status": "OK",
      "delay": "—",
      "metarCat": "VFR",
      "metarRaw": "METAR KLNS 281353Z 13005KT 10SM OVC100 11/07 A3015 RMK AO2 SLP209 T01110072",
      "metarObsTime": 1777384380,
      "faaFlow": null
    },
    "KIPT": {
      "status": "OK",
      "delay": "—",
      "metarCat": "VFR",
      "metarRaw": "METAR KIPT 281354Z 12008G17KT 10SM FEW075 BKN100 13/06 A3009 RMK AO2 SLP189 T01280056 $",
      "metarObsTime": 1777384440,
      "faaFlow": null
    },
    "KPHL": {
      "status": "OK",
      "delay": "—",
      "metarCat": "VFR",
      "metarRaw": "METAR KPHL 281354Z 22008KT 10SM FEW120 BKN180 BKN230 BKN330 16/03 A3018 RMK AO2 SLP219 VIRGA T01560028 $",
      "metarObsTime": 1777384440,
      "faaFlow": null
    },
    "KABE": {
      "status": "OK",
      "delay": "—",
      "metarCat": "VFR",
      "metarRaw": "METAR KABE 281351Z 00000KT 10SM CLR 14/03 A3016 RMK AO2 SLP213 T01390033",
      "metarObsTime": 1777384260,
      "faaFlow": null
    },
    "KAVP": {
      "status": "OK",
      "delay": "—",
      "metarCat": "VFR",
      "metarRaw": "METAR KAVP 281354Z 17008KT 120V190 10SM CLR 15/01 A3012 RMK AO2 SLP197 T01500011",
      "metarObsTime": 1777384440,
      "faaFlow": null
    },
    "KHZL": {
      "status": "OK",
      "delay": "—",
      "metarCat": "VFR",
      "metarRaw": "METAR KHZL 281355Z AUTO 17005KT 10SM CLR 12/02 A3015 RMK AO2",
      "metarObsTime": 1777384500,
      "faaFlow": null
    }
  }
}