{
  "generatedAt": "2026-03-10T11:20:16.227Z",
  "airports": {
    "KPIT": {
      "status": "OK",
      "delay": "—",
      "metarCat": "MVFR",
      "metarRaw": "METAR KPIT 101051Z 18003KT 10SM BKN028 BKN040 14/02 A2999 RMK AO2 SLP160 T01440022",
      "metarObsTime": 1773139860
    },
    "KAGC": {
      "status": "OK",
      "delay": "—",
      "metarCat": "MVFR",
      "metarRaw": "METAR KAGC 101053Z 19009KT 10SM BKN026 OVC043 14/01 A2999 RMK AO2 SLP157 T01390006",
      "metarObsTime": 1773139980
    },
    "KLBE": {
      "status": "OK",
      "delay": "—",
      "metarCat": "MVFR",
      "metarRaw": "METAR KLBE 101050Z 22009KT 10SM BKN030 OVC040 15/05 A3003",
      "metarObsTime": 1773139800
    },
    "KJST": {
      "status": "OK",
      "delay": "—",
      "metarCat": "VFR",
      "metarRaw": "METAR KJST 101054Z AUTO 22008KT 10SM SCT030 SCT036 13/M01 A3003 RMK AO2 SLP163 T01331011",
      "metarObsTime": 1773140040
    },
    "KERI": {
      "status": "OK",
      "delay": "—",
      "metarCat": "VFR",
      "metarRaw": "METAR KERI 101051Z 20010KT 10SM FEW028 FEW036 BKN055 17/09 A2990 RMK AO2 SLP124 T01670094",
      "metarObsTime": 1773139860
    },
    "KDUJ": {
      "status": "OK",
      "delay": "—",
      "metarCat": "VFR",
      "metarRaw": "METAR KDUJ 101053Z AUTO 22009KT 10SM SCT028 BKN035 BKN050 14/02 A2998 RMK AO2 SLP147 T01390017",
      "metarObsTime": 1773139980
    },
    "KBFD": {
      "status": "OK",
      "delay": "—",
      "metarCat": "VFR",
      "metarRaw": "METAR KBFD 101053Z AUTO 23005KT 10SM FEW022 OVC055 13/05 A2997 RMK AO2 SLP142 T01330050 $",
      "metarObsTime": 1773139980
    },
    "KBTP": {
      "status": "OK",
      "delay": "—",
      "metarCat": "VFR",
      "metarRaw": "METAR KBTP 101056Z AUTO 18007KT 10SM FEW029 OVC038 14/03 A3000 RMK AO2 RAB26E38 SLP161 P0000 T01390028 $",
      "metarObsTime": 1773140160
    },
    "KFKL": {
      "status": "OK",
      "delay": "—",
      "metarCat": "VFR",
      "metarRaw": "SPECI KFKL 101104Z AUTO 22009KT 10SM SCT024 BKN036 OVC046 15/07 A2997 RMK AO2",
      "metarObsTime": 1773140640
    },
    "KIDI": {
      "status": "OK",
      "delay": "—",
      "metarCat": "VFR",
      "metarRaw": "METAR KIDI 101115Z AUTO 22007KT 10SM SCT026 BKN034 OVC044 14/02 A3001 RMK A01",
      "metarObsTime": 1773141300
    },
    "KMDT": {
      "status": "OK",
      "delay": "—",
      "metarCat": "VFR",
      "metarRaw": "METAR KMDT 101056Z 00000KT 10SM SCT250 04/03 A3003 RMK AO2 SLP169 T00440033",
      "metarObsTime": 1773140160
    },
    "KCXY": {
      "status": "OK",
      "delay": "—",
      "metarCat": "VFR",
      "metarRaw": "METAR KCXY 101056Z 00000KT 10SM CLR 04/03 A3003 RMK AO2 SLP171 T00440028",
      "metarObsTime": 1773140160
    },
    "KMUI": {
      "status": "OK",
      "delay": "—",
      "metarCat": "VFR",
      "metarRaw": "METAR KMUI 101055Z AUTO 00000KT 10SM CLR 04/03 A3001 RMK AO2 SLP166 T00370034",
      "metarObsTime": 1773140100
    },
    "KUNV": {
      "status": "OK",
      "delay": "—",
      "metarCat": "VFR",
      "metarRaw": "METAR KUNV 101053Z 00000KT 10SM CLR 08/M01 A3000",
      "metarObsTime": 1773139980
    },
    "KAOO": {
      "status": "OK",
      "delay": "—",
      "metarCat": "VFR",
      "metarRaw": "METAR KAOO 101053Z AUTO 21005KT 10SM CLR 11/M01 A3002 RMK AO2 SLP162 T01111011",
      "metarObsTime": 1773139980
    },
    "KLNS": {
      "status": "OK",
      "delay": "—",
      "metarCat": "VFR",
      "metarRaw": "METAR KLNS 101053Z 00000KT 10SM CLR 05/04 A3003 RMK AO2 SLP169 T00500039",
      "metarObsTime": 1773139980
    },
    "KIPT": {
      "status": "OK",
      "delay": "—",
      "metarCat": "VFR",
      "metarRaw": "METAR KIPT 101054Z 00000KT 10SM CLR 02/01 A3001 RMK AO2 SLP164 T00220006 $",
      "metarObsTime": 1773140040
    },
    "KPHL": {
      "status": "OK",
      "delay": "—",
      "metarCat": "LIFR",
      "metarRaw": "SPECI KPHL 101113Z 22004KT 3/4SM BR SCT002 BKN270 07/06 A3004 RMK AO2 VIS NE-E 5 T00670056 RVRNO $",
      "metarObsTime": 1773141180
    },
    "KABE": {
      "status": "OK",
      "delay": "—",
      "metarCat": "VFR",
      "metarRaw": "METAR KABE 101051Z 00000KT 10SM CLR 03/02 A3003 RMK AO2 SLP170 T00330022",
      "metarObsTime": 1773139860
    },
    "KAVP": {
      "status": "OK",
      "delay": "—",
      "metarCat": "VFR",
      "metarRaw": "METAR KAVP 101054Z 00000KT 10SM CLR 06/02 A3000 RMK AO2 SLP159 T00610017",
      "metarObsTime": 1773140040
    },
    "KHZL": {
      "status": "OK",
      "delay": "—",
      "metarCat": "VFR",
      "metarRaw": "METAR KHZL 101115Z AUTO 00000KT 10SM CLR 02/01 A3005 RMK AO2",
      "metarObsTime": 1773141300
    }
  }
}