{
  "generatedAt": "2026-03-31T01:50:31.035Z",
  "airports": {
    "KPIT": {
      "status": "OK",
      "delay": "—",
      "metarCat": "VFR",
      "metarRaw": "METAR KPIT 310051Z 20007KT 10SM SCT090 OVC120 19/10 A3004 RMK AO2 SLP176 T01940100",
      "metarObsTime": 1774918260
    },
    "KAGC": {
      "status": "OK",
      "delay": "—",
      "metarCat": "VFR",
      "metarRaw": "METAR KAGC 310053Z 20008KT 10SM BKN100 OVC120 19/10 A3005 RMK AO2 SLP176 T01890100",
      "metarObsTime": 1774918380
    },
    "KLBE": {
      "status": "OK",
      "delay": "—",
      "metarCat": "VFR",
      "metarRaw": "METAR KLBE 310053Z 22017G24KT 10SM BKN120 19/11 A3008",
      "metarObsTime": 1774918380
    },
    "KJST": {
      "status": "OK",
      "delay": "—",
      "metarCat": "VFR",
      "metarRaw": "METAR KJST 310054Z AUTO 22012G19KT 10SM FEW080 OVC120 16/09 A3009 RMK AO2 SLP187 T01560089",
      "metarObsTime": 1774918440
    },
    "KERI": {
      "status": "OK",
      "delay": "—",
      "metarCat": "VFR",
      "metarRaw": "SPECI KERI 310130Z 19012KT 10SM VCTS BKN050 OVC055 18/12 A2995 RMK AO2 LTG DSNT E AND W AND NW RAE03 TSB0054E09 P0000 T01780117 $",
      "metarObsTime": 1774920600
    },
    "KDUJ": {
      "status": "OK",
      "delay": "—",
      "metarCat": "VFR",
      "metarRaw": "METAR KDUJ 310053Z AUTO 21008G18KT 10SM OVC060 16/08 A3004 RMK AO2 SLP169 T01610078",
      "metarObsTime": 1774918380
    },
    "KBFD": {
      "status": "OK",
      "delay": "—",
      "metarCat": "VFR",
      "metarRaw": "METAR KBFD 310053Z AUTO 19005KT 10SM OVC034 12/09 A3003 RMK AO2 LTG DSNT NW RAE01B23E49 SLP168 P0002 T01220094",
      "metarObsTime": 1774918380
    },
    "KBTP": {
      "status": "OK",
      "delay": "—",
      "metarCat": "VFR",
      "metarRaw": "METAR KBTP 310056Z AUTO 20008KT 10SM FEW085 OVC120 18/11 A3004 RMK AO2 RAB20E40 SLP176 P0000 T01830106 $",
      "metarObsTime": 1774918560
    },
    "KFKL": {
      "status": "OK",
      "delay": "—",
      "metarCat": "VFR",
      "metarRaw": "METAR KFKL 310056Z AUTO 20010KT 10SM -RA SCT045 BKN075 OVC110 16/11 A3001 RMK AO2 RAB15E27B48 SLP162 P0000 T01610106",
      "metarObsTime": 1774918560
    },
    "KIDI": {
      "status": "OK",
      "delay": "—",
      "metarCat": "VFR",
      "metarRaw": "METAR KIDI 310135Z AUTO 21011G18KT 10SM FEW049 BKN070 OVC110 18/10 A3006 RMK A01",
      "metarObsTime": 1774920900
    },
    "KMDT": {
      "status": "OK",
      "delay": "—",
      "metarCat": "VFR",
      "metarRaw": "METAR KMDT 310056Z 19007G18KT 10SM BKN120 18/09 A3008 RMK AO2 SLP186 T01830094",
      "metarObsTime": 1774918560
    },
    "KCXY": {
      "status": "OK",
      "delay": "—",
      "metarCat": "VFR",
      "metarRaw": "METAR KCXY 310056Z 22012G20KT 10SM BKN120 19/09 A3008 RMK AO2 SLP187 T01890094",
      "metarObsTime": 1774918560
    },
    "KMUI": {
      "status": "OK",
      "delay": "—",
      "metarCat": "—",
      "metarRaw": "—",
      "metarObsTime": null
    },
    "KUNV": {
      "status": "OK",
      "delay": "—",
      "metarCat": "—",
      "metarRaw": "—",
      "metarObsTime": null
    },
    "KAOO": {
      "status": "OK",
      "delay": "—",
      "metarCat": "VFR",
      "metarRaw": "METAR KAOO 310053Z AUTO 22010KT 10SM OVC120 18/09 A3008 RMK AO2 SLP183 T01780089",
      "metarObsTime": 1774918380
    },
    "KLNS": {
      "status": "OK",
      "delay": "—",
      "metarCat": "VFR",
      "metarRaw": "METAR KLNS 310053Z 21007KT 10SM CLR 18/09 A3010 RMK AO2 SLP191 T01780094",
      "metarObsTime": 1774918380
    },
    "KIPT": {
      "status": "OK",
      "delay": "—",
      "metarCat": "VFR",
      "metarRaw": "METAR KIPT 310054Z 23009KT 10SM BKN120 20/08 A3002 RMK AO2 SLP167 T02000078 $",
      "metarObsTime": 1774918440
    },
    "KPHL": {
      "status": "OK",
      "delay": "—",
      "metarCat": "VFR",
      "metarRaw": "METAR KPHL 310054Z 20007KT 10SM FEW090 BKN120 18/09 A3012 RMK AO2 SLP199 T01830094 $",
      "metarObsTime": 1774918440
    },
    "KABE": {
      "status": "OK",
      "delay": "—",
      "metarCat": "VFR",
      "metarRaw": "METAR KABE 310051Z 19005KT 10SM FEW075 SCT100 17/09 A3008 RMK AO2 SLP187 T01720089 $",
      "metarObsTime": 1774918260
    },
    "KAVP": {
      "status": "OK",
      "delay": "—",
      "metarCat": "VFR",
      "metarRaw": "METAR KAVP 310054Z 20007KT 10SM FEW080 OVC110 17/07 A3004 RMK AO2 SLP170 T01720072",
      "metarObsTime": 1774918440
    },
    "KHZL": {
      "status": "OK",
      "delay": "—",
      "metarCat": "VFR",
      "metarRaw": "METAR KHZL 310135Z AUTO 21004KT 10SM OVC060 16/07 A3011 RMK AO2",
      "metarObsTime": 1774920900
    }
  }
}