{
  "generatedAt": "2026-03-07T19:50:17.372Z",
  "airports": {
    "KPIT": {
      "status": "OK",
      "delay": "—",
      "metarCat": "VFR",
      "metarRaw": "METAR KPIT 071851Z 22016G28KT 10SM BKN050 BKN110 BKN250 25/13 A2982 RMK AO2 PK WND 23030/1803 SLP098 T02500133",
      "metarObsTime": 1772909460
    },
    "KAGC": {
      "status": "OK",
      "delay": "—",
      "metarCat": "VFR",
      "metarRaw": "METAR KAGC 071853Z 22016G26KT 10SM BKN060 BKN075 25/13 A2984 RMK AO2 PK WND 23032/1759 SLP100 T02500133",
      "metarObsTime": 1772909580
    },
    "KLBE": {
      "status": "OK",
      "delay": "—",
      "metarCat": "VFR",
      "metarRaw": "METAR KLBE 071853Z 21015G31KT 10SM BKN050 26/15 A2986",
      "metarObsTime": 1772909580
    },
    "KJST": {
      "status": "OK",
      "delay": "—",
      "metarCat": "VFR",
      "metarRaw": "METAR KJST 071854Z AUTO 22015G26KT 10SM SCT047 SCT060 23/12 A2989 RMK AO2 PK WND 24031/1820 SLP115 T02330122",
      "metarObsTime": 1772909640
    },
    "KERI": {
      "status": "OK",
      "delay": "—",
      "metarCat": "VFR",
      "metarRaw": "SPECI KERI 071914Z 20016G24KT 8SM -RA BKN090 BKN110 20/16 A2970 RMK AO2 LTG DSNT S RAE1859B11 P0000 T02000161",
      "metarObsTime": 1772910840
    },
    "KDUJ": {
      "status": "OK",
      "delay": "—",
      "metarCat": "VFR",
      "metarRaw": "METAR KDUJ 071853Z AUTO 23011G24KT 10SM CLR 23/12 A2982 RMK AO2 PK WND 23036/1821 SLP092 T02330122",
      "metarObsTime": 1772909580
    },
    "KBFD": {
      "status": "OK",
      "delay": "—",
      "metarCat": "VFR",
      "metarRaw": "METAR KBFD 071853Z AUTO 23012G24KT 10SM FEW041 SCT050 BKN060 22/13 A2980 RMK AO2 SLP084 T02170128",
      "metarObsTime": 1772909580
    },
    "KBTP": {
      "status": "OK",
      "delay": "—",
      "metarCat": "VFR",
      "metarRaw": "METAR KBTP 071856Z AUTO 23016G26KT 10SM BKN050 BKN110 24/14 A2982 RMK AO2 PK WND 21032/1842 SLP095 T02440144 $",
      "metarObsTime": 1772909760
    },
    "KFKL": {
      "status": "OK",
      "delay": "—",
      "metarCat": "VFR",
      "metarRaw": "METAR KFKL 071856Z AUTO 22016G32KT 9SM -RA FEW031 SCT047 BKN060 21/15 A2979 RMK AO2 PK WND 23032/1851 LTG DSNT NW RAB47 SLP081 P0001 T02110150",
      "metarObsTime": 1772909760
    },
    "KIDI": {
      "status": "OK",
      "delay": "—",
      "metarCat": "VFR",
      "metarRaw": "METAR KIDI 071935Z AUTO 22017G26KT 10SM SCT060 SCT070 SCT110 26/14 A2982 RMK A01",
      "metarObsTime": 1772912100
    },
    "KMDT": {
      "status": "OK",
      "delay": "—",
      "metarCat": "MVFR",
      "metarRaw": "METAR KMDT 071856Z 13006KT 10SM OVC010 08/06 A3004 RMK AO2 SLP173 T00830061",
      "metarObsTime": 1772909760
    },
    "KCXY": {
      "status": "OK",
      "delay": "—",
      "metarCat": "IFR",
      "metarRaw": "METAR KCXY 071856Z 10007KT 3SM BR OVC008 08/06 A3004 RMK AO2 SLP175 T00830061",
      "metarObsTime": 1772909760
    },
    "KMUI": {
      "status": "OK",
      "delay": "—",
      "metarCat": "IFR",
      "metarRaw": "METAR KMUI 071855Z AUTO 13004KT 10SM OVC006 08/07 A3002 RMK AO2 SLP171 T00750072",
      "metarObsTime": 1772909700
    },
    "KUNV": {
      "status": "OK",
      "delay": "—",
      "metarCat": "VFR",
      "metarRaw": "METAR KUNV 071853Z 22009KT 10SM CLR 15/10 A2993",
      "metarObsTime": 1772909580
    },
    "KAOO": {
      "status": "OK",
      "delay": "—",
      "metarCat": "—",
      "metarRaw": "—",
      "metarObsTime": null
    },
    "KLNS": {
      "status": "OK",
      "delay": "—",
      "metarCat": "IFR",
      "metarRaw": "METAR KLNS 071853Z 15006KT 10SM OVC007 08/07 A3006 RMK AO2 SLP179 T00780067",
      "metarObsTime": 1772909580
    },
    "KIPT": {
      "status": "OK",
      "delay": "—",
      "metarCat": "IFR",
      "metarRaw": "METAR KIPT 071854Z 09009G16KT 10SM OVC008 07/06 A2997 RMK AO2 PRESFR SLP152 T00720056",
      "metarObsTime": 1772909640
    },
    "KPHL": {
      "status": "OK",
      "delay": "—",
      "metarCat": "IFR",
      "metarRaw": "METAR KPHL 071854Z 00000KT 7SM OVC007 10/07 A3009 RMK AO2 SLP188 T01000072 $",
      "metarObsTime": 1772909640
    },
    "KABE": {
      "status": "OK",
      "delay": "—",
      "metarCat": "IFR",
      "metarRaw": "METAR KABE 071851Z 19007KT 150V220 10SM OVC009 08/06 A3006 RMK AO2 SLP181 T00780056",
      "metarObsTime": 1772909460
    },
    "KAVP": {
      "status": "OK",
      "delay": "—",
      "metarCat": "VFR",
      "metarRaw": "METAR KAVP 071854Z 18009G15KT 130V200 10SM FEW017 12/06 A2998 RMK AO2 SLP154 T01170061",
      "metarObsTime": 1772909640
    },
    "KHZL": {
      "status": "OK",
      "delay": "—",
      "metarCat": "LIFR",
      "metarRaw": "METAR KHZL 071935Z AUTO 00000KT 3SM BR OVC002 06/05 A3000 RMK AO2",
      "metarObsTime": 1772912100
    }
  }
}