{
  "generatedAt": "2026-03-17T01:50:17.165Z",
  "airports": {
    "KPIT": {
      "status": "OK",
      "delay": "—",
      "metarCat": "IFR",
      "metarRaw": "SPECI KPIT 170136Z 24008KT 2 1/2SM -SN BR BKN005 OVC015 M03/M03 A2957 RMK AO2 P0001 T10281028 $",
      "metarObsTime": 1773711360
    },
    "KAGC": {
      "status": "OK",
      "delay": "—",
      "metarCat": "IFR",
      "metarRaw": "SPECI KAGC 170132Z 27013G25KT 3SM -SN BR BKN008 OVC016 M03/M04 A2955 RMK AO2 PK WND 28031/0116 P0000 T10331039 $",
      "metarObsTime": 1773711120
    },
    "KLBE": {
      "status": "OK",
      "delay": "—",
      "metarCat": "LIFR",
      "metarRaw": "METAR KLBE 170047Z 24017G31KT 1/2SM -SN FZFG VV001 M01/M01 A2956",
      "metarObsTime": 1773708420
    },
    "KJST": {
      "status": "OK",
      "delay": "—",
      "metarCat": "LIFR",
      "metarRaw": "SPECI KJST 170142Z AUTO 26017G28KT 1/2SM SN FZFG VV005 M03/M04 A2945 RMK AO2 PK WND 27032/0130 P0002 T10331044",
      "metarObsTime": 1773711720
    },
    "KERI": {
      "status": "OK",
      "delay": "—",
      "metarCat": "LIFR",
      "metarRaw": "SPECI KERI 170129Z 24014G24KT 1/4SM R06/3000VP6000FT +SN FZFG FEW009 OVC014 M03/M04 A2946 RMK AO2 PK WND 24029/0053 P0001 T10281039 $",
      "metarObsTime": 1773710940
    },
    "KDUJ": {
      "status": "OK",
      "delay": "—",
      "metarCat": "LIFR",
      "metarRaw": "SPECI KDUJ 170139Z AUTO 26025G36KT 1/2SM SN FZFG VV005 M03/M05 A2945 RMK AO2 PK WND 25036/0138 P0002 T10331050",
      "metarObsTime": 1773711540
    },
    "KBFD": {
      "status": "OK",
      "delay": "—",
      "metarCat": "LIFR",
      "metarRaw": "SPECI KBFD 170107Z AUTO 27016G30KT 1/2SM SN FZFG VV006 M03/M04 A2937 RMK AO2 PK WND 24030/0103 P0000 T10331044",
      "metarObsTime": 1773709620
    },
    "KBTP": {
      "status": "OK",
      "delay": "—",
      "metarCat": "—",
      "metarRaw": "—",
      "metarObsTime": null
    },
    "KFKL": {
      "status": "OK",
      "delay": "—",
      "metarCat": "LIFR",
      "metarRaw": "METAR KFKL 170056Z AUTO 26014G23KT 1/2SM SN FZFG OVC006 M03/M04 A2951 RMK AO2 PRESRR SLP003 P0000 T10331039 FZRANO",
      "metarObsTime": 1773708960
    },
    "KIDI": {
      "status": "OK",
      "delay": "—",
      "metarCat": "LIFR",
      "metarRaw": "METAR KIDI 170135Z AUTO 27010G21KT 1/4SM FZFG OVC002 M02/M03 A2951 RMK A01",
      "metarObsTime": 1773711300
    },
    "KMDT": {
      "status": "OK",
      "delay": "—",
      "metarCat": "MVFR",
      "metarRaw": "SPECI KMDT 170135Z 30025G35KT 3SM RA BR FEW014 OVC036 06/04 A2937 RMK AO2 PK WND 32043/0125 WSHFT 0043 P0008 T00610044",
      "metarObsTime": 1773711300
    },
    "KCXY": {
      "status": "OK",
      "delay": "—",
      "metarCat": "MVFR",
      "metarRaw": "SPECI KCXY 170132Z AUTO 30019G37KT 5SM -RA BR SCT012 BKN018 OVC035 06/03 A2938 RMK AO2 PK WND 31037/0126 PRESRR P0013 T00560033",
      "metarObsTime": 1773711120
    },
    "KMUI": {
      "status": "OK",
      "delay": "—",
      "metarCat": "MVFR",
      "metarRaw": "SPECI KMUI 170132Z 30031G41KT 4SM RA BR FEW005 SCT014 SCT020 BKN027 OVC037 07/05 A2925 RMK AO2A SLP908",
      "metarObsTime": 1773711120
    },
    "KUNV": {
      "status": "OK",
      "delay": "—",
      "metarCat": "IFR",
      "metarRaw": "SPECI KUNV 170130Z 27016G23KT 1SM -SN BKN009 OVC014 00/00 A2944",
      "metarObsTime": 1773711000
    },
    "KAOO": {
      "status": "OK",
      "delay": "—",
      "metarCat": "LIFR",
      "metarRaw": "SPECI KAOO 170129Z AUTO 27015G23KT 3/4SM -SN BR FEW004 OVC008 M01/M03 A2950 RMK AO2 PK WND 25028/0057 PRESRR P0000 T10111028",
      "metarObsTime": 1773710940
    },
    "KLNS": {
      "status": "OK",
      "delay": "—",
      "metarCat": "IFR",
      "metarRaw": "SPECI KLNS 170146Z 30033G45KT 1 3/4SM +RA BR FEW009 BKN020 OVC025 09/07 A2929 RMK AO2 PK WND 29045/0146 WSHFT 0130 RAB14 PRESRR P0011 T00940072",
      "metarObsTime": 1773711960
    },
    "KIPT": {
      "status": "OK",
      "delay": "—",
      "metarCat": "MVFR",
      "metarRaw": "SPECI KIPT 170131Z 26018G32KT 4SM RA BR SCT010 BKN016 OVC030 04/03 A2934 RMK AO2 PK WND 28032/0124 P0011 T00390028",
      "metarObsTime": 1773711060
    },
    "KPHL": {
      "status": "OK",
      "delay": "—",
      "metarCat": "VFR",
      "metarRaw": "SPECI KPHL 170116Z 16013G21KT 10SM SCT013 BKN095 OVC230 17/14 A2933 RMK AO2 T01670144 $",
      "metarObsTime": 1773710160
    },
    "KABE": {
      "status": "OK",
      "delay": "—",
      "metarCat": "MVFR",
      "metarRaw": "METAR KABE 170051Z 15009G24KT 10SM SCT014 BKN020 OVC090 17/14 A2927 RMK AO2 PK WND 17027/0035 PRESFR SLP909 T01670139 $",
      "metarObsTime": 1773708660
    },
    "KAVP": {
      "status": "OK",
      "delay": "—",
      "metarCat": "VFR",
      "metarRaw": "METAR KAVP 170054Z 17011G29KT 140V210 10SM FEW031 SCT041 BKN050 17/13 A2920 RMK AO2 PK WND 18029/0049 RAB33E45 SLP881 P0000 T01670128",
      "metarObsTime": 1773708840
    },
    "KHZL": {
      "status": "OK",
      "delay": "—",
      "metarCat": "IFR",
      "metarRaw": "METAR KHZL 170135Z AUTO 27010G22KT 2SM +RA SCT007 OVC012 07/05 A2930 RMK AO2 P0022",
      "metarObsTime": 1773711300
    }
  }
}