{
  "generatedAt": "2026-03-20T19:00:19.966Z",
  "airports": {
    "KPIT": {
      "status": "OK",
      "delay": "—",
      "metarCat": "VFR",
      "metarRaw": "METAR KPIT 201851Z 21009G18KT 7SM -RA SCT050 BKN070 OVC100 14/07 A2977 RMK AO2 SLP091 OCNL LTG DSNT E P0001 T01440067",
      "metarObsTime": 1774032660
    },
    "KAGC": {
      "status": "OK",
      "delay": "—",
      "metarCat": "VFR",
      "metarRaw": "METAR KAGC 201853Z 22010KT 7SM -RA FEW043 BKN060 OVC080 14/07 A2977 RMK AO2 PK WND 21026/1754 RAB1754 SLP088 P0002 T01390072",
      "metarObsTime": 1774032780
    },
    "KLBE": {
      "status": "OK",
      "delay": "—",
      "metarCat": "VFR",
      "metarRaw": "METAR KLBE 201747Z 22018G26KT 10SM FEW038 SCT049 OVC090 17/05 A2985",
      "metarObsTime": 1774028820
    },
    "KJST": {
      "status": "OK",
      "delay": "—",
      "metarCat": "VFR",
      "metarRaw": "METAR KJST 201854Z AUTO 24012G22KT 10SM -RA OVC050 13/04 A2980 RMK AO2 PK WND 24030/1835 SLP095 P0000 T01330044",
      "metarObsTime": 1774032840
    },
    "KERI": {
      "status": "OK",
      "delay": "—",
      "metarCat": "VFR",
      "metarRaw": "METAR KERI 201851Z 20014G25KT 10SM BKN055 OVC070 12/08 A2968 RMK AO2 RAE38 SLP056 P0002 T01170083",
      "metarObsTime": 1774032660
    },
    "KDUJ": {
      "status": "OK",
      "delay": "—",
      "metarCat": "MVFR",
      "metarRaw": "METAR KDUJ 201853Z AUTO 24012G22KT 4SM RA SCT035 BKN047 OVC055 10/07 A2976 RMK AO2 SLP085 P0005 T01000067",
      "metarObsTime": 1774032780
    },
    "KBFD": {
      "status": "OK",
      "delay": "—",
      "metarCat": "MVFR",
      "metarRaw": "METAR KBFD 201853Z AUTO 22007G18KT 190V260 4SM RA BR BKN022 OVC041 08/06 A2974 RMK AO2 SLP084 P0010 T00780061",
      "metarObsTime": 1774032780
    },
    "KBTP": {
      "status": "OK",
      "delay": "—",
      "metarCat": "VFR",
      "metarRaw": "METAR KBTP 201756Z AUTO 21011G16KT 10SM -RA OVC065 14/06 A2980 RMK AO2 RAB14 SLP102 P0000 60000 T01390061 10150 20067 58033 $",
      "metarObsTime": 1774029360
    },
    "KFKL": {
      "status": "OK",
      "delay": "—",
      "metarCat": "VFR",
      "metarRaw": "METAR KFKL 201756Z AUTO 23006KT 10SM RA BKN041 OVC055 10/08 A2980 RMK AO2 SLP099 P0005 60005 T01000078 10122 20044 56018",
      "metarObsTime": 1774029360
    },
    "KIDI": {
      "status": "OK",
      "delay": "—",
      "metarCat": "MVFR",
      "metarRaw": "METAR KIDI 201855Z AUTO 22012G19KT 4SM HZ FEW038 BKN060 13/07 A2978 RMK A01",
      "metarObsTime": 1774032900
    },
    "KMDT": {
      "status": "OK",
      "delay": "—",
      "metarCat": "VFR",
      "metarRaw": "METAR KMDT 201756Z 21009G23KT 170V230 10SM FEW055 BKN200 19/03 A2985 RMK AO2 SLP110 T01940028 10194 20022 58053",
      "metarObsTime": 1774029360
    },
    "KCXY": {
      "status": "OK",
      "delay": "—",
      "metarCat": "VFR",
      "metarRaw": "METAR KCXY 201756Z 21010G26KT 190V250 10SM CLR 21/03 A2985 RMK AO2 PK WND 17027/1723 PRESFR SLP110 T02060033 10206 20017 58054",
      "metarObsTime": 1774029360
    },
    "KMUI": {
      "status": "OK",
      "delay": "—",
      "metarCat": "VFR",
      "metarRaw": "METAR KMUI 201755Z 18009G14KT 10SM FEW070 SCT140 BKN250 22/07 A2984 RMK AO2A PRESFR SLP108 T02200070 10220 20003 57051",
      "metarObsTime": 1774029300
    },
    "KUNV": {
      "status": "OK",
      "delay": "—",
      "metarCat": "VFR",
      "metarRaw": "METAR KUNV 201853Z 22010G19KT 10SM -DZ OVC065 16/05 A2976",
      "metarObsTime": 1774032780
    },
    "KAOO": {
      "status": "OK",
      "delay": "—",
      "metarCat": "VFR",
      "metarRaw": "METAR KAOO 201853Z AUTO 23017G32KT 10SM -RA BKN070 17/03 A2980 RMK AO2 PK WND 28034/1817 RAB1758 SLP094 P0000 T01720033",
      "metarObsTime": 1774032780
    },
    "KLNS": {
      "status": "OK",
      "delay": "—",
      "metarCat": "VFR",
      "metarRaw": "METAR KLNS 201853Z 19012KT 10SM CLR 19/04 A2982 RMK AO2 SLP099 T01890039",
      "metarObsTime": 1774032780
    },
    "KIPT": {
      "status": "OK",
      "delay": "—",
      "metarCat": "VFR",
      "metarRaw": "METAR KIPT 201854Z 27005KT 9SM OVC070 09/03 A2978 RMK AO2 SLP087 T00940033 $",
      "metarObsTime": 1774032840
    },
    "KPHL": {
      "status": "OK",
      "delay": "—",
      "metarCat": "VFR",
      "metarRaw": "METAR KPHL 201854Z 19014G23KT 10SM BKN100 BKN260 18/04 A2989 RMK AO2 SLP122 T01830039 $",
      "metarObsTime": 1774032840
    },
    "KABE": {
      "status": "OK",
      "delay": "—",
      "metarCat": "VFR",
      "metarRaw": "METAR KABE 201851Z 19014G23KT 10SM SCT095 18/03 A2982 RMK AO2 PK WND 21027/1811 PRESFR SLP096 T01830028 $",
      "metarObsTime": 1774032660
    },
    "KAVP": {
      "status": "OK",
      "delay": "—",
      "metarCat": "VFR",
      "metarRaw": "METAR KAVP 201854Z 21007G17KT 170V230 10SM -RA SCT055 OVC070 14/03 A2977 RMK AO2 RAB13 SLP084 P0000 T01440033",
      "metarObsTime": 1774032840
    },
    "KHZL": {
      "status": "OK",
      "delay": "—",
      "metarCat": "VFR",
      "metarRaw": "METAR KHZL 201835Z AUTO 17006G15KT 10SM BKN075 BKN090 14/02 A2984 RMK AO2",
      "metarObsTime": 1774031700
    }
  }
}