{
  "generatedAt": "2026-04-01T19:20:32.577Z",
  "airports": {
    "KPIT": {
      "status": "OK",
      "delay": "—",
      "metarCat": "IFR",
      "metarRaw": "METAR KPIT 011851Z 01011G20KT 10SM OVC007 12/09 A3010 RMK AO2 SLP198 T01220094",
      "metarObsTime": 1775069460
    },
    "KAGC": {
      "status": "OK",
      "delay": "—",
      "metarCat": "VFR",
      "metarRaw": "METAR KAGC 011853Z 34005KT 10SM FEW021 SCT034 19/15 A3007 RMK AO2 SLP183 T01940150",
      "metarObsTime": 1775069580
    },
    "KLBE": {
      "status": "OK",
      "delay": "—",
      "metarCat": "VFR",
      "metarRaw": "METAR KLBE 011853Z 22005KT 10SM BKN095 22/16 A3009",
      "metarObsTime": 1775069580
    },
    "KJST": {
      "status": "OK",
      "delay": "—",
      "metarCat": "VFR",
      "metarRaw": "METAR KJST 011854Z AUTO 10SM FEW029 SCT060 19/12 A3010 RMK AO2 SLP186 T01940122",
      "metarObsTime": 1775069640
    },
    "KERI": {
      "status": "OK",
      "delay": "—",
      "metarCat": "IFR",
      "metarRaw": "METAR KERI 011851Z 04014G22KT 3SM -RA BR OVC007 02/01 A3024 RMK AO2 CIG 006V014 SLP245 P0006 T00220011 $",
      "metarObsTime": 1775069460
    },
    "KDUJ": {
      "status": "OK",
      "delay": "—",
      "metarCat": "LIFR",
      "metarRaw": "METAR KDUJ 011853Z AUTO 35007KT 10SM OVC004 12/11 A3012 RMK AO2 RAE06 SLP199 P0001 T01170111",
      "metarObsTime": 1775069580
    },
    "KBFD": {
      "status": "OK",
      "delay": "—",
      "metarCat": "IFR",
      "metarRaw": "SPECI KBFD 011915Z AUTO VRB04KT 4SM -RA BR BKN006 OVC014 07/06 A3015 RMK AO2 CIG 003V008 P0001 T00670056",
      "metarObsTime": 1775070900
    },
    "KBTP": {
      "status": "OK",
      "delay": "—",
      "metarCat": "LIFR",
      "metarRaw": "METAR KBTP 011856Z AUTO VRB06KT 9SM OVC004 11/11 A3013 RMK AO2 SLP208 T01110111 $",
      "metarObsTime": 1775069760
    },
    "KFKL": {
      "status": "OK",
      "delay": "—",
      "metarCat": "LIFR",
      "metarRaw": "METAR KFKL 011856Z AUTO 02008KT 10SM -RA OVC003 07/06 A3015 RMK AO2 RAB1757 SLP215 P0002 T00670061",
      "metarObsTime": 1775069760
    },
    "KIDI": {
      "status": "OK",
      "delay": "—",
      "metarCat": "VFR",
      "metarRaw": "METAR KIDI 011915Z AUTO 28004KT 10SM FEW022 FEW027 SCT110 20/15 A3009 RMK A01",
      "metarObsTime": 1775070900
    },
    "KMDT": {
      "status": "OK",
      "delay": "—",
      "metarCat": "VFR",
      "metarRaw": "METAR KMDT 011856Z 29008KT 10SM FEW045 BKN110 24/13 A3006 RMK AO2 SLP178 T02390133 $",
      "metarObsTime": 1775069760
    },
    "KCXY": {
      "status": "OK",
      "delay": "—",
      "metarCat": "VFR",
      "metarRaw": "METAR KCXY 011856Z 33006KT 10SM SCT049 BKN100 25/13 A3007 RMK AO2 SLP181 T02500133",
      "metarObsTime": 1775069760
    },
    "KMUI": {
      "status": "OK",
      "delay": "—",
      "metarCat": "VFR",
      "metarRaw": "METAR KMUI 011855Z 24011KT 10SM SCT047 BKN100 25/14 A3005 RMK AO2A SLP176 T02450140",
      "metarObsTime": 1775069700
    },
    "KUNV": {
      "status": "OK",
      "delay": "—",
      "metarCat": "MVFR",
      "metarRaw": "METAR KUNV 011853Z 00000KT 10SM BKN029 BKN036 19/13 A3010",
      "metarObsTime": 1775069580
    },
    "KAOO": {
      "status": "OK",
      "delay": "—",
      "metarCat": "VFR",
      "metarRaw": "METAR KAOO 011853Z AUTO 29005KT 10SM CLR 22/13 A3009 RMK AO2 SLP183 T02170128",
      "metarObsTime": 1775069580
    },
    "KLNS": {
      "status": "OK",
      "delay": "—",
      "metarCat": "VFR",
      "metarRaw": "METAR KLNS 011853Z 28010KT 10SM SCT046 24/13 A3007 RMK AO2 SLP180 T02440133",
      "metarObsTime": 1775069580
    },
    "KIPT": {
      "status": "OK",
      "delay": "—",
      "metarCat": "MVFR",
      "metarRaw": "METAR KIPT 011854Z 35006KT 10SM OVC025 14/09 A3014 RMK AO2 SLP207 T01390094 $",
      "metarObsTime": 1775069640
    },
    "KPHL": {
      "status": "OK",
      "delay": "—",
      "metarCat": "VFR",
      "metarRaw": "METAR KPHL 011854Z 26008G17KT 10SM SCT060 SCT120 BKN210 BKN280 28/12 A3004 RMK AO2 SLP171 T02780122 $",
      "metarObsTime": 1775069640
    },
    "KABE": {
      "status": "OK",
      "delay": "—",
      "metarCat": "VFR",
      "metarRaw": "METAR KABE 011851Z AUTO 28007KT 10SM SCT065 24/13 A3005 RMK AO2 SLP173 T02390128 $",
      "metarObsTime": 1775069460
    },
    "KAVP": {
      "status": "OK",
      "delay": "—",
      "metarCat": "MVFR",
      "metarRaw": "METAR KAVP 011854Z 35010KT 10SM OVC018 12/08 A3016 RMK AO2 SLP209 T01170083",
      "metarObsTime": 1775069640
    },
    "KHZL": {
      "status": "OK",
      "delay": "—",
      "metarCat": "MVFR",
      "metarRaw": "METAR KHZL 011915Z AUTO 36005KT 10SM SCT019 SCT023 OVC028 13/08 A3017 RMK AO2",
      "metarObsTime": 1775070900
    }
  }
}