{
  "generatedAt": "2026-03-21T13:40:16.771Z",
  "airports": {
    "KPIT": {
      "status": "OK",
      "delay": "—",
      "metarCat": "MVFR",
      "metarRaw": "METAR KPIT 211251Z 02004KT 8SM OVC013 06/03 A2995 RMK AO2 SLP152 T00610028",
      "metarObsTime": 1774097460
    },
    "KAGC": {
      "status": "OK",
      "delay": "—",
      "metarCat": "MVFR",
      "metarRaw": "SPECI KAGC 211300Z 01004KT 6SM HZ OVC015 07/03 A2995 RMK AO2 T00670033",
      "metarObsTime": 1774098000
    },
    "KLBE": {
      "status": "OK",
      "delay": "—",
      "metarCat": "MVFR",
      "metarRaw": "METAR KLBE 211253Z 32006KT 10SM OVC021 08/05 A2997",
      "metarObsTime": 1774097580
    },
    "KJST": {
      "status": "OK",
      "delay": "—",
      "metarCat": "MVFR",
      "metarRaw": "METAR KJST 211254Z AUTO 29007KT 9SM OVC014 06/03 A2992 RMK AO2 SLP138 T00560033",
      "metarObsTime": 1774097640
    },
    "KERI": {
      "status": "OK",
      "delay": "—",
      "metarCat": "IFR",
      "metarRaw": "SPECI KERI 211335Z 05008KT 2SM BR BKN005 OVC015 02/01 A3004 RMK AO2 CIG 004V008 T00170011",
      "metarObsTime": 1774100100
    },
    "KDUJ": {
      "status": "OK",
      "delay": "—",
      "metarCat": "MVFR",
      "metarRaw": "METAR KDUJ 211253Z AUTO 35005KT 10SM OVC013 03/01 A2993 RMK AO2 SLP141 T00330011",
      "metarObsTime": 1774097580
    },
    "KBFD": {
      "status": "OK",
      "delay": "—",
      "metarCat": "LIFR",
      "metarRaw": "SPECI KBFD 211321Z AUTO 35008KT 3SM BR OVC002 00/00 A2996 RMK AO2 T00000000",
      "metarObsTime": 1774099260
    },
    "KBTP": {
      "status": "OK",
      "delay": "—",
      "metarCat": "MVFR",
      "metarRaw": "METAR KBTP 211256Z AUTO 02004KT 10SM OVC018 06/03 A2997 RMK AO2 SLP158 T00610033 $",
      "metarObsTime": 1774097760
    },
    "KFKL": {
      "status": "OK",
      "delay": "—",
      "metarCat": "IFR",
      "metarRaw": "METAR KFKL 211256Z AUTO 36003KT 10SM OVC009 03/02 A2998 RMK AO2 CIG 007V012 SLP161 T00280017",
      "metarObsTime": 1774097760
    },
    "KIDI": {
      "status": "OK",
      "delay": "—",
      "metarCat": "MVFR",
      "metarRaw": "METAR KIDI 211335Z AUTO 33007KT 10SM OVC018 07/03 A2997 RMK A01",
      "metarObsTime": 1774100100
    },
    "KMDT": {
      "status": "OK",
      "delay": "—",
      "metarCat": "VFR",
      "metarRaw": "METAR KMDT 211256Z 33009KT 10SM FEW020 BKN031 12/08 A2988 RMK AO2 SLP118 T01170078",
      "metarObsTime": 1774097760
    },
    "KCXY": {
      "status": "OK",
      "delay": "—",
      "metarCat": "VFR",
      "metarRaw": "METAR KCXY 211256Z 33005KT 10SM FEW033 SCT045 11/08 A2989 RMK AO2 SLP122 T01110078",
      "metarObsTime": 1774097760
    },
    "KMUI": {
      "status": "OK",
      "delay": "—",
      "metarCat": "VFR",
      "metarRaw": "SPECI KMUI 211327Z AUTO 33008KT 10SM SCT025 10/06 A2988 RMK AO2 SLP122",
      "metarObsTime": 1774099620
    },
    "KUNV": {
      "status": "OK",
      "delay": "—",
      "metarCat": "MVFR",
      "metarRaw": "METAR KUNV 211253Z 32005KT 10SM BKN023 07/03 A2993",
      "metarObsTime": 1774097580
    },
    "KAOO": {
      "status": "OK",
      "delay": "—",
      "metarCat": "VFR",
      "metarRaw": "METAR KAOO 211253Z AUTO 35008KT 10SM SCT021 08/03 A2993 RMK AO2 SLP137 T00780033",
      "metarObsTime": 1774097580
    },
    "KLNS": {
      "status": "OK",
      "delay": "—",
      "metarCat": "VFR",
      "metarRaw": "METAR KLNS 211253Z 36008KT 10SM CLR 11/08 A2986 RMK AO2 SLP113 T01060083",
      "metarObsTime": 1774097580
    },
    "KIPT": {
      "status": "OK",
      "delay": "—",
      "metarCat": "MVFR",
      "metarRaw": "METAR KIPT 211254Z 33008KT 10SM OVC024 06/02 A2994 RMK AO2 SLP142 T00610022 $",
      "metarObsTime": 1774097640
    },
    "KPHL": {
      "status": "OK",
      "delay": "—",
      "metarCat": "VFR",
      "metarRaw": "METAR KPHL 211254Z 34011KT 10SM FEW020 13/11 A2984 RMK AO2 SLP104 T01330106 $",
      "metarObsTime": 1774097640
    },
    "KABE": {
      "status": "OK",
      "delay": "—",
      "metarCat": "MVFR",
      "metarRaw": "SPECI KABE 211312Z 36006KT 10SM BKN025 08/04 A2988 RMK AO2 T00780044 $",
      "metarObsTime": 1774098720
    },
    "KAVP": {
      "status": "OK",
      "delay": "—",
      "metarCat": "MVFR",
      "metarRaw": "METAR KAVP 211254Z 35011KT 10SM OVC014 02/00 A2995 RMK AO2 PRESRR SLP144 T00220000",
      "metarObsTime": 1774097640
    },
    "KHZL": {
      "status": "OK",
      "delay": "—",
      "metarCat": "IFR",
      "metarRaw": "METAR KHZL 211335Z AUTO 34010KT 10SM OVC007 03/01 A2993 RMK AO2",
      "metarObsTime": 1774100100
    }
  }
}