{
  "generatedAt": "2026-03-17T13:10:18.440Z",
  "airports": {
    "KPIT": {
      "status": "OK",
      "delay": "—",
      "metarCat": "VFR",
      "metarRaw": "METAR KPIT 171251Z 26010G20KT 10SM FEW021 SCT033 BKN055 M06/M10 A2991 RMK AO2 SNE26 SLP151 P0000 T10561100 $",
      "metarObsTime": 1773751860
    },
    "KAGC": {
      "status": "OK",
      "delay": "—",
      "metarCat": "VFR",
      "metarRaw": "METAR KAGC 171253Z 27014G22KT 10SM CLR M06/M10 A2991 RMK AO2 PK WND 24026/1157 SLP149 T10561100",
      "metarObsTime": 1773751980
    },
    "KLBE": {
      "status": "OK",
      "delay": "—",
      "metarCat": "MVFR",
      "metarRaw": "METAR KLBE 171251Z 221012G29KT 9SM -SN BKN024 OVC037 M05/M07 A2994",
      "metarObsTime": 1773751860
    },
    "KJST": {
      "status": "OK",
      "delay": "—",
      "metarCat": "LIFR",
      "metarRaw": "SPECI KJST 171307Z AUTO 26015G22KT 1/2SM -SN FZFG FEW009 OVC013 M08/M09 A2980 RMK AO2 P0000 T10781089",
      "metarObsTime": 1773752820
    },
    "KERI": {
      "status": "OK",
      "delay": "—",
      "metarCat": "VFR",
      "metarRaw": "METAR KERI 171251Z 27016G28KT 10SM BKN032 BKN039 OVC046 M06/M12 A2987 RMK PK WIND250/34",
      "metarObsTime": 1773751860
    },
    "KDUJ": {
      "status": "OK",
      "delay": "—",
      "metarCat": "MVFR",
      "metarRaw": "METAR KDUJ 171253Z AUTO 25013G21KT 3SM HZ SCT033 OVC049 M08/M12 A2980 RMK AO2 SNE25 SLP114 P0000 T10781122",
      "metarObsTime": 1773751980
    },
    "KBFD": {
      "status": "OK",
      "delay": "—",
      "metarCat": "VFR",
      "metarRaw": "METAR KBFD 171253Z AUTO 27013G21KT 6SM HZ FEW026 BKN033 OVC043 M09/M13 A2973 RMK AO2 PK WND 27026/1157 SNE49 SLP093 P0000 T10891133",
      "metarObsTime": 1773751980
    },
    "KBTP": {
      "status": "OK",
      "delay": "—",
      "metarCat": "—",
      "metarRaw": "METAR KBTP 171256Z AUTO 27013G17KT 9SM -SN M06/M08 A2990 RMK AO2 SNB32 SLPNO T10561083 FZRANO $",
      "metarObsTime": 1773752160
    },
    "KFKL": {
      "status": "OK",
      "delay": "—",
      "metarCat": "MVFR",
      "metarRaw": "METAR KFKL 171256Z AUTO 26010KT 7SM -SN FEW021 BKN027 OVC036 M07/M10 A2984 RMK AO2 SLP127 P0000 T10721100 FZRANO",
      "metarObsTime": 1773752160
    },
    "KIDI": {
      "status": "OK",
      "delay": "—",
      "metarCat": "IFR",
      "metarRaw": "METAR KIDI 171255Z AUTO 24009KT 1 1/2SM BR FEW004 BKN025 BKN031 M06/M08 A2988 RMK A01",
      "metarObsTime": 1773752100
    },
    "KMDT": {
      "status": "OK",
      "delay": "—",
      "metarCat": "VFR",
      "metarRaw": "METAR KMDT 171256Z 28013G23KT 10SM FEW060 M01/M09 A2991 RMK AO2 SLP130 T10061094",
      "metarObsTime": 1773752160
    },
    "KCXY": {
      "status": "OK",
      "delay": "—",
      "metarCat": "VFR",
      "metarRaw": "METAR KCXY 171256Z 29014G25KT 10SM FEW046 M01/M11 A2991 RMK AO2 SLP132 T10111106",
      "metarObsTime": 1773752160
    },
    "KMUI": {
      "status": "OK",
      "delay": "—",
      "metarCat": "VFR",
      "metarRaw": "METAR KMUI 171255Z 28011G19KT 10SM SCT036 M01/M10 A2986 RMK AO2A PK WND 28026/1156 SLP116 T10111097",
      "metarObsTime": 1773752100
    },
    "KUNV": {
      "status": "OK",
      "delay": "—",
      "metarCat": "VFR",
      "metarRaw": "METAR KUNV 171253Z 27012G21KT 10SM SCT036 M05/M11 A2983",
      "metarObsTime": 1773751980
    },
    "KAOO": {
      "status": "OK",
      "delay": "—",
      "metarCat": "VFR",
      "metarRaw": "METAR KAOO 171253Z AUTO 26012KT 10SM SCT038 OVC050 M05/M11 A2985 RMK AO2 PK WND 27027/1211 SLP129 T10501111",
      "metarObsTime": 1773751980
    },
    "KLNS": {
      "status": "OK",
      "delay": "—",
      "metarCat": "VFR",
      "metarRaw": "METAR KLNS 171253Z 29015G22KT 10SM CLR M02/M09 A2989 RMK AO2 PK WND 28027/1154 SLP124 T10171094",
      "metarObsTime": 1773751980
    },
    "KIPT": {
      "status": "OK",
      "delay": "—",
      "metarCat": "VFR",
      "metarRaw": "METAR KIPT 171254Z 27008KT 10SM FEW034 OVC044 M03/M08 A2984 RMK AO2 SLP110 T10331078",
      "metarObsTime": 1773752040
    },
    "KPHL": {
      "status": "OK",
      "delay": "—",
      "metarCat": "VFR",
      "metarRaw": "METAR KPHL 171254Z 28018G31KT 10SM SCT048 SCT090 SCT200 02/M09 A2989 RMK AO2 PK WND 28031/1211 SLP122 T00171094 $",
      "metarObsTime": 1773752040
    },
    "KABE": {
      "status": "OK",
      "delay": "—",
      "metarCat": "VFR",
      "metarRaw": "METAR KABE 171251Z 27014G28KT 10SM FEW042 M02/M10 A2983 RMK AO2 PK WND 24033/1212 SLP104 T10171100 $",
      "metarObsTime": 1773751860
    },
    "KAVP": {
      "status": "OK",
      "delay": "—",
      "metarCat": "VFR",
      "metarRaw": "SPECI KAVP 171303Z 25015G24KT 10SM FEW030 OVC040 M03/M09 A2977 RMK AO2 T10331089",
      "metarObsTime": 1773752580
    },
    "KHZL": {
      "status": "OK",
      "delay": "—",
      "metarCat": "MVFR",
      "metarRaw": "METAR KHZL 171255Z AUTO 27007KT 10SM BKN026 BKN033 M04/M10 RMK AO2",
      "metarObsTime": 1773752100
    }
  }
}