{
  "generatedAt": "2026-03-10T09:00:16.437Z",
  "airports": {
    "KPIT": {
      "status": "OK",
      "delay": "—",
      "metarCat": "VFR",
      "metarRaw": "METAR KPIT 100851Z 15003KT 10SM SCT033 BKN050 BKN090 12/01 A2998 RMK AO2 SLP155 T01220011 53003",
      "metarObsTime": 1773132660
    },
    "KAGC": {
      "status": "OK",
      "delay": "—",
      "metarCat": "VFR",
      "metarRaw": "METAR KAGC 100853Z 18008KT 10SM BKN046 13/00 A2998 RMK AO2 SLP152 T01330000 51002",
      "metarObsTime": 1773132780
    },
    "KLBE": {
      "status": "OK",
      "delay": "—",
      "metarCat": "VFR",
      "metarRaw": "METAR KLBE 100855Z AUTO 20007KT 10SM BKN050 BKN065 12/04 A3001 RMK AO2",
      "metarObsTime": 1773132900
    },
    "KJST": {
      "status": "OK",
      "delay": "—",
      "metarCat": "VFR",
      "metarRaw": "METAR KJST 100854Z AUTO 21007KT 10SM FEW060 14/M01 A3002 RMK AO2 SLP159 T01391006 52004",
      "metarObsTime": 1773132840
    },
    "KERI": {
      "status": "OK",
      "delay": "—",
      "metarCat": "VFR",
      "metarRaw": "METAR KERI 100851Z AUTO 20011G20KT 10SM FEW030 OVC070 17/08 A2989 RMK AO2 SLP119 T01670083 55003",
      "metarObsTime": 1773132660
    },
    "KDUJ": {
      "status": "OK",
      "delay": "—",
      "metarCat": "VFR",
      "metarRaw": "METAR KDUJ 100853Z AUTO 22006KT 10SM FEW040 OVC060 13/01 A2997 RMK AO2 SLP144 T01280006 58001",
      "metarObsTime": 1773132780
    },
    "KBFD": {
      "status": "OK",
      "delay": "—",
      "metarCat": "VFR",
      "metarRaw": "METAR KBFD 100853Z AUTO 22003KT 10SM SCT050 12/02 A2996 RMK AO2 SLP138 T01220022 56005 $",
      "metarObsTime": 1773132780
    },
    "KBTP": {
      "status": "OK",
      "delay": "—",
      "metarCat": "VFR",
      "metarRaw": "METAR KBTP 100856Z AUTO 18006KT 10SM SCT038 OVC060 14/01 A2998 RMK AO2 SLP155 T01390011 56002 $",
      "metarObsTime": 1773132960
    },
    "KFKL": {
      "status": "OK",
      "delay": "—",
      "metarCat": "MVFR",
      "metarRaw": "METAR KFKL 100856Z AUTO 22008KT 10SM BKN028 OVC055 15/06 A2995 RMK AO2 SLP140 T01500061 57005",
      "metarObsTime": 1773132960
    },
    "KIDI": {
      "status": "OK",
      "delay": "—",
      "metarCat": "VFR",
      "metarRaw": "METAR KIDI 100855Z AUTO 23004KT 10SM BKN044 BKN055 OVC070 13/02 A3000 RMK A01",
      "metarObsTime": 1773132900
    },
    "KMDT": {
      "status": "OK",
      "delay": "—",
      "metarCat": "VFR",
      "metarRaw": "METAR KMDT 100756Z 00000KT 10SM CLR 04/03 A3000 RMK AO2 SLP159 T00440033",
      "metarObsTime": 1773129360
    },
    "KCXY": {
      "status": "OK",
      "delay": "—",
      "metarCat": "VFR",
      "metarRaw": "METAR KCXY 100856Z AUTO 00000KT 10SM CLR 04/03 A3001 RMK AO2 SLP165 T00440028 53002",
      "metarObsTime": 1773132960
    },
    "KMUI": {
      "status": "OK",
      "delay": "—",
      "metarCat": "VFR",
      "metarRaw": "METAR KMUI 100855Z AUTO 00000KT 10SM CLR 05/04 A2999 RMK AO2 SLP158 T00450041 55000",
      "metarObsTime": 1773132900
    },
    "KUNV": {
      "status": "OK",
      "delay": "—",
      "metarCat": "VFR",
      "metarRaw": "METAR KUNV 100855Z AUTO 00000KT 10SM BKN050 08/M01 A3000 RMK AO2 T00831008",
      "metarObsTime": 1773132900
    },
    "KAOO": {
      "status": "OK",
      "delay": "—",
      "metarCat": "VFR",
      "metarRaw": "METAR KAOO 100853Z AUTO 21006KT 10SM CLR 11/M01 A3001 RMK AO2 SLP160 T01111011 53003",
      "metarObsTime": 1773132780
    },
    "KLNS": {
      "status": "OK",
      "delay": "—",
      "metarCat": "VFR",
      "metarRaw": "METAR KLNS 100853Z AUTO 00000KT 10SM CLR 06/04 A3001 RMK AO2 SLP161 T00610039 55002",
      "metarObsTime": 1773132780
    },
    "KIPT": {
      "status": "OK",
      "delay": "—",
      "metarCat": "VFR",
      "metarRaw": "METAR KIPT 100854Z AUTO 29003KT 10SM CLR 02/01 A3000 RMK AO2 SLP161 T00220011 53004 $",
      "metarObsTime": 1773132840
    },
    "KPHL": {
      "status": "OK",
      "delay": "—",
      "metarCat": "LIFR",
      "metarRaw": "METAR KPHL 100854Z 00000KT 1/2SM FG FEW250 07/05 A3002 RMK AO2 SLP165 VIS E-NE 3 T00670050 55002 RVRNO $",
      "metarObsTime": 1773132840
    },
    "KABE": {
      "status": "OK",
      "delay": "—",
      "metarCat": "VFR",
      "metarRaw": "METAR KABE 100851Z 00000KT 10SM CLR 03/02 A3000 RMK AO2 SLP161 T00330022 58002",
      "metarObsTime": 1773132660
    },
    "KAVP": {
      "status": "OK",
      "delay": "—",
      "metarCat": "VFR",
      "metarRaw": "METAR KAVP 100854Z 09004KT 10SM CLR 08/02 A2999 RMK AO2 SLP152 T00780017 58002",
      "metarObsTime": 1773132840
    },
    "KHZL": {
      "status": "OK",
      "delay": "—",
      "metarCat": "VFR",
      "metarRaw": "METAR KHZL 100855Z AUTO 00000KT 10SM CLR 03/01 A3004 RMK AO2",
      "metarObsTime": 1773132900
    }
  }
}