{
  "generatedAt": "2026-03-06T13:30:18.168Z",
  "airports": {
    "KPIT": {
      "status": "OK",
      "delay": "—",
      "metarCat": "MVFR",
      "metarRaw": "METAR KPIT 061251Z 00000KT 7SM SCT006 BKN021 BKN032 13/12 A3017 RMK AO2 SLP224 T01280122 $",
      "metarObsTime": 1772801460
    },
    "KAGC": {
      "status": "OK",
      "delay": "—",
      "metarCat": "MVFR",
      "metarRaw": "METAR KAGC 061253Z 18006KT 7SM BKN026 OVC033 13/12 A3018 RMK AO2 SLP223 T01280122",
      "metarObsTime": 1772801580
    },
    "KLBE": {
      "status": "OK",
      "delay": "—",
      "metarCat": "MVFR",
      "metarRaw": "METAR KLBE 061247Z 00000KT 5SM BR OVC025 13/13 A3020",
      "metarObsTime": 1772801220
    },
    "KJST": {
      "status": "OK",
      "delay": "—",
      "metarCat": "IFR",
      "metarRaw": "METAR KJST 061254Z AUTO 22004KT 10SM BKN009 OVC015 12/11 A3020 RMK AO2 CIG 008V013 SLP226 T01170106",
      "metarObsTime": 1772801640
    },
    "KERI": {
      "status": "OK",
      "delay": "—",
      "metarCat": "LIFR",
      "metarRaw": "METAR KERI 061251Z 06006KT M1/4SM R06/1000FT FG VV002 01/00 A3018 RMK AO2 SLP228 T00060000",
      "metarObsTime": 1772801460
    },
    "KDUJ": {
      "status": "OK",
      "delay": "—",
      "metarCat": "MVFR",
      "metarRaw": "SPECI KDUJ 061312Z AUTO 23004KT 6SM BR SCT006 OVC021 11/10 A3019 RMK AO2 T01060100",
      "metarObsTime": 1772802720
    },
    "KBFD": {
      "status": "OK",
      "delay": "—",
      "metarCat": "LIFR",
      "metarRaw": "SPECI KBFD 061319Z AUTO 22005KT 10SM OVC004 09/08 A3018 RMK AO2 CIG 002V008 T00890083",
      "metarObsTime": 1772803140
    },
    "KBTP": {
      "status": "OK",
      "delay": "—",
      "metarCat": "LIFR",
      "metarRaw": "SPECI KBTP 061305Z AUTO 17007KT 3SM BR BKN002 BKN041 OVC050 13/ A3019 RMK AO2 CIG 002V006 $",
      "metarObsTime": 1772802300
    },
    "KFKL": {
      "status": "OK",
      "delay": "—",
      "metarCat": "LIFR",
      "metarRaw": "SPECI KFKL 061316Z AUTO 19005KT 1 3/4SM BR BKN004 BKN008 OVC023 09/09 A3019 RMK AO2 CIG 002V006",
      "metarObsTime": 1772802960
    },
    "KIDI": {
      "status": "OK",
      "delay": "—",
      "metarCat": "IFR",
      "metarRaw": "METAR KIDI 061315Z AUTO 00000KT 1 1/2SM BR OVC025 13/13 A3020 RMK A01",
      "metarObsTime": 1772802900
    },
    "KMDT": {
      "status": "OK",
      "delay": "—",
      "metarCat": "LIFR",
      "metarRaw": "METAR KMDT 061256Z 07005KT 3/4SM R13/5500VP6000FT BR OVC004 05/04 A3028 RMK AO2 SLP257 T00500044",
      "metarObsTime": 1772801760
    },
    "KCXY": {
      "status": "OK",
      "delay": "—",
      "metarCat": "LIFR",
      "metarRaw": "METAR KCXY 061256Z 08007KT 1SM R08/4500V5500FT BR OVC003 05/04 A3029 RMK AO2 SLP260 T00500044",
      "metarObsTime": 1772801760
    },
    "KMUI": {
      "status": "OK",
      "delay": "—",
      "metarCat": "IFR",
      "metarRaw": "METAR KMUI 061255Z 08006KT 2SM BR OVC005 05/05 A3028 RMK AO2A SLP260 T00530049",
      "metarObsTime": 1772801700
    },
    "KUNV": {
      "status": "OK",
      "delay": "—",
      "metarCat": "LIFR",
      "metarRaw": "METAR KUNV 061253Z 00000KT 1/8SM R24/1400FT FG OVC003 07/07 A3021",
      "metarObsTime": 1772801580
    },
    "KAOO": {
      "status": "OK",
      "delay": "—",
      "metarCat": "MVFR",
      "metarRaw": "SPECI KAOO 061321Z AUTO 06003KT 4SM BR BKN028 10/09 A3021 RMK AO2 T01000089",
      "metarObsTime": 1772803260
    },
    "KLNS": {
      "status": "OK",
      "delay": "—",
      "metarCat": "LIFR",
      "metarRaw": "METAR KLNS 061253Z 08006KT 1 1/2SM BR OVC003 04/03 A3029 RMK AO2 SLP259 T00390033",
      "metarObsTime": 1772801580
    },
    "KIPT": {
      "status": "OK",
      "delay": "—",
      "metarCat": "IFR",
      "metarRaw": "METAR KIPT 061254Z 09006KT 7SM OVC007 06/04 A3025 RMK AO2 SLP247 T00560044",
      "metarObsTime": 1772801640
    },
    "KPHL": {
      "status": "OK",
      "delay": "—",
      "metarCat": "IFR",
      "metarRaw": "SPECI KPHL 061323Z 08010KT 10SM OVC008 05/03 A3032 RMK AO2 CIG 007V009 T00500028 $",
      "metarObsTime": 1772803380
    },
    "KABE": {
      "status": "OK",
      "delay": "—",
      "metarCat": "IFR",
      "metarRaw": "METAR KABE 061251Z 05007KT 10SM OVC006 03/02 A3031 RMK AO2 SLP267 T00280017",
      "metarObsTime": 1772801460
    },
    "KAVP": {
      "status": "OK",
      "delay": "—",
      "metarCat": "MVFR",
      "metarRaw": "METAR KAVP 061254Z AUTO 04004KT 10SM OVC012 02/01 A3028 RMK AO2 SLP258 T00220006",
      "metarObsTime": 1772801640
    },
    "KHZL": {
      "status": "OK",
      "delay": "—",
      "metarCat": "LIFR",
      "metarRaw": "METAR KHZL 061315Z AUTO 11003KT 1 3/4SM BR OVC002 01/00 A3029 RMK AO2",
      "metarObsTime": 1772802900
    }
  }
}