{
  "generatedAt": "2026-03-07T00:40:13.047Z",
  "airports": {
    "KPIT": {
      "status": "OK",
      "delay": "—",
      "metarCat": "VFR",
      "metarRaw": "METAR KPIT 062351Z 15003KT 10SM FEW035 FEW070 SCT120 BKN230 18/14 A3014 RMK AO2 SLP211 T01830139 10217 20183 54000",
      "metarObsTime": 1772841060
    },
    "KAGC": {
      "status": "OK",
      "delay": "—",
      "metarCat": "VFR",
      "metarRaw": "METAR KAGC 062353Z 17005KT 10SM CLR 19/14 A3014 RMK AO2 SLP210 T01890139 10211 20178 50000",
      "metarObsTime": 1772841180
    },
    "KLBE": {
      "status": "OK",
      "delay": "—",
      "metarCat": "—",
      "metarRaw": "—",
      "metarObsTime": null
    },
    "KJST": {
      "status": "OK",
      "delay": "—",
      "metarCat": "VFR",
      "metarRaw": "METAR KJST 062354Z AUTO 15005KT 10SM CLR 15/12 A3020 RMK AO2 SLP227 T01500117 10194 20150 53006",
      "metarObsTime": 1772841240
    },
    "KERI": {
      "status": "OK",
      "delay": "—",
      "metarCat": "VFR",
      "metarRaw": "SPECI KERI 070020Z VRB03KT 10SM SCT080 BKN090 BKN110 12/08 A3007 RMK AO2 T01170083 $",
      "metarObsTime": 1772842800
    },
    "KDUJ": {
      "status": "OK",
      "delay": "—",
      "metarCat": "VFR",
      "metarRaw": "METAR KDUJ 062353Z AUTO 19003KT 10SM CLR 17/11 A3017 RMK AO2 SLP215 T01670111 10194 20161 51007",
      "metarObsTime": 1772841180
    },
    "KBFD": {
      "status": "OK",
      "delay": "—",
      "metarCat": "VFR",
      "metarRaw": "METAR KBFD 062353Z AUTO 16004KT 10SM OVC043 16/10 A3016 RMK AO2 SLP214 T01560100 10178 20156 51006",
      "metarObsTime": 1772841180
    },
    "KBTP": {
      "status": "OK",
      "delay": "—",
      "metarCat": "VFR",
      "metarRaw": "METAR KBTP 062356Z AUTO 16004KT 10SM CLR 18/14 A3016 RMK AO2 SLP216 T01780144 10217 20178 53001 $",
      "metarObsTime": 1772841360
    },
    "KFKL": {
      "status": "OK",
      "delay": "—",
      "metarCat": "VFR",
      "metarRaw": "METAR KFKL 062356Z AUTO 17008KT 10SM CLR 17/13 A3014 RMK AO2 SLP210 T01720128 10206 20167 50002",
      "metarObsTime": 1772841360
    },
    "KIDI": {
      "status": "OK",
      "delay": "—",
      "metarCat": "VFR",
      "metarRaw": "METAR KIDI 070035Z AUTO 15005KT 10SM CLR 16/13 A3018 RMK A01",
      "metarObsTime": 1772843700
    },
    "KMDT": {
      "status": "OK",
      "delay": "—",
      "metarCat": "IFR",
      "metarRaw": "SPECI KMDT 070037Z 10008KT 2SM BR OVC006 06/04 A3036 RMK AO2 T00560044",
      "metarObsTime": 1772843820
    },
    "KCXY": {
      "status": "OK",
      "delay": "—",
      "metarCat": "IFR",
      "metarRaw": "METAR KCXY 062356Z 10007KT 2SM BR OVC005 06/04 A3036 RMK AO2 SLP283 T00560044 10061 20056 51013",
      "metarObsTime": 1772841360
    },
    "KMUI": {
      "status": "OK",
      "delay": "—",
      "metarCat": "IFR",
      "metarRaw": "SPECI KMUI 070011Z AUTO 08006KT 8SM OVC006 05/05 A3035 RMK AO2 SLP284",
      "metarObsTime": 1772842260
    },
    "KUNV": {
      "status": "OK",
      "delay": "—",
      "metarCat": "IFR",
      "metarRaw": "METAR KUNV 062353Z 00000KT 6SM BR OVC007 07/07 A3027",
      "metarObsTime": 1772841180
    },
    "KAOO": {
      "status": "OK",
      "delay": "—",
      "metarCat": "IFR",
      "metarRaw": "METAR KAOO 062353Z AUTO 13005KT 9SM OVC007 11/09 A3025 RMK AO2 SLP246 T01110094 10178 20111 53015",
      "metarObsTime": 1772841180
    },
    "KLNS": {
      "status": "OK",
      "delay": "—",
      "metarCat": "IFR",
      "metarRaw": "METAR KLNS 062353Z 10007KT 4SM BR OVC005 05/04 A3036 RMK AO2 SLP284 T00500039 10056 20050 53012",
      "metarObsTime": 1772841180
    },
    "KIPT": {
      "status": "OK",
      "delay": "—",
      "metarCat": "MVFR",
      "metarRaw": "METAR KIPT 062354Z 07008KT 10SM OVC012 07/04 A3031 RMK AO2 SLP267 T00670044 10072 20061 51011",
      "metarObsTime": 1772841240
    },
    "KPHL": {
      "status": "OK",
      "delay": "—",
      "metarCat": "MVFR",
      "metarRaw": "METAR KPHL 062354Z 08008KT 10SM -RA OVC010 06/04 A3039 RMK AO2 RAB36 SLP291 P0000 60000 T00610039 10072 20061 $",
      "metarObsTime": 1772841240
    },
    "KABE": {
      "status": "OK",
      "delay": "—",
      "metarCat": "IFR",
      "metarRaw": "METAR KABE 062351Z 09006KT 4SM BR OVC005 04/03 A3038 RMK AO2 RAB17E26 SLP291 P0000 60000 T00440033 10050 20044 51012",
      "metarObsTime": 1772841060
    },
    "KAVP": {
      "status": "OK",
      "delay": "—",
      "metarCat": "MVFR",
      "metarRaw": "METAR KAVP 062354Z VRB04KT 10SM OVC011 04/02 A3033 RMK AO2 SLP277 T00390022 10061 20039 53010",
      "metarObsTime": 1772841240
    },
    "KHZL": {
      "status": "OK",
      "delay": "—",
      "metarCat": "LIFR",
      "metarRaw": "METAR KHZL 070035Z AUTO 14004KT 2 1/2SM BR OVC002 02/02 A3035 RMK AO2",
      "metarObsTime": 1772843700
    }
  }
}