{
  "generatedAt": "2026-03-12T11:00:15.692Z",
  "airports": {
    "KPIT": {
      "status": "OK",
      "delay": "—",
      "metarCat": "MVFR",
      "metarRaw": "METAR KPIT 121051Z 32015G25KT 10SM BKN026 OVC038 01/M04 A2999 RMK AO2 PK WND 31028/1023 SLP165 T00061044 $",
      "metarObsTime": 1773312660
    },
    "KAGC": {
      "status": "OK",
      "delay": "—",
      "metarCat": "MVFR",
      "metarRaw": "METAR KAGC 121053Z VRB04KT 10SM OVC021 01/M03 A2997 RMK AO2 SLP158 T00061028",
      "metarObsTime": 1773312780
    },
    "KLBE": {
      "status": "OK",
      "delay": "—",
      "metarCat": "MVFR",
      "metarRaw": "METAR KLBE 121047Z 31007G17KT 6SM -RA BR OVC018 01/M01 A2999",
      "metarObsTime": 1773312420
    },
    "KJST": {
      "status": "OK",
      "delay": "—",
      "metarCat": "LIFR",
      "metarRaw": "METAR KJST 121054Z AUTO 30018G28KT 1SM -SN BR BKN004 OVC008 M02/M02 A2986 RMK AO2 PK WND 30031/1019 UPE0957SNB0957 SLP119 P0000 T10171022",
      "metarObsTime": 1773312840
    },
    "KERI": {
      "status": "OK",
      "delay": "—",
      "metarCat": "VFR",
      "metarRaw": "METAR KERI 121051Z 30009G16KT 10SM OVC035 00/M04 A2998 RMK AO2 PK WND 31031/0959 SLP157 T00001044",
      "metarObsTime": 1773312660
    },
    "KDUJ": {
      "status": "OK",
      "delay": "—",
      "metarCat": "MVFR",
      "metarRaw": "METAR KDUJ 121053Z AUTO 32012G25KT 10SM OVC013 M02/M04 A2988 RMK AO2 SLP125 T10221044",
      "metarObsTime": 1773312780
    },
    "KBFD": {
      "status": "OK",
      "delay": "—",
      "metarCat": "MVFR",
      "metarRaw": "METAR KBFD 121053Z AUTO 29017G26KT 10SM OVC011 M03/M06 A2985 RMK AO2 PK WND 29031/1011 SLP112 T10331056",
      "metarObsTime": 1773312780
    },
    "KBTP": {
      "status": "OK",
      "delay": "—",
      "metarCat": "MVFR",
      "metarRaw": "METAR KBTP 121056Z AUTO 29011G20KT 10SM OVC021 M01/M02 A2998 RMK AO2 SLP163 T10061017 FZRANO $",
      "metarObsTime": 1773312960
    },
    "KFKL": {
      "status": "OK",
      "delay": "—",
      "metarCat": "MVFR",
      "metarRaw": "METAR KFKL 121056Z AUTO 30010KT 10SM OVC019 A2996 RMK AO2 SNB02E41 SLPNO P0000 FZRANO $",
      "metarObsTime": 1773312960
    },
    "KIDI": {
      "status": "OK",
      "delay": "—",
      "metarCat": "—",
      "metarRaw": "—",
      "metarObsTime": null
    },
    "KMDT": {
      "status": "OK",
      "delay": "—",
      "metarCat": "VFR",
      "metarRaw": "METAR KMDT 120956Z 32028G46KT 10SM -RA FEW050 OVC065 09/04 A2971 RMK AO2 PK WND 34046/0950 PRESRR SLP060 P0000 T00940044",
      "metarObsTime": 1773309360
    },
    "KCXY": {
      "status": "OK",
      "delay": "—",
      "metarCat": "VFR",
      "metarRaw": "METAR KCXY 120956Z AUTO 32021G37KT 10SM -RA FEW026 SCT055 OVC065 09/04 A2973 RMK AO2 PK WND 30037/0950 RAB01 PRESRR SLP066 P0001 T00940044",
      "metarObsTime": 1773309360
    },
    "KMUI": {
      "status": "OK",
      "delay": "—",
      "metarCat": "MVFR",
      "metarRaw": "SPECI KMUI 121011Z AUTO 32014G22KT 10SM -RA BKN020 OVC060 10/06 A2969 RMK AO2 WSHFT 10 SLP056",
      "metarObsTime": 1773310260
    },
    "KUNV": {
      "status": "OK",
      "delay": "—",
      "metarCat": "MVFR",
      "metarRaw": "METAR KUNV 121053Z 30013G21KT 10SM BKN027 OVC100 02/M03 A2985",
      "metarObsTime": 1773312780
    },
    "KAOO": {
      "status": "OK",
      "delay": "—",
      "metarCat": "VFR",
      "metarRaw": "METAR KAOO 121053Z AUTO 32013G25KT 10SM FEW018 SCT025 SCT100 02/M03 A2985 RMK AO2 PK WND 32026/0957 SLP112 T00171028",
      "metarObsTime": 1773312780
    },
    "KLNS": {
      "status": "OK",
      "delay": "—",
      "metarCat": "VFR",
      "metarRaw": "METAR KLNS 121053Z 30021G28KT 10SM -RA FEW019 FEW050 OVC060 08/06 A2973 RMK AO2 PK WND 30033/1036 RAB0956 PRESRR SLP067 P0007 T00830056",
      "metarObsTime": 1773312780
    },
    "KIPT": {
      "status": "OK",
      "delay": "—",
      "metarCat": "VFR",
      "metarRaw": "METAR KIPT 121054Z 30018G29KT 10SM OVC110 05/M02 A2980 RMK AO2 PK WND 31031/1043 RAE0955B15E24 SLP092 P0000 T00501022 $",
      "metarObsTime": 1773312840
    },
    "KPHL": {
      "status": "OK",
      "delay": "—",
      "metarCat": "MVFR",
      "metarRaw": "METAR KPHL 121054Z 30020G38KT 10SM BKN022 BKN045 OVC210 18/11 A2961 RMK AO2 PK WND 32038/1049 PRESRR SLP027 T01780111 $",
      "metarObsTime": 1773312840
    },
    "KABE": {
      "status": "OK",
      "delay": "—",
      "metarCat": "VFR",
      "metarRaw": "METAR KABE 121051Z 30017G23KT 10SM RA OVC048 11/08 A2965 RMK AO2 PK WND 29031/1004 WSHFT 0939 RAE17B35 PRESRR SLP038 P0003 T01110083 $",
      "metarObsTime": 1773312660
    },
    "KAVP": {
      "status": "OK",
      "delay": "—",
      "metarCat": "VFR",
      "metarRaw": "METAR KAVP 121054Z 34013KT 10SM -RA SCT023 BKN042 OVC050 04/02 A2975 RMK AO2 PK WND 32027/1013 SLP073 P0000 T00440022",
      "metarObsTime": 1773312840
    },
    "KHZL": {
      "status": "OK",
      "delay": "—",
      "metarCat": "MVFR",
      "metarRaw": "METAR KHZL 121055Z AUTO 31007G16KT 260V340 10SM -RA BKN010 BKN015 OVC026 05/03 A2970 RMK AO2 P0002",
      "metarObsTime": 1773312900
    }
  }
}