{
  "generatedAt": "2026-03-18T02:40:23.897Z",
  "airports": {
    "KPIT": {
      "status": "OK",
      "delay": "—",
      "metarCat": "VFR",
      "metarRaw": "METAR KPIT 180151Z 24004KT 10SM FEW025 FEW065 M07/M12 A3019 RMK AO2 SLP251 T10721122",
      "metarObsTime": 1773798660
    },
    "KAGC": {
      "status": "OK",
      "delay": "—",
      "metarCat": "VFR",
      "metarRaw": "METAR KAGC 180153Z 24006KT 10SM CLR M07/M12 A3019 RMK AO2 SLP246 T10671122",
      "metarObsTime": 1773798780
    },
    "KLBE": {
      "status": "OK",
      "delay": "—",
      "metarCat": "VFR",
      "metarRaw": "METAR KLBE 180235Z AUTO 20006KT 10SM CLR M07/M10 A3023 RMK AO2",
      "metarObsTime": 1773801300
    },
    "KJST": {
      "status": "OK",
      "delay": "—",
      "metarCat": "MVFR",
      "metarRaw": "SPECI KJST 180227Z AUTO 27008KT 10SM BKN026 M09/M12 A3009 RMK AO2 T10941117",
      "metarObsTime": 1773800820
    },
    "KERI": {
      "status": "OK",
      "delay": "—",
      "metarCat": "VFR",
      "metarRaw": "METAR KERI 180151Z 22003KT 9SM BKN034 OVC045 M06/M09 A3017 RMK AO2 SNB17E47 SLP230 P0000 T10561094",
      "metarObsTime": 1773798660
    },
    "KDUJ": {
      "status": "OK",
      "delay": "—",
      "metarCat": "VFR",
      "metarRaw": "METAR KDUJ 180153Z AUTO 26007KT 10SM CLR M10/M12 A3011 RMK AO2 SNE0054 SLP225 P0000 T11001122",
      "metarObsTime": 1773798780
    },
    "KBFD": {
      "status": "OK",
      "delay": "—",
      "metarCat": "VFR",
      "metarRaw": "SPECI KBFD 180218Z AUTO 28006KT 10SM FEW020 SCT027 M10/M13 A3006 RMK AO2 T11001133",
      "metarObsTime": 1773800280
    },
    "KBTP": {
      "status": "OK",
      "delay": "—",
      "metarCat": "VFR",
      "metarRaw": "METAR KBTP 180156Z AUTO 26004KT 10SM BKN035 M08/M11 A3020 RMK AO2 SLP252 T10831111 FZRANO $",
      "metarObsTime": 1773798960
    },
    "KFKL": {
      "status": "OK",
      "delay": "—",
      "metarCat": "VFR",
      "metarRaw": "METAR KFKL 180156Z AUTO 24005KT 10SM BKN050 M09/M11 A3015 RMK AO2 SNE32 SLP236 P0000 T10941111 FZRANO",
      "metarObsTime": 1773798960
    },
    "KIDI": {
      "status": "OK",
      "delay": "—",
      "metarCat": "MVFR",
      "metarRaw": "METAR KIDI 180235Z AUTO 00000KT 10SM SCT025 BKN030 BKN038 M09/M12 A3018 RMK A01",
      "metarObsTime": 1773801300
    },
    "KMDT": {
      "status": "OK",
      "delay": "—",
      "metarCat": "VFR",
      "metarRaw": "METAR KMDT 180156Z 28013KT 10SM FEW060 BKN080 M01/M09 A3020 RMK AO2 PK WND 28028/0121 SLP230 T10111094",
      "metarObsTime": 1773798960
    },
    "KCXY": {
      "status": "OK",
      "delay": "—",
      "metarCat": "VFR",
      "metarRaw": "METAR KCXY 180156Z AUTO 27010KT 10SM FEW080 M02/M11 A3021 RMK AO2 PK WND 26028/0113 SLP234 T10221111",
      "metarObsTime": 1773798960
    },
    "KMUI": {
      "status": "OK",
      "delay": "—",
      "metarCat": "VFR",
      "metarRaw": "METAR KMUI 180155Z 29013G22KT 10SM FEW030 SCT039 BKN055 BKN070 M01/M12 A3016 RMK AO2A SNE01 SLP222 T10141118",
      "metarObsTime": 1773798900
    },
    "KUNV": {
      "status": "OK",
      "delay": "—",
      "metarCat": "VFR",
      "metarRaw": "METAR KUNV 180235Z AUTO 28008G16KT 10SM SCT032 SCT050 M06/M12 A3017 RMK AO2 T10621119",
      "metarObsTime": 1773801300
    },
    "KAOO": {
      "status": "OK",
      "delay": "—",
      "metarCat": "VFR",
      "metarRaw": "METAR KAOO 180153Z AUTO 27008KT 10SM CLR M07/M12 A3016 RMK AO2 SNE26 SLP236 P0000 T10721122",
      "metarObsTime": 1773798780
    },
    "KLNS": {
      "status": "OK",
      "delay": "—",
      "metarCat": "VFR",
      "metarRaw": "METAR KLNS 180153Z 28008KT 10SM FEW045 M02/M09 A3017 RMK AO2 SLP222 T10221089",
      "metarObsTime": 1773798780
    },
    "KIPT": {
      "status": "OK",
      "delay": "—",
      "metarCat": "VFR",
      "metarRaw": "METAR KIPT 180154Z 31009KT 10SM BKN065 OVC080 M04/M12 A3016 RMK AO2 SLP220 T10391122",
      "metarObsTime": 1773798840
    },
    "KPHL": {
      "status": "OK",
      "delay": "—",
      "metarCat": "VFR",
      "metarRaw": "SPECI KPHL 180232Z 29016G24KT 7SM -SN SCT045 BKN070 01/M09 A3021 RMK AO2 SNB32 P0000 T00111094 $",
      "metarObsTime": 1773801120
    },
    "KABE": {
      "status": "OK",
      "delay": "—",
      "metarCat": "VFR",
      "metarRaw": "METAR KABE 180151Z 27006KT 10SM CLR M03/M08 A3014 RMK AO2 SLP210 T10281078 $",
      "metarObsTime": 1773798660
    },
    "KAVP": {
      "status": "OK",
      "delay": "—",
      "metarCat": "VFR",
      "metarRaw": "METAR KAVP 180154Z AUTO 35009G20KT 10SM BKN042 BKN055 OVC085 M04/M11 A3009 RMK AO2 SLP200 T10391106",
      "metarObsTime": 1773798840
    },
    "KHZL": {
      "status": "OK",
      "delay": "—",
      "metarCat": "VFR",
      "metarRaw": "METAR KHZL 180235Z AUTO 28004KT 10SM SCT034 SCT043 M05/M10 RMK AO2",
      "metarObsTime": 1773801300
    }
  }
}