{
  "generatedAt": "2026-04-04T15:20:34.155Z",
  "airports": {
    "KPIT": {
      "status": "OK",
      "delay": "—",
      "metarCat": "VFR",
      "metarRaw": "METAR KPIT 041451Z 19006KT 10SM FEW110 OVC250 22/15 A3009 RMK AO2 SLP190 T02170150 56015 $",
      "metarObsTime": 1775314260
    },
    "KAGC": {
      "status": "OK",
      "delay": "—",
      "metarCat": "VFR",
      "metarRaw": "METAR KAGC 041453Z 20009G17KT 10SM CLR 22/16 A3010 RMK AO2 SLP188 T02220156 56015",
      "metarObsTime": 1775314380
    },
    "KLBE": {
      "status": "OK",
      "delay": "—",
      "metarCat": "VFR",
      "metarRaw": "METAR KLBE 041450Z 21012G22KT 10SM CLR 24/15 A3013",
      "metarObsTime": 1775314200
    },
    "KJST": {
      "status": "OK",
      "delay": "—",
      "metarCat": "VFR",
      "metarRaw": "METAR KJST 041454Z AUTO 19009KT 10SM CLR 20/13 A3015 RMK AO2 SLP200 T02000133 58009",
      "metarObsTime": 1775314440
    },
    "KERI": {
      "status": "OK",
      "delay": "—",
      "metarCat": "VFR",
      "metarRaw": "METAR KERI 041451Z 06008KT 10SM SCT070 BKN090 08/06 A3003 RMK AO2 RAE03 SLP174 P0000 60000 T00780056 56020",
      "metarObsTime": 1775314260
    },
    "KDUJ": {
      "status": "OK",
      "delay": "—",
      "metarCat": "VFR",
      "metarRaw": "METAR KDUJ 041453Z AUTO 19003KT 10SM OVC120 17/16 A3011 RMK AO2 SLP190 60000 T01720161 56008",
      "metarObsTime": 1775314380
    },
    "KBFD": {
      "status": "OK",
      "delay": "—",
      "metarCat": "VFR",
      "metarRaw": "SPECI KBFD 041514Z AUTO 15007KT 120V190 10SM SCT006 BKN055 OVC110 17/14 A3011 RMK AO2 T01670144",
      "metarObsTime": 1775315640
    },
    "KBTP": {
      "status": "OK",
      "delay": "—",
      "metarCat": "VFR",
      "metarRaw": "METAR KBTP 041456Z AUTO 19008KT 10SM CLR 22/17 A3010 RMK AO2 SLP193 T02170167 56014 $",
      "metarObsTime": 1775314560
    },
    "KFKL": {
      "status": "OK",
      "delay": "—",
      "metarCat": "VFR",
      "metarRaw": "METAR KFKL 041456Z AUTO 18010KT 10SM BKN120 19/17 A3009 RMK AO2 SLP184 60000 T01890167 56013",
      "metarObsTime": 1775314560
    },
    "KIDI": {
      "status": "OK",
      "delay": "—",
      "metarCat": "VFR",
      "metarRaw": "METAR KIDI 041515Z AUTO 22012KT 10SM CLR 23/16 A3011 RMK A01",
      "metarObsTime": 1775315700
    },
    "KMDT": {
      "status": "OK",
      "delay": "—",
      "metarCat": "VFR",
      "metarRaw": "METAR KMDT 041456Z 00000KT 6SM HZ FEW065 SCT095 SCT250 18/14 A3014 RMK AO2 SLP207 T01780139 58005 $",
      "metarObsTime": 1775314560
    },
    "KCXY": {
      "status": "OK",
      "delay": "—",
      "metarCat": "VFR",
      "metarRaw": "METAR KCXY 041456Z 10003KT 10SM FEW110 21/15 A3015 RMK AO2 SLP209 T02060150 58007",
      "metarObsTime": 1775314560
    },
    "KMUI": {
      "status": "OK",
      "delay": "—",
      "metarCat": "VFR",
      "metarRaw": "METAR KMUI 041455Z AUTO 00000KT 10SM CLR 22/17 A3013 RMK AO2 RAB1355E1358RAB39E43 SLP205 P0000 60000 T02220171 58004",
      "metarObsTime": 1775314500
    },
    "KUNV": {
      "status": "OK",
      "delay": "—",
      "metarCat": "VFR",
      "metarRaw": "SPECI KUNV 041520Z 00000KT 10SM SCT003 18/16 A3014",
      "metarObsTime": 1775316000
    },
    "KAOO": {
      "status": "OK",
      "delay": "—",
      "metarCat": "VFR",
      "metarRaw": "METAR KAOO 041453Z AUTO 15006KT 10SM CLR 22/15 A3014 RMK AO2 SLP200 60000 T02170150 58010",
      "metarObsTime": 1775314380
    },
    "KLNS": {
      "status": "OK",
      "delay": "—",
      "metarCat": "MVFR",
      "metarRaw": "METAR KLNS 041453Z 00000KT 5SM HZ FEW110 21/17 A3015 RMK AO2 SLP208 T02110167 58007",
      "metarObsTime": 1775314380
    },
    "KIPT": {
      "status": "OK",
      "delay": "—",
      "metarCat": "IFR",
      "metarRaw": "METAR KIPT 041454Z 14003KT 10SM OVC009 11/09 A3018 RMK AO2 SLP220 T01110094 58009",
      "metarObsTime": 1775314440
    },
    "KPHL": {
      "status": "OK",
      "delay": "—",
      "metarCat": "VFR",
      "metarRaw": "METAR KPHL 041454Z 09004KT 10SM FEW060 SCT120 BKN270 BKN350 24/16 A3017 RMK AO2 SLP214 T02390156 50001 $",
      "metarObsTime": 1775314440
    },
    "KABE": {
      "status": "OK",
      "delay": "—",
      "metarCat": "VFR",
      "metarRaw": "METAR KABE 041451Z 09004KT 10SM SCT120 19/14 A3018 RMK AO2 SLP219 T01890139 52001 $",
      "metarObsTime": 1775314260
    },
    "KAVP": {
      "status": "OK",
      "delay": "—",
      "metarCat": "MVFR",
      "metarRaw": "METAR KAVP 041454Z VRB04KT 10SM OVC013 12/08 A3021 RMK AO2 SLP228 T01220083 58005",
      "metarObsTime": 1775314440
    },
    "KHZL": {
      "status": "OK",
      "delay": "—",
      "metarCat": "VFR",
      "metarRaw": "METAR KHZL 041515Z AUTO 00000KT 10SM SCT008 BKN110 15/10 A3022 RMK AO2",
      "metarObsTime": 1775315700
    }
  }
}