{
  "generatedAt": "2026-04-05T07:10:33.242Z",
  "airports": {
    "KPIT": {
      "status": "OK",
      "delay": "—",
      "metarCat": "IFR",
      "metarRaw": "METAR KPIT 050651Z 30021G30KT 7SM -RA BKN009 OVC020 12/09 A2987 RMK AO2 PK WND 30031/0650 SLP116 P0007 T01170094 $",
      "metarObsTime": 1775371860
    },
    "KAGC": {
      "status": "OK",
      "delay": "—",
      "metarCat": "MVFR",
      "metarRaw": "METAR KAGC 050653Z 29010G18KT 9SM -RA FEW009 BKN017 OVC022 16/15 A2984 RMK AO2 WSHFT 0625 SLP101 P0011 T01610150",
      "metarObsTime": 1775371980
    },
    "KLBE": {
      "status": "OK",
      "delay": "—",
      "metarCat": "MVFR",
      "metarRaw": "METAR KLBE 050655Z AUTO 19011G17KT 5SM -RA BR FEW023 SCT039 BKN050 18/17 A2985 RMK AO2 P0001",
      "metarObsTime": 1775372100
    },
    "KJST": {
      "status": "OK",
      "delay": "—",
      "metarCat": "VFR",
      "metarRaw": "METAR KJST 050654Z AUTO 24015G26KT 10SM SCT060 OVC095 18/13 A2986 RMK AO2 PK WND 23026/0652 SLP095 T01830128",
      "metarObsTime": 1775372040
    },
    "KERI": {
      "status": "OK",
      "delay": "—",
      "metarCat": "IFR",
      "metarRaw": "SPECI KERI 050700Z AUTO 25011KT 5SM RA BR BKN009 OVC022 08/08 A2984 RMK AO2 CIG 008V012 P0000 T00830078",
      "metarObsTime": 1775372400
    },
    "KDUJ": {
      "status": "OK",
      "delay": "—",
      "metarCat": "MVFR",
      "metarRaw": "METAR KDUJ 050653Z AUTO 22010G19KT 10SM -RA BKN014 BKN019 OVC034 16/16 A2979 RMK AO2 PK WND 20027/0632 RAB03E13B29 SLP077 P0004 T01610156",
      "metarObsTime": 1775371980
    },
    "KBFD": {
      "status": "OK",
      "delay": "—",
      "metarCat": "IFR",
      "metarRaw": "SPECI KBFD 050705Z AUTO 30012KT 2 1/2SM +RA BR SCT009 BKN027 OVC060 12/11 A2980 RMK AO2 WSHFT 0640 VIS 2V4 P0006 T01170106",
      "metarObsTime": 1775372700
    },
    "KBTP": {
      "status": "OK",
      "delay": "—",
      "metarCat": "MVFR",
      "metarRaw": "METAR KBTP 050656Z AUTO 29017G26KT 10SM -RA OVC013 13/13 A2987 RMK AO2 PK WND 28026/0651 SLP114 P0001 T01280128 $",
      "metarObsTime": 1775372160
    },
    "KFKL": {
      "status": "OK",
      "delay": "—",
      "metarCat": "MVFR",
      "metarRaw": "METAR KFKL 050656Z AUTO 26012G17KT 10SM RA BKN011 OVC021 09/08 A2987 RMK AO2 SLP110 P0008 T00940083",
      "metarObsTime": 1775372160
    },
    "KIDI": {
      "status": "OK",
      "delay": "—",
      "metarCat": "MVFR",
      "metarRaw": "METAR KIDI 050655Z AUTO 23010KT 4SM BR SCT024 BKN034 OVC055 17/16 A2984 RMK A01 P0001",
      "metarObsTime": 1775372100
    },
    "KMDT": {
      "status": "OK",
      "delay": "—",
      "metarCat": "LIFR",
      "metarRaw": "METAR KMDT 050656Z 11014KT 4SM BR OVC004 09/09 A2993 RMK AO2 SLP135 T00940089 $",
      "metarObsTime": 1775372160
    },
    "KCXY": {
      "status": "OK",
      "delay": "—",
      "metarCat": "LIFR",
      "metarRaw": "METAR KCXY 050656Z AUTO 10012KT 3SM BR OVC003 09/09 A2993 RMK AO2 SLP135 T00940089 $",
      "metarObsTime": 1775372160
    },
    "KMUI": {
      "status": "OK",
      "delay": "—",
      "metarCat": "LIFR",
      "metarRaw": "METAR KMUI 050655Z AUTO 07010KT 5SM BR OVC003 08/08 A2994 RMK AO2 SLP140 T00800077",
      "metarObsTime": 1775372100
    },
    "KUNV": {
      "status": "OK",
      "delay": "—",
      "metarCat": "—",
      "metarRaw": "—",
      "metarObsTime": null
    },
    "KAOO": {
      "status": "OK",
      "delay": "—",
      "metarCat": "VFR",
      "metarRaw": "METAR KAOO 050653Z AUTO 21011KT 10SM CLR 19/13 A2984 RMK AO2 SLP093 T01890133",
      "metarObsTime": 1775371980
    },
    "KLNS": {
      "status": "OK",
      "delay": "—",
      "metarCat": "LIFR",
      "metarRaw": "METAR KLNS 050653Z AUTO 08010KT 8SM OVC003 08/08 A2996 RMK AO2 SLP143 T00830078",
      "metarObsTime": 1775371980
    },
    "KIPT": {
      "status": "OK",
      "delay": "—",
      "metarCat": "MVFR",
      "metarRaw": "METAR KIPT 050654Z AUTO 07012KT 10SM OVC014 11/09 A2987 RMK AO2 PK WND 10026/0558 SLP115 T01110089",
      "metarObsTime": 1775372040
    },
    "KPHL": {
      "status": "OK",
      "delay": "—",
      "metarCat": "LIFR",
      "metarRaw": "METAR KPHL 050654Z 07009KT 5SM BR OVC003 09/08 A3000 RMK AO2 SLP157 T00940083 $",
      "metarObsTime": 1775372040
    },
    "KABE": {
      "status": "OK",
      "delay": "—",
      "metarCat": "IFR",
      "metarRaw": "METAR KABE 050651Z 09009KT 5SM BR OVC005 06/05 A3001 RMK AO2 SLP163 T00560050 $",
      "metarObsTime": 1775371860
    },
    "KAVP": {
      "status": "OK",
      "delay": "—",
      "metarCat": "MVFR",
      "metarRaw": "METAR KAVP 050654Z AUTO 10006KT 10SM OVC011 08/06 A2994 RMK AO2 SLP135 T00830061",
      "metarObsTime": 1775372040
    },
    "KHZL": {
      "status": "OK",
      "delay": "—",
      "metarCat": "LIFR",
      "metarRaw": "METAR KHZL 050702Z AUTO 16008KT 120V220 1SM -DZ OVC002 05/04 A2995 RMK AO2",
      "metarObsTime": 1775372520
    }
  }
}