{
  "generatedAt": "2026-03-11T21:30:17.243Z",
  "airports": {
    "KPIT": {
      "status": "OK",
      "delay": "—",
      "metarCat": "VFR",
      "metarRaw": "METAR KPIT 112051Z 25011G23KT 10SM -RA FEW028 BKN065 OVC090 20/15 A2966 RMK AO2 PK WND 25027/2026 RAB51 SLP045 P0000 60027 T02000150 58014 $",
      "metarObsTime": 1773262260
    },
    "KAGC": {
      "status": "OK",
      "delay": "—",
      "metarCat": "MVFR",
      "metarRaw": "METAR KAGC 112053Z 26018G26KT 4SM -RA BKN065 OVC085 18/16 A2967 RMK AO2 PK WND 24028/2014 LTG DSNT E SLP049 P0004 60011 T01830156 58006",
      "metarObsTime": 1773262380
    },
    "KLBE": {
      "status": "OK",
      "delay": "—",
      "metarCat": "VFR",
      "metarRaw": "SPECI KLBE 112124Z 18007KT 10SM SCT019 BKN050 BKN065 19/17 A2972",
      "metarObsTime": 1773264240
    },
    "KJST": {
      "status": "OK",
      "delay": "—",
      "metarCat": "MVFR",
      "metarRaw": "SPECI KJST 112121Z AUTO 25008KT 4SM -RA BR SCT009 OVC014 16/16 A2973 RMK AO2 RAB2058 P0013 T01610156",
      "metarObsTime": 1773264060
    },
    "KERI": {
      "status": "OK",
      "delay": "—",
      "metarCat": "VFR",
      "metarRaw": "METAR KERI 112051Z 24021G35KT 10SM FEW043 BKN060 16/12 A2958 RMK AO2 PK WND 26048/2034 RAB15E26 SLP014 P0000 60000 T01610122 53023",
      "metarObsTime": 1773262260
    },
    "KDUJ": {
      "status": "OK",
      "delay": "—",
      "metarCat": "VFR",
      "metarRaw": "METAR KDUJ 112053Z AUTO 24019G28KT 10SM FEW024 BKN041 OVC050 19/14 A2965 RMK AO2 PK WND 24032/1954 SLP031 60002 T01890144 56016",
      "metarObsTime": 1773262380
    },
    "KBFD": {
      "status": "OK",
      "delay": "—",
      "metarCat": "VFR",
      "metarRaw": "METAR KBFD 112053Z AUTO 23013G23KT 10SM BKN037 BKN046 19/13 A2960 RMK AO2 PK WND 24029/2024 RAB1956E09 SLP012 P0000 60002 T01890133 55021",
      "metarObsTime": 1773262380
    },
    "KBTP": {
      "status": "OK",
      "delay": "—",
      "metarCat": "VFR",
      "metarRaw": "METAR KBTP 112056Z AUTO 23012G19KT 10SM SCT090 OVC110 20/16 A2966 RMK AO2 PK WND 23027/2017 SLP044 60000 T02000156 56015 $",
      "metarObsTime": 1773262560
    },
    "KFKL": {
      "status": "OK",
      "delay": "—",
      "metarCat": "VFR",
      "metarRaw": "METAR KFKL 112056Z AUTO 23012G25KT 10SM BKN044 OVC055 A2963 RMK AO2 PK WND 25030/2006 SLPNO 55006 FZRANO $",
      "metarObsTime": 1773262560
    },
    "KIDI": {
      "status": "OK",
      "delay": "—",
      "metarCat": "—",
      "metarRaw": "—",
      "metarObsTime": null
    },
    "KMDT": {
      "status": "OK",
      "delay": "—",
      "metarCat": "VFR",
      "metarRaw": "METAR KMDT 112056Z 20009G21KT 160V240 10SM FEW060 SCT120 BKN200 26/14 A2967 RMK AO2 SLP046 T02560139 56041",
      "metarObsTime": 1773262560
    },
    "KCXY": {
      "status": "OK",
      "delay": "—",
      "metarCat": "VFR",
      "metarRaw": "METAR KCXY 112056Z 21009G19KT 10SM SCT110 27/15 A2967 RMK AO2 SLP048 T02670150 56040",
      "metarObsTime": 1773262560
    },
    "KMUI": {
      "status": "OK",
      "delay": "—",
      "metarCat": "VFR",
      "metarRaw": "METAR KMUI 112055Z 00000KT 10SM FEW075 SCT120 BKN150 BKN210 23/17 A2967 RMK AO2A SLP049 T02260173 57041",
      "metarObsTime": 1773262500
    },
    "KUNV": {
      "status": "OK",
      "delay": "—",
      "metarCat": "VFR",
      "metarRaw": "METAR KUNV 112053Z 22008KT 10SM -DZ SCT060 BKN100 18/17 A2970 RMK LTG DSNT NE",
      "metarObsTime": 1773262380
    },
    "KAOO": {
      "status": "OK",
      "delay": "—",
      "metarCat": "VFR",
      "metarRaw": "METAR KAOO 112053Z AUTO 30007KT 10SM FEW013 BKN060 OVC095 18/16 A2971 RMK AO2 PK WND 27053/2029 RAB16E48 TSB23E38 SLP056 P0036 60044 T01830156 56018",
      "metarObsTime": 1773262380
    },
    "KLNS": {
      "status": "OK",
      "delay": "—",
      "metarCat": "VFR",
      "metarRaw": "METAR KLNS 112053Z 19009KT 10SM FEW120 25/14 A2970 RMK AO2 SLP055 60000 T02500144 56040",
      "metarObsTime": 1773262380
    },
    "KIPT": {
      "status": "OK",
      "delay": "—",
      "metarCat": "VFR",
      "metarRaw": "METAR KIPT 112054Z 20008KT 10SM FEW100 BKN110 19/16 A2966 RMK AO2 RAE43 SLP042 P0004 60011 T01940156 56023 $",
      "metarObsTime": 1773262440
    },
    "KPHL": {
      "status": "OK",
      "delay": "—",
      "metarCat": "VFR",
      "metarRaw": "METAR KPHL 112054Z 20015KT 10SM FEW050 BKN110 BKN150 BKN260 28/15 A2972 RMK AO2 SLP062 T02780150 56044 $",
      "metarObsTime": 1773262440
    },
    "KABE": {
      "status": "OK",
      "delay": "—",
      "metarCat": "VFR",
      "metarRaw": "METAR KABE 112051Z 19012KT 10SM CLR 25/14 A2970 RMK AO2 SLP055 60000 T02500144 56041 $",
      "metarObsTime": 1773262260
    },
    "KAVP": {
      "status": "OK",
      "delay": "—",
      "metarCat": "IFR",
      "metarRaw": "SPECI KAVP 112121Z 23011G21KT 2 1/2SM +RA FEW037 BKN044 OVC080 18/16 A2971 RMK AO2 VIS 1 1/2V4 P0017 T01830156",
      "metarObsTime": 1773264060
    },
    "KHZL": {
      "status": "OK",
      "delay": "—",
      "metarCat": "VFR",
      "metarRaw": "METAR KHZL 112115Z AUTO 17004KT 10SM SCT060 SCT070 BKN085 22/13 A2975 RMK AO2",
      "metarObsTime": 1773263700
    }
  }
}