{
  "generatedAt": "2026-04-03T23:40:30.875Z",
  "airports": {
    "KPIT": {
      "status": "OK",
      "delay": "—",
      "metarCat": "VFR",
      "metarRaw": "SPECI KPIT 032318Z 24009G22KT 10SM TS SCT035 BKN050CB BKN250 23/14 A3011 RMK AO2 TSB16 OCNL LTGICCG N TS N MOV E T02330144",
      "metarObsTime": 1775258280
    },
    "KAGC": {
      "status": "OK",
      "delay": "—",
      "metarCat": "VFR",
      "metarRaw": "METAR KAGC 032253Z 22010G20KT 10SM SCT060 23/14 A3011 RMK AO2 PK WND 23026/2221 SLP193 T02330144",
      "metarObsTime": 1775256780
    },
    "KLBE": {
      "status": "OK",
      "delay": "—",
      "metarCat": "VFR",
      "metarRaw": "METAR KLBE 032247Z 22014G25KT 10SM FEW049 24/15 A3013",
      "metarObsTime": 1775256420
    },
    "KJST": {
      "status": "OK",
      "delay": "—",
      "metarCat": "VFR",
      "metarRaw": "METAR KJST 032254Z AUTO 24015G22KT 10SM SCT046 21/12 A3015 RMK AO2 SLP205 T02110122",
      "metarObsTime": 1775256840
    },
    "KERI": {
      "status": "OK",
      "delay": "—",
      "metarCat": "VFR",
      "metarRaw": "METAR KERI 032251Z 25011G22KT 10SM BKN041 BKN050 19/13 A3007 RMK AO2 SLP179 T01940128",
      "metarObsTime": 1775256660
    },
    "KDUJ": {
      "status": "OK",
      "delay": "—",
      "metarCat": "VFR",
      "metarRaw": "SPECI KDUJ 032316Z AUTO 25009KT 10SM SCT034 SCT055 OVC110 18/16 A3011 RMK AO2 LTG DSNT NE RAB00E12 P0008 T01780156",
      "metarObsTime": 1775258160
    },
    "KBFD": {
      "status": "OK",
      "delay": "—",
      "metarCat": "VFR",
      "metarRaw": "METAR KBFD 032253Z AUTO 22003KT 10SM -RA FEW031 BKN050 OVC080 17/14 A3009 RMK AO2 LTG DSNT SE-SW RAE11B27 SLP187 P0006 T01670144",
      "metarObsTime": 1775256780
    },
    "KBTP": {
      "status": "OK",
      "delay": "—",
      "metarCat": "VFR",
      "metarRaw": "SPECI KBTP 032307Z AUTO 22012G17KT 10SM VCTS BKN046 BKN090 23/15 A3011 RMK AO2 LTG DSNT W TSB01 $",
      "metarObsTime": 1775257620
    },
    "KFKL": {
      "status": "OK",
      "delay": "—",
      "metarCat": "VFR",
      "metarRaw": "METAR KFKL 032256Z AUTO 26008KT 10SM FEW042 SCT100 21/16 A3010 RMK AO2 SLP189 T02110156",
      "metarObsTime": 1775256960
    },
    "KIDI": {
      "status": "OK",
      "delay": "—",
      "metarCat": "VFR",
      "metarRaw": "METAR KIDI 032335Z AUTO 23007G14KT 10SM FEW047 BKN060 BKN065 22/14 A3012 RMK A01",
      "metarObsTime": 1775259300
    },
    "KMDT": {
      "status": "OK",
      "delay": "—",
      "metarCat": "VFR",
      "metarRaw": "METAR KMDT 032256Z 06003KT 7SM SCT095 OVC200 17/13 A3013 RMK AO2 SLP203 T01720133 $",
      "metarObsTime": 1775256960
    },
    "KCXY": {
      "status": "OK",
      "delay": "—",
      "metarCat": "VFR",
      "metarRaw": "METAR KCXY 032256Z 13005KT 10SM BKN090 18/13 A3013 RMK AO2 SLP204 T01780133",
      "metarObsTime": 1775256960
    },
    "KMUI": {
      "status": "OK",
      "delay": "—",
      "metarCat": "VFR",
      "metarRaw": "METAR KMUI 032255Z 00000KT 10SM FEW060 BKN090 BKN250 17/15 A3012 RMK AO2A SLP204 T01690149",
      "metarObsTime": 1775256900
    },
    "KUNV": {
      "status": "OK",
      "delay": "—",
      "metarCat": "VFR",
      "metarRaw": "METAR KUNV 032253Z 23010G14KT 10SM CLR 23/14 A3009",
      "metarObsTime": 1775256780
    },
    "KAOO": {
      "status": "OK",
      "delay": "—",
      "metarCat": "VFR",
      "metarRaw": "METAR KAOO 032253Z AUTO 23009KT 10SM CLR 22/13 A3013 RMK AO2 SLP200 T02220128",
      "metarObsTime": 1775256780
    },
    "KLNS": {
      "status": "OK",
      "delay": "—",
      "metarCat": "VFR",
      "metarRaw": "METAR KLNS 032253Z 09004KT 7SM FEW100 17/15 A3013 RMK AO2 SLP204 T01720150",
      "metarObsTime": 1775256780
    },
    "KIPT": {
      "status": "OK",
      "delay": "—",
      "metarCat": "VFR",
      "metarRaw": "METAR KIPT 032254Z 07007KT 10SM CLR 16/11 A3008 RMK AO2 SLP187 T01610111",
      "metarObsTime": 1775256840
    },
    "KPHL": {
      "status": "OK",
      "delay": "—",
      "metarCat": "VFR",
      "metarRaw": "METAR KPHL 032254Z 22005KT 10SM SCT170 BKN260 22/16 A3013 RMK AO2 SLP204 T02170156 $",
      "metarObsTime": 1775256840
    },
    "KABE": {
      "status": "OK",
      "delay": "—",
      "metarCat": "VFR",
      "metarRaw": "METAR KABE 032251Z 32004KT 10SM FEW120 15/11 A3014 RMK AO2 SLP207 T01500111 $",
      "metarObsTime": 1775256660
    },
    "KAVP": {
      "status": "OK",
      "delay": "—",
      "metarCat": "VFR",
      "metarRaw": "METAR KAVP 032254Z 25009KT 10SM CLR 19/11 A3008 RMK AO2 SLP186 T01940111",
      "metarObsTime": 1775256840
    },
    "KHZL": {
      "status": "OK",
      "delay": "—",
      "metarCat": "VFR",
      "metarRaw": "METAR KHZL 032335Z AUTO 19003KT 10SM CLR 16/11 A3017 RMK AO2",
      "metarObsTime": 1775259300
    }
  }
}