{
  "generatedAt": "2026-03-14T10:50:17.544Z",
  "airports": {
    "KPIT": {
      "status": "OK",
      "delay": "—",
      "metarCat": "VFR",
      "metarRaw": "METAR KPIT 140951Z 29019G29KT 10SM FEW050 01/M08 A2999 RMK AO2 PK WND 27029/0937 SLP169 T00111078",
      "metarObsTime": 1773481860
    },
    "KAGC": {
      "status": "OK",
      "delay": "—",
      "metarCat": "VFR",
      "metarRaw": "METAR KAGC 140953Z 29012G26KT 10SM CLR 02/M09 A2998 RMK AO2 PK WND 29031/0857 SLP163 T00171089",
      "metarObsTime": 1773481980
    },
    "KLBE": {
      "status": "OK",
      "delay": "—",
      "metarCat": "VFR",
      "metarRaw": "METAR KLBE 141047Z 27018G29KT 10SM CLR 02/M07 A3003",
      "metarObsTime": 1773485220
    },
    "KJST": {
      "status": "OK",
      "delay": "—",
      "metarCat": "VFR",
      "metarRaw": "METAR KJST 140954Z AUTO 27020G34KT 10SM CLR 00/M08 A2988 RMK AO2 PK WND 28043/0912 SLP129 T00001083 $",
      "metarObsTime": 1773482040
    },
    "KERI": {
      "status": "OK",
      "delay": "—",
      "metarCat": "—",
      "metarRaw": "METAR KERI 140951Z A2997 RMK AO2 SLPNO $",
      "metarObsTime": 1773481860
    },
    "KDUJ": {
      "status": "OK",
      "delay": "—",
      "metarCat": "VFR",
      "metarRaw": "METAR KDUJ 140953Z AUTO 28022G34KT 10SM OVC037 M01/M09 A2987 RMK AO2 PK WND 27034/0951 PRESRR SLP126 T10111089",
      "metarObsTime": 1773481980
    },
    "KBFD": {
      "status": "OK",
      "delay": "—",
      "metarCat": "MVFR",
      "metarRaw": "METAR KBFD 140953Z AUTO 28017G39KT 9SM -SN BKN027 OVC034 M03/M08 A2981 RMK AO2 PK WND 26039/0949 SLP113 P0000 T10281083",
      "metarObsTime": 1773481980
    },
    "KBTP": {
      "status": "OK",
      "delay": "—",
      "metarCat": "VFR",
      "metarRaw": "METAR KBTP 140956Z AUTO 27011G21KT 10SM BKN036 01/M07 A2999 RMK AO2 PK WND 28027/0914 SLP168 T00061067 FZRANO $",
      "metarObsTime": 1773482160
    },
    "KFKL": {
      "status": "OK",
      "delay": "—",
      "metarCat": "MVFR",
      "metarRaw": "SPECI KFKL 141009Z AUTO 29009G21KT 10SM OVC029 A2996 RMK AO2 FZRANO $",
      "metarObsTime": 1773482940
    },
    "KIDI": {
      "status": "OK",
      "delay": "—",
      "metarCat": "VFR",
      "metarRaw": "METAR KIDI 141035Z AUTO 27013G18KT 10SM FEW042 FEW049 00/M07 A2998 RMK A01",
      "metarObsTime": 1773484500
    },
    "KMDT": {
      "status": "OK",
      "delay": "—",
      "metarCat": "VFR",
      "metarRaw": "METAR KMDT 140956Z 29020G34KT 10SM CLR 08/M06 A2985 RMK AO2 PK WND 28041/0944 SLP110 T00781056 $",
      "metarObsTime": 1773482160
    },
    "KCXY": {
      "status": "OK",
      "delay": "—",
      "metarCat": "VFR",
      "metarRaw": "METAR KCXY 140956Z AUTO 29016G24KT 10SM CLR 08/M09 A2987 RMK AO2 PK WND 28041/0902 RAB0857E20B23E51 SLP116 P0000 T00781089",
      "metarObsTime": 1773482160
    },
    "KMUI": {
      "status": "OK",
      "delay": "—",
      "metarCat": "VFR",
      "metarRaw": "METAR KMUI 140955Z AUTO 26015G23KT 10SM CLR 08/M08 A2982 RMK AO2 SLP102 T00751077 $",
      "metarObsTime": 1773482100
    },
    "KUNV": {
      "status": "OK",
      "delay": "—",
      "metarCat": "VFR",
      "metarRaw": "METAR KUNV 140953Z 28022G29KT 10SM CLR 02/M09 A2986",
      "metarObsTime": 1773481980
    },
    "KAOO": {
      "status": "OK",
      "delay": "—",
      "metarCat": "VFR",
      "metarRaw": "METAR KAOO 140953Z AUTO 28025G41KT 10SM CLR 03/M08 A2988 RMK AO2 PK WND 27041/0952 SLP126 T00281078",
      "metarObsTime": 1773481980
    },
    "KLNS": {
      "status": "OK",
      "delay": "—",
      "metarCat": "VFR",
      "metarRaw": "METAR KLNS 140953Z 28016G23KT 10SM CLR 07/M08 A2985 RMK AO2 SLP109 T00671078",
      "metarObsTime": 1773481980
    },
    "KIPT": {
      "status": "OK",
      "delay": "—",
      "metarCat": "VFR",
      "metarRaw": "METAR KIPT 140954Z AUTO 26019G29KT 10SM BKN060 03/M06 A2982 RMK AO2 PK WND 24029/0954 SLP100 T00331056 $",
      "metarObsTime": 1773482040
    },
    "KPHL": {
      "status": "OK",
      "delay": "—",
      "metarCat": "VFR",
      "metarRaw": "METAR KPHL 140954Z 25008KT 10SM CLR 03/00 A2985 RMK AO2 SLP107 T00280000 $",
      "metarObsTime": 1773482040
    },
    "KABE": {
      "status": "OK",
      "delay": "—",
      "metarCat": "VFR",
      "metarRaw": "METAR KABE 140951Z 00000KT 10SM CLR M03/M04 A2981 RMK AO2 SLP097 T10281039 $",
      "metarObsTime": 1773481860
    },
    "KAVP": {
      "status": "OK",
      "delay": "—",
      "metarCat": "VFR",
      "metarRaw": "METAR KAVP 140954Z 22006KT 10SM FEW070 01/M02 A2978 RMK AO2 SLP087 T00061017",
      "metarObsTime": 1773482040
    },
    "KHZL": {
      "status": "OK",
      "delay": "—",
      "metarCat": "VFR",
      "metarRaw": "METAR KHZL 141035Z AUTO 28010G16KT 260V320 10SM CLR 02/M06 A2981 RMK AO2",
      "metarObsTime": 1773484500
    }
  }
}