{
  "generatedAt": "2026-04-25T12:40:59.296Z",
  "airports": {
    "KPIT": {
      "status": "OK",
      "delay": "—",
      "metarCat": "VFR",
      "metarRaw": "METAR KPIT 251151Z 28004KT 6SM -RA BR BKN044 OVC100 15/14 A2977 RMK AO2 SLP081 P0001 60001 70001 T01500139 10189 20150 53010",
      "metarObsTime": 1777117860
    },
    "KAGC": {
      "status": "OK",
      "delay": "—",
      "metarCat": "VFR",
      "metarRaw": "METAR KAGC 251153Z 29004KT 7SM -RA FEW070 OVC090 16/13 A2975 RMK AO2 RAB29 SLP073 P0000 60000 T01560128 10183 20156 53010",
      "metarObsTime": 1777117980
    },
    "KLBE": {
      "status": "OK",
      "delay": "—",
      "metarCat": "VFR",
      "metarRaw": "SPECI KLBE 251202Z 23012G20KT 6SM -RA BR SCT028 BKN047 17/11 A2978",
      "metarObsTime": 1777118520
    },
    "KJST": {
      "status": "OK",
      "delay": "—",
      "metarCat": "VFR",
      "metarRaw": "METAR KJST 251154Z AUTO 15008KT 10SM FEW055 SCT070 SCT080 14/10 A2979 RMK AO2 SLP076 T01440100 10150 20128 53005",
      "metarObsTime": 1777118040
    },
    "KERI": {
      "status": "OK",
      "delay": "—",
      "metarCat": "LIFR",
      "metarRaw": "SPECI KERI 251230Z 03004KT 2SM -RA BR OVC004 08/08 A2975 RMK AO2 RAE23B30 P0004 T00830078",
      "metarObsTime": 1777120200
    },
    "KDUJ": {
      "status": "OK",
      "delay": "—",
      "metarCat": "VFR",
      "metarRaw": "METAR KDUJ 251153Z AUTO 10009KT 10SM BKN075 OVC090 11/06 A2977 RMK AO2 SLP077 60002 70002 T01110056 10139 20106 53003",
      "metarObsTime": 1777117980
    },
    "KBFD": {
      "status": "OK",
      "delay": "—",
      "metarCat": "VFR",
      "metarRaw": "METAR KBFD 251153Z AUTO 11005KT 10SM SCT060 BKN075 OVC100 07/06 A2979 RMK AO2 RAB05E51 SLP084 P0002 60003 70003 T00720056 10111 20072 56001",
      "metarObsTime": 1777117980
    },
    "KBTP": {
      "status": "OK",
      "delay": "—",
      "metarCat": "VFR",
      "metarRaw": "METAR KBTP 251156Z AUTO 28004KT 6SM RA FEW040 BKN070 OVC085 14/ A2978 RMK AO2 SLP083 P0003 60003 70003 T0144 10172 20139 53012 $",
      "metarObsTime": 1777118160
    },
    "KFKL": {
      "status": "OK",
      "delay": "—",
      "metarCat": "—",
      "metarRaw": "—",
      "metarObsTime": null
    },
    "KIDI": {
      "status": "OK",
      "delay": "—",
      "metarCat": "VFR",
      "metarRaw": "METAR KIDI 251235Z AUTO 00000KT 6SM BR FEW031 SCT044 BKN049 15/13 A2979 RMK A01",
      "metarObsTime": 1777120500
    },
    "KMDT": {
      "status": "OK",
      "delay": "—",
      "metarCat": "MVFR",
      "metarRaw": "METAR KMDT 251156Z 13008KT 10SM BKN024 OVC044 12/07 A2990 RMK AO2 SLP126 60001 70004 T01220072 10128 20106 53017",
      "metarObsTime": 1777118160
    },
    "KCXY": {
      "status": "OK",
      "delay": "—",
      "metarCat": "VFR",
      "metarRaw": "METAR KCXY 251156Z 10009KT 10SM OVC040 12/07 A2991 RMK AO2 SLP127 60003 70020 T01170072 10128 20111 53018",
      "metarObsTime": 1777118160
    },
    "KMUI": {
      "status": "OK",
      "delay": "—",
      "metarCat": "VFR",
      "metarRaw": "METAR KMUI 251155Z AUTO 09007KT 10SM OVC046 12/09 A2991 RMK AO2 SLP129 60003 70003 T01170087 10163 20111 52018",
      "metarObsTime": 1777118100
    },
    "KUNV": {
      "status": "OK",
      "delay": "—",
      "metarCat": "MVFR",
      "metarRaw": "METAR KUNV 251153Z 09009KT 10SM OVC019 11/06 A2985",
      "metarObsTime": 1777117980
    },
    "KAOO": {
      "status": "OK",
      "delay": "—",
      "metarCat": "IFR",
      "metarRaw": "SPECI KAOO 251214Z AUTO 14008KT 4SM BR BKN007 OVC012 13/11 A2983 RMK AO2 CIG 007V010 T01280111",
      "metarObsTime": 1777119240
    },
    "KLNS": {
      "status": "OK",
      "delay": "—",
      "metarCat": "VFR",
      "metarRaw": "METAR KLNS 251153Z 11010KT 10SM OVC048 10/06 A2992 RMK AO2 SLP130 60000 70003 T01000061 10111 20094 53016",
      "metarObsTime": 1777117980
    },
    "KIPT": {
      "status": "OK",
      "delay": "—",
      "metarCat": "VFR",
      "metarRaw": "METAR KIPT 251154Z 06012KT 10SM OVC034 10/05 A2987 RMK AO2 SLP115 60000 70006 T01000050 10122 20089 53014 $",
      "metarObsTime": 1777118040
    },
    "KPHL": {
      "status": "OK",
      "delay": "—",
      "metarCat": "VFR",
      "metarRaw": "METAR KPHL 251154Z 09013KT 10SM FEW012 BKN048 OVC060 11/06 A2996 RMK AO2 SLP146 VIRGA 60000 T01110061 10111 20100 51017 $",
      "metarObsTime": 1777118040
    },
    "KABE": {
      "status": "OK",
      "delay": "—",
      "metarCat": "MVFR",
      "metarRaw": "METAR KABE 251151Z 08009KT 10SM BKN019 OVC049 09/05 A2997 RMK AO2 SLP150 60000 T00940050 10106 20089 53019 $",
      "metarObsTime": 1777117860
    },
    "KAVP": {
      "status": "OK",
      "delay": "—",
      "metarCat": "VFR",
      "metarRaw": "METAR KAVP 251154Z VRB03KT 6SM RA OVC080 07/03 A2993 RMK AO2 RAB1059 SLP134 P0006 60006 70006 T00720033 10111 20072 51017 $",
      "metarObsTime": 1777118040
    },
    "KHZL": {
      "status": "OK",
      "delay": "—",
      "metarCat": "MVFR",
      "metarRaw": "METAR KHZL 251235Z AUTO 13009G17KT 090V170 10SM BKN010 OVC027 06/03 A2994 RMK AO2",
      "metarObsTime": 1777120500
    }
  }
}