{
  "generatedAt": "2026-03-22T23:30:15.103Z",
  "airports": {
    "KPIT": {
      "status": "OK",
      "delay": "—",
      "metarCat": "VFR",
      "metarRaw": "SPECI KPIT 222258Z 34013G19KT 10SM FEW075 BKN095 BKN120 17/12 A2970 RMK AO2 LTG DSNT SE-W TSB52E57 PRESRR T01720122",
      "metarObsTime": 1774220280
    },
    "KAGC": {
      "status": "OK",
      "delay": "—",
      "metarCat": "VFR",
      "metarRaw": "METAR KAGC 222253Z 35009KT 9SM FEW037 FEW075 SCT090 17/14 A2965 RMK AO2 LTG DSNT ALQDS RAE45 TSE2154B14E31 SLP043 P0005 T01670139",
      "metarObsTime": 1774219980
    },
    "KLBE": {
      "status": "OK",
      "delay": "—",
      "metarCat": "MVFR",
      "metarRaw": "METAR KLBE 222247Z 33011G22KT 6SM VCTS RA HZ BKN012 BKN040 19/16 A2966 RMK LTG DSNT ALQDS",
      "metarObsTime": 1774219620
    },
    "KJST": {
      "status": "OK",
      "delay": "—",
      "metarCat": "MVFR",
      "metarRaw": "METAR KJST 222254Z AUTO 31011G18KT 5SM -RA FEW060 BKN075 OVC090 17/13 A2967 RMK AO2 PK WND 33047/2208 WSHFT 2159 LTG DSNT E AND SE AND W RAB06 TSB08E23B24E39 SLP039 P0009 T01670128",
      "metarObsTime": 1774220040
    },
    "KERI": {
      "status": "OK",
      "delay": "—",
      "metarCat": "IFR",
      "metarRaw": "METAR KERI 222251Z 05013KT 2 1/2SM BR BKN007 BKN014 OVC046 04/03 A2979 RMK AO2 RAE2156B16E47 SLP090 P0000 T00390033",
      "metarObsTime": 1774219860
    },
    "KDUJ": {
      "status": "OK",
      "delay": "—",
      "metarCat": "MVFR",
      "metarRaw": "SPECI KDUJ 222315Z AUTO VRB04G18KT 3SM -TSRA BR SCT012 BKN047 OVC060 12/11 A2972 RMK AO2 LTG DSNT ALQDS RAB05 TSB00 PRESRR P0010 T01170106",
      "metarObsTime": 1774221300
    },
    "KBFD": {
      "status": "OK",
      "delay": "—",
      "metarCat": "IFR",
      "metarRaw": "SPECI KBFD 222323Z AUTO 10SM OVC005 07/06 A2974 RMK AO2 CIG 003V008 T00720061 $",
      "metarObsTime": 1774221780
    },
    "KBTP": {
      "status": "OK",
      "delay": "—",
      "metarCat": "VFR",
      "metarRaw": "SPECI KBTP 222328Z AUTO 36008KT 10SM SCT050 SCT075 BKN095 15/11 A2970 RMK AO2 LTG DSNT ALQDS TSB07E22 $",
      "metarObsTime": 1774222080
    },
    "KFKL": {
      "status": "OK",
      "delay": "—",
      "metarCat": "MVFR",
      "metarRaw": "SPECI KFKL 222314Z AUTO 02007KT 7SM OVC010 08/07 A2975 RMK AO2 LTG DSNT E-S TSE08",
      "metarObsTime": 1774221240
    },
    "KIDI": {
      "status": "OK",
      "delay": "—",
      "metarCat": "VFR",
      "metarRaw": "METAR KIDI 222315Z AUTO 36009KT 10SM FEW075 SCT095 SCT120 17/12 A2969 RMK A01",
      "metarObsTime": 1774221300
    },
    "KMDT": {
      "status": "OK",
      "delay": "—",
      "metarCat": "VFR",
      "metarRaw": "SPECI KMDT 222316Z 15007KT 10SM TS FEW050 SCT070CB OVC100 21/09 A2957 RMK AO2 TSB16 OCNL LTGICCCCG W-NE T02110089",
      "metarObsTime": 1774221360
    },
    "KCXY": {
      "status": "OK",
      "delay": "—",
      "metarCat": "VFR",
      "metarRaw": "SPECI KCXY 222318Z 32022G40KT 10SM VCTS -RA BKN110 25/10 A2963 RMK AO2 PK WND 31040/2316 LTG DSNT W-NE RAB18 PRESRR TS NE MVG SE P0000 T02500100",
      "metarObsTime": 1774221480
    },
    "KMUI": {
      "status": "OK",
      "delay": "—",
      "metarCat": "VFR",
      "metarRaw": "SPECI KMUI 222325Z AUTO 35015G26KT 10SM -RA FEW065 OVC085 19/16 A2967 RMK AO2 LTG DSNT SW-W RAE2255RAB02E24RAB25 TSE2255TSB05E24 SLP050",
      "metarObsTime": 1774221900
    },
    "KUNV": {
      "status": "OK",
      "delay": "—",
      "metarCat": "VFR",
      "metarRaw": "SPECI KUNV 222323Z 10005KT 10SM VCTS SCT025 BKN075 OVC100 15/15 A2970 RMK TSE2323 LTG DSNT NE",
      "metarObsTime": 1774221780
    },
    "KAOO": {
      "status": "OK",
      "delay": "—",
      "metarCat": "VFR",
      "metarRaw": "SPECI KAOO 222313Z AUTO 27008G15KT 10SM -RA FEW049 BKN095 OVC120 18/12 A2967 RMK AO2 LTG DSNT E AND SE TSE2258 P0000 T01830122",
      "metarObsTime": 1774221180
    },
    "KLNS": {
      "status": "OK",
      "delay": "—",
      "metarCat": "VFR",
      "metarRaw": "METAR KLNS 222253Z 18011KT 10SM CLR 21/11 A2958 RMK AO2 SLP016 T02110106",
      "metarObsTime": 1774219980
    },
    "KIPT": {
      "status": "OK",
      "delay": "—",
      "metarCat": "MVFR",
      "metarRaw": "SPECI KIPT 222327Z 34004KT 3SM -RA BR SCT032 BKN040 OVC090 13/13 A2970 RMK AO2 LTG DSNT S AND SW TSB06E21 P0019 T01330133 $",
      "metarObsTime": 1774222020
    },
    "KPHL": {
      "status": "OK",
      "delay": "—",
      "metarCat": "VFR",
      "metarRaw": "METAR KPHL 222254Z 19008KT 10SM SCT095 BKN250 22/11 A2961 RMK AO2 SLP025 T02170111 $",
      "metarObsTime": 1774220040
    },
    "KABE": {
      "status": "OK",
      "delay": "—",
      "metarCat": "VFR",
      "metarRaw": "METAR KABE 222251Z 11007KT 10SM FEW011 18/12 A2961 RMK AO2 PK WND 35028/2205 RAB2153E44 SLP027 P0000 T01780117 $",
      "metarObsTime": 1774219860
    },
    "KAVP": {
      "status": "OK",
      "delay": "—",
      "metarCat": "IFR",
      "metarRaw": "METAR KAVP 222254Z 00000KT 1 1/4SM RA BR BKN055 BKN070 OVC090 12/11 A2970 RMK AO2 LTG DSNT SW RAB33 SLP057 P0006 T01170111",
      "metarObsTime": 1774220040
    },
    "KHZL": {
      "status": "OK",
      "delay": "—",
      "metarCat": "IFR",
      "metarRaw": "METAR KHZL 222315Z AUTO 00000KT 2SM RA SCT028 BKN036 OVC042 13/11 A2974 RMK AO2 P0007",
      "metarObsTime": 1774221300
    }
  }
}