{
  "generatedAt": "2026-04-06T08:51:08.024Z",
  "airports": {
    "KPIT": {
      "status": "OK",
      "delay": "—",
      "metarCat": "VFR",
      "metarRaw": "METAR KPIT 060751Z 30009KT 10SM BKN040 04/M03 A3013 RMK AO2 SLP218 T00391028 $",
      "metarObsTime": 1775461860
    },
    "KAGC": {
      "status": "OK",
      "delay": "—",
      "metarCat": "VFR",
      "metarRaw": "METAR KAGC 060753Z 32005KT 10SM SCT032 OVC042 04/M03 A3012 RMK AO2 SLP212 T00391028",
      "metarObsTime": 1775461980
    },
    "KLBE": {
      "status": "OK",
      "delay": "—",
      "metarCat": "VFR",
      "metarRaw": "METAR KLBE 060835Z AUTO 27004KT 10SM FEW034 OVC043 04/M02 A3014 RMK AO2",
      "metarObsTime": 1775464500
    },
    "KJST": {
      "status": "OK",
      "delay": "—",
      "metarCat": "VFR",
      "metarRaw": "SPECI KJST 060829Z AUTO 30016G24KT 10SM SCT029 BKN034 01/M04 A3004 RMK AO2 T00061044",
      "metarObsTime": 1775464140
    },
    "KERI": {
      "status": "OK",
      "delay": "—",
      "metarCat": "VFR",
      "metarRaw": "METAR KERI 060751Z AUTO 27005KT 10SM CLR 03/M03 A3011 RMK AO2 SLP201 T00331028 $",
      "metarObsTime": 1775461860
    },
    "KDUJ": {
      "status": "OK",
      "delay": "—",
      "metarCat": "VFR",
      "metarRaw": "METAR KDUJ 060753Z AUTO 30010G18KT 10SM OVC040 01/M06 A3007 RMK AO2 SLP196 T00111056",
      "metarObsTime": 1775461980
    },
    "KBFD": {
      "status": "OK",
      "delay": "—",
      "metarCat": "MVFR",
      "metarRaw": "SPECI KBFD 060829Z AUTO 29009KT 10SM BKN027 OVC033 M01/M06 A3003 RMK AO2 T10111056",
      "metarObsTime": 1775464140
    },
    "KBTP": {
      "status": "OK",
      "delay": "—",
      "metarCat": "VFR",
      "metarRaw": "METAR KBTP 060756Z AUTO 26006KT 10SM BKN043 03/M04 A3013 RMK AO2 SLP217 T00281039 $",
      "metarObsTime": 1775462160
    },
    "KFKL": {
      "status": "OK",
      "delay": "—",
      "metarCat": "VFR",
      "metarRaw": "METAR KFKL 060756Z AUTO 24005KT 10SM OVC042 02/M03 A3010 RMK AO2 SLP207 T00171028 FZRANO",
      "metarObsTime": 1775462160
    },
    "KIDI": {
      "status": "OK",
      "delay": "—",
      "metarCat": "VFR",
      "metarRaw": "METAR KIDI 060835Z AUTO 28009G14KT 10SM OVC043 03/M05 A3011 RMK A01",
      "metarObsTime": 1775464500
    },
    "KMDT": {
      "status": "OK",
      "delay": "—",
      "metarCat": "VFR",
      "metarRaw": "METAR KMDT 060756Z 32012G21KT 10SM BKN050 07/M03 A3004 RMK AO2 PK WND 31032/0706 SLP175 T00671033 $",
      "metarObsTime": 1775462160
    },
    "KCXY": {
      "status": "OK",
      "delay": "—",
      "metarCat": "VFR",
      "metarRaw": "METAR KCXY 060756Z AUTO 29013KT 10SM FEW050 06/M04 A3005 RMK AO2 PK WND 29027/0658 SLP176 T00611039 $",
      "metarObsTime": 1775462160
    },
    "KMUI": {
      "status": "OK",
      "delay": "—",
      "metarCat": "VFR",
      "metarRaw": "METAR KMUI 060755Z AUTO 29010G20KT 10SM CLR 07/M04 A3001 RMK AO2 PK WND 28027/17 SLP167 T00651043",
      "metarObsTime": 1775462100
    },
    "KUNV": {
      "status": "OK",
      "delay": "—",
      "metarCat": "VFR",
      "metarRaw": "METAR KUNV 060835Z AUTO 30012G18KT 270V340 10SM OVC039 03/M05 A3006 RMK AO2 T00321052",
      "metarObsTime": 1775464500
    },
    "KAOO": {
      "status": "OK",
      "delay": "—",
      "metarCat": "VFR",
      "metarRaw": "METAR KAOO 060753Z AUTO 32010G16KT 10SM OVC047 03/M05 A3007 RMK AO2 SLP192 T00331050",
      "metarObsTime": 1775461980
    },
    "KLNS": {
      "status": "OK",
      "delay": "—",
      "metarCat": "VFR",
      "metarRaw": "METAR KLNS 060753Z AUTO 31013KT 10SM OVC050 06/M03 A3004 RMK AO2 PK WND 29032/0725 SLP174 T00561033",
      "metarObsTime": 1775461980
    },
    "KIPT": {
      "status": "OK",
      "delay": "—",
      "metarCat": "VFR",
      "metarRaw": "METAR KIPT 060754Z AUTO 29014G20KT 10SM OVC049 04/M05 A3004 RMK AO2 SLP175 T00441050",
      "metarObsTime": 1775462040
    },
    "KPHL": {
      "status": "OK",
      "delay": "—",
      "metarCat": "VFR",
      "metarRaw": "METAR KPHL 060754Z 31016G29KT 10SM FEW070 09/M03 A3002 RMK AO2 PK WND 30029/0744 SLP165 T00891033 $",
      "metarObsTime": 1775462040
    },
    "KABE": {
      "status": "OK",
      "delay": "—",
      "metarCat": "VFR",
      "metarRaw": "METAR KABE 060751Z 31021G38KT 10SM OVC048 06/M04 A3001 RMK AO2 PK WND 30038/0742 SLP163 T00561044 $",
      "metarObsTime": 1775461860
    },
    "KAVP": {
      "status": "OK",
      "delay": "—",
      "metarCat": "VFR",
      "metarRaw": "METAR KAVP 060754Z AUTO 30010KT 10SM BKN034 OVC042 03/M03 A3000 RMK AO2 SLP161 T00281033",
      "metarObsTime": 1775462040
    },
    "KHZL": {
      "status": "OK",
      "delay": "—",
      "metarCat": "VFR",
      "metarRaw": "METAR KHZL 060835Z AUTO 30007G18KT 270V360 10SM OVC038 02/M05 A3000 RMK AO2",
      "metarObsTime": 1775464500
    }
  }
}