{
  "generatedAt": "2026-04-17T12:20:51.983Z",
  "airports": {
    "KPIT": {
      "status": "OK",
      "delay": "—",
      "metarCat": "VFR",
      "metarRaw": "SPECI KPIT 171208Z 32005KT 10SM FEW006 FEW250 14/12 A2999 RMK AO2 T01390117",
      "metarObsTime": 1776427680
    },
    "KAGC": {
      "status": "OK",
      "delay": "—",
      "metarCat": "VFR",
      "metarRaw": "METAR KAGC 171153Z 33006KT 10SM CLR 14/11 A2998 RMK AO2 SLP153 70004 T01390111 10172 20133 53022",
      "metarObsTime": 1776426780
    },
    "KLBE": {
      "status": "OK",
      "delay": "—",
      "metarCat": "—",
      "metarRaw": "—",
      "metarObsTime": null
    },
    "KJST": {
      "status": "OK",
      "delay": "—",
      "metarCat": "IFR",
      "metarRaw": "METAR KJST 171154Z AUTO 30009KT 10SM OVC008 12/11 A2997 RMK AO2 CIG 006V010 SLP144 60004 70036 T01220111 10150 20122 53018",
      "metarObsTime": 1776426840
    },
    "KERI": {
      "status": "OK",
      "delay": "—",
      "metarCat": "LIFR",
      "metarRaw": "METAR KERI 171151Z 27004KT 1/2SM R06/4500V5000FT FG OVC002 10/09 A2999 RMK AO2 SLP155 70036 T01000094 10139 20100 $",
      "metarObsTime": 1776426660
    },
    "KDUJ": {
      "status": "OK",
      "delay": "—",
      "metarCat": "IFR",
      "metarRaw": "METAR KDUJ 171153Z AUTO 30008KT 10SM BKN007 OVC031 13/12 A2996 RMK AO2 CIG 006V011 SLP141 70034 T01330122 10144 20128 51016",
      "metarObsTime": 1776426780
    },
    "KBFD": {
      "status": "OK",
      "delay": "—",
      "metarCat": "MVFR",
      "metarRaw": "SPECI KBFD 171200Z AUTO 30008KT 10SM SCT008 BKN022 OVC034 13/12 A2996 RMK AO2 T01280117",
      "metarObsTime": 1776427200
    },
    "KBTP": {
      "status": "OK",
      "delay": "—",
      "metarCat": "MVFR",
      "metarRaw": "METAR KBTP 171156Z AUTO 30003KT 10SM SCT007 OVC011 13/ A3000 RMK AO2 SLP164 6//// 7//// T0133 10139 20117 53023 PNO $",
      "metarObsTime": 1776426960
    },
    "KFKL": {
      "status": "OK",
      "delay": "—",
      "metarCat": "—",
      "metarRaw": "—",
      "metarObsTime": null
    },
    "KIDI": {
      "status": "OK",
      "delay": "—",
      "metarCat": "MVFR",
      "metarRaw": "METAR KIDI 171215Z AUTO 27007KT 10SM OVC019 14/13 A2999 RMK A01",
      "metarObsTime": 1776428100
    },
    "KMDT": {
      "status": "OK",
      "delay": "—",
      "metarCat": "VFR",
      "metarRaw": "METAR KMDT 171156Z 29004KT 10SM FEW065 FEW250 19/14 A2988 RMK AO2 SLP118 T01890144 10194 20172 53018",
      "metarObsTime": 1776426960
    },
    "KCXY": {
      "status": "OK",
      "delay": "—",
      "metarCat": "VFR",
      "metarRaw": "METAR KCXY 171156Z 30005KT 10SM CLR 19/14 A2989 RMK AO2 SLP119 T01890139 10189 20172 53017 $",
      "metarObsTime": 1776426960
    },
    "KMUI": {
      "status": "OK",
      "delay": "—",
      "metarCat": "VFR",
      "metarRaw": "METAR KMUI 171155Z 28008KT 10SM FEW040 FEW100 SCT200 21/15 A2986 RMK AO2A SLP111 T02080153 10208 20189 52019",
      "metarObsTime": 1776426900
    },
    "KUNV": {
      "status": "OK",
      "delay": "—",
      "metarCat": "MVFR",
      "metarRaw": "SPECI KUNV 171202Z 30005KT 10SM BKN018 BKN043 15/13 A2993",
      "metarObsTime": 1776427320
    },
    "KAOO": {
      "status": "OK",
      "delay": "—",
      "metarCat": "MVFR",
      "metarRaw": "METAR KAOO 171153Z AUTO 31006KT 10SM OVC022 14/12 A2995 RMK AO2 SLP136 60003 70032 T01440117 10156 20133 53020",
      "metarObsTime": 1776426780
    },
    "KLNS": {
      "status": "OK",
      "delay": "—",
      "metarCat": "VFR",
      "metarRaw": "METAR KLNS 171153Z 30004KT 10SM CLR 19/14 A2988 RMK AO2 SLP115 T01890144 10200 20150 53019",
      "metarObsTime": 1776426780
    },
    "KIPT": {
      "status": "OK",
      "delay": "—",
      "metarCat": "VFR",
      "metarRaw": "SPECI KIPT 171204Z 26007KT 10SM SCT024 BKN065 17/14 A2989 RMK AO2 T01670144 $",
      "metarObsTime": 1776427440
    },
    "KPHL": {
      "status": "OK",
      "delay": "—",
      "metarCat": "VFR",
      "metarRaw": "METAR KPHL 171154Z 33005KT 10SM FEW050 FEW075 BKN130 BKN200 BKN260 22/13 A2987 RMK AO2 SLP114 T02170133 10244 20206 53026 $",
      "metarObsTime": 1776426840
    },
    "KABE": {
      "status": "OK",
      "delay": "—",
      "metarCat": "VFR",
      "metarRaw": "METAR KABE 171151Z 28003KT 10SM CLR 18/14 A2987 RMK AO2 SLP112 60000 70013 T01830144 10206 20150 52024",
      "metarObsTime": 1776426660
    },
    "KAVP": {
      "status": "OK",
      "delay": "—",
      "metarCat": "VFR",
      "metarRaw": "SPECI KAVP 171203Z 00000KT 10SM SCT032 16/15 A2989 RMK AO2 T01610150",
      "metarObsTime": 1776427380
    },
    "KHZL": {
      "status": "OK",
      "delay": "—",
      "metarCat": "VFR",
      "metarRaw": "METAR KHZL 171215Z AUTO 00000KT 10SM SCT030 16/13 A2994 RMK AO2",
      "metarObsTime": 1776428100
    }
  }
}