{
  "generatedAt": "2026-03-22T21:40:18.914Z",
  "airports": {
    "KPIT": {
      "status": "OK",
      "delay": "—",
      "metarCat": "VFR",
      "metarRaw": "SPECI KPIT 222110Z 33017G27KT 7SM -TSRA BKN042CB OVC090 21/14 A2961 RMK AO2 PK WND 33029/2056 WSHFT 2052 OCNL LTGICCG OHD TS OHD MOV SE P0000 T02110144",
      "metarObsTime": 1774213800
    },
    "KAGC": {
      "status": "OK",
      "delay": "—",
      "metarCat": "VFR",
      "metarRaw": "SPECI KAGC 222136Z 32010G23KT 10SM VCTS BKN080 OVC110 23/13 A2960 RMK AO2 PK WND 20035/2054 WSHFT 2114 LTG DSNT NE AND E RAB04E31 P0000 T02280128",
      "metarObsTime": 1774215360
    },
    "KLBE": {
      "status": "OK",
      "delay": "—",
      "metarCat": "VFR",
      "metarRaw": "METAR KLBE 222047Z 21018G30KT 10SM FEW085 29/10 A2958 RMK LTG DSNT NW-NE",
      "metarObsTime": 1774212420
    },
    "KJST": {
      "status": "OK",
      "delay": "—",
      "metarCat": "VFR",
      "metarRaw": "METAR KJST 222054Z AUTO 23016G30KT 10SM FEW090 25/06 A2961 RMK AO2 PK WND 23032/2009 LTG DSNT NW SLP015 T02500056 56031",
      "metarObsTime": 1774212840
    },
    "KERI": {
      "status": "OK",
      "delay": "—",
      "metarCat": "IFR",
      "metarRaw": "SPECI KERI 222130Z 06015KT 2SM -RA BR BKN006 OVC015 05/04 A2979 RMK AO2 P0001 T00500039",
      "metarObsTime": 1774215000
    },
    "KDUJ": {
      "status": "OK",
      "delay": "—",
      "metarCat": "MVFR",
      "metarRaw": "SPECI KDUJ 222135Z AUTO 01008KT 5SM -RA BR FEW031 BKN070 OVC110 14/13 A2963 RMK AO2 PK WND 30026/2108 LTG DSNT ALQDS TSB13E32 P0005 T01440128",
      "metarObsTime": 1774215300
    },
    "KBFD": {
      "status": "OK",
      "delay": "—",
      "metarCat": "MVFR",
      "metarRaw": "METAR KBFD 222053Z AUTO 33012KT 4SM RA BKN039 BKN055 OVC070 12/09 A2968 RMK AO2 LTG DSNT SW RAB1958 SLP050 P0002 60002 T01220094 52005 $",
      "metarObsTime": 1774212780
    },
    "KBTP": {
      "status": "OK",
      "delay": "—",
      "metarCat": "VFR",
      "metarRaw": "SPECI KBTP 222130Z AUTO 34010G14KT 10SM FEW090 20/11 A2967 RMK AO2 LTG DSNT ALQDS TSB00E24 $",
      "metarObsTime": 1774215000
    },
    "KFKL": {
      "status": "OK",
      "delay": "—",
      "metarCat": "VFR",
      "metarRaw": "SPECI KFKL 222126Z AUTO VRB06KT 6SM +TSRA BR FEW018 BKN041 OVC055 13/11 A2969 RMK AO2 LTG DSNT ALQDS TSE01B20 P0007",
      "metarObsTime": 1774214760
    },
    "KIDI": {
      "status": "OK",
      "delay": "—",
      "metarCat": "VFR",
      "metarRaw": "METAR KIDI 222135Z AUTO 27013G21KT 7SM FEW034 SCT065 BKN080 20/13 A2964 RMK A01",
      "metarObsTime": 1774215300
    },
    "KMDT": {
      "status": "OK",
      "delay": "—",
      "metarCat": "VFR",
      "metarRaw": "METAR KMDT 222056Z 20011G25KT 10SM SCT150 BKN250 26/08 A2955 RMK AO2 SLP008 T02560083 56044",
      "metarObsTime": 1774212960
    },
    "KCXY": {
      "status": "OK",
      "delay": "—",
      "metarCat": "VFR",
      "metarRaw": "METAR KCXY 222056Z 19015G26KT 10SM CLR 27/09 A2955 RMK AO2 PK WND 18030/2027 SLP006 T02720089 56046",
      "metarObsTime": 1774212960
    },
    "KMUI": {
      "status": "OK",
      "delay": "—",
      "metarCat": "VFR",
      "metarRaw": "METAR KMUI 222055Z AUTO 15005KT 10SM CLR 26/11 A2955 RMK AO2 LTG DSNT SE SLP008 60000 T02630112 57047",
      "metarObsTime": 1774212900
    },
    "KUNV": {
      "status": "OK",
      "delay": "—",
      "metarCat": "VFR",
      "metarRaw": "SPECI KUNV 222120Z 08011G18KT 10SM VCTS BKN090 23/11 A2956 RMK LTG DSNT NW-N",
      "metarObsTime": 1774214400
    },
    "KAOO": {
      "status": "OK",
      "delay": "—",
      "metarCat": "VFR",
      "metarRaw": "METAR KAOO 222053Z AUTO 24019G29KT 10SM BKN100 27/06 A2959 RMK AO2 PK WND 22032/2043 SLP013 T02670056 56031",
      "metarObsTime": 1774212780
    },
    "KLNS": {
      "status": "OK",
      "delay": "—",
      "metarCat": "VFR",
      "metarRaw": "METAR KLNS 222053Z 18016G25KT 10SM CLR 24/10 A2959 RMK AO2 SLP018 T02440100 56041",
      "metarObsTime": 1774212780
    },
    "KIPT": {
      "status": "OK",
      "delay": "—",
      "metarCat": "VFR",
      "metarRaw": "SPECI KIPT 222104Z 33003KT 10SM FEW060 SCT070 OVC100 16/12 A2961 RMK AO2 LTG DSNT SE-SW RAE02 P0000 T01560122 $",
      "metarObsTime": 1774213440
    },
    "KPHL": {
      "status": "OK",
      "delay": "—",
      "metarCat": "VFR",
      "metarRaw": "METAR KPHL 222054Z 21010KT 10SM FEW110 BKN290 24/12 A2964 RMK AO2 SLP038 T02390117 56036 $",
      "metarObsTime": 1774212840
    },
    "KABE": {
      "status": "OK",
      "delay": "—",
      "metarCat": "VFR",
      "metarRaw": "METAR KABE 222051Z 20008KT 10SM CLR 22/09 A2961 RMK AO2 SLP026 T02170094 56038 $",
      "metarObsTime": 1774212660
    },
    "KAVP": {
      "status": "OK",
      "delay": "—",
      "metarCat": "IFR",
      "metarRaw": "SPECI KAVP 222121Z 15004KT 2SM RA BR BKN065 OVC080 12/11 A2968 RMK AO2 P0003 T01220111",
      "metarObsTime": 1774214460
    },
    "KHZL": {
      "status": "OK",
      "delay": "—",
      "metarCat": "VFR",
      "metarRaw": "METAR KHZL 222135Z AUTO 36003KT 7SM RA SCT041 BKN055 OVC090 15/09 A2974 RMK AO2 P0001",
      "metarObsTime": 1774215300
    }
  }
}