{
  "generatedAt": "2026-03-14T13:40:15.082Z",
  "airports": {
    "KPIT": {
      "status": "OK",
      "delay": "—",
      "metarCat": "VFR",
      "metarRaw": "METAR KPIT 141251Z 29013G21KT 10SM FEW030 FEW220 01/M06 A3013 RMK AO2 SLP216 T00061061",
      "metarObsTime": 1773492660
    },
    "KAGC": {
      "status": "OK",
      "delay": "—",
      "metarCat": "VFR",
      "metarRaw": "METAR KAGC 141253Z 29009G18KT 10SM CLR 01/M07 A3011 RMK AO2 SLP209 T00061072",
      "metarObsTime": 1773492780
    },
    "KLBE": {
      "status": "OK",
      "delay": "—",
      "metarCat": "VFR",
      "metarRaw": "METAR KLBE 141247Z 25012KT 10SM CLR 02/M06 A3012",
      "metarObsTime": 1773492420
    },
    "KJST": {
      "status": "OK",
      "delay": "—",
      "metarCat": "VFR",
      "metarRaw": "METAR KJST 141254Z AUTO 28016G27KT 10SM CLR M01/M08 A3001 RMK AO2 PK WND 28032/1217 SLP179 T10111083 $",
      "metarObsTime": 1773492840
    },
    "KERI": {
      "status": "OK",
      "delay": "—",
      "metarCat": "VFR",
      "metarRaw": "METAR KERI 141251Z 28013G34KT 10SM OVC031 M01/M07 A3010 RMK AO2 PK WND 26034/1242 SLP199 T10061072 $",
      "metarObsTime": 1773492660
    },
    "KDUJ": {
      "status": "OK",
      "delay": "—",
      "metarCat": "VFR",
      "metarRaw": "METAR KDUJ 141253Z AUTO 28018G24KT 10SM OVC032 M02/M09 A3000 RMK AO2 SLP177 T10171089",
      "metarObsTime": 1773492780
    },
    "KBFD": {
      "status": "OK",
      "delay": "—",
      "metarCat": "MVFR",
      "metarRaw": "METAR KBFD 141253Z AUTO 28013G23KT 3SM -SN OVC021 M04/M08 A2995 RMK AO2 PK WND 31035/1205 SLP163 P0000 T10391078",
      "metarObsTime": 1773492780
    },
    "KBTP": {
      "status": "OK",
      "delay": "—",
      "metarCat": "VFR",
      "metarRaw": "SPECI KBTP 141336Z AUTO 29016G22KT 10SM SCT028 01/M07 A3013 RMK AO2 FZRANO $",
      "metarObsTime": 1773495360
    },
    "KFKL": {
      "status": "OK",
      "delay": "—",
      "metarCat": "MVFR",
      "metarRaw": "METAR KFKL 141256Z AUTO 29012G19KT 10SM BKN025 OVC030 A3007 RMK AO2 SNB27E40 SLPNO P0000 FZRANO $",
      "metarObsTime": 1773492960
    },
    "KIDI": {
      "status": "OK",
      "delay": "—",
      "metarCat": "VFR",
      "metarRaw": "METAR KIDI 141335Z AUTO 29015G21KT 10SM BKN033 01/M06 A3011 RMK A01",
      "metarObsTime": 1773495300
    },
    "KMDT": {
      "status": "OK",
      "delay": "—",
      "metarCat": "VFR",
      "metarRaw": "METAR KMDT 141256Z 30018KT 10SM CLR 07/M06 A2998 RMK AO2 PK WND 28030/1200 SLP155 T00671061 $",
      "metarObsTime": 1773492960
    },
    "KCXY": {
      "status": "OK",
      "delay": "—",
      "metarCat": "VFR",
      "metarRaw": "METAR KCXY 141256Z 30016G25KT 10SM CLR 07/M08 A2999 RMK AO2 SLP160 T00671083",
      "metarObsTime": 1773492960
    },
    "KMUI": {
      "status": "OK",
      "delay": "—",
      "metarCat": "VFR",
      "metarRaw": "METAR KMUI 141255Z AUTO 27017G30KT 10SM CLR 06/M08 A2995 RMK AO2 PK WND 28034/08 SLP147 T00611082 $",
      "metarObsTime": 1773492900
    },
    "KUNV": {
      "status": "OK",
      "delay": "—",
      "metarCat": "VFR",
      "metarRaw": "METAR KUNV 141253Z 29016G23KT 10SM BKN042 01/M07 A3001",
      "metarObsTime": 1773492780
    },
    "KAOO": {
      "status": "OK",
      "delay": "—",
      "metarCat": "VFR",
      "metarRaw": "METAR KAOO 141253Z AUTO 30016G30KT 10SM CLR 02/M08 A3003 RMK AO2 PK WND 28030/1249 SLP178 T00171083",
      "metarObsTime": 1773492780
    },
    "KLNS": {
      "status": "OK",
      "delay": "—",
      "metarCat": "VFR",
      "metarRaw": "METAR KLNS 141253Z 28022G32KT 10SM CLR 07/M07 A2996 RMK AO2 PK WND 29032/1249 SLP148 T00721072",
      "metarObsTime": 1773492780
    },
    "KIPT": {
      "status": "OK",
      "delay": "—",
      "metarCat": "VFR",
      "metarRaw": "METAR KIPT 141254Z 28018G33KT 10SM FEW055 03/M08 A2996 RMK AO2 PK WND 28035/1216 SLP149 T00331078 $",
      "metarObsTime": 1773492840
    },
    "KPHL": {
      "status": "OK",
      "delay": "—",
      "metarCat": "VFR",
      "metarRaw": "METAR KPHL 141254Z 27011KT 10SM SCT100 09/M06 A2997 RMK AO2 SLP147 T00891056 $",
      "metarObsTime": 1773492840
    },
    "KABE": {
      "status": "OK",
      "delay": "—",
      "metarCat": "VFR",
      "metarRaw": "METAR KABE 141251Z 27012G24KT 10SM CLR 06/M06 A2991 RMK AO2 PK WND 30026/1237 SLP130 T00611061 $",
      "metarObsTime": 1773492660
    },
    "KAVP": {
      "status": "OK",
      "delay": "—",
      "metarCat": "VFR",
      "metarRaw": "METAR KAVP 141254Z 27010G19KT 10SM BKN050 02/M06 A2989 RMK AO2 PK WND 26027/1155 SLP125 T00221061",
      "metarObsTime": 1773492840
    },
    "KHZL": {
      "status": "OK",
      "delay": "—",
      "metarCat": "VFR",
      "metarRaw": "METAR KHZL 141335Z AUTO 28007G19KT 260V330 10SM BKN041 02/M06 A2993 RMK AO2",
      "metarObsTime": 1773495300
    }
  }
}