{
  "generatedAt": "2026-04-19T03:10:55.324Z",
  "airports": {
    "KPIT": {
      "status": "OK",
      "delay": "—",
      "metarCat": "MVFR",
      "metarRaw": "METAR KPIT 190251Z 30012KT 10SM FEW008 OVC022 12/09 A2989 RMK AO2 RAE48 SLP126 P0000 60004 T01220089 50019 $",
      "metarObsTime": 1776567060
    },
    "KAGC": {
      "status": "OK",
      "delay": "—",
      "metarCat": "IFR",
      "metarRaw": "METAR KAGC 190253Z 32012G21KT 10SM BKN009 BKN017 OVC021 12/10 A2988 RMK AO2 PK WND 33026/0210 RAB0158E28 SLP120 P0002 60002 T01220100 53014",
      "metarObsTime": 1776567180
    },
    "KLBE": {
      "status": "OK",
      "delay": "—",
      "metarCat": "MVFR",
      "metarRaw": "METAR KLBE 190255Z AUTO 20006KT 8SM OVC019 17/16 A2989 RMK AO2",
      "metarObsTime": 1776567300
    },
    "KJST": {
      "status": "OK",
      "delay": "—",
      "metarCat": "MVFR",
      "metarRaw": "METAR KJST 190254Z AUTO 24008G16KT 10SM BKN014 OVC019 14/13 A2988 RMK AO2 SLP109 60015 T01440128 53003",
      "metarObsTime": 1776567240
    },
    "KERI": {
      "status": "OK",
      "delay": "—",
      "metarCat": "VFR",
      "metarRaw": "METAR KERI 190251Z 26012G18KT 10SM BKN037 BKN070 OVC085 09/05 A2990 RMK AO2 SLP124 60000 T00890050 51024 $",
      "metarObsTime": 1776567060
    },
    "KDUJ": {
      "status": "OK",
      "delay": "—",
      "metarCat": "MVFR",
      "metarRaw": "METAR KDUJ 190253Z AUTO 27010G22KT 4SM -RA BR SCT011 BKN017 OVC045 09/08 A2987 RMK AO2 PK WND 29030/0238 WSHFT 0206 RAB03E22B30 SLP108 P0004 60009 T00940078 53011",
      "metarObsTime": 1776567180
    },
    "KBFD": {
      "status": "OK",
      "delay": "—",
      "metarCat": "MVFR",
      "metarRaw": "METAR KBFD 190253Z AUTO 27011G20KT 5SM -RA BR SCT011 SCT020 OVC031 09/07 A2987 RMK AO2 SLP107 P0002 60009 T00940072 53021",
      "metarObsTime": 1776567180
    },
    "KBTP": {
      "status": "OK",
      "delay": "—",
      "metarCat": "VFR",
      "metarRaw": "SPECI KBTP 190306Z AUTO 28006KT 10SM SCT019 SCT028 OVC034 11/10 A2990 RMK AO2 $",
      "metarObsTime": 1776567960
    },
    "KFKL": {
      "status": "OK",
      "delay": "—",
      "metarCat": "—",
      "metarRaw": "—",
      "metarObsTime": null
    },
    "KIDI": {
      "status": "OK",
      "delay": "—",
      "metarCat": "MVFR",
      "metarRaw": "METAR KIDI 190255Z AUTO 30010G18KT 4SM BR FEW006 BKN011 OVC029 12/11 A2989 RMK A01 P0003",
      "metarObsTime": 1776567300
    },
    "KMDT": {
      "status": "OK",
      "delay": "—",
      "metarCat": "MVFR",
      "metarRaw": "METAR KMDT 190256Z 10005KT 10SM BKN022 OVC085 16/12 A2988 RMK AO2 SLP117 T01560122 53024",
      "metarObsTime": 1776567360
    },
    "KCXY": {
      "status": "OK",
      "delay": "—",
      "metarCat": "VFR",
      "metarRaw": "METAR KCXY 190256Z AUTO 10007KT 10SM SCT032 BKN085 OVC100 16/13 A2988 RMK AO2 SLP118 T01560128 53024 $",
      "metarObsTime": 1776567360
    },
    "KMUI": {
      "status": "OK",
      "delay": "—",
      "metarCat": "MVFR",
      "metarRaw": "SPECI KMUI 190259Z AUTO 17004KT 10SM -RA OVC016 16/14 A2988 RMK AO2 RAB59 SLP120",
      "metarObsTime": 1776567540
    },
    "KUNV": {
      "status": "OK",
      "delay": "—",
      "metarCat": "VFR",
      "metarRaw": "METAR KUNV 190255Z AUTO 23005KT 10SM SCT030 OVC055 17/17 A2984 RMK AO2 60039 T01670165",
      "metarObsTime": 1776567300
    },
    "KAOO": {
      "status": "OK",
      "delay": "—",
      "metarCat": "VFR",
      "metarRaw": "METAR KAOO 190253Z AUTO 23007KT 10SM FEW021 BKN050 OVC110 17/14 A2986 RMK AO2 RAE16 SLP104 P0002 60024 T01670144 50015",
      "metarObsTime": 1776567180
    },
    "KLNS": {
      "status": "OK",
      "delay": "—",
      "metarCat": "MVFR",
      "metarRaw": "METAR KLNS 190253Z 14007KT 10SM OVC011 13/12 A2986 RMK AO2 SLP109 T01330117 50004",
      "metarObsTime": 1776567180
    },
    "KIPT": {
      "status": "OK",
      "delay": "—",
      "metarCat": "VFR",
      "metarRaw": "METAR KIPT 190254Z AUTO 17014G21KT 7SM -RA BKN055 OVC070 18/16 A2978 RMK AO2 SLP082 P0017 60026 T01780156 50018 $",
      "metarObsTime": 1776567240
    },
    "KPHL": {
      "status": "OK",
      "delay": "—",
      "metarCat": "IFR",
      "metarRaw": "METAR KPHL 190254Z 10007KT 10SM OVC006 12/10 A2991 RMK AO2 SLP128 T01170100 58008 $",
      "metarObsTime": 1776567240
    },
    "KABE": {
      "status": "OK",
      "delay": "—",
      "metarCat": "MVFR",
      "metarRaw": "METAR KABE 190251Z 11007KT 10SM OVC013 12/09 A2990 RMK AO2 SLP123 T01220089 58002 $",
      "metarObsTime": 1776567060
    },
    "KAVP": {
      "status": "OK",
      "delay": "—",
      "metarCat": "VFR",
      "metarRaw": "METAR KAVP 190254Z 22007KT 10SM SCT026 OVC100 15/09 A2986 RMK AO2 SLP106 T01500094 51019",
      "metarObsTime": 1776567240
    },
    "KHZL": {
      "status": "OK",
      "delay": "—",
      "metarCat": "VFR",
      "metarRaw": "METAR KHZL 190255Z AUTO 00000KT 10SM BKN080 OVC100 12/08 A2990 RMK AO2",
      "metarObsTime": 1776567300
    }
  }
}