{
  "generatedAt": "2026-04-14T02:00:53.623Z",
  "airports": {
    "KPIT": {
      "status": "OK",
      "delay": "—",
      "metarCat": "VFR",
      "metarRaw": "METAR KPIT 140151Z 22010KT 10SM FEW040 SCT250 22/14 A3005 RMK AO2 SLP175 T02170139",
      "metarObsTime": 1776131460
    },
    "KAGC": {
      "status": "OK",
      "delay": "—",
      "metarCat": "VFR",
      "metarRaw": "METAR KAGC 140153Z 22011KT 10SM CLR 21/14 A3006 RMK AO2 SLP175 T02110139",
      "metarObsTime": 1776131580
    },
    "KLBE": {
      "status": "OK",
      "delay": "—",
      "metarCat": "VFR",
      "metarRaw": "METAR KLBE 140145Z 23010KT 10SM CLR 20/14 A3008",
      "metarObsTime": 1776131100
    },
    "KJST": {
      "status": "OK",
      "delay": "—",
      "metarCat": "VFR",
      "metarRaw": "METAR KJST 140154Z AUTO 23009KT 10SM CLR 19/13 A3009 RMK AO2 SLP177 T01890128",
      "metarObsTime": 1776131640
    },
    "KERI": {
      "status": "OK",
      "delay": "—",
      "metarCat": "VFR",
      "metarRaw": "METAR KERI 140151Z 00000KT 10SM SCT060 SCT080 19/15 A2996 RMK AO2 SLP144 T01940150 $",
      "metarObsTime": 1776131460
    },
    "KDUJ": {
      "status": "OK",
      "delay": "—",
      "metarCat": "VFR",
      "metarRaw": "METAR KDUJ 140153Z AUTO 22006KT 8SM -TSRA SCT028 SCT060 BKN080 16/14 A3004 RMK AO2 LTG DSNT N RAB19 TSB49 SLP164 P0005 T01610144",
      "metarObsTime": 1776131580
    },
    "KBFD": {
      "status": "OK",
      "delay": "—",
      "metarCat": "VFR",
      "metarRaw": "METAR KBFD 140153Z AUTO 00000KT 10SM SCT060 BKN070 16/12 A3004 RMK AO2 LTG DSNT SW SLP165 T01560122",
      "metarObsTime": 1776131580
    },
    "KBTP": {
      "status": "OK",
      "delay": "—",
      "metarCat": "VFR",
      "metarRaw": "METAR KBTP 140156Z AUTO 23012KT 10SM CLR 22/14 A3005 RMK AO2 SLP175 T02170144 $",
      "metarObsTime": 1776131760
    },
    "KFKL": {
      "status": "OK",
      "delay": "—",
      "metarCat": "VFR",
      "metarRaw": "METAR KFKL 140156Z AUTO 22008G14KT 10SM TS FEW030 SCT085 BKN110 19/14 A3004 RMK AO2 TSB07E22B24E42B54RAE05B21E55 SLP166 P0002 T01890144",
      "metarObsTime": 1776131760
    },
    "KIDI": {
      "status": "OK",
      "delay": "—",
      "metarCat": "VFR",
      "metarRaw": "METAR KIDI 140155Z AUTO 24008G14KT 10SM FEW048 SCT055 21/14 A3005 RMK A01",
      "metarObsTime": 1776131700
    },
    "KMDT": {
      "status": "OK",
      "delay": "—",
      "metarCat": "VFR",
      "metarRaw": "METAR KMDT 140156Z 21010KT 10SM FEW080 FEW250 21/13 A2999 RMK AO2 LTG DSNT N SLP155 T02110133",
      "metarObsTime": 1776131760
    },
    "KCXY": {
      "status": "OK",
      "delay": "—",
      "metarCat": "VFR",
      "metarRaw": "METAR KCXY 140156Z AUTO 27005KT 10SM CLR 23/13 A3000 RMK AO2 LTG DSNT N SLP158 T02280128 $",
      "metarObsTime": 1776131760
    },
    "KMUI": {
      "status": "OK",
      "delay": "—",
      "metarCat": "VFR",
      "metarRaw": "METAR KMUI 140055Z 00000KT 10SM FEW050 BKN080 21/15 A2995 RMK AO2A LTG DSNT E AND NW SLP144 T02140148",
      "metarObsTime": 1776128100
    },
    "KUNV": {
      "status": "OK",
      "delay": "—",
      "metarCat": "VFR",
      "metarRaw": "METAR KUNV 140153Z 24010KT 10SM SCT060 BKN110 22/13 A3002 RMK LTG DSNT N-E",
      "metarObsTime": 1776131580
    },
    "KAOO": {
      "status": "OK",
      "delay": "—",
      "metarCat": "VFR",
      "metarRaw": "METAR KAOO 140153Z AUTO 21008KT 10SM CLR 19/13 A3006 RMK AO2 SLP171 T01940128",
      "metarObsTime": 1776131580
    },
    "KLNS": {
      "status": "OK",
      "delay": "—",
      "metarCat": "VFR",
      "metarRaw": "METAR KLNS 140153Z 23008KT 10SM CLR 22/13 A3000 RMK AO2 SLP156 T02170128",
      "metarObsTime": 1776131580
    },
    "KIPT": {
      "status": "OK",
      "delay": "—",
      "metarCat": "VFR",
      "metarRaw": "METAR KIPT 140154Z 28004KT 10SM FEW070 BKN110 18/15 A2998 RMK AO2 RAB24E35 SLP152 P0000 T01830150 $",
      "metarObsTime": 1776131640
    },
    "KPHL": {
      "status": "OK",
      "delay": "—",
      "metarCat": "VFR",
      "metarRaw": "METAR KPHL 140154Z 22013KT 10SM FEW080 FEW120 SCT250 23/11 A3001 RMK AO2 SLP161 T02330111 $",
      "metarObsTime": 1776131640
    },
    "KABE": {
      "status": "OK",
      "delay": "—",
      "metarCat": "VFR",
      "metarRaw": "METAR KABE 140151Z 21008G14KT 170V230 10SM BKN120 19/16 A2999 RMK AO2 RAB04E36 SLP154 P0003 T01890156 $",
      "metarObsTime": 1776131460
    },
    "KAVP": {
      "status": "OK",
      "delay": "—",
      "metarCat": "VFR",
      "metarRaw": "METAR KAVP 140154Z 24006KT 10SM FEW095 19/13 A3000 RMK AO2 SLP154 T01890133",
      "metarObsTime": 1776131640
    },
    "KHZL": {
      "status": "OK",
      "delay": "—",
      "metarCat": "VFR",
      "metarRaw": "METAR KHZL 140155Z AUTO 00000KT 10SM SCT080 OVC090 17/13 A3006 RMK AO2 LTG DSNT SW",
      "metarObsTime": 1776131700
    }
  }
}