{
  "generatedAt": "2026-04-18T19:50:53.581Z",
  "airports": {
    "KPIT": {
      "status": "OK",
      "delay": "—",
      "metarCat": "VFR",
      "metarRaw": "METAR KPIT 181851Z 21012G22KT 10SM SCT055 BKN080 OVC180 27/12 A2974 RMK AO2 PK WND 20028/1800 SLP070 T02670122",
      "metarObsTime": 1776538260
    },
    "KAGC": {
      "status": "OK",
      "delay": "—",
      "metarCat": "VFR",
      "metarRaw": "METAR KAGC 181853Z 21016G27KT 10SM SCT070 27/12 A2975 RMK AO2 PK WND 22027/1759 SLP070 T02670122",
      "metarObsTime": 1776538380
    },
    "KLBE": {
      "status": "OK",
      "delay": "—",
      "metarCat": "VFR",
      "metarRaw": "METAR KLBE 181947Z 20012G25KT 10SM SCT045 27/13 A2978",
      "metarObsTime": 1776541620
    },
    "KJST": {
      "status": "OK",
      "delay": "—",
      "metarCat": "VFR",
      "metarRaw": "METAR KJST 181854Z AUTO 18012G22KT 10SM CLR 24/09 A2984 RMK AO2 SLP094 T02390094",
      "metarObsTime": 1776538440
    },
    "KERI": {
      "status": "OK",
      "delay": "—",
      "metarCat": "IFR",
      "metarRaw": "SPECI KERI 181939Z 27014G21KT 2SM +RA BR BKN007 BKN015 OVC050 14/13 A2971 RMK AO2 LTG DSNT SE P0015 T01390133 $",
      "metarObsTime": 1776541140
    },
    "KDUJ": {
      "status": "OK",
      "delay": "—",
      "metarCat": "VFR",
      "metarRaw": "METAR KDUJ 181853Z AUTO 21011G30KT 150V230 10SM CLR 25/09 A2978 RMK AO2 PK WND 23030/1844 SLP074 T02500094",
      "metarObsTime": 1776538380
    },
    "KBFD": {
      "status": "OK",
      "delay": "—",
      "metarCat": "VFR",
      "metarRaw": "METAR KBFD 181853Z AUTO 18011G24KT 10SM SCT070 SCT085 24/09 A2977 RMK AO2 PK WND 17026/1828 SLP069 T02440089",
      "metarObsTime": 1776538380
    },
    "KBTP": {
      "status": "OK",
      "delay": "—",
      "metarCat": "VFR",
      "metarRaw": "METAR KBTP 181856Z AUTO 21010KT 10SM CLR 26/13 A2975 RMK AO2 PK WND 19026/1804 SLP071 T02610133 PNO $",
      "metarObsTime": 1776538560
    },
    "KFKL": {
      "status": "OK",
      "delay": "—",
      "metarCat": "—",
      "metarRaw": "—",
      "metarObsTime": null
    },
    "KIDI": {
      "status": "OK",
      "delay": "—",
      "metarCat": "VFR",
      "metarRaw": "METAR KIDI 181935Z AUTO 21016G24KT 180V240 10SM CLR 26/12 A2977 RMK A01",
      "metarObsTime": 1776540900
    },
    "KMDT": {
      "status": "OK",
      "delay": "—",
      "metarCat": "VFR",
      "metarRaw": "METAR KMDT 181856Z 13013KT 10SM FEW022 BKN200 23/15 A2990 RMK AO2 SLP125 T02280150",
      "metarObsTime": 1776538560
    },
    "KCXY": {
      "status": "OK",
      "delay": "—",
      "metarCat": "VFR",
      "metarRaw": "METAR KCXY 181856Z 11012G19KT 10SM CLR 22/15 A2990 RMK AO2 SLP126 T02220150 $",
      "metarObsTime": 1776538560
    },
    "KMUI": {
      "status": "OK",
      "delay": "—",
      "metarCat": "VFR",
      "metarRaw": "METAR KMUI 181855Z AUTO 17007KT 10SM SCT030 BKN190 24/17 A2991 RMK AO2 SLP129 T02400165",
      "metarObsTime": 1776538500
    },
    "KUNV": {
      "status": "OK",
      "delay": "—",
      "metarCat": "—",
      "metarRaw": "—",
      "metarObsTime": null
    },
    "KAOO": {
      "status": "OK",
      "delay": "—",
      "metarCat": "VFR",
      "metarRaw": "METAR KAOO 181853Z AUTO 15017G23KT 10SM CLR 26/11 A2985 RMK AO2 SLP102 T02560111",
      "metarObsTime": 1776538380
    },
    "KLNS": {
      "status": "OK",
      "delay": "—",
      "metarCat": "VFR",
      "metarRaw": "METAR KLNS 181853Z 14010KT 10SM CLR 22/15 A2994 RMK AO2 SLP138 T02220150",
      "metarObsTime": 1776538380
    },
    "KIPT": {
      "status": "OK",
      "delay": "—",
      "metarCat": "VFR",
      "metarRaw": "METAR KIPT 181854Z 18007G22KT 040V330 10SM CLR 23/14 A2985 RMK AO2 PK WND 19031/1827 SLP106 T02280139 $",
      "metarObsTime": 1776538440
    },
    "KPHL": {
      "status": "OK",
      "delay": "—",
      "metarCat": "VFR",
      "metarRaw": "METAR KPHL 181854Z 14006KT 10SM FEW038 SCT130 SCT300 24/13 A2997 RMK AO2 SLP149 T02440133 $",
      "metarObsTime": 1776538440
    },
    "KABE": {
      "status": "OK",
      "delay": "—",
      "metarCat": "VFR",
      "metarRaw": "METAR KABE 181851Z 15010G18KT 120V180 10SM CLR 23/12 A2996 RMK AO2 SLP142 T02330122 $",
      "metarObsTime": 1776538260
    },
    "KAVP": {
      "status": "OK",
      "delay": "—",
      "metarCat": "VFR",
      "metarRaw": "METAR KAVP 181854Z 17007G20KT 140V230 10SM CLR 24/11 A2990 RMK AO2 SLP120 T02440106",
      "metarObsTime": 1776538440
    },
    "KHZL": {
      "status": "OK",
      "delay": "—",
      "metarCat": "VFR",
      "metarRaw": "METAR KHZL 181935Z AUTO 14005KT 10SM CLR 22/11 A2996 RMK AO2",
      "metarObsTime": 1776540900
    }
  }
}