{
  "generatedAt": "2026-03-17T09:40:13.096Z",
  "airports": {
    "KPIT": {
      "status": "OK",
      "delay": "—",
      "metarCat": "MVFR",
      "metarRaw": "METAR KPIT 170851Z 27012G19KT 10SM -SN SCT009 BKN025 BKN055 M06/M11 A2979 RMK AO2 SNE11B29 SLP108 P0000 60000 T10561106 51035 $",
      "metarObsTime": 1773737460
    },
    "KAGC": {
      "status": "OK",
      "delay": "—",
      "metarCat": "VFR",
      "metarRaw": "METAR KAGC 170853Z 27011G22KT 10SM SCT033 BKN055 M06/M10 A2979 RMK AO2 SLP106 60000 T10611100 53036 $",
      "metarObsTime": 1773737580
    },
    "KLBE": {
      "status": "OK",
      "delay": "—",
      "metarCat": "VFR",
      "metarRaw": "METAR KLBE 170935Z AUTO 24011KT 10SM BKN033 OVC042 M05/M09 A2985 RMK AO2",
      "metarObsTime": 1773740100
    },
    "KJST": {
      "status": "OK",
      "delay": "—",
      "metarCat": "IFR",
      "metarRaw": "SPECI KJST 170931Z AUTO 27021G36KT 1 3/4SM -SN BKN022 OVC033 M08/M12 A2970 RMK AO2 PK WND 28036/0931 VIS 3/4V5 P0000 T10831117",
      "metarObsTime": 1773739860
    },
    "KERI": {
      "status": "OK",
      "delay": "—",
      "metarCat": "—",
      "metarRaw": "—",
      "metarObsTime": null
    },
    "KDUJ": {
      "status": "OK",
      "delay": "—",
      "metarCat": "IFR",
      "metarRaw": "SPECI KDUJ 170936Z AUTO 24017G23KT 2SM -SN BR BKN018 BKN024 OVC029 M08/M11 A2969 RMK AO2 P0000 T10831106 TSNO",
      "metarObsTime": 1773740160
    },
    "KBFD": {
      "status": "OK",
      "delay": "—",
      "metarCat": "IFR",
      "metarRaw": "SPECI KBFD 170920Z AUTO 27011G26KT 2 1/2SM -SN FEW020 BKN026 OVC037 M09/M12 A2960 RMK AO2 PK WND 27026/0913 P0000 T10891122",
      "metarObsTime": 1773739200
    },
    "KBTP": {
      "status": "OK",
      "delay": "—",
      "metarCat": "—",
      "metarRaw": "—",
      "metarObsTime": null
    },
    "KFKL": {
      "status": "OK",
      "delay": "—",
      "metarCat": "MVFR",
      "metarRaw": "METAR KFKL 170856Z AUTO 28014G25KT 4SM -SN OVC033 M07/M11 A2970 RMK AO2 PK WND 27028/0846 SLP076 P0000 60000 T10721111 51037 FZRANO",
      "metarObsTime": 1773737760
    },
    "KIDI": {
      "status": "OK",
      "delay": "—",
      "metarCat": "VFR",
      "metarRaw": "METAR KIDI 170935Z AUTO 25011G17KT 10SM SCT028 OVC034 M06/M10 A2979 RMK A01",
      "metarObsTime": 1773740100
    },
    "KMDT": {
      "status": "OK",
      "delay": "—",
      "metarCat": "VFR",
      "metarRaw": "METAR KMDT 170856Z 26017G28KT 10SM SCT060 00/M08 A2973 RMK AO2 PK WND 28033/0841 SLP068 T00001078 51040",
      "metarObsTime": 1773737760
    },
    "KCXY": {
      "status": "OK",
      "delay": "—",
      "metarCat": "VFR",
      "metarRaw": "METAR KCXY 170856Z AUTO 27009G23KT 240V310 10SM SCT060 M01/M08 A2973 RMK AO2 SLP069 T10111083 51037",
      "metarObsTime": 1773737760
    },
    "KMUI": {
      "status": "OK",
      "delay": "—",
      "metarCat": "VFR",
      "metarRaw": "SPECI KMUI 170927Z AUTO 27016G25KT 9SM -SN OVC046 M00/M08 A2971 RMK AO2 UPB25E27SNB27 SLP065",
      "metarObsTime": 1773739620
    },
    "KUNV": {
      "status": "OK",
      "delay": "—",
      "metarCat": "VFR",
      "metarRaw": "METAR KUNV 170935Z AUTO 27017G23KT 10SM OVC034 M05/M11 A2971 RMK AO2 T10551112",
      "metarObsTime": 1773740100
    },
    "KAOO": {
      "status": "OK",
      "delay": "—",
      "metarCat": "VFR",
      "metarRaw": "METAR KAOO 170853Z AUTO 28024G46KT 9SM BKN038 OVC046 M06/M13 A2971 RMK AO2 PK WND 28046/0847 SNE42 SLP074 P0000 60000 T10561133 51034",
      "metarObsTime": 1773737580
    },
    "KLNS": {
      "status": "OK",
      "delay": "—",
      "metarCat": "VFR",
      "metarRaw": "METAR KLNS 170853Z AUTO 27022G32KT 10SM BKN050 00/M08 A2970 RMK AO2 PK WND 27035/0843 SLP059 T00001083 51035",
      "metarObsTime": 1773737580
    },
    "KIPT": {
      "status": "OK",
      "delay": "—",
      "metarCat": "VFR",
      "metarRaw": "METAR KIPT 170854Z AUTO 25019G31KT 10SM CLR M03/M07 A2965 RMK AO2 PK WND 27031/0854 SLP042 60000 T10281067 53034",
      "metarObsTime": 1773737640
    },
    "KPHL": {
      "status": "OK",
      "delay": "—",
      "metarCat": "VFR",
      "metarRaw": "METAR KPHL 170854Z 26018G29KT 10SM SCT038 03/M04 A2972 RMK AO2 PK WND 28030/0840 SLP062 T00281044 51039 $",
      "metarObsTime": 1773737640
    },
    "KABE": {
      "status": "OK",
      "delay": "—",
      "metarCat": "VFR",
      "metarRaw": "METAR KABE 170851Z 28010G20KT 10SM -SN BKN038 BKN048 OVC055 00/M05 A2965 RMK AO2 SNB31 SLP042 P0000 60000 T00001050 51044 $",
      "metarObsTime": 1773737460
    },
    "KAVP": {
      "status": "OK",
      "delay": "—",
      "metarCat": "MVFR",
      "metarRaw": "SPECI KAVP 170916Z 25014G22KT 3SM -SN BR SCT017 BKN046 M03/M04 A2960 RMK AO2 PK WND 26026/0858 SNB0858 P0000 T10331044",
      "metarObsTime": 1773738960
    },
    "KHZL": {
      "status": "OK",
      "delay": "—",
      "metarCat": "VFR",
      "metarRaw": "METAR KHZL 170935Z AUTO 26006G16KT 10SM CLR M03/M10 RMK AO2",
      "metarObsTime": 1773740100
    }
  }
}