{
  "generatedAt": "2026-03-31T10:40:33.166Z",
  "airports": {
    "KPIT": {
      "status": "OK",
      "delay": "—",
      "metarCat": "VFR",
      "metarRaw": "METAR KPIT 310951Z 23014G22KT 10SM FEW060 OVC090 18/11 A3000 RMK AO2 PK WND 22028/0900 SLP161 T01830106",
      "metarObsTime": 1774950660
    },
    "KAGC": {
      "status": "OK",
      "delay": "—",
      "metarCat": "VFR",
      "metarRaw": "METAR KAGC 310953Z 22015G22KT 10SM FEW036 OVC090 18/11 A3002 RMK AO2 SLP165 T01780106",
      "metarObsTime": 1774950780
    },
    "KLBE": {
      "status": "OK",
      "delay": "—",
      "metarCat": "VFR",
      "metarRaw": "METAR KLBE 311035Z AUTO 20014KT 10SM SCT038 BKN070 BKN085 18/11 A3006 RMK AO2",
      "metarObsTime": 1774953300
    },
    "KJST": {
      "status": "OK",
      "delay": "—",
      "metarCat": "VFR",
      "metarRaw": "METAR KJST 310954Z AUTO 25018G32KT 10SM OVC055 16/10 A3005 RMK AO2 PK WND 25035/0856 SLP168 T01610100",
      "metarObsTime": 1774950840
    },
    "KERI": {
      "status": "OK",
      "delay": "—",
      "metarCat": "VFR",
      "metarRaw": "METAR KERI 310951Z 20015G24KT 10SM CLR 19/12 A2985 RMK AO2 PK WND 22029/0917 SLP104 T01890122 $",
      "metarObsTime": 1774950660
    },
    "KDUJ": {
      "status": "OK",
      "delay": "—",
      "metarCat": "VFR",
      "metarRaw": "METAR KDUJ 310953Z AUTO 23013G21KT 10SM BKN034 OVC046 16/10 A2999 RMK AO2 SLP148 T01610100",
      "metarObsTime": 1774950780
    },
    "KBFD": {
      "status": "OK",
      "delay": "—",
      "metarCat": "MVFR",
      "metarRaw": "METAR KBFD 310953Z AUTO 21009G14KT 10SM OVC027 15/11 A2995 RMK AO2 SLP135 T01500106",
      "metarObsTime": 1774950780
    },
    "KBTP": {
      "status": "OK",
      "delay": "—",
      "metarCat": "VFR",
      "metarRaw": "METAR KBTP 310956Z AUTO 23011G17KT 10SM FEW038 SCT050 OVC090 18/11 A3001 RMK AO2 SLP161 T01780111 $",
      "metarObsTime": 1774950960
    },
    "KFKL": {
      "status": "OK",
      "delay": "—",
      "metarCat": "VFR",
      "metarRaw": "METAR KFKL 310956Z AUTO 23010G18KT 10SM BKN032 OVC075 17/12 A2997 RMK AO2 SLP146 T01720117",
      "metarObsTime": 1774950960
    },
    "KIDI": {
      "status": "OK",
      "delay": "—",
      "metarCat": "VFR",
      "metarRaw": "METAR KIDI 311035Z AUTO 22012KT 10SM SCT035 OVC050 17/11 A3004 RMK A01",
      "metarObsTime": 1774953300
    },
    "KMDT": {
      "status": "OK",
      "delay": "—",
      "metarCat": "VFR",
      "metarRaw": "METAR KMDT 310956Z VRB06KT 10SM SCT065 16/10 A3004 RMK AO2 SLP174 T01560100",
      "metarObsTime": 1774950960
    },
    "KCXY": {
      "status": "OK",
      "delay": "—",
      "metarCat": "VFR",
      "metarRaw": "METAR KCXY 310956Z AUTO 00000KT 10SM FEW070 12/09 A3005 RMK AO2 SLP176 T01220094",
      "metarObsTime": 1774950960
    },
    "KMUI": {
      "status": "OK",
      "delay": "—",
      "metarCat": "VFR",
      "metarRaw": "METAR KMUI 310955Z AUTO 00000KT 10SM CLR 11/11 A3003 RMK AO2 SLP171 T01090106",
      "metarObsTime": 1774950900
    },
    "KUNV": {
      "status": "OK",
      "delay": "—",
      "metarCat": "VFR",
      "metarRaw": "METAR KUNV 310953Z 22008KT 10SM BKN046 18/10 A3000",
      "metarObsTime": 1774950780
    },
    "KAOO": {
      "status": "OK",
      "delay": "—",
      "metarCat": "VFR",
      "metarRaw": "METAR KAOO 310953Z AUTO 22011KT 10SM OVC075 17/09 A3004 RMK AO2 SLP167 T01670094",
      "metarObsTime": 1774950780
    },
    "KLNS": {
      "status": "OK",
      "delay": "—",
      "metarCat": "VFR",
      "metarRaw": "METAR KLNS 310953Z 24005KT 10SM SCT060 16/10 A3005 RMK AO2 SLP176 T01560100",
      "metarObsTime": 1774950780
    },
    "KIPT": {
      "status": "OK",
      "delay": "—",
      "metarCat": "VFR",
      "metarRaw": "METAR KIPT 310954Z AUTO 00000KT 10SM FEW050 BKN065 OVC090 13/12 A2997 RMK AO2 SLP147 T01330117 $",
      "metarObsTime": 1774950840
    },
    "KPHL": {
      "status": "OK",
      "delay": "—",
      "metarCat": "VFR",
      "metarRaw": "METAR KPHL 310954Z 21010G21KT 10SM BKN095 17/10 A3007 RMK AO2 SLP183 T01720100 $",
      "metarObsTime": 1774950840
    },
    "KABE": {
      "status": "OK",
      "delay": "—",
      "metarCat": "VFR",
      "metarRaw": "METAR KABE 310951Z 26004KT 10SM BKN095 14/09 A3003 RMK AO2 SLP168 T01440094 $",
      "metarObsTime": 1774950660
    },
    "KAVP": {
      "status": "OK",
      "delay": "—",
      "metarCat": "VFR",
      "metarRaw": "METAR KAVP 310954Z AUTO 22006KT 10SM SCT080 BKN100 16/09 A2999 RMK AO2 SLP149 T01610094",
      "metarObsTime": 1774950840
    },
    "KHZL": {
      "status": "OK",
      "delay": "—",
      "metarCat": "VFR",
      "metarRaw": "METAR KHZL 311035Z AUTO 00000KT 10SM SCT044 OVC060 15/08 A3005 RMK AO2",
      "metarObsTime": 1774953300
    }
  }
}