{
  "generatedAt": "2026-03-05T05:48:06.366Z",
  "airports": {
    "KPIT": {
      "status": "OK",
      "delay": "—",
      "metarCat": "LIFR",
      "metarRaw": "METAR KPIT 050451Z 08003KT 1/2SM R28R/1600V4000FT -RA FG VV002 10/10 A3010 RMK AO2 RAB24 SLP202 P0002 T01000100 401110067 $",
      "metarObsTime": 1772686260
    },
    "KAGC": {
      "status": "OK",
      "delay": "—",
      "metarCat": "LIFR",
      "metarRaw": "SPECI KAGC 050543Z 07004KT 1/4SM R28/1600V2000FT -RA FG BKN008 BKN028 OVC080 11/11 A3007 RMK AO2 P0004 T01060106",
      "metarObsTime": 1772689380
    },
    "KLBE": {
      "status": "OK",
      "delay": "—",
      "metarCat": "IFR",
      "metarRaw": "METAR KLBE 050535Z AUTO 00000KT 1SM -RA BR OVC014 11/11 A3011 RMK AO2",
      "metarObsTime": 1772688900
    },
    "KJST": {
      "status": "OK",
      "delay": "—",
      "metarCat": "IFR",
      "metarRaw": "SPECI KJST 050542Z AUTO 14003KT 1 3/4SM -RA BR OVC006 09/09 A3011 RMK AO2 VIS 1V3 RAB34 P0001 T00940094",
      "metarObsTime": 1772689320
    },
    "KERI": {
      "status": "OK",
      "delay": "—",
      "metarCat": "MVFR",
      "metarRaw": "METAR KERI 050451Z AUTO 00000KT 6SM BR OVC012 03/02 A3013 RMK AO2 SLP210 T00330022 400441006",
      "metarObsTime": 1772686260
    },
    "KDUJ": {
      "status": "OK",
      "delay": "—",
      "metarCat": "LIFR",
      "metarRaw": "SPECI KDUJ 050545Z AUTO 11006KT 1/2SM FG VV002 05/05 A3012 RMK AO2 T00500050",
      "metarObsTime": 1772689500
    },
    "KBFD": {
      "status": "OK",
      "delay": "—",
      "metarCat": "LIFR",
      "metarRaw": "SPECI KBFD 050540Z AUTO 12003KT 1SM BR OVC002 04/04 A3013 RMK AO2 T00440044",
      "metarObsTime": 1772689200
    },
    "KBTP": {
      "status": "OK",
      "delay": "—",
      "metarCat": "LIFR",
      "metarRaw": "SPECI KBTP 050517Z AUTO 06004KT 3SM -RA BR OVC003 09/09 A3011 RMK AO2 P0001 $",
      "metarObsTime": 1772687820
    },
    "KFKL": {
      "status": "OK",
      "delay": "—",
      "metarCat": "LIFR",
      "metarRaw": "METAR KFKL 050456Z AUTO 12005KT 1/4SM -RA FG OVC002 08/08 A3013 RMK AO2 SLP210 P0000 T00830083 401170033",
      "metarObsTime": 1772686560
    },
    "KIDI": {
      "status": "OK",
      "delay": "—",
      "metarCat": "MVFR",
      "metarRaw": "METAR KIDI 050535Z AUTO 09005KT 3SM BR OVC016 08/08 A3012 RMK A01",
      "metarObsTime": 1772688900
    },
    "KMDT": {
      "status": "OK",
      "delay": "—",
      "metarCat": "LIFR",
      "metarRaw": "SPECI KMDT 050539Z 00000KT 1/4SM R13/1600V1800FT FG VV002 05/04 A3022 RMK AO2 TWR VIS 1 T00500044",
      "metarObsTime": 1772689140
    },
    "KCXY": {
      "status": "OK",
      "delay": "—",
      "metarCat": "LIFR",
      "metarRaw": "SPECI KCXY 050540Z AUTO 00000KT 1/2SM R08/2000V2200FT FG VV003 06/05 A3023 RMK AO2 T00560050",
      "metarObsTime": 1772689200
    },
    "KMUI": {
      "status": "OK",
      "delay": "—",
      "metarCat": "IFR",
      "metarRaw": "SPECI KMUI 050527Z AUTO 00000KT 4SM BR OVC006 06/06 A3021 RMK AO2 SLP236",
      "metarObsTime": 1772688420
    },
    "KUNV": {
      "status": "OK",
      "delay": "—",
      "metarCat": "LIFR",
      "metarRaw": "METAR KUNV 050535Z AUTO 00000KT 1/2SM FG OVC004 04/04 A3019 RMK AO2 LTG DSNT SW T00350035",
      "metarObsTime": 1772688900
    },
    "KAOO": {
      "status": "OK",
      "delay": "—",
      "metarCat": "LIFR",
      "metarRaw": "METAR KAOO 050453Z AUTO 00000KT 1/4SM FG VV002 04/04 A3018 RMK AO2 SLP231 T00440044 400560022",
      "metarObsTime": 1772686380
    },
    "KLNS": {
      "status": "OK",
      "delay": "—",
      "metarCat": "LIFR",
      "metarRaw": "METAR KLNS 050453Z AUTO 00000KT 1/4SM FG VV002 06/06 A3022 RMK AO2 SLP234 T00560056 400720022",
      "metarObsTime": 1772686380
    },
    "KIPT": {
      "status": "OK",
      "delay": "—",
      "metarCat": "LIFR",
      "metarRaw": "SPECI KIPT 050525Z AUTO 00000KT 2SM BR OVC003 03/03 A3021 RMK AO2 T00330033 $",
      "metarObsTime": 1772688300
    },
    "KPHL": {
      "status": "OK",
      "delay": "—",
      "metarCat": "MVFR",
      "metarRaw": "SPECI KPHL 050535Z 00000KT 4SM OVC013 08/07 A3024 RMK AO2 T00780067 $",
      "metarObsTime": 1772688900
    },
    "KABE": {
      "status": "OK",
      "delay": "—",
      "metarCat": "IFR",
      "metarRaw": "SPECI KABE 050521Z 00000KT 4SM BR OVC008 06/06 A3022 RMK AO2 RAB0454E03 P0000 T00610056",
      "metarObsTime": 1772688060
    },
    "KAVP": {
      "status": "OK",
      "delay": "—",
      "metarCat": "MVFR",
      "metarRaw": "METAR KAVP 050454Z AUTO 11003KT 10SM OVC020 06/03 A3018 RMK AO2 SLP223 T00560028 401060017",
      "metarObsTime": 1772686440
    },
    "KHZL": {
      "status": "OK",
      "delay": "—",
      "metarCat": "LIFR",
      "metarRaw": "METAR KHZL 050535Z AUTO 00000KT 1 1/2SM BR OVC003 05/03 A3021 RMK AO2",
      "metarObsTime": 1772688900
    }
  }
}