{
  "generatedAt": "2026-04-14T11:50:48.725Z",
  "airports": {
    "KPIT": {
      "status": "OK",
      "delay": "—",
      "metarCat": "VFR",
      "metarRaw": "METAR KPIT 141051Z 20009G18KT 10SM OVC065 18/08 A3001 RMK AO2 SLP160 T01830083",
      "metarObsTime": 1776163860
    },
    "KAGC": {
      "status": "OK",
      "delay": "—",
      "metarCat": "VFR",
      "metarRaw": "METAR KAGC 141053Z 19011KT 10SM OVC060 18/08 A3002 RMK AO2 SLP161 T01780083",
      "metarObsTime": 1776163980
    },
    "KLBE": {
      "status": "OK",
      "delay": "—",
      "metarCat": "VFR",
      "metarRaw": "METAR KLBE 141053Z 21018KT 10SM CLR 18/10 A3005",
      "metarObsTime": 1776163980
    },
    "KJST": {
      "status": "OK",
      "delay": "—",
      "metarCat": "MVFR",
      "metarRaw": "SPECI KJST 141129Z AUTO 23009KT 10SM BKN025 BKN032 OVC040 17/08 A3007 RMK AO2 T01670078",
      "metarObsTime": 1776166140
    },
    "KERI": {
      "status": "OK",
      "delay": "—",
      "metarCat": "VFR",
      "metarRaw": "METAR KERI 141051Z 19014G24KT 10SM BKN055 OVC075 19/13 A2989 RMK AO2 SLP119 T01890128 $",
      "metarObsTime": 1776163860
    },
    "KDUJ": {
      "status": "OK",
      "delay": "—",
      "metarCat": "VFR",
      "metarRaw": "METAR KDUJ 141053Z AUTO 21009KT 10SM FEW034 SCT065 14/10 A3001 RMK AO2 SLP153 T01440100",
      "metarObsTime": 1776163980
    },
    "KBFD": {
      "status": "OK",
      "delay": "—",
      "metarCat": "VFR",
      "metarRaw": "METAR KBFD 141053Z AUTO 21005KT 10SM CLR 14/12 A3000 RMK AO2 SLP151 T01390117",
      "metarObsTime": 1776163980
    },
    "KBTP": {
      "status": "OK",
      "delay": "—",
      "metarCat": "VFR",
      "metarRaw": "METAR KBTP 141056Z AUTO 21005KT 10SM BKN045 OVC060 18/09 A3003 RMK AO2 SLP166 T01830089 $",
      "metarObsTime": 1776164160
    },
    "KFKL": {
      "status": "OK",
      "delay": "—",
      "metarCat": "VFR",
      "metarRaw": "METAR KFKL 141056Z AUTO 21008KT 10SM FEW038 BKN080 17/11 A3000 RMK AO2 SLP150 T01670106",
      "metarObsTime": 1776164160
    },
    "KIDI": {
      "status": "OK",
      "delay": "—",
      "metarCat": "VFR",
      "metarRaw": "METAR KIDI 141135Z AUTO 21007KT 10SM SCT032 BKN050 OVC060 17/10 A3005 RMK A01",
      "metarObsTime": 1776166500
    },
    "KMDT": {
      "status": "OK",
      "delay": "—",
      "metarCat": "VFR",
      "metarRaw": "METAR KMDT 141056Z 00000KT 10SM FEW100 SCT250 14/12 A3003 RMK AO2 SLP168 T01390117",
      "metarObsTime": 1776164160
    },
    "KCXY": {
      "status": "OK",
      "delay": "—",
      "metarCat": "VFR",
      "metarRaw": "METAR KCXY 141056Z 00000KT 10SM CLR 14/12 A3003 RMK AO2 SLP169 T01390117 $",
      "metarObsTime": 1776164160
    },
    "KMUI": {
      "status": "OK",
      "delay": "—",
      "metarCat": "VFR",
      "metarRaw": "METAR KMUI 141055Z 00000KT 10SM SCT180 BKN250 13/12 A3001 RMK AO2A SLP163 T01260123",
      "metarObsTime": 1776164100
    },
    "KUNV": {
      "status": "OK",
      "delay": "—",
      "metarCat": "VFR",
      "metarRaw": "METAR KUNV 141053Z 22003KT 10SM CLR 17/10 A3002",
      "metarObsTime": 1776163980
    },
    "KAOO": {
      "status": "OK",
      "delay": "—",
      "metarCat": "VFR",
      "metarRaw": "METAR KAOO 141053Z AUTO 22010KT 10SM OVC060 18/08 A3005 RMK AO2 SLP167 T01830083",
      "metarObsTime": 1776163980
    },
    "KLNS": {
      "status": "OK",
      "delay": "—",
      "metarCat": "VFR",
      "metarRaw": "METAR KLNS 141053Z 10004KT 8SM CLR 13/12 A3003 RMK AO2 SLP168 T01280117",
      "metarObsTime": 1776163980
    },
    "KIPT": {
      "status": "OK",
      "delay": "—",
      "metarCat": "VFR",
      "metarRaw": "METAR KIPT 141054Z 00000KT 9SM CLR 13/13 A3000 RMK AO2 SLP155 T01280128 $",
      "metarObsTime": 1776164040
    },
    "KPHL": {
      "status": "OK",
      "delay": "—",
      "metarCat": "VFR",
      "metarRaw": "METAR KPHL 141054Z 22008KT 10SM FEW110 BKN200 BKN280 18/12 A3003 RMK AO2 SLP169 T01780117 $",
      "metarObsTime": 1776164040
    },
    "KABE": {
      "status": "OK",
      "delay": "—",
      "metarCat": "VFR",
      "metarRaw": "METAR KABE 141051Z 26005KT 9SM CLR 14/14 A3001 RMK AO2 SLP160 T01390139 $",
      "metarObsTime": 1776163860
    },
    "KAVP": {
      "status": "OK",
      "delay": "—",
      "metarCat": "VFR",
      "metarRaw": "METAR KAVP 141054Z 23003KT 8SM CLR 14/13 A3001 RMK AO2 SLP157 T01390133",
      "metarObsTime": 1776164040
    },
    "KHZL": {
      "status": "OK",
      "delay": "—",
      "metarCat": "VFR",
      "metarRaw": "METAR KHZL 141135Z AUTO 00000KT 10SM CLR 16/15 A3007 RMK AO2",
      "metarObsTime": 1776166500
    }
  }
}