{
  "generatedAt": "2026-03-09T23:00:18.455Z",
  "airports": {
    "KPIT": {
      "status": "OK",
      "delay": "—",
      "metarCat": "VFR",
      "metarRaw": "METAR KPIT 092251Z 24007G17KT 10SM CLR 20/M02 A2994 RMK AO2 SLP148 T02001022",
      "metarObsTime": 1773096660
    },
    "KAGC": {
      "status": "OK",
      "delay": "—",
      "metarCat": "VFR",
      "metarRaw": "METAR KAGC 092253Z AUTO 23006KT 10SM CLR 19/M03 A2995 RMK AO2 SLP144 T01941028",
      "metarObsTime": 1773096780
    },
    "KLBE": {
      "status": "OK",
      "delay": "—",
      "metarCat": "VFR",
      "metarRaw": "METAR KLBE 092247Z 21010KT 20SM CLR 20/00 A2997",
      "metarObsTime": 1773096420
    },
    "KJST": {
      "status": "OK",
      "delay": "—",
      "metarCat": "VFR",
      "metarRaw": "METAR KJST 092254Z AUTO 25007KT 10SM CLR 17/M03 A2998 RMK AO2 SLP151 T01671033",
      "metarObsTime": 1773096840
    },
    "KERI": {
      "status": "OK",
      "delay": "—",
      "metarCat": "VFR",
      "metarRaw": "METAR KERI 092251Z 20014G23KT 10SM CLR 20/M01 A2985 RMK AO2 PK WND 20030/2225 SLP107 T02001011",
      "metarObsTime": 1773096660
    },
    "KDUJ": {
      "status": "OK",
      "delay": "—",
      "metarCat": "VFR",
      "metarRaw": "METAR KDUJ 092253Z AUTO 22007KT 10SM CLR 17/M04 A2994 RMK AO2 SLP140 T01671039",
      "metarObsTime": 1773096780
    },
    "KBFD": {
      "status": "OK",
      "delay": "—",
      "metarCat": "VFR",
      "metarRaw": "METAR KBFD 092253Z AUTO 22005KT 10SM CLR 17/M05 A2993 RMK AO2 SLP134 T01671050 $",
      "metarObsTime": 1773096780
    },
    "KBTP": {
      "status": "OK",
      "delay": "—",
      "metarCat": "VFR",
      "metarRaw": "METAR KBTP 092256Z AUTO 23010KT 10SM CLR 19/M01 A2995 RMK AO2 SLP147 T01891011 $",
      "metarObsTime": 1773096960
    },
    "KFKL": {
      "status": "OK",
      "delay": "—",
      "metarCat": "VFR",
      "metarRaw": "METAR KFKL 092256Z AUTO 22007KT 10SM CLR 18/M02 A2993 RMK AO2 SLP137 T01781017",
      "metarObsTime": 1773096960
    },
    "KIDI": {
      "status": "OK",
      "delay": "—",
      "metarCat": "VFR",
      "metarRaw": "METAR KIDI 092255Z AUTO 23008KT 10SM CLR 19/M03 A2996 RMK A01",
      "metarObsTime": 1773096900
    },
    "KMDT": {
      "status": "OK",
      "delay": "—",
      "metarCat": "VFR",
      "metarRaw": "METAR KMDT 092256Z VRB04KT 10SM CLR 20/02 A2995 RMK AO2 SLP143 T02000022",
      "metarObsTime": 1773096960
    },
    "KCXY": {
      "status": "OK",
      "delay": "—",
      "metarCat": "VFR",
      "metarRaw": "METAR KCXY 092256Z 19005KT 10SM CLR 21/03 A2996 RMK AO2 SLP146 T02060028",
      "metarObsTime": 1773096960
    },
    "KMUI": {
      "status": "OK",
      "delay": "—",
      "metarCat": "VFR",
      "metarRaw": "METAR KMUI 092255Z 21006KT 10SM CLR 20/04 A2994 RMK AO2A SLP143 T01990044",
      "metarObsTime": 1773096900
    },
    "KUNV": {
      "status": "OK",
      "delay": "—",
      "metarCat": "VFR",
      "metarRaw": "METAR KUNV 092253Z 25010G16KT 10SM CLR 19/M05 A2994",
      "metarObsTime": 1773096780
    },
    "KAOO": {
      "status": "OK",
      "delay": "—",
      "metarCat": "VFR",
      "metarRaw": "METAR KAOO 092253Z AUTO 22008KT 10SM CLR 18/M03 A2996 RMK AO2 SLP146 T01831028",
      "metarObsTime": 1773096780
    },
    "KLNS": {
      "status": "OK",
      "delay": "—",
      "metarCat": "VFR",
      "metarRaw": "METAR KLNS 092253Z 20006KT 10SM CLR 19/03 A2997 RMK AO2 SLP148 T01940033",
      "metarObsTime": 1773096780
    },
    "KIPT": {
      "status": "OK",
      "delay": "—",
      "metarCat": "VFR",
      "metarRaw": "METAR KIPT 092254Z 18008KT 10SM CLR 21/M01 A2990 RMK AO2 SLP126 T02061011 $",
      "metarObsTime": 1773096840
    },
    "KPHL": {
      "status": "OK",
      "delay": "—",
      "metarCat": "VFR",
      "metarRaw": "METAR KPHL 092254Z 19005KT 10SM CLR 21/04 A2997 RMK AO2 SLP149 T02110039 $",
      "metarObsTime": 1773096840
    },
    "KABE": {
      "status": "OK",
      "delay": "—",
      "metarCat": "VFR",
      "metarRaw": "METAR KABE 092251Z 22006KT 10SM CLR 18/03 A2996 RMK AO2 SLP146 T01780033",
      "metarObsTime": 1773096660
    },
    "KAVP": {
      "status": "OK",
      "delay": "—",
      "metarCat": "VFR",
      "metarRaw": "METAR KAVP 092254Z 24007KT 10SM CLR 19/00 A2994 RMK AO2 SLP138 T01890000",
      "metarObsTime": 1773096840
    },
    "KHZL": {
      "status": "OK",
      "delay": "—",
      "metarCat": "VFR",
      "metarRaw": "METAR KHZL 092255Z AUTO 21003KT 10SM CLR 17/00 A3000 RMK AO2",
      "metarObsTime": 1773096900
    }
  }
}