{
  "generatedAt": "2026-03-28T09:20:23.085Z",
  "airports": {
    "KPIT": {
      "status": "OK",
      "delay": "—",
      "metarCat": "VFR",
      "metarRaw": "METAR KPIT 280851Z 26004KT 10SM SCT040 OVC070 M03/M07 A3041 RMK AO2 SLP315 T10281067 52013",
      "metarObsTime": 1774687860
    },
    "KAGC": {
      "status": "OK",
      "delay": "—",
      "metarCat": "VFR",
      "metarRaw": "METAR KAGC 280853Z 28004KT 10SM FEW047 OVC070 M03/M07 A3039 RMK AO2 SLP308 T10281072 53011",
      "metarObsTime": 1774687980
    },
    "KLBE": {
      "status": "OK",
      "delay": "—",
      "metarCat": "VFR",
      "metarRaw": "METAR KLBE 280915Z AUTO 25005KT 10SM SCT050 BKN070 M03/M07 A3043 RMK AO2",
      "metarObsTime": 1774689300
    },
    "KJST": {
      "status": "OK",
      "delay": "—",
      "metarCat": "VFR",
      "metarRaw": "METAR KJST 280854Z AUTO 31013KT 10SM CLR M06/M11 A3030 RMK AO2 SLP285 T10561106 53018",
      "metarObsTime": 1774688040
    },
    "KERI": {
      "status": "OK",
      "delay": "—",
      "metarCat": "VFR",
      "metarRaw": "METAR KERI 280851Z AUTO 30010G17KT 10SM SCT080 BKN100 M02/M12 A3043 RMK AO2 SLP315 T10221122 53018 $",
      "metarObsTime": 1774687860
    },
    "KDUJ": {
      "status": "OK",
      "delay": "—",
      "metarCat": "VFR",
      "metarRaw": "METAR KDUJ 280853Z AUTO 27008KT 10SM BKN080 M06/M08 A3032 RMK AO2 SLP285 T10561083 53013",
      "metarObsTime": 1774687980
    },
    "KBFD": {
      "status": "OK",
      "delay": "—",
      "metarCat": "MVFR",
      "metarRaw": "SPECI KBFD 280906Z AUTO 30006KT 10SM BKN020 BKN024 M07/M09 A3029 RMK AO2 T10671094",
      "metarObsTime": 1774688760
    },
    "KBTP": {
      "status": "OK",
      "delay": "—",
      "metarCat": "VFR",
      "metarRaw": "METAR KBTP 280856Z AUTO 33006KT 9SM -SN OVC041 M03/M07 A3042 RMK AO2 SNB45 SLP319 P0000 60000 T10331072 53016 FZRANO $",
      "metarObsTime": 1774688160
    },
    "KFKL": {
      "status": "OK",
      "delay": "—",
      "metarCat": "VFR",
      "metarRaw": "METAR KFKL 280856Z AUTO 32007KT 8SM -SN FEW023 OVC033 M05/M08 A3039 RMK AO2 SNB24 SLP309 P0000 60000 T10501078 53018 FZRANO",
      "metarObsTime": 1774688160
    },
    "KIDI": {
      "status": "OK",
      "delay": "—",
      "metarCat": "VFR",
      "metarRaw": "METAR KIDI 280915Z AUTO 28005KT 10SM FEW050 SCT065 BKN075 M04/M07 A3039 RMK A01",
      "metarObsTime": 1774689300
    },
    "KMDT": {
      "status": "OK",
      "delay": "—",
      "metarCat": "VFR",
      "metarRaw": "METAR KMDT 280856Z 35009KT 10SM BKN055 BKN065 01/M10 A3034 RMK AO2 SLP276 T00061100 53030",
      "metarObsTime": 1774688160
    },
    "KCXY": {
      "status": "OK",
      "delay": "—",
      "metarCat": "VFR",
      "metarRaw": "METAR KCXY 280856Z AUTO 35008G18KT 10SM SCT050 BKN060 01/M10 A3035 RMK AO2 SLP281 T00061100 53030",
      "metarObsTime": 1774688160
    },
    "KMUI": {
      "status": "OK",
      "delay": "—",
      "metarCat": "—",
      "metarRaw": "—",
      "metarObsTime": null
    },
    "KUNV": {
      "status": "OK",
      "delay": "—",
      "metarCat": "VFR",
      "metarRaw": "METAR KUNV 280915Z AUTO 30007KT 10SM SCT035 M03/M09 A3035 RMK AO2 T10271095",
      "metarObsTime": 1774689300
    },
    "KAOO": {
      "status": "OK",
      "delay": "—",
      "metarCat": "VFR",
      "metarRaw": "METAR KAOO 280853Z AUTO 33006KT 10SM BKN034 M03/M10 A3034 RMK AO2 SLP288 T10331100 51022",
      "metarObsTime": 1774687980
    },
    "KLNS": {
      "status": "OK",
      "delay": "—",
      "metarCat": "VFR",
      "metarRaw": "METAR KLNS 280853Z AUTO 35008KT 10SM CLR M01/M09 A3032 RMK AO2 SLP270 T10061094 53028",
      "metarObsTime": 1774687980
    },
    "KIPT": {
      "status": "OK",
      "delay": "—",
      "metarCat": "VFR",
      "metarRaw": "METAR KIPT 280854Z AUTO 00000KT 10SM SCT046 M03/M10 A3036 RMK AO2 SLP286 T10331100 53021",
      "metarObsTime": 1774688040
    },
    "KPHL": {
      "status": "OK",
      "delay": "—",
      "metarCat": "VFR",
      "metarRaw": "METAR KPHL 280854Z 34015KT 10SM BKN065 02/M09 A3030 RMK AO2 SLP261 T00221089 53028 $",
      "metarObsTime": 1774688040
    },
    "KABE": {
      "status": "OK",
      "delay": "—",
      "metarCat": "VFR",
      "metarRaw": "METAR KABE 280851Z 33013G19KT 10SM CLR M02/M13 A3032 RMK AO2 SLP269 T10221133 53026 $",
      "metarObsTime": 1774687860
    },
    "KAVP": {
      "status": "OK",
      "delay": "—",
      "metarCat": "VFR",
      "metarRaw": "METAR KAVP 280854Z AUTO 34004KT 10SM CLR M06/M14 A3032 RMK AO2 SLP274 T10561144 53022",
      "metarObsTime": 1774688040
    },
    "KHZL": {
      "status": "OK",
      "delay": "—",
      "metarCat": "VFR",
      "metarRaw": "METAR KHZL 280915Z AUTO 32006KT 10SM CLR M04/M13 A3030 RMK AO2",
      "metarObsTime": 1774689300
    }
  }
}