{
  "generatedAt": "2026-03-13T04:30:15.646Z",
  "airports": {
    "KPIT": {
      "status": "OK",
      "delay": "—",
      "metarCat": "VFR",
      "metarRaw": "METAR KPIT 130351Z 00000KT 10SM FEW060 FEW180 M01/M04 A3010 RMK AO2 SLP211 T10111039 $",
      "metarObsTime": 1773373860
    },
    "KAGC": {
      "status": "OK",
      "delay": "—",
      "metarCat": "VFR",
      "metarRaw": "METAR KAGC 130353Z 24004KT 10SM CLR 00/M05 A3010 RMK AO2 SLP209 T00001050",
      "metarObsTime": 1773373980
    },
    "KLBE": {
      "status": "OK",
      "delay": "—",
      "metarCat": "VFR",
      "metarRaw": "METAR KLBE 130415Z AUTO 00000KT 10SM CLR M02/M05 A3013 RMK AO2",
      "metarObsTime": 1773375300
    },
    "KJST": {
      "status": "OK",
      "delay": "—",
      "metarCat": "VFR",
      "metarRaw": "METAR KJST 130354Z AUTO 27005KT 10SM CLR M02/M08 A3004 RMK AO2 SLP199 T10221078",
      "metarObsTime": 1773374040
    },
    "KERI": {
      "status": "OK",
      "delay": "—",
      "metarCat": "VFR",
      "metarRaw": "METAR KERI 130351Z AUTO 18004KT 10SM CLR M02/M05 A3008 RMK AO2 SLP196 T10221050",
      "metarObsTime": 1773373860
    },
    "KDUJ": {
      "status": "OK",
      "delay": "—",
      "metarCat": "VFR",
      "metarRaw": "METAR KDUJ 130353Z AUTO 00000KT 10SM CLR M04/M09 A3004 RMK AO2 SLP196 T10441089",
      "metarObsTime": 1773373980
    },
    "KBFD": {
      "status": "OK",
      "delay": "—",
      "metarCat": "VFR",
      "metarRaw": "METAR KBFD 130353Z AUTO 00000KT 10SM CLR M07/M08 A3002 RMK AO2 SLP192 T10671083 $",
      "metarObsTime": 1773373980
    },
    "KBTP": {
      "status": "OK",
      "delay": "—",
      "metarCat": "VFR",
      "metarRaw": "METAR KBTP 130356Z AUTO 21004KT 10SM CLR M02/M04 A3010 RMK AO2 SLP213 T10171044 400561017 FZRANO $",
      "metarObsTime": 1773374160
    },
    "KFKL": {
      "status": "OK",
      "delay": "—",
      "metarCat": "VFR",
      "metarRaw": "METAR KFKL 130356Z AUTO 20005KT 10SM CLR A3007 RMK AO2 SLPNO FZRANO $",
      "metarObsTime": 1773374160
    },
    "KIDI": {
      "status": "OK",
      "delay": "—",
      "metarCat": "VFR",
      "metarRaw": "METAR KIDI 130415Z AUTO 00000KT 10SM BKN050 M03/M06 A3009 RMK A01",
      "metarObsTime": 1773375300
    },
    "KMDT": {
      "status": "OK",
      "delay": "—",
      "metarCat": "VFR",
      "metarRaw": "METAR KMDT 130356Z 32007KT 10SM CLR 02/M11 A3012 RMK AO2 SLP201 T00171106 $",
      "metarObsTime": 1773374160
    },
    "KCXY": {
      "status": "OK",
      "delay": "—",
      "metarCat": "VFR",
      "metarRaw": "METAR KCXY 130356Z AUTO 30006KT 10SM CLR 02/M11 A3012 RMK AO2 SLP204 T00221111",
      "metarObsTime": 1773374160
    },
    "KMUI": {
      "status": "OK",
      "delay": "—",
      "metarCat": "VFR",
      "metarRaw": "METAR KMUI 130355Z AUTO 30006KT 10SM CLR 02/M11 A3008 RMK AO2 SLP193 T00241108",
      "metarObsTime": 1773374100
    },
    "KUNV": {
      "status": "OK",
      "delay": "—",
      "metarCat": "VFR",
      "metarRaw": "METAR KUNV 130415Z AUTO 24004KT 10SM CLR M01/M10 A3008 RMK AO2 T10101098",
      "metarObsTime": 1773375300
    },
    "KAOO": {
      "status": "OK",
      "delay": "—",
      "metarCat": "VFR",
      "metarRaw": "METAR KAOO 130353Z AUTO 25004KT 10SM CLR M01/M11 A3008 RMK AO2 SLP203 T10061106",
      "metarObsTime": 1773373980
    },
    "KLNS": {
      "status": "OK",
      "delay": "—",
      "metarCat": "VFR",
      "metarRaw": "METAR KLNS 130353Z AUTO 31007KT 10SM CLR 01/M10 A3011 RMK AO2 SLP200 T00111100",
      "metarObsTime": 1773373980
    },
    "KIPT": {
      "status": "OK",
      "delay": "—",
      "metarCat": "VFR",
      "metarRaw": "METAR KIPT 130354Z AUTO 30005KT 10SM CLR M01/M10 A3010 RMK AO2 SLP197 T10111100 $",
      "metarObsTime": 1773374040
    },
    "KPHL": {
      "status": "OK",
      "delay": "—",
      "metarCat": "VFR",
      "metarRaw": "METAR KPHL 130354Z 30010KT 10SM CLR 04/M08 A3011 RMK AO2 SLP196 T00441083",
      "metarObsTime": 1773374040
    },
    "KABE": {
      "status": "OK",
      "delay": "—",
      "metarCat": "VFR",
      "metarRaw": "METAR KABE 130351Z 29009G19KT 10SM CLR 01/M10 A3008 RMK AO2 SLP189 T00111100 $",
      "metarObsTime": 1773373860
    },
    "KAVP": {
      "status": "OK",
      "delay": "—",
      "metarCat": "VFR",
      "metarRaw": "METAR KAVP 130354Z 29012G17KT 10SM CLR M01/M12 A3005 RMK AO2 PK WND 26027/0318 SLP182 T10061122",
      "metarObsTime": 1773374040
    },
    "KHZL": {
      "status": "OK",
      "delay": "—",
      "metarCat": "VFR",
      "metarRaw": "METAR KHZL 130415Z AUTO 28004KT 10SM SCT048 M01/M11 A3006 RMK AO2",
      "metarObsTime": 1773375300
    }
  }
}