{
  "generatedAt": "2026-03-08T03:00:16.511Z",
  "airports": {
    "KPIT": {
      "status": "OK",
      "delay": "—",
      "metarCat": "VFR",
      "metarRaw": "METAR KPIT 080251Z 24008KT 10SM FEW080 OVC170 16/13 A2982 RMK AO2 SLP100 60000 T01560128 55003 $",
      "metarObsTime": 1772938260
    },
    "KAGC": {
      "status": "OK",
      "delay": "—",
      "metarCat": "VFR",
      "metarRaw": "METAR KAGC 080253Z 21009KT 10SM CLR 16/13 A2983 RMK AO2 SLP098 60001 T01560128 55001",
      "metarObsTime": 1772938380
    },
    "KLBE": {
      "status": "OK",
      "delay": "—",
      "metarCat": "VFR",
      "metarRaw": "METAR KLBE 080245Z 24012KT 7SM -RA BR FEW110 16/13 A2984",
      "metarObsTime": 1772937900
    },
    "KJST": {
      "status": "OK",
      "delay": "—",
      "metarCat": "VFR",
      "metarRaw": "METAR KJST 080254Z AUTO 22014G21KT 10SM SCT075 SCT095 14/12 A2984 RMK AO2 RAE36 SLP096 P0001 60006 T01440117 58013",
      "metarObsTime": 1772938440
    },
    "KERI": {
      "status": "OK",
      "delay": "—",
      "metarCat": "VFR",
      "metarRaw": "METAR KERI 080251Z 24016G31KT 10SM OVC036 18/11 A2973 RMK AO2 PK WND 25031/0246 SLP063 T01830106 50004",
      "metarObsTime": 1772938260
    },
    "KDUJ": {
      "status": "OK",
      "delay": "—",
      "metarCat": "MVFR",
      "metarRaw": "METAR KDUJ 080253Z AUTO 23010G19KT 10SM BKN012 BKN017 OVC065 14/13 A2980 RMK AO2 SLP090 60000 T01440133 53003",
      "metarObsTime": 1772938380
    },
    "KBFD": {
      "status": "OK",
      "delay": "—",
      "metarCat": "MVFR",
      "metarRaw": "METAR KBFD 080253Z AUTO 24007KT 10SM SCT014 BKN019 OVC026 14/13 A2978 RMK AO2 RAE16 SLP079 P0000 60000 T01440128 55004",
      "metarObsTime": 1772938380
    },
    "KBTP": {
      "status": "OK",
      "delay": "—",
      "metarCat": "VFR",
      "metarRaw": "METAR KBTP 080156Z AUTO 21009KT 10SM CLR 16/16 A2981 RMK AO2 SLP096 T01560156 $",
      "metarObsTime": 1772934960
    },
    "KFKL": {
      "status": "OK",
      "delay": "—",
      "metarCat": "MVFR",
      "metarRaw": "SPECI KFKL 080236Z AUTO 24006KT 10SM BKN015 OVC021 16/14 A2981 RMK AO2",
      "metarObsTime": 1772937360
    },
    "KIDI": {
      "status": "OK",
      "delay": "—",
      "metarCat": "VFR",
      "metarRaw": "METAR KIDI 080235Z AUTO 22012KT 10SM FEW048 FEW065 BKN110 15/14 A2982 RMK A01",
      "metarObsTime": 1772937300
    },
    "KMDT": {
      "status": "OK",
      "delay": "—",
      "metarCat": "LIFR",
      "metarRaw": "SPECI KMDT 080219Z 12010KT 3SM RA BR BKN003 BKN025 OVC048 08/08 A2989 RMK AO2 LTG DSNT NE P0010 T00830078",
      "metarObsTime": 1772936340
    },
    "KCXY": {
      "status": "OK",
      "delay": "—",
      "metarCat": "IFR",
      "metarRaw": "SPECI KCXY 080229Z AUTO 10004KT 7SM BKN005 BKN039 OVC060 09/08 A2989 RMK AO2 RAE28 P0015 T00940083",
      "metarObsTime": 1772936940
    },
    "KMUI": {
      "status": "OK",
      "delay": "—",
      "metarCat": "LIFR",
      "metarRaw": "METAR KMUI 080255Z AUTO 03004KT 4SM BR OVC002 09/08 A2986 RMK AO2 LTG DSNT E RAB0155E30 TSB0155E27 SLP117 P0006 60011 T00850082 58014",
      "metarObsTime": 1772938500
    },
    "KUNV": {
      "status": "OK",
      "delay": "—",
      "metarCat": "VFR",
      "metarRaw": "METAR KUNV 080253Z 23007KT 10SM SCT085 14/14 A2980",
      "metarObsTime": 1772938380
    },
    "KAOO": {
      "status": "OK",
      "delay": "—",
      "metarCat": "—",
      "metarRaw": "—",
      "metarObsTime": null
    },
    "KLNS": {
      "status": "OK",
      "delay": "—",
      "metarCat": "LIFR",
      "metarRaw": "METAR KLNS 080253Z 11004KT 2SM BR OVC003 08/08 A2991 RMK AO2 LTG DSNT N SLP130 T00830083 58007",
      "metarObsTime": 1772938380
    },
    "KIPT": {
      "status": "OK",
      "delay": "—",
      "metarCat": "MVFR",
      "metarRaw": "METAR KIPT 080254Z 07003KT 10SM OVC010 09/08 A2981 RMK AO2 CIG 009V013 SLP099 60010 T00940083 56028",
      "metarObsTime": 1772938440
    },
    "KPHL": {
      "status": "OK",
      "delay": "—",
      "metarCat": "IFR",
      "metarRaw": "METAR KPHL 080254Z 34011KT 4SM BR OVC005 11/09 A2995 RMK AO2 SLP140 T01060094 55006 $",
      "metarObsTime": 1772938440
    },
    "KABE": {
      "status": "OK",
      "delay": "—",
      "metarCat": "MVFR",
      "metarRaw": "METAR KABE 080251Z 31006KT 8SM VCTS -RA FEW007 BKN027 OVC031 09/08 A2990 RMK AO2 RAB42 SLP128 P0000 60000 T00890083 58008",
      "metarObsTime": 1772938260
    },
    "KAVP": {
      "status": "OK",
      "delay": "—",
      "metarCat": "MVFR",
      "metarRaw": "METAR KAVP 080254Z 01003KT 3SM BR BKN110 08/08 A2981 RMK AO2 RAE46 SLP097 P0004 60021 T00830078 58016",
      "metarObsTime": 1772938440
    },
    "KHZL": {
      "status": "OK",
      "delay": "—",
      "metarCat": "MVFR",
      "metarRaw": "METAR KHZL 080235Z AUTO 00000KT 5SM -RA SCT050 BKN065 OVC080 11/10 A2987 RMK AO2 P0007",
      "metarObsTime": 1772937300
    }
  }
}