{
  "generatedAt": "2026-04-01T04:00:33.747Z",
  "airports": {
    "KPIT": {
      "status": "OK",
      "delay": "—",
      "metarCat": "MVFR",
      "metarRaw": "METAR KPIT 010351Z 35014G45KT 5SM -TSRA BKN025 OVC045CB 18/14 A2999 RMK AO2 PK WND 28050/0339 WSHFT 0335 RAB27 TSB27 SLP156 OCNL LTGICCG OHD TS OHD MOV SE P0007 T01780139 $",
      "metarObsTime": 1775015460
    },
    "KAGC": {
      "status": "OK",
      "delay": "—",
      "metarCat": "VFR",
      "metarRaw": "METAR KAGC 010353Z AUTO 27006KT 10SM VCTS OVC080 22/11 A2993 RMK AO2 LTG DSNT W-N SLP130 T02220106",
      "metarObsTime": 1775015580
    },
    "KLBE": {
      "status": "OK",
      "delay": "—",
      "metarCat": "VFR",
      "metarRaw": "METAR KLBE 010355Z AUTO 33006KT 10SM OVC085 21/11 A2996 RMK AO2 LTG DSNT W AND NW",
      "metarObsTime": 1775015700
    },
    "KJST": {
      "status": "OK",
      "delay": "—",
      "metarCat": "VFR",
      "metarRaw": "METAR KJST 010354Z AUTO 01009G18KT 10SM BKN060 OVC075 17/11 A2997 RMK AO2 SLP140 T01670106",
      "metarObsTime": 1775015640
    },
    "KERI": {
      "status": "OK",
      "delay": "—",
      "metarCat": "VFR",
      "metarRaw": "METAR KERI 010351Z AUTO 18009KT 10SM OVC039 16/14 A2986 RMK AO2 SLP110 T01610139 $",
      "metarObsTime": 1775015460
    },
    "KDUJ": {
      "status": "OK",
      "delay": "—",
      "metarCat": "MVFR",
      "metarRaw": "METAR KDUJ 010353Z AUTO 24008KT 4SM -RA BR BKN048 BKN055 OVC070 14/13 A2995 RMK AO2 LTG DSNT SW AND W SLP138 P0019 T01390128 $",
      "metarObsTime": 1775015580
    },
    "KBFD": {
      "status": "OK",
      "delay": "—",
      "metarCat": "MVFR",
      "metarRaw": "METAR KBFD 010353Z AUTO 23006KT 10SM OVC010 14/13 A2992 RMK AO2 RAE00 CIG 006V015 SLP124 P0000 T01390128",
      "metarObsTime": 1775015580
    },
    "KBTP": {
      "status": "OK",
      "delay": "—",
      "metarCat": "VFR",
      "metarRaw": "METAR KBTP 010356Z AUTO 27008KT 7SM TSRA FEW008 BKN041 OVC055 14/14 A3000 RMK AO2 LTG DSNT ALQDS TSB25 SLP159 P0008 T01440144 402440144 $",
      "metarObsTime": 1775015760
    },
    "KFKL": {
      "status": "OK",
      "delay": "—",
      "metarCat": "VFR",
      "metarRaw": "METAR KFKL 010356Z AUTO 22008KT 8SM RA FEW003 BKN032 OVC055 14/14 A2995 RMK AO2 LTG DSNT SE AND S TSB17E36 SLP137 P0020 T01390139",
      "metarObsTime": 1775015760
    },
    "KIDI": {
      "status": "OK",
      "delay": "—",
      "metarCat": "VFR",
      "metarRaw": "METAR KIDI 010355Z AUTO 08006KT 10SM BKN065 OVC075 15/14 A2997 RMK A01 P0003",
      "metarObsTime": 1775015700
    },
    "KMDT": {
      "status": "OK",
      "delay": "—",
      "metarCat": "VFR",
      "metarRaw": "METAR KMDT 010356Z 22012G19KT 10SM FEW100 SCT250 23/12 A2989 RMK AO2 PK WND 23026/0324 SLP122 T02280122",
      "metarObsTime": 1775015760
    },
    "KCXY": {
      "status": "OK",
      "delay": "—",
      "metarCat": "VFR",
      "metarRaw": "METAR KCXY 010356Z AUTO 22011G20KT 10SM CLR 23/12 A2990 RMK AO2 PK WND 20029/0334 SLP122 T02330122",
      "metarObsTime": 1775015760
    },
    "KMUI": {
      "status": "OK",
      "delay": "—",
      "metarCat": "VFR",
      "metarRaw": "METAR KMUI 010255Z AUTO 00000KT 10SM CLR 20/15 A2988 RMK AO2 SLP119 T01980146 58001",
      "metarObsTime": 1775012100
    },
    "KUNV": {
      "status": "OK",
      "delay": "—",
      "metarCat": "VFR",
      "metarRaw": "METAR KUNV 010355Z AUTO 30011G20KT 280V340 10SM RA BKN075 OVC085 17/13 A2997 RMK AO2 P0002 T01670125",
      "metarObsTime": 1775015700
    },
    "KAOO": {
      "status": "OK",
      "delay": "—",
      "metarCat": "VFR",
      "metarRaw": "METAR KAOO 010353Z AUTO 34008KT 300V360 10SM FEW070 OVC095 21/09 A2995 RMK AO2 RAB37E49 SLP135 P0000 T02060094",
      "metarObsTime": 1775015580
    },
    "KLNS": {
      "status": "OK",
      "delay": "—",
      "metarCat": "VFR",
      "metarRaw": "METAR KLNS 010353Z AUTO 22008KT 10SM CLR 22/12 A2991 RMK AO2 SLP125 T02170117",
      "metarObsTime": 1775015580
    },
    "KIPT": {
      "status": "OK",
      "delay": "—",
      "metarCat": "MVFR",
      "metarRaw": "METAR KIPT 010354Z AUTO 29008KT 5SM RA FEW055 BKN080 OVC100 18/15 A2992 RMK AO2 SLP128 P0005 T01780150",
      "metarObsTime": 1775015640
    },
    "KPHL": {
      "status": "OK",
      "delay": "—",
      "metarCat": "VFR",
      "metarRaw": "METAR KPHL 010354Z 21012G24KT 10SM SCT250 OVC300 23/13 A2993 RMK AO2 SLP134 T02280128 $",
      "metarObsTime": 1775015640
    },
    "KABE": {
      "status": "OK",
      "delay": "—",
      "metarCat": "VFR",
      "metarRaw": "METAR KABE 010351Z 22011KT 10SM CLR 21/12 A2988 RMK AO2 SLP116 T02110117 $",
      "metarObsTime": 1775015460
    },
    "KAVP": {
      "status": "OK",
      "delay": "—",
      "metarCat": "VFR",
      "metarRaw": "METAR KAVP 010354Z 25012G21KT 10SM FEW065 SCT080 BKN100 23/11 A2986 RMK AO2 LTG DSNT NE SLP104 T02280111",
      "metarObsTime": 1775015640
    },
    "KHZL": {
      "status": "OK",
      "delay": "—",
      "metarCat": "VFR",
      "metarRaw": "METAR KHZL 010355Z AUTO 19006KT 10SM BKN085 BKN110 21/11 A2994 RMK AO2",
      "metarObsTime": 1775015700
    }
  }
}