{
  "generatedAt": "2026-04-18T17:10:49.292Z",
  "airports": {
    "KPIT": {
      "status": "OK",
      "delay": "—",
      "metarCat": "VFR",
      "metarRaw": "METAR KPIT 181651Z 20014G26KT 10SM SCT050 SCT100 BKN200 OVC250 26/11 A2979 RMK AO2 PK WND 20026/1639 SLP088 T02610111",
      "metarObsTime": 1776531060
    },
    "KAGC": {
      "status": "OK",
      "delay": "—",
      "metarCat": "VFR",
      "metarRaw": "METAR KAGC 181653Z 19017G27KT 10SM CLR 26/11 A2982 RMK AO2 PK WND 21027/1618 SLP092 T02610111",
      "metarObsTime": 1776531180
    },
    "KLBE": {
      "status": "OK",
      "delay": "—",
      "metarCat": "VFR",
      "metarRaw": "METAR KLBE 181647Z 19013G23KT 10SM FEW038 SCT055 BKN065 27/10 A2986",
      "metarObsTime": 1776530820
    },
    "KJST": {
      "status": "OK",
      "delay": "—",
      "metarCat": "VFR",
      "metarRaw": "METAR KJST 181654Z AUTO 18015KT 10SM CLR 22/09 A2990 RMK AO2 SLP114 T02220089",
      "metarObsTime": 1776531240
    },
    "KERI": {
      "status": "OK",
      "delay": "—",
      "metarCat": "VFR",
      "metarRaw": "METAR KERI 181651Z 20021G33KT 10SM FEW060 27/13 A2968 RMK AO2 PK WND 18036/1619 SLP045 T02670133 $",
      "metarObsTime": 1776531060
    },
    "KDUJ": {
      "status": "OK",
      "delay": "—",
      "metarCat": "VFR",
      "metarRaw": "METAR KDUJ 181653Z AUTO 17010G20KT 120V220 10SM SCT050 SCT070 24/09 A2984 RMK AO2 SLP094 T02390089",
      "metarObsTime": 1776531180
    },
    "KBFD": {
      "status": "OK",
      "delay": "—",
      "metarCat": "VFR",
      "metarRaw": "METAR KBFD 181653Z AUTO 17012G21KT 10SM FEW060 22/08 A2983 RMK AO2 PK WND 18027/1609 SLP092 T02220083",
      "metarObsTime": 1776531180
    },
    "KBTP": {
      "status": "OK",
      "delay": "—",
      "metarCat": "VFR",
      "metarRaw": "METAR KBTP 181656Z AUTO 21016G25KT 10SM CLR 26/12 A2980 RMK AO2 SLP090 T02610122 PNO $",
      "metarObsTime": 1776531360
    },
    "KFKL": {
      "status": "OK",
      "delay": "—",
      "metarCat": "—",
      "metarRaw": "—",
      "metarObsTime": null
    },
    "KIDI": {
      "status": "OK",
      "delay": "—",
      "metarCat": "VFR",
      "metarRaw": "METAR KIDI 181655Z AUTO 21010G17KT 10SM SCT055 26/10 A2985 RMK A01",
      "metarObsTime": 1776531300
    },
    "KMDT": {
      "status": "OK",
      "delay": "—",
      "metarCat": "MVFR",
      "metarRaw": "METAR KMDT 181656Z 14010KT 8SM BKN016 21/15 A2996 RMK AO2 SLP144 T02110150",
      "metarObsTime": 1776531360
    },
    "KCXY": {
      "status": "OK",
      "delay": "—",
      "metarCat": "VFR",
      "metarRaw": "METAR KCXY 181656Z 11012KT 8SM SCT021 21/15 A2996 RMK AO2 SLP146 T02060150 $",
      "metarObsTime": 1776531360
    },
    "KMUI": {
      "status": "OK",
      "delay": "—",
      "metarCat": "MVFR",
      "metarRaw": "METAR KMUI 181655Z AUTO 09005KT 10SM OVC013 18/16 A2997 RMK AO2 SLP151 T01830163",
      "metarObsTime": 1776531300
    },
    "KUNV": {
      "status": "OK",
      "delay": "—",
      "metarCat": "VFR",
      "metarRaw": "METAR KUNV 181653Z 18009KT 160V220 10SM CLR 24/13 A2990",
      "metarObsTime": 1776531180
    },
    "KAOO": {
      "status": "OK",
      "delay": "—",
      "metarCat": "VFR",
      "metarRaw": "METAR KAOO 181653Z AUTO 18011G19KT 10SM CLR 23/11 A2991 RMK AO2 SLP122 T02330106",
      "metarObsTime": 1776531180
    },
    "KLNS": {
      "status": "OK",
      "delay": "—",
      "metarCat": "MVFR",
      "metarRaw": "METAR KLNS 181653Z 12011KT 10SM BKN018 19/15 A2999 RMK AO2 SLP152 T01940150",
      "metarObsTime": 1776531180
    },
    "KIPT": {
      "status": "OK",
      "delay": "—",
      "metarCat": "VFR",
      "metarRaw": "METAR KIPT 181654Z 15015G24KT 10SM CLR 22/14 A2991 RMK AO2 PK WND 14028/1637 SLP126 T02170139 $",
      "metarObsTime": 1776531240
    },
    "KPHL": {
      "status": "OK",
      "delay": "—",
      "metarCat": "VFR",
      "metarRaw": "METAR KPHL 181654Z 11009KT 10SM FEW038 BKN300 23/13 A3001 RMK AO2 SLP163 T02280128 $",
      "metarObsTime": 1776531240
    },
    "KABE": {
      "status": "OK",
      "delay": "—",
      "metarCat": "VFR",
      "metarRaw": "METAR KABE 181651Z 11010KT 10SM CLR 21/11 A3000 RMK AO2 SLP158 T02110111 $",
      "metarObsTime": 1776531060
    },
    "KAVP": {
      "status": "OK",
      "delay": "—",
      "metarCat": "VFR",
      "metarRaw": "METAR KAVP 181654Z VRB05KT 10SM SCT055 24/11 A2995 RMK AO2 SLP135 T02390106",
      "metarObsTime": 1776531240
    },
    "KHZL": {
      "status": "OK",
      "delay": "—",
      "metarCat": "VFR",
      "metarRaw": "METAR KHZL 181655Z AUTO 14010G17KT 080V170 10SM CLR 21/11 A3001 RMK AO2",
      "metarObsTime": 1776531300
    }
  }
}