{
  "generatedAt": "2026-04-12T10:50:43.787Z",
  "airports": {
    "KPIT": {
      "status": "OK",
      "delay": "—",
      "metarCat": "VFR",
      "metarRaw": "METAR KPIT 120951Z 10004KT 10SM BKN200 06/M01 A3029 RMK AO2 SLP269 T00561011 $",
      "metarObsTime": 1775987460
    },
    "KAGC": {
      "status": "OK",
      "delay": "—",
      "metarCat": "VFR",
      "metarRaw": "METAR KAGC 120953Z 09006KT 10SM CLR 07/M01 A3029 RMK AO2 SLP265 T00671011",
      "metarObsTime": 1775987580
    },
    "KLBE": {
      "status": "OK",
      "delay": "—",
      "metarCat": "VFR",
      "metarRaw": "METAR KLBE 121047Z 16009KT 10SM CLR 11/00 A3033",
      "metarObsTime": 1775990820
    },
    "KJST": {
      "status": "OK",
      "delay": "—",
      "metarCat": "VFR",
      "metarRaw": "METAR KJST 120954Z AUTO 00000KT 10SM CLR 06/M03 A3033 RMK AO2 SLP278 T00561028",
      "metarObsTime": 1775987640
    },
    "KERI": {
      "status": "OK",
      "delay": "—",
      "metarCat": "VFR",
      "metarRaw": "METAR KERI 120951Z AUTO 15011KT 10SM CLR 06/M04 A3030 RMK AO2 SLP264 T00561039 $",
      "metarObsTime": 1775987460
    },
    "KDUJ": {
      "status": "OK",
      "delay": "—",
      "metarCat": "VFR",
      "metarRaw": "METAR KDUJ 120953Z AUTO 10006KT 10SM CLR 02/M04 A3034 RMK AO2 SLP281 T00171039",
      "metarObsTime": 1775987580
    },
    "KBFD": {
      "status": "OK",
      "delay": "—",
      "metarCat": "VFR",
      "metarRaw": "METAR KBFD 120953Z AUTO 12007KT 10SM BKN120 00/M04 A3035 RMK AO2 SLP288 T00001039",
      "metarObsTime": 1775987580
    },
    "KBTP": {
      "status": "OK",
      "delay": "—",
      "metarCat": "VFR",
      "metarRaw": "METAR KBTP 120956Z AUTO 08006KT 10SM CLR 06/M02 A3032 RMK AO2 SLP276 T00561017 $",
      "metarObsTime": 1775987760
    },
    "KFKL": {
      "status": "OK",
      "delay": "—",
      "metarCat": "VFR",
      "metarRaw": "METAR KFKL 120956Z AUTO 12006KT 10SM CLR 03/M03 A3032 RMK AO2 SLP277 T00331033",
      "metarObsTime": 1775987760
    },
    "KIDI": {
      "status": "OK",
      "delay": "—",
      "metarCat": "VFR",
      "metarRaw": "METAR KIDI 121035Z AUTO 09007KT 10SM CLR 04/M01 A3033 RMK A01",
      "metarObsTime": 1775990100
    },
    "KMDT": {
      "status": "OK",
      "delay": "—",
      "metarCat": "VFR",
      "metarRaw": "METAR KMDT 120956Z 12003KT 10SM FEW250 06/M02 A3045 RMK AO2 SLP312 T00561017",
      "metarObsTime": 1775987760
    },
    "KCXY": {
      "status": "OK",
      "delay": "—",
      "metarCat": "VFR",
      "metarRaw": "METAR KCXY 120956Z AUTO 09004KT 10SM CLR 06/M02 A3046 RMK AO2 SLP315 T00611017 $",
      "metarObsTime": 1775987760
    },
    "KMUI": {
      "status": "OK",
      "delay": "—",
      "metarCat": "—",
      "metarRaw": "—",
      "metarObsTime": null
    },
    "KUNV": {
      "status": "OK",
      "delay": "—",
      "metarCat": "—",
      "metarRaw": "—",
      "metarObsTime": null
    },
    "KAOO": {
      "status": "OK",
      "delay": "—",
      "metarCat": "VFR",
      "metarRaw": "METAR KAOO 120953Z AUTO 00000KT 10SM CLR 03/M03 A3038 RMK AO2 SLP295 T00331028",
      "metarObsTime": 1775987580
    },
    "KLNS": {
      "status": "OK",
      "delay": "—",
      "metarCat": "VFR",
      "metarRaw": "METAR KLNS 120953Z 11004KT 10SM CLR 04/M01 A3046 RMK AO2 SLP316 T00391006",
      "metarObsTime": 1775987580
    },
    "KIPT": {
      "status": "OK",
      "delay": "—",
      "metarCat": "VFR",
      "metarRaw": "METAR KIPT 120954Z AUTO 00000KT 10SM CLR 01/M03 A3045 RMK AO2 SLP312 T00111028 $",
      "metarObsTime": 1775987640
    },
    "KPHL": {
      "status": "OK",
      "delay": "—",
      "metarCat": "VFR",
      "metarRaw": "METAR KPHL 120954Z 07005KT 10SM CLR 08/M02 A3048 RMK AO2 SLP322 T00781017 $",
      "metarObsTime": 1775987640
    },
    "KABE": {
      "status": "OK",
      "delay": "—",
      "metarCat": "VFR",
      "metarRaw": "METAR KABE 120951Z 04004KT 10SM CLR 03/M04 A3047 RMK AO2 SLP320 T00281039 $",
      "metarObsTime": 1775987460
    },
    "KAVP": {
      "status": "OK",
      "delay": "—",
      "metarCat": "VFR",
      "metarRaw": "METAR KAVP 120954Z AUTO 11004KT 10SM CLR 01/M04 A3045 RMK AO2 SLP314 T00061039",
      "metarObsTime": 1775987640
    },
    "KHZL": {
      "status": "OK",
      "delay": "—",
      "metarCat": "VFR",
      "metarRaw": "METAR KHZL 121035Z AUTO 00000KT 10SM CLR 00/M04 A3046 RMK AO2",
      "metarObsTime": 1775990100
    }
  }
}