{
  "generatedAt": "2026-06-23T23:48:11.234Z",
  "faaFlow": {
    "updatedAt": "2026-06-23T23:48:06.400Z",
    "source": "https://www.fly.faa.gov/adv/adv_spt",
    "terminal": [],
    "enroute": [],
    "airports": {
      "KPIT": null,
      "KAGC": null,
      "KLBE": null,
      "KJST": null,
      "KERI": null,
      "KDUJ": null,
      "KBFD": null,
      "KBTP": null,
      "KFKL": null,
      "KIDI": null,
      "KMDT": null,
      "KCXY": null,
      "KMUI": null,
      "KUNV": null,
      "KAOO": null,
      "KLNS": null,
      "KIPT": null,
      "KPHL": null,
      "KABE": null,
      "KAVP": null,
      "KHZL": null
    }
  },
  "airports": {
    "KPIT": {
      "status": "OK",
      "delay": "—",
      "metarCat": "VFR",
      "metarRaw": "METAR KPIT 232251Z 33014G25KT 10SM FEW060 SCT140 SCT220 23/09 A3005 RMK AO2 SLP179 T02330089",
      "metarObsTime": 1782255060,
      "faaFlow": null
    },
    "KAGC": {
      "status": "OK",
      "delay": "—",
      "metarCat": "VFR",
      "metarRaw": "METAR KAGC 232253Z 33010G19KT 10SM FEW060 22/09 A3004 RMK AO2 SLP171 T02220094",
      "metarObsTime": 1782255180,
      "faaFlow": null
    },
    "KLBE": {
      "status": "OK",
      "delay": "—",
      "metarCat": "VFR",
      "metarRaw": "METAR KLBE 232247Z 30012KT 10SM SCT070 23/13 A3004",
      "metarObsTime": 1782254820,
      "faaFlow": null
    },
    "KJST": {
      "status": "OK",
      "delay": "—",
      "metarCat": "VFR",
      "metarRaw": "METAR KJST 232254Z AUTO 33011KT 10SM FEW050 BKN060 21/10 A3004 RMK AO2 SLP165 T02060100",
      "metarObsTime": 1782255240,
      "faaFlow": null
    },
    "KERI": {
      "status": "OK",
      "delay": "—",
      "metarCat": "VFR",
      "metarRaw": "METAR KERI 232251Z 26010KT 10SM SCT070 21/14 A3007 RMK AO2 SLP179 T02060139",
      "metarObsTime": 1782255060,
      "faaFlow": null
    },
    "KDUJ": {
      "status": "OK",
      "delay": "—",
      "metarCat": "VFR",
      "metarRaw": "METAR KDUJ 232253Z AUTO 35013G17KT 10SM CLR 21/08 A3004 RMK AO2 SLP166 T02060083",
      "metarObsTime": 1782255180,
      "faaFlow": null
    },
    "KBFD": {
      "status": "OK",
      "delay": "—",
      "metarCat": "VFR",
      "metarRaw": "METAR KBFD 232253Z AUTO 33011KT 10SM CLR 19/06 A3007 RMK AO2 SLP176 T01890056",
      "metarObsTime": 1782255180,
      "faaFlow": null
    },
    "KBTP": {
      "status": "OK",
      "delay": "—",
      "metarCat": "—",
      "metarRaw": "—",
      "metarObsTime": null,
      "faaFlow": null
    },
    "KFKL": {
      "status": "OK",
      "delay": "—",
      "metarCat": "VFR",
      "metarRaw": "METAR KFKL 232256Z AUTO 31007KT 280V340 10SM FEW045 21/11 A3009 RMK AO2 SLP187 T02060111",
      "metarObsTime": 1782255360,
      "faaFlow": null
    },
    "KIDI": {
      "status": "OK",
      "delay": "—",
      "metarCat": "VFR",
      "metarRaw": "METAR KIDI 232335Z AUTO 31006KT 10SM FEW065 21/11 A3005 RMK A01",
      "metarObsTime": 1782257700,
      "faaFlow": null
    },
    "KMDT": {
      "status": "OK",
      "delay": "—",
      "metarCat": "VFR",
      "metarRaw": "METAR KMDT 232256Z 34011KT 10SM SCT035 26/12 A2991 RMK AO2 SLP126 T02560122",
      "metarObsTime": 1782255360,
      "faaFlow": null
    },
    "KCXY": {
      "status": "OK",
      "delay": "—",
      "metarCat": "VFR",
      "metarRaw": "METAR KCXY 232256Z 34010G18KT 10SM FEW055 26/12 A2992 RMK AO2 SLP130 T02560122",
      "metarObsTime": 1782255360,
      "faaFlow": null
    },
    "KMUI": {
      "status": "OK",
      "delay": "—",
      "metarCat": "VFR",
      "metarRaw": "METAR KMUI 232255Z 02004KT 10SM FEW045 SCT170 25/12 A2989 RMK AO2A SLP122 T02490121",
      "metarObsTime": 1782255300,
      "faaFlow": null
    },
    "KUNV": {
      "status": "OK",
      "delay": "—",
      "metarCat": "VFR",
      "metarRaw": "METAR KUNV 232253Z 36008KT 10SM SCT050 24/11 A2996",
      "metarObsTime": 1782255180,
      "faaFlow": null
    },
    "KAOO": {
      "status": "OK",
      "delay": "—",
      "metarCat": "VFR",
      "metarRaw": "METAR KAOO 232253Z AUTO 33012KT 10SM SCT070 23/09 A3000 RMK AO2 SLP150 T02330089",
      "metarObsTime": 1782255180,
      "faaFlow": null
    },
    "KLNS": {
      "status": "OK",
      "delay": "—",
      "metarCat": "VFR",
      "metarRaw": "METAR KLNS 232253Z 36005KT 10SM CLR 24/14 A2991 RMK AO2 SLP126 T02440144",
      "metarObsTime": 1782255180,
      "faaFlow": null
    },
    "KIPT": {
      "status": "OK",
      "delay": "—",
      "metarCat": "VFR",
      "metarRaw": "METAR KIPT 232254Z 33010KT 10SM CLR 25/09 A2993 RMK AO2 SLP130 T02500094 $",
      "metarObsTime": 1782255240,
      "faaFlow": null
    },
    "KPHL": {
      "status": "OK",
      "delay": "—",
      "metarCat": "VFR",
      "metarRaw": "METAR KPHL 232254Z 33007KT 10SM FEW017 SCT110 BKN180 BKN240 21/18 A2990 RMK AO2 SLP125 T02110178 $",
      "metarObsTime": 1782255240,
      "faaFlow": null
    },
    "KABE": {
      "status": "OK",
      "delay": "—",
      "metarCat": "VFR",
      "metarRaw": "METAR KABE 232251Z 34007KT 10SM CLR 23/15 A2989 RMK AO2 SLP120 T02330150 $",
      "metarObsTime": 1782255060,
      "faaFlow": null
    },
    "KAVP": {
      "status": "OK",
      "delay": "—",
      "metarCat": "VFR",
      "metarRaw": "METAR KAVP 232254Z 01009KT 10SM SCT050 23/12 A2993 RMK AO2 SLP129 T02280117",
      "metarObsTime": 1782255240,
      "faaFlow": null
    },
    "KHZL": {
      "status": "OK",
      "delay": "—",
      "metarCat": "VFR",
      "metarRaw": "METAR KHZL 232335Z AUTO 33008KT 10SM CLR 21/10 A3000 RMK AO2",
      "metarObsTime": 1782257700,
      "faaFlow": null
    }
  }
}