{
  "generatedAt": "2026-03-24T23:00:23.507Z",
  "airports": {
    "KPIT": {
      "status": "OK",
      "delay": "—",
      "metarCat": "VFR",
      "metarRaw": "METAR KPIT 242251Z 29008KT 10SM BKN180 OVC250 07/M10 A3032 RMK AO2 SLP287 T00721100",
      "metarObsTime": 1774392660
    },
    "KAGC": {
      "status": "OK",
      "delay": "—",
      "metarCat": "VFR",
      "metarRaw": "METAR KAGC 242253Z 31003KT 10SM CLR 07/M09 A3031 RMK AO2 SLP280 T00671094",
      "metarObsTime": 1774392780
    },
    "KLBE": {
      "status": "OK",
      "delay": "—",
      "metarCat": "VFR",
      "metarRaw": "METAR KLBE 242247Z 26005KT 10SM CLR 07/M08 A3033",
      "metarObsTime": 1774392420
    },
    "KJST": {
      "status": "OK",
      "delay": "—",
      "metarCat": "VFR",
      "metarRaw": "METAR KJST 242254Z AUTO 32008KT 10SM CLR 05/M07 A3026 RMK AO2 SLP274 T00501067",
      "metarObsTime": 1774392840
    },
    "KERI": {
      "status": "OK",
      "delay": "—",
      "metarCat": "VFR",
      "metarRaw": "METAR KERI 242251Z 26004KT 10SM OVC085 02/M07 A3035 RMK AO2 SLP285 T00221072",
      "metarObsTime": 1774392660
    },
    "KDUJ": {
      "status": "OK",
      "delay": "—",
      "metarCat": "VFR",
      "metarRaw": "METAR KDUJ 242253Z AUTO 27006KT 10SM CLR 04/M09 A3028 RMK AO2 SLP274 T00441094",
      "metarObsTime": 1774392780
    },
    "KBFD": {
      "status": "OK",
      "delay": "—",
      "metarCat": "VFR",
      "metarRaw": "METAR KBFD 242253Z AUTO 27005KT 10SM SCT090 03/M11 A3027 RMK AO2 SLP272 T00331111",
      "metarObsTime": 1774392780
    },
    "KBTP": {
      "status": "OK",
      "delay": "—",
      "metarCat": "VFR",
      "metarRaw": "METAR KBTP 242256Z AUTO 00000KT 10SM CLR 06/M08 A3032 RMK AO2 SLP289 T00611083 $",
      "metarObsTime": 1774392960
    },
    "KFKL": {
      "status": "OK",
      "delay": "—",
      "metarCat": "VFR",
      "metarRaw": "METAR KFKL 242256Z AUTO 26005KT 10SM CLR 04/M10 A3031 RMK AO2 SLP286 T00441100",
      "metarObsTime": 1774392960
    },
    "KIDI": {
      "status": "OK",
      "delay": "—",
      "metarCat": "VFR",
      "metarRaw": "METAR KIDI 242255Z AUTO 26004KT 10SM CLR 06/M10 A3031 RMK A01",
      "metarObsTime": 1774392900
    },
    "KMDT": {
      "status": "OK",
      "delay": "—",
      "metarCat": "VFR",
      "metarRaw": "METAR KMDT 242256Z 21006KT 10SM BKN250 09/M05 A3033 RMK AO2 SLP273 T00891050",
      "metarObsTime": 1774392960
    },
    "KCXY": {
      "status": "OK",
      "delay": "—",
      "metarCat": "VFR",
      "metarRaw": "METAR KCXY 242256Z 22005KT 10SM CLR 08/M05 A3033 RMK AO2 SLP275 T00831050",
      "metarObsTime": 1774392960
    },
    "KMUI": {
      "status": "OK",
      "delay": "—",
      "metarCat": "VFR",
      "metarRaw": "METAR KMUI 242255Z 22006KT 10SM BKN250 08/M06 A3030 RMK AO2A SLP267 T00831059",
      "metarObsTime": 1774392900
    },
    "KUNV": {
      "status": "OK",
      "delay": "—",
      "metarCat": "VFR",
      "metarRaw": "METAR KUNV 242253Z 22004KT 10SM CLR 07/M08 A3028",
      "metarObsTime": 1774392780
    },
    "KAOO": {
      "status": "OK",
      "delay": "—",
      "metarCat": "VFR",
      "metarRaw": "METAR KAOO 242253Z AUTO 20004KT 10SM CLR 07/M07 A3028 RMK AO2 SLP271 T00671072",
      "metarObsTime": 1774392780
    },
    "KLNS": {
      "status": "OK",
      "delay": "—",
      "metarCat": "VFR",
      "metarRaw": "METAR KLNS 242253Z 28008KT 10SM CLR 07/M05 A3034 RMK AO2 SLP276 T00721050",
      "metarObsTime": 1774392780
    },
    "KIPT": {
      "status": "OK",
      "delay": "—",
      "metarCat": "VFR",
      "metarRaw": "METAR KIPT 242254Z 00000KT 10SM CLR 07/M04 A3029 RMK AO2 SLP261 T00721039 $",
      "metarObsTime": 1774392840
    },
    "KPHL": {
      "status": "OK",
      "delay": "—",
      "metarCat": "VFR",
      "metarRaw": "METAR KPHL 242254Z 23013KT 10SM BKN280 09/M05 A3036 RMK AO2 SLP281 T00941050 $",
      "metarObsTime": 1774392840
    },
    "KABE": {
      "status": "OK",
      "delay": "—",
      "metarCat": "VFR",
      "metarRaw": "METAR KABE 242251Z 24009KT 10SM CLR 07/M06 A3032 RMK AO2 SLPNO T00671056 $",
      "metarObsTime": 1774392660
    },
    "KAVP": {
      "status": "OK",
      "delay": "—",
      "metarCat": "VFR",
      "metarRaw": "METAR KAVP 242254Z 24009KT 10SM CLR 06/M09 A3028 RMK AO2 SLP261 T00611094",
      "metarObsTime": 1774392840
    },
    "KHZL": {
      "status": "OK",
      "delay": "—",
      "metarCat": "VFR",
      "metarRaw": "METAR KHZL 242255Z AUTO 00000KT 10SM CLR 05/M07 A3030 RMK AO2",
      "metarObsTime": 1774392900
    }
  }
}