{
  "generatedAt": "2026-03-29T11:50:38.678Z",
  "airports": {
    "KPIT": {
      "status": "OK",
      "delay": "—",
      "metarCat": "VFR",
      "metarRaw": "METAR KPIT 291051Z 17003KT 10SM OVC110 01/M07 A3041 RMK AO2 SLP316 T00111072",
      "metarObsTime": 1774781460
    },
    "KAGC": {
      "status": "OK",
      "delay": "—",
      "metarCat": "VFR",
      "metarRaw": "METAR KAGC 291053Z 17006KT 10SM OVC120 01/M07 A3041 RMK AO2 SLP314 T00061072",
      "metarObsTime": 1774781580
    },
    "KLBE": {
      "status": "OK",
      "delay": "—",
      "metarCat": "VFR",
      "metarRaw": "METAR KLBE 291055Z 00000KT 10SM BKN120 M01/ A3045",
      "metarObsTime": 1774781700
    },
    "KJST": {
      "status": "OK",
      "delay": "—",
      "metarCat": "VFR",
      "metarRaw": "METAR KJST 291054Z AUTO 19005KT 10SM OVC110 00/M09 A3040 RMK AO2 SLP316 T00001094",
      "metarObsTime": 1774781640
    },
    "KERI": {
      "status": "OK",
      "delay": "—",
      "metarCat": "VFR",
      "metarRaw": "METAR KERI 291051Z 19009KT 10SM CLR 02/M07 A3039 RMK AO2 SLP300 T00221072 $",
      "metarObsTime": 1774781460
    },
    "KDUJ": {
      "status": "OK",
      "delay": "—",
      "metarCat": "VFR",
      "metarRaw": "METAR KDUJ 291053Z AUTO 18004KT 10SM FEW120 M02/M09 A3040 RMK AO2 SLP312 T10171094",
      "metarObsTime": 1774781580
    },
    "KBFD": {
      "status": "OK",
      "delay": "—",
      "metarCat": "VFR",
      "metarRaw": "METAR KBFD 291053Z AUTO 21004KT 10SM FEW110 M03/M10 A3038 RMK AO2 SLP312 T10281100",
      "metarObsTime": 1774781580
    },
    "KBTP": {
      "status": "OK",
      "delay": "—",
      "metarCat": "VFR",
      "metarRaw": "METAR KBTP 291056Z AUTO 00000KT 10SM OVC110 01/M06 A3042 RMK AO2 SLP320 T00061061 FZRANO $",
      "metarObsTime": 1774781760
    },
    "KFKL": {
      "status": "OK",
      "delay": "—",
      "metarCat": "VFR",
      "metarRaw": "METAR KFKL 291056Z AUTO 18004KT 10SM OVC120 M01/M06 A3040 RMK AO2 SLP312 T10061061 FZRANO",
      "metarObsTime": 1774781760
    },
    "KIDI": {
      "status": "OK",
      "delay": "—",
      "metarCat": "VFR",
      "metarRaw": "METAR KIDI 291135Z AUTO 15004KT 10SM OVC110 01/M06 A3043 RMK A01",
      "metarObsTime": 1774784100
    },
    "KMDT": {
      "status": "OK",
      "delay": "—",
      "metarCat": "VFR",
      "metarRaw": "METAR KMDT 291056Z 13003KT 10SM SCT140 BKN250 01/M06 A3055 RMK AO2 SLP348 T00061056",
      "metarObsTime": 1774781760
    },
    "KCXY": {
      "status": "OK",
      "delay": "—",
      "metarCat": "VFR",
      "metarRaw": "METAR KCXY 291056Z 25003KT 10SM CLR M01/M05 A3055 RMK AO2 SLP351 T10111050",
      "metarObsTime": 1774781760
    },
    "KMUI": {
      "status": "OK",
      "delay": "—",
      "metarCat": "—",
      "metarRaw": "—",
      "metarObsTime": null
    },
    "KUNV": {
      "status": "OK",
      "delay": "—",
      "metarCat": "VFR",
      "metarRaw": "METAR KUNV 291053Z 00000KT 10SM CLR M02/M07 A3047",
      "metarObsTime": 1774781580
    },
    "KAOO": {
      "status": "OK",
      "delay": "—",
      "metarCat": "VFR",
      "metarRaw": "METAR KAOO 291053Z AUTO 00000KT 10SM OVC120 00/M08 A3046 RMK AO2 SLP328 T00001083 $",
      "metarObsTime": 1774781580
    },
    "KLNS": {
      "status": "OK",
      "delay": "—",
      "metarCat": "VFR",
      "metarRaw": "METAR KLNS 291053Z 08003KT 10SM CLR M03/M06 A3055 RMK AO2 SLP348 T10281061",
      "metarObsTime": 1774781580
    },
    "KIPT": {
      "status": "OK",
      "delay": "—",
      "metarCat": "VFR",
      "metarRaw": "METAR KIPT 291054Z 00000KT 10SM CLR M03/M07 A3050 RMK AO2 SLP335 T10281072 $",
      "metarObsTime": 1774781640
    },
    "KPHL": {
      "status": "OK",
      "delay": "—",
      "metarCat": "VFR",
      "metarRaw": "METAR KPHL 291054Z 00000KT 10SM FEW080 SCT140 SCT200 00/M04 A3059 RMK AO2 SLP357 T00001039 $",
      "metarObsTime": 1774781640
    },
    "KABE": {
      "status": "OK",
      "delay": "—",
      "metarCat": "VFR",
      "metarRaw": "METAR KABE 291051Z 00000KT 10SM CLR M04/M08 A3055 RMK AO2 SLP350 T10391078 $",
      "metarObsTime": 1774781460
    },
    "KAVP": {
      "status": "OK",
      "delay": "—",
      "metarCat": "VFR",
      "metarRaw": "METAR KAVP 291054Z AUTO 00000KT 10SM OVC100 M04/M09 A3049 RMK AO2 SLP333 T10391094",
      "metarObsTime": 1774781640
    },
    "KHZL": {
      "status": "OK",
      "delay": "—",
      "metarCat": "VFR",
      "metarRaw": "METAR KHZL 291135Z AUTO 00000KT 10SM SCT120 M02/M09 A3050 RMK AO2",
      "metarObsTime": 1774784100
    }
  }
}