{
  "generatedAt": "2026-03-05T21:55:15.824Z",
  "airports": {
    "KPIT": {
      "status": "OK",
      "delay": "—",
      "metarCat": "MVFR",
      "metarRaw": "METAR KPIT 052151Z 22008KT 10SM -RA FEW010 BKN015 OVC028 16/14 A3000 RMK AO2 SLP167 P0002 T01560139",
      "metarObsTime": 1772747460
    },
    "KAGC": {
      "status": "OK",
      "delay": "—",
      "metarCat": "IFR",
      "metarRaw": "METAR KAGC 052151Z 21008KT 1 3/4SM -RA BR BKN018 BKN048 OVC060 15/14 A3001 RMK AO2 SLP166 P0006 T01500139",
      "metarObsTime": 1772747460
    },
    "KLBE": {
      "status": "OK",
      "delay": "—",
      "metarCat": "VFR",
      "metarRaw": "METAR KLBE 052049Z 21008KT 9SM -DZ SCT032 BKN039 OVC050 16/15 A3003",
      "metarObsTime": 1772743740
    },
    "KJST": {
      "status": "OK",
      "delay": "—",
      "metarCat": "MVFR",
      "metarRaw": "METAR KJST 052054Z AUTO 20008KT 3SM -RA BR SCT020 BKN029 OVC050 13/13 A3004 RMK AO2 SLP176 P0005 60009 T01330128 56006",
      "metarObsTime": 1772744040
    },
    "KERI": {
      "status": "OK",
      "delay": "—",
      "metarCat": "LIFR",
      "metarRaw": "METAR KERI 052151Z 01007KT 2 1/2SM -RA BR OVC002 02/02 A2999 RMK AO2 SLP161 P0004 T00220017",
      "metarObsTime": 1772747460
    },
    "KDUJ": {
      "status": "OK",
      "delay": "—",
      "metarCat": "LIFR",
      "metarRaw": "SPECI KDUJ 052146Z AUTO 13006KT 1/4SM -RA FG VV002 09/09 A2997 RMK AO2 P0003 T00940094",
      "metarObsTime": 1772747160
    },
    "KBFD": {
      "status": "OK",
      "delay": "—",
      "metarCat": "LIFR",
      "metarRaw": "SPECI KBFD 052134Z AUTO 07005KT 2SM +RA BR BKN004 OVC009 07/06 A3000 RMK AO2 P0012 T00670061",
      "metarObsTime": 1772746440
    },
    "KBTP": {
      "status": "OK",
      "delay": "—",
      "metarCat": "IFR",
      "metarRaw": "METAR KBTP 052056Z AUTO 20010KT 5SM -RA OVC009 15/ A3000 RMK AO2 RAE11B27 CIG 007V013 SLP163 P0001 60003 T0150 56003 $",
      "metarObsTime": 1772744160
    },
    "KFKL": {
      "status": "OK",
      "delay": "—",
      "metarCat": "IFR",
      "metarRaw": "SPECI KFKL 052111Z AUTO 00000KT 5SM -RA BR BKN009 OVC013 11/11 A3000 RMK AO2 CIG 004V011 P0003",
      "metarObsTime": 1772745060
    },
    "KIDI": {
      "status": "OK",
      "delay": "—",
      "metarCat": "MVFR",
      "metarRaw": "METAR KIDI 052115Z AUTO 21008G14KT 9SM BKN029 BKN036 OVC047 15/14 A3002 RMK A01",
      "metarObsTime": 1772745300
    },
    "KMDT": {
      "status": "OK",
      "delay": "—",
      "metarCat": "IFR",
      "metarRaw": "METAR KMDT 052056Z 13009KT 2 1/2SM BR OVC007 08/08 A3012 RMK AO2 SLP202 60004 T00830078 56010",
      "metarObsTime": 1772744160
    },
    "KCXY": {
      "status": "OK",
      "delay": "—",
      "metarCat": "IFR",
      "metarRaw": "METAR KCXY 052056Z 11006KT 2SM BR BKN008 OVC013 09/08 A3013 RMK AO2 SLP206 60002 T00890078 56006",
      "metarObsTime": 1772744160
    },
    "KMUI": {
      "status": "OK",
      "delay": "—",
      "metarCat": "LIFR",
      "metarRaw": "SPECI KMUI 052133Z 08005KT 5SM -RA BR OVC004 09/09 A3013 RMK AO2A RAB33 SLP208",
      "metarObsTime": 1772746380
    },
    "KUNV": {
      "status": "OK",
      "delay": "—",
      "metarCat": "—",
      "metarRaw": "—",
      "metarObsTime": null
    },
    "KAOO": {
      "status": "OK",
      "delay": "—",
      "metarCat": "IFR",
      "metarRaw": "SPECI KAOO 052135Z AUTO 07003KT 1 3/4SM -RA BR FEW002 BKN043 OVC075 09/08 A3007 RMK AO2 RAB07 P0004 T00890083",
      "metarObsTime": 1772746500
    },
    "KLNS": {
      "status": "OK",
      "delay": "—",
      "metarCat": "IFR",
      "metarRaw": "METAR KLNS 052053Z 09006KT 2 1/2SM BR OVC005 09/08 A3014 RMK AO2 SLP209 60001 T00890083 55007",
      "metarObsTime": 1772743980
    },
    "KIPT": {
      "status": "OK",
      "delay": "—",
      "metarCat": "MVFR",
      "metarRaw": "SPECI KIPT 052118Z 11003KT 3SM -RA BR FEW003 BKN014 OVC065 08/07 A3010 RMK AO2 P0002 T00780072 $",
      "metarObsTime": 1772745480
    },
    "KPHL": {
      "status": "OK",
      "delay": "—",
      "metarCat": "IFR",
      "metarRaw": "METAR KPHL 052054Z 08009KT 6SM HZ OVC006 09/06 A3018 RMK AO2 SLP220 T00890061 55004 $",
      "metarObsTime": 1772744040
    },
    "KABE": {
      "status": "OK",
      "delay": "—",
      "metarCat": "IFR",
      "metarRaw": "METAR KABE 052151Z 10008KT 9SM OVC005 07/06 A3017 RMK AO2 SLP220 T00670056",
      "metarObsTime": 1772747460
    },
    "KAVP": {
      "status": "OK",
      "delay": "—",
      "metarCat": "MVFR",
      "metarRaw": "METAR KAVP 052054Z VRB03KT 10SM BKN013 OVC023 07/06 A3011 RMK AO2 RAE17 SLP200 P0000 60002 T00720061 57017",
      "metarObsTime": 1772744040
    },
    "KHZL": {
      "status": "OK",
      "delay": "—",
      "metarCat": "LIFR",
      "metarRaw": "METAR KHZL 052135Z AUTO 11004KT 1/4SM RA OVC002 06/05 A3015 RMK AO2 P0004",
      "metarObsTime": 1772746500
    }
  }
}