{
  "generatedAt": "2026-04-17T03:30:50.143Z",
  "airports": {
    "KPIT": {
      "status": "OK",
      "delay": "—",
      "metarCat": "VFR",
      "metarRaw": "METAR KPIT 170251Z 21004KT 10SM FEW043 18/16 A2989 RMK AO2 RAB0155E27 TSB20E37 SLP121 OCNL LTG DSNT E P0001 60001 T01780161 50009",
      "metarObsTime": 1776394260
    },
    "KAGC": {
      "status": "OK",
      "delay": "—",
      "metarCat": "VFR",
      "metarRaw": "SPECI KAGC 170300Z 22005KT 10SM FEW045 FEW055 18/16 A2989 RMK AO2 T01780156",
      "metarObsTime": 1776394800
    },
    "KLBE": {
      "status": "OK",
      "delay": "—",
      "metarCat": "VFR",
      "metarRaw": "METAR KLBE 170315Z AUTO 21005KT 10SM CLR 17/17 A2991 RMK AO2",
      "metarObsTime": 1776395700
    },
    "KJST": {
      "status": "OK",
      "delay": "—",
      "metarCat": "VFR",
      "metarRaw": "SPECI KJST 170317Z AUTO 00000KT 9SM -RA SCT004 BKN049 OVC065 16/15 A2992 RMK AO2 P0000 T01560150",
      "metarObsTime": 1776395820
    },
    "KERI": {
      "status": "OK",
      "delay": "—",
      "metarCat": "VFR",
      "metarRaw": "METAR KERI 170251Z 20003KT 10SM CLR 15/13 A2986 RMK AO2 SLP108 T01500133 53011 $",
      "metarObsTime": 1776394260
    },
    "KDUJ": {
      "status": "OK",
      "delay": "—",
      "metarCat": "VFR",
      "metarRaw": "SPECI KDUJ 170324Z AUTO 00000KT 10SM FEW002 14/14 A2989 RMK AO2 T01390139",
      "metarObsTime": 1776396240
    },
    "KBFD": {
      "status": "OK",
      "delay": "—",
      "metarCat": "IFR",
      "metarRaw": "SPECI KBFD 170326Z AUTO 00000KT 1 1/2SM BR FEW023 11/11 A2989 RMK AO2 T01110111",
      "metarObsTime": 1776396360
    },
    "KBTP": {
      "status": "OK",
      "delay": "—",
      "metarCat": "MVFR",
      "metarRaw": "METAR KBTP 170256Z AUTO 15005KT 5SM HZ CLR 16/ A2990 RMK AO2 SLP123 6//// T0156 50006 PNO $",
      "metarObsTime": 1776394560
    },
    "KFKL": {
      "status": "OK",
      "delay": "—",
      "metarCat": "—",
      "metarRaw": "—",
      "metarObsTime": null
    },
    "KIDI": {
      "status": "OK",
      "delay": "—",
      "metarCat": "MVFR",
      "metarRaw": "METAR KIDI 170315Z AUTO 00000KT 4SM BR SCT039 BKN049 OVC085 16/15 A2990 RMK A01",
      "metarObsTime": 1776395700
    },
    "KMDT": {
      "status": "OK",
      "delay": "—",
      "metarCat": "VFR",
      "metarRaw": "METAR KMDT 170256Z 31025G36KT 10SM BKN110 25/12 A2980 RMK AO2 PK WND 30036/0254 PRESRR SLP091 VCSH SW-NE T02500122 53030",
      "metarObsTime": 1776394560
    },
    "KCXY": {
      "status": "OK",
      "delay": "—",
      "metarCat": "VFR",
      "metarRaw": "METAR KCXY 170256Z AUTO 30020G31KT 10SM -RA OVC110 25/13 A2982 RMK AO2 PK WND 29031/0255 RAB55 SLP096 P0000 60000 T02500128 53035 $",
      "metarObsTime": 1776394560
    },
    "KMUI": {
      "status": "OK",
      "delay": "—",
      "metarCat": "VFR",
      "metarRaw": "METAR KMUI 170255Z AUTO 29014G24KT 10SM OVC100 26/12 A2979 RMK AO2 PK WND 29030/29 LTG DSNT E SLP086 60000 T02590120 53028",
      "metarObsTime": 1776394500
    },
    "KUNV": {
      "status": "OK",
      "delay": "—",
      "metarCat": "VFR",
      "metarRaw": "METAR KUNV 170315Z AUTO 21004KT 10SM BKN070 OVC095 17/17 A2990 RMK AO2 T01670167",
      "metarObsTime": 1776395700
    },
    "KAOO": {
      "status": "OK",
      "delay": "—",
      "metarCat": "MVFR",
      "metarRaw": "SPECI KAOO 170314Z AUTO 00000KT 10SM -RA FEW009 BKN030 OVC048 16/15 A2991 RMK AO2 RAB0258 P0003 T01610150",
      "metarObsTime": 1776395640
    },
    "KLNS": {
      "status": "OK",
      "delay": "—",
      "metarCat": "VFR",
      "metarRaw": "METAR KLNS 170253Z 30004KT 10SM BKN100 24/15 A2976 RMK AO2 LTG DSNT NE RAB29E38 SLP074 P0000 60000 T02390150 53008 $",
      "metarObsTime": 1776394380
    },
    "KIPT": {
      "status": "OK",
      "delay": "—",
      "metarCat": "VFR",
      "metarRaw": "METAR KIPT 170254Z AUTO 28013G20KT 10SM FEW070 BKN100 21/15 A2982 RMK AO2 RAE07 SLP095 P0000 60000 T02060150 51037 $",
      "metarObsTime": 1776394440
    },
    "KPHL": {
      "status": "OK",
      "delay": "—",
      "metarCat": "VFR",
      "metarRaw": "METAR KPHL 170254Z 21008KT 10SM FEW220 SCT280 26/14 A2974 RMK AO2 SLP069 T02610139 58000 $",
      "metarObsTime": 1776394440
    },
    "KABE": {
      "status": "OK",
      "delay": "—",
      "metarCat": "MVFR",
      "metarRaw": "SPECI KABE 170317Z 23011G16KT 4SM +RA BKN046 BKN070 OVC085 21/17 A2977 RMK AO2 LTG DSNT NE AND SW TSE14 P0006 T02060167",
      "metarObsTime": 1776395820
    },
    "KAVP": {
      "status": "OK",
      "delay": "—",
      "metarCat": "VFR",
      "metarRaw": "METAR KAVP 170254Z AUTO 36006KT 10SM FEW038 SCT090 21/14 A2983 RMK AO2 WSHFT 0143 SLP092 60000 T02060144 53033",
      "metarObsTime": 1776394440
    },
    "KHZL": {
      "status": "OK",
      "delay": "—",
      "metarCat": "VFR",
      "metarRaw": "METAR KHZL 170315Z AUTO 31007KT 280V340 10SM OVC110 21/11 A2989 RMK AO2 LTG DSNT E",
      "metarObsTime": 1776395700
    }
  }
}