{
  "generatedAt": "2026-04-28T13:31:09.825Z",
  "faaFlow": {
    "updatedAt": "2026-04-28T13:31:09.260Z",
    "source": "https://www.fly.faa.gov/adv/adv_spt",
    "terminal": [
      {
        "time": "—",
        "text": "UNTIL",
        "code": "FLOW",
        "label": "FAA flow impact",
        "level": "yellow",
        "section": "Terminal Planned",
        "airports": []
      },
      {
        "time": "1500",
        "text": "ATL GROUND STOP POSSIBLE",
        "code": "GS",
        "label": "Ground stop possible",
        "level": "yellow",
        "section": "Terminal Planned",
        "airports": []
      },
      {
        "time": "—",
        "text": "AFTER",
        "code": "FLOW",
        "label": "FAA flow impact",
        "level": "yellow",
        "section": "Terminal Planned",
        "airports": []
      },
      {
        "time": "1500",
        "text": "SFO GROUND STOP/DELAY PROGRAM POSSIBLE",
        "code": "GS",
        "label": "Ground stop possible",
        "level": "yellow",
        "section": "Terminal Planned",
        "airports": []
      },
      {
        "time": "—",
        "text": "AFTER",
        "code": "FLOW",
        "label": "FAA flow impact",
        "level": "yellow",
        "section": "Terminal Planned",
        "airports": []
      },
      {
        "time": "2000",
        "text": "BNA GROUND STOP POSSIBLE",
        "code": "GS",
        "label": "Ground stop possible",
        "level": "yellow",
        "section": "Terminal Planned",
        "airports": []
      },
      {
        "time": "—",
        "text": "AFTER",
        "code": "FLOW",
        "label": "FAA flow impact",
        "level": "yellow",
        "section": "Terminal Planned",
        "airports": []
      },
      {
        "time": "2200",
        "text": "JFK GROUND DELAY PROGRAM POSSIBLE",
        "code": "GDP",
        "label": "Ground delay possible",
        "level": "yellow",
        "section": "Terminal Planned",
        "airports": []
      },
      {
        "time": "—",
        "text": "AFTER",
        "code": "FLOW",
        "label": "FAA flow impact",
        "level": "yellow",
        "section": "Terminal Planned",
        "airports": []
      },
      {
        "time": "0200",
        "text": "MEM GROUND STOP/DELAY PROGRAM POSSIBLE",
        "code": "GS",
        "label": "Ground stop possible",
        "level": "yellow",
        "section": "Terminal Planned",
        "airports": []
      }
    ],
    "enroute": [],
    "airports": {
      "KPIT": null,
      "KAGC": null,
      "KLBE": null,
      "KJST": null,
      "KERI": null,
      "KDUJ": null,
      "KBFD": null,
      "KBTP": null,
      "KFKL": null,
      "KIDI": null,
      "KMDT": null,
      "KCXY": null,
      "KMUI": null,
      "KUNV": null,
      "KAOO": null,
      "KLNS": null,
      "KIPT": null,
      "KPHL": null,
      "KABE": null,
      "KAVP": null,
      "KHZL": null
    }
  },
  "airports": {
    "KPIT": {
      "status": "OK",
      "delay": "—",
      "metarCat": "MVFR",
      "metarRaw": "SPECI KPIT 281310Z 13009KT 10SM FEW009 OVC029 12/10 A2993 RMK AO2 T01170100",
      "metarObsTime": 1777381800,
      "faaFlow": null
    },
    "KAGC": {
      "status": "OK",
      "delay": "—",
      "metarCat": "VFR",
      "metarRaw": "METAR KAGC 281253Z 16010KT 10SM BKN036 OVC055 11/09 A2994 RMK AO2 SLP141 T01110094",
      "metarObsTime": 1777380780,
      "faaFlow": null
    },
    "KLBE": {
      "status": "OK",
      "delay": "—",
      "metarCat": "VFR",
      "metarRaw": "METAR KLBE 281255Z 20006KT 10SM FEW046 SCT055 BKN100 12/09 A2997",
      "metarObsTime": 1777380900,
      "faaFlow": null
    },
    "KJST": {
      "status": "OK",
      "delay": "—",
      "metarCat": "MVFR",
      "metarRaw": "SPECI KJST 281317Z AUTO 16010G19KT 10SM SCT009 BKN013 OVC039 08/07 A3000 RMK AO2 RAE03 P0000 T00780067",
      "metarObsTime": 1777382220,
      "faaFlow": null
    },
    "KERI": {
      "status": "OK",
      "delay": "—",
      "metarCat": "VFR",
      "metarRaw": "METAR KERI 281251Z 16020G32KT 10SM SCT029 BKN060 OVC080 14/08 A2984 RMK AO2 PK WND 15038/1207 RAB30E40 SLP104 P0000 T01440078",
      "metarObsTime": 1777380660,
      "faaFlow": null
    },
    "KDUJ": {
      "status": "OK",
      "delay": "—",
      "metarCat": "MVFR",
      "metarRaw": "SPECI KDUJ 281323Z AUTO 16006G16KT 10SM -RA BKN022 OVC035 09/07 A2999 RMK AO2 RAE1257B16 P0000 T00940067",
      "metarObsTime": 1777382580,
      "faaFlow": null
    },
    "KBFD": {
      "status": "OK",
      "delay": "—",
      "metarCat": "—",
      "metarRaw": "METAR KBFD 281253Z AUTO A2996 RMK AO2 SLPNO PWINO FZRANO $",
      "metarObsTime": 1777380780,
      "faaFlow": null
    },
    "KBTP": {
      "status": "OK",
      "delay": "—",
      "metarCat": "MVFR",
      "metarRaw": "SPECI KBTP 281325Z AUTO 16006KT 10SM BKN012 BKN018 OVC030 12/11 A2996 RMK AO2 $",
      "metarObsTime": 1777382700,
      "faaFlow": null
    },
    "KFKL": {
      "status": "OK",
      "delay": "—",
      "metarCat": "—",
      "metarRaw": "—",
      "metarObsTime": null,
      "faaFlow": null
    },
    "KIDI": {
      "status": "OK",
      "delay": "—",
      "metarCat": "VFR",
      "metarRaw": "METAR KIDI 281315Z AUTO 15008G14KT 10SM FEW032 OVC044 10/08 A2998 RMK A01",
      "metarObsTime": 1777382100,
      "faaFlow": null
    },
    "KMDT": {
      "status": "OK",
      "delay": "—",
      "metarCat": "VFR",
      "metarRaw": "METAR KMDT 281256Z 14008KT 10SM BKN120 OVC250 11/07 A3013 RMK AO2 SLP204 T01110067",
      "metarObsTime": 1777380960,
      "faaFlow": null
    },
    "KCXY": {
      "status": "OK",
      "delay": "—",
      "metarCat": "VFR",
      "metarRaw": "METAR KCXY 281256Z 11004KT 10SM FEW090 BKN110 11/06 A3013 RMK AO2 SLP204 T01060061",
      "metarObsTime": 1777380960,
      "faaFlow": null
    },
    "KMUI": {
      "status": "OK",
      "delay": "—",
      "metarCat": "VFR",
      "metarRaw": "METAR KMUI 281255Z 04003KT 10SM BKN130 OVC180 12/10 A3013 RMK AO2A SLP206 T01230100",
      "metarObsTime": 1777380900,
      "faaFlow": null
    },
    "KUNV": {
      "status": "OK",
      "delay": "—",
      "metarCat": "VFR",
      "metarRaw": "METAR KUNV 281253Z 20010G15KT 150V220 10SM OVC090 13/03 A3006",
      "metarObsTime": 1777380780,
      "faaFlow": null
    },
    "KAOO": {
      "status": "OK",
      "delay": "—",
      "metarCat": "VFR",
      "metarRaw": "METAR KAOO 281253Z AUTO 17014G20KT 8SM -RA SCT035 BKN050 OVC075 09/05 A3007 RMK AO2 SLP182 P0001 T00940050",
      "metarObsTime": 1777380780,
      "faaFlow": null
    },
    "KLNS": {
      "status": "OK",
      "delay": "—",
      "metarCat": "VFR",
      "metarRaw": "METAR KLNS 281253Z 11003KT 10SM CLR 10/07 A3016 RMK AO2 SLP212 T01000067",
      "metarObsTime": 1777380780,
      "faaFlow": null
    },
    "KIPT": {
      "status": "OK",
      "delay": "—",
      "metarCat": "VFR",
      "metarRaw": "METAR KIPT 281254Z 11009G22KT 10SM CLR 12/05 A3009 RMK AO2 SLP189 T01170050 $",
      "metarObsTime": 1777380840,
      "faaFlow": null
    },
    "KPHL": {
      "status": "OK",
      "delay": "—",
      "metarCat": "VFR",
      "metarRaw": "METAR KPHL 281254Z 23008KT 10SM SCT160 BKN220 BKN330 14/04 A3019 RMK AO2 SLP223 T01390044 $",
      "metarObsTime": 1777380840,
      "faaFlow": null
    },
    "KABE": {
      "status": "OK",
      "delay": "—",
      "metarCat": "VFR",
      "metarRaw": "METAR KABE 281251Z 00000KT 10SM CLR 12/03 A3017 RMK AO2 SLP216 T01170028",
      "metarObsTime": 1777380660,
      "faaFlow": null
    },
    "KAVP": {
      "status": "OK",
      "delay": "—",
      "metarCat": "VFR",
      "metarRaw": "METAR KAVP 281254Z 26004KT 10SM CLR 13/01 A3013 RMK AO2 SLP201 T01330011",
      "metarObsTime": 1777380840,
      "faaFlow": null
    },
    "KHZL": {
      "status": "OK",
      "delay": "—",
      "metarCat": "VFR",
      "metarRaw": "METAR KHZL 281315Z AUTO 17007KT 10SM CLR 11/02 A3017 RMK AO2",
      "metarObsTime": 1777382100,
      "faaFlow": null
    }
  }
}