{
  "generatedAt": "2026-04-06T12:50:41.380Z",
  "airports": {
    "KPIT": {
      "status": "OK",
      "delay": "—",
      "metarCat": "VFR",
      "metarRaw": "METAR KPIT 061151Z 24005KT 10SM SCT110 02/M03 A3013 RMK AO2 SLP219 T00221028 10050 20011 53003",
      "metarObsTime": 1775476260
    },
    "KAGC": {
      "status": "OK",
      "delay": "—",
      "metarCat": "VFR",
      "metarRaw": "METAR KAGC 061153Z 25007KT 10SM CLR 02/M03 A3013 RMK AO2 SLP216 T00221028 10044 20017 53004",
      "metarObsTime": 1775476380
    },
    "KLBE": {
      "status": "OK",
      "delay": "—",
      "metarCat": "VFR",
      "metarRaw": "METAR KLBE 061250Z 23009G18KT 10SM CLR 05/M01 A3016",
      "metarObsTime": 1775479800
    },
    "KJST": {
      "status": "OK",
      "delay": "—",
      "metarCat": "VFR",
      "metarRaw": "METAR KJST 061154Z AUTO 28013KT 10SM CLR 01/M04 A3006 RMK AO2 SLP197 70004 T00061044 10017 20000 53006",
      "metarObsTime": 1775476440
    },
    "KERI": {
      "status": "OK",
      "delay": "—",
      "metarCat": "MVFR",
      "metarRaw": "SPECI KERI 061243Z 25003KT 9SM -RA BKN014 BKN028 OVC033 03/00 A3012 RMK AO2 UPB18E21RAB21 P0000 T00280000",
      "metarObsTime": 1775479380
    },
    "KDUJ": {
      "status": "OK",
      "delay": "—",
      "metarCat": "VFR",
      "metarRaw": "METAR KDUJ 061153Z AUTO 25007KT 10SM FEW120 00/M04 A3006 RMK AO2 SLP194 T00001039 10017 21011 53001",
      "metarObsTime": 1775476380
    },
    "KBFD": {
      "status": "OK",
      "delay": "—",
      "metarCat": "VFR",
      "metarRaw": "METAR KBFD 061153Z AUTO 26005KT 10SM CLR M01/M04 A3005 RMK AO2 SLP192 70003 T10111039 11011 21022 53005",
      "metarObsTime": 1775476380
    },
    "KBTP": {
      "status": "OK",
      "delay": "—",
      "metarCat": "VFR",
      "metarRaw": "METAR KBTP 061156Z AUTO 00000KT 10SM BKN110 02/M03 A3014 RMK AO2 SLP220 T00171033 10039 20006 53004 FZRANO $",
      "metarObsTime": 1775476560
    },
    "KFKL": {
      "status": "OK",
      "delay": "—",
      "metarCat": "VFR",
      "metarRaw": "METAR KFKL 061156Z AUTO 23006KT 10SM BKN060 01/M03 A3010 RMK AO2 SLP208 70001 T00061033 10017 20000 53005 FZRANO",
      "metarObsTime": 1775476560
    },
    "KIDI": {
      "status": "OK",
      "delay": "—",
      "metarCat": "VFR",
      "metarRaw": "METAR KIDI 061235Z AUTO 26009KT 10SM BKN120 04/M03 A3012 RMK A01",
      "metarObsTime": 1775478900
    },
    "KMDT": {
      "status": "OK",
      "delay": "—",
      "metarCat": "VFR",
      "metarRaw": "METAR KMDT 061156Z 35005KT 10SM FEW050 06/M04 A3010 RMK AO2 SLP194 70047 T00611044 10078 20050 53017",
      "metarObsTime": 1775476560
    },
    "KCXY": {
      "status": "OK",
      "delay": "—",
      "metarCat": "VFR",
      "metarRaw": "METAR KCXY 061156Z 31010KT 10SM CLR 06/M04 A3010 RMK AO2 SLP197 60000 70057 T00611044 10078 20050 53017",
      "metarObsTime": 1775476560
    },
    "KMUI": {
      "status": "OK",
      "delay": "—",
      "metarCat": "VFR",
      "metarRaw": "METAR KMUI 061155Z 29011G20KT 10SM FEW050 06/M05 A3007 RMK AO2A SLP187 70034 T00591054 10078 20054 52020",
      "metarObsTime": 1775476500
    },
    "KUNV": {
      "status": "OK",
      "delay": "—",
      "metarCat": "VFR",
      "metarRaw": "METAR KUNV 061153Z 31008KT 10SM FEW045 03/M05 A3007",
      "metarObsTime": 1775476380
    },
    "KAOO": {
      "status": "OK",
      "delay": "—",
      "metarCat": "VFR",
      "metarRaw": "METAR KAOO 061153Z AUTO 32006KT 10SM CLR 03/M06 A3008 RMK AO2 SLP197 70008 T00281056 10039 20017 53005",
      "metarObsTime": 1775476380
    },
    "KLNS": {
      "status": "OK",
      "delay": "—",
      "metarCat": "VFR",
      "metarRaw": "METAR KLNS 061153Z 31008KT 10SM CLR 06/M04 A3009 RMK AO2 SLP192 70039 T00561039 10083 20033 53019",
      "metarObsTime": 1775476380
    },
    "KIPT": {
      "status": "OK",
      "delay": "—",
      "metarCat": "VFR",
      "metarRaw": "METAR KIPT 061154Z 29010KT 10SM CLR 04/M06 A3008 RMK AO2 SLP187 70019 T00391056 10050 20028 53012",
      "metarObsTime": 1775476440
    },
    "KPHL": {
      "status": "OK",
      "delay": "—",
      "metarCat": "VFR",
      "metarRaw": "METAR KPHL 061154Z 30012G17KT 10SM FEW055 FEW200 07/M04 A3009 RMK AO2 SLP188 70041 T00721039 10106 20061 53018 $",
      "metarObsTime": 1775476440
    },
    "KABE": {
      "status": "OK",
      "delay": "—",
      "metarCat": "VFR",
      "metarRaw": "METAR KABE 061151Z 28007KT 10SM CLR 05/M04 A3007 RMK AO2 SLP183 70041 T00501044 10078 20033 53020 $",
      "metarObsTime": 1775476260
    },
    "KAVP": {
      "status": "OK",
      "delay": "—",
      "metarCat": "VFR",
      "metarRaw": "SPECI KAVP 061244Z 32007KT 10SM OVC040 03/M06 A3006 RMK AO2 T00281056",
      "metarObsTime": 1775479440
    },
    "KHZL": {
      "status": "OK",
      "delay": "—",
      "metarCat": "VFR",
      "metarRaw": "METAR KHZL 061235Z AUTO 32004KT 10SM BKN034 03/M05 A3006 RMK AO2",
      "metarObsTime": 1775478900
    }
  }
}