{
  "generatedAt": "2026-03-23T07:20:19.090Z",
  "airports": {
    "KPIT": {
      "status": "OK",
      "delay": "—",
      "metarCat": "LIFR",
      "metarRaw": "SPECI KPIT 230709Z 32012KT 1SM R28R/P6000FT BR BKN002 OVC040 09/08 A2976 RMK AO2 SFC VIS 6 T00890083",
      "metarObsTime": 1774249740
    },
    "KAGC": {
      "status": "OK",
      "delay": "—",
      "metarCat": "LIFR",
      "metarRaw": "SPECI KAGC 230711Z 27005KT 4SM BR BKN004 OVC045 11/11 A2973 RMK AO2 RAE0656 P0000 T01110106",
      "metarObsTime": 1774249860
    },
    "KLBE": {
      "status": "OK",
      "delay": "—",
      "metarCat": "VFR",
      "metarRaw": "METAR KLBE 230715Z AUTO 20007KT 6SM -RA BR FEW008 SCT036 BKN050 12/12 A2973 RMK AO2",
      "metarObsTime": 1774250100
    },
    "KJST": {
      "status": "OK",
      "delay": "—",
      "metarCat": "MVFR",
      "metarRaw": "SPECI KJST 230711Z AUTO 20008KT 3SM RA BR BKN030 OVC070 09/09 A2970 RMK AO2 P0007 T00940094",
      "metarObsTime": 1774249860
    },
    "KERI": {
      "status": "OK",
      "delay": "—",
      "metarCat": "IFR",
      "metarRaw": "METAR KERI 230651Z AUTO 04014G23KT 8SM OVC005 01/00 A2985 RMK AO2 SLP112 T00110000",
      "metarObsTime": 1774248660
    },
    "KDUJ": {
      "status": "OK",
      "delay": "—",
      "metarCat": "LIFR",
      "metarRaw": "SPECI KDUJ 230711Z AUTO 33007KT 2 1/2SM BR OVC002 07/07 A2971 RMK AO2 T00720072",
      "metarObsTime": 1774249860
    },
    "KBFD": {
      "status": "OK",
      "delay": "—",
      "metarCat": "LIFR",
      "metarRaw": "METAR KBFD 230653Z AUTO 03008KT 3SM BR OVC002 01/01 A2975 RMK AO2 RAE26 SLP079 P0000 T00060006 $",
      "metarObsTime": 1774248780
    },
    "KBTP": {
      "status": "OK",
      "delay": "—",
      "metarCat": "LIFR",
      "metarRaw": "SPECI KBTP 230716Z AUTO 31010KT 3SM BR OVC003 08/ A2977 RMK AO2 $",
      "metarObsTime": 1774250160
    },
    "KFKL": {
      "status": "OK",
      "delay": "—",
      "metarCat": "LIFR",
      "metarRaw": "METAR KFKL 230656Z AUTO 35006KT 4SM BR OVC002 03/03 A2976 RMK AO2 SLP082 T00330033",
      "metarObsTime": 1774248960
    },
    "KIDI": {
      "status": "OK",
      "delay": "—",
      "metarCat": "LIFR",
      "metarRaw": "METAR KIDI 230715Z AUTO 20005KT 9SM OVC004 11/11 A2971 RMK A01",
      "metarObsTime": 1774250100
    },
    "KMDT": {
      "status": "OK",
      "delay": "—",
      "metarCat": "VFR",
      "metarRaw": "SPECI KMDT 230706Z 36004KT 6SM -TSRA BR FEW012CB BKN048 OVC060 13/12 A2972 RMK AO2 OCNL LTGIC NE TS NE MOV E P0002 T01280117 $",
      "metarObsTime": 1774249560
    },
    "KCXY": {
      "status": "OK",
      "delay": "—",
      "metarCat": "VFR",
      "metarRaw": "SPECI KCXY 230706Z AUTO 31004KT 8SM -RA FEW009 SCT055 OVC070 12/11 A2972 RMK AO2 TSE00 P0000 T01220111",
      "metarObsTime": 1774249560
    },
    "KMUI": {
      "status": "OK",
      "delay": "—",
      "metarCat": "VFR",
      "metarRaw": "SPECI KMUI 230704Z AUTO 01003KT 10SM -RA FEW004 SCT008 SCT055 BKN065 11/11 A2971 RMK AO2 RAE0655RAB0656 SLP063",
      "metarObsTime": 1774249440
    },
    "KUNV": {
      "status": "OK",
      "delay": "—",
      "metarCat": "LIFR",
      "metarRaw": "METAR KUNV 230715Z AUTO 03008KT 7SM RA OVC003 07/07 A2972 RMK AO2 P0003 T00700070",
      "metarObsTime": 1774250100
    },
    "KAOO": {
      "status": "OK",
      "delay": "—",
      "metarCat": "MVFR",
      "metarRaw": "METAR KAOO 230653Z AUTO 22004KT 5SM -RA BR OVC080 11/11 A2972 RMK AO2 SLP056 P0005 T01110106",
      "metarObsTime": 1774248780
    },
    "KLNS": {
      "status": "OK",
      "delay": "—",
      "metarCat": "MVFR",
      "metarRaw": "METAR KLNS 230653Z AUTO 05009KT 10SM OVC013 14/12 A2968 RMK AO2 LTG DSNT W AND NW SLP049 T01390122",
      "metarObsTime": 1774248780
    },
    "KIPT": {
      "status": "OK",
      "delay": "—",
      "metarCat": "MVFR",
      "metarRaw": "METAR KIPT 230654Z AUTO 28004KT 10SM OVC017 05/03 A2977 RMK AO2 RAE51 SLP083 P0005 T00500033 $",
      "metarObsTime": 1774248840
    },
    "KPHL": {
      "status": "OK",
      "delay": "—",
      "metarCat": "VFR",
      "metarRaw": "METAR KPHL 230654Z 03009KT 6SM HZ SCT120 OVC150 14/10 A2969 RMK AO2 SLP052 T01390100 $",
      "metarObsTime": 1774248840
    },
    "KABE": {
      "status": "OK",
      "delay": "—",
      "metarCat": "VFR",
      "metarRaw": "SPECI KABE 230703Z 07007KT 10SM SCT009 OVC060 11/09 A2971 RMK AO2 T01060089 $",
      "metarObsTime": 1774249380
    },
    "KAVP": {
      "status": "OK",
      "delay": "—",
      "metarCat": "IFR",
      "metarRaw": "SPECI KAVP 230707Z 33009KT 7SM -RA BKN005 OVC010 04/04 A2974 RMK AO2 P0002 T00440039",
      "metarObsTime": 1774249620
    },
    "KHZL": {
      "status": "OK",
      "delay": "—",
      "metarCat": "MVFR",
      "metarRaw": "METAR KHZL 230715Z AUTO 33004KT 4SM RA SCT003 BKN046 OVC075 06/05 A2974 RMK AO2 P0003",
      "metarObsTime": 1774250100
    }
  }
}