{
  "generatedAt": "2026-03-27T03:10:25.583Z",
  "airports": {
    "KPIT": {
      "status": "OK",
      "delay": "—",
      "metarCat": "MVFR",
      "metarRaw": "SPECI KPIT 270309Z 03009KT 4SM -RA BR FEW010 BKN038 OVC060 12/11 A2983 RMK AO2 TSE07 OCNL LTG DSNT E P0013 T01220111 ",
      "metarObsTime": 1774580940
    },
    "KAGC": {
      "status": "OK",
      "delay": "—",
      "metarCat": "LIFR",
      "metarRaw": "SPECI KAGC 270301Z 35016G36KT 3/4SM R28/2800V5500FT VCTS +RA BR SCT005 BKN011 OVC016 13/12 A2980 RMK AO2 PK WND 33036/0257 LTG DSNT SE P0018 T01280122",
      "metarObsTime": 1774580460
    },
    "KLBE": {
      "status": "OK",
      "delay": "—",
      "metarCat": "MVFR",
      "metarRaw": "METAR KLBE 270255Z AUTO 33008G13KT 3SM TSRA BR SCT007 BKN031 OVC075 17/17 A2978 RMK AO2 LTG DSNT E-S P0053",
      "metarObsTime": 1774580100
    },
    "KJST": {
      "status": "OK",
      "delay": "—",
      "metarCat": "IFR",
      "metarRaw": "SPECI KJST 270307Z AUTO 29010KT 2 1/2SM +RA BR BKN006 BKN022 OVC042 15/15 A2977 RMK AO2 LTG DSNT S AND SW P0009 T01500150",
      "metarObsTime": 1774580820
    },
    "KERI": {
      "status": "OK",
      "delay": "—",
      "metarCat": "MVFR",
      "metarRaw": "METAR KERI 270251Z 00000KT 3SM -RA BR FEW028 SCT065 OVC100 08/08 A2982 RMK AO2 SLP099 P0004 60024 T00830078 51014",
      "metarObsTime": 1774579860
    },
    "KDUJ": {
      "status": "OK",
      "delay": "—",
      "metarCat": "VFR",
      "metarRaw": "METAR KDUJ 270253Z AUTO 36009KT 10SM -RA FEW009 BKN075 OVC090 11/09 A2978 RMK AO2 PK WND 34028/0222 RAB14 SLP081 P0009 60039 T01060094 53049",
      "metarObsTime": 1774579980
    },
    "KBFD": {
      "status": "OK",
      "delay": "—",
      "metarCat": "VFR",
      "metarRaw": "METAR KBFD 270253Z AUTO 00000KT 9SM -RA OVC080 08/08 A2977 RMK AO2 RAB0154 SLP077 P0009 60035 T00830083 58001",
      "metarObsTime": 1774579980
    },
    "KBTP": {
      "status": "OK",
      "delay": "—",
      "metarCat": "VFR",
      "metarRaw": "METAR KBTP 270256Z AUTO 02009KT 6SM RA SCT012 BKN046 OVC070 11/ A2983 RMK AO2 TSE0157B18E33 SLP104 P0003 60015 T0111 53034 $",
      "metarObsTime": 1774580160
    },
    "KFKL": {
      "status": "OK",
      "delay": "—",
      "metarCat": "VFR",
      "metarRaw": "METAR KFKL 270256Z AUTO 32003KT 10SM -RA OVC060 09/09 A2984 RMK AO2 PRESRR SLP104 P0012 60033 T00940089 51028",
      "metarObsTime": 1774580160
    },
    "KIDI": {
      "status": "OK",
      "delay": "—",
      "metarCat": "MVFR",
      "metarRaw": "METAR KIDI 270255Z AUTO 34010G22KT 3SM BR SCT012 BKN026 OVC047 14/13 A2982 RMK A01 P0011",
      "metarObsTime": 1774580100
    },
    "KMDT": {
      "status": "OK",
      "delay": "—",
      "metarCat": "VFR",
      "metarRaw": "METAR KMDT 270256Z 22010G23KT 10SM -RA FEW080 OVC100 22/12 A2965 RMK AO2 RAB31 SLP040 P0000 60000 T02170117 55002",
      "metarObsTime": 1774580160
    },
    "KCXY": {
      "status": "OK",
      "delay": "—",
      "metarCat": "VFR",
      "metarRaw": "METAR KCXY 270256Z AUTO 24007KT 10SM -RA SCT075 BKN095 OVC110 21/13 A2966 RMK AO2 RAB26 SLP045 P0001 60001 T02110128 55000",
      "metarObsTime": 1774580160
    },
    "KMUI": {
      "status": "OK",
      "delay": "—",
      "metarCat": "MVFR",
      "metarRaw": "METAR KMUI 270255Z AUTO 25007KT 5SM RA FEW005 BKN065 OVC080 20/16 A2965 RMK AO2 LTG DSNT E RAE0155RAB10 PRESRR SLP042 P0003 60003 T02030159 50008",
      "metarObsTime": 1774580100
    },
    "KUNV": {
      "status": "OK",
      "delay": "—",
      "metarCat": "MVFR",
      "metarRaw": "METAR KUNV 270255Z AUTO 34005KT 10SM -VCTSDZ BKN017 OVC047 17/17 A2969 RMK AO2 LTG DSNT S AND SW P0011 60020 T01690169",
      "metarObsTime": 1774580100
    },
    "KAOO": {
      "status": "OK",
      "delay": "—",
      "metarCat": "MVFR",
      "metarRaw": "METAR KAOO 270253Z AUTO 4SM VCTS -RA BR FEW038 BKN046 OVC095 17/15 A2974 RMK AO2 PK WND 33034/0227 WSHFT 0219 LTG DSNT ALQDS RAB13 TSB37E52 SLP066 P0021 60021 T01670150 53018",
      "metarObsTime": 1774579980
    },
    "KLNS": {
      "status": "OK",
      "delay": "—",
      "metarCat": "VFR",
      "metarRaw": "METAR KLNS 270253Z 23011G20KT 10SM SCT080 OVC100 22/11 A2965 RMK AO2 SLP040 T02170111 55004",
      "metarObsTime": 1774579980
    },
    "KIPT": {
      "status": "OK",
      "delay": "—",
      "metarCat": "VFR",
      "metarRaw": "METAR KIPT 270254Z AUTO VRB04KT 9SM -RA FEW015 OVC036 12/11 A2972 RMK AO2 PK WND 35027/0217 SLP063 P0025 60053 T01220106 53044 $",
      "metarObsTime": 1774580040
    },
    "KPHL": {
      "status": "OK",
      "delay": "—",
      "metarCat": "VFR",
      "metarRaw": "METAR KPHL 270254Z 21018G25KT 10SM BKN210 OVC230 22/12 A2968 RMK AO2 PK WND 20031/0231 SLP048 T02170117 56014",
      "metarObsTime": 1774580040
    },
    "KABE": {
      "status": "OK",
      "delay": "—",
      "metarCat": "VFR",
      "metarRaw": "METAR KABE 270251Z 33013G17KT 10SM -RA SCT070 OVC095 16/14 A2969 RMK AO2 PRESRR SLP052 P0005 60006 T01610139 53012 $",
      "metarObsTime": 1774579860
    },
    "KAVP": {
      "status": "OK",
      "delay": "—",
      "metarCat": "IFR",
      "metarRaw": "SPECI KAVP 270256Z 33010G25KT 2 1/2SM R04/5500VP6000FT RA BR FEW008 BKN015 OVC075 13/12 A2969 RMK AO2 WSHFT 0241 P0001 T01330122",
      "metarObsTime": 1774580160
    },
    "KHZL": {
      "status": "OK",
      "delay": "—",
      "metarCat": "MVFR",
      "metarRaw": "METAR KHZL 270255Z AUTO 00000KT 3SM +RA SCT004 BKN042 OVC050 15/13 A2972 RMK AO2 LTG DSNT SW P0030",
      "metarObsTime": 1774580100
    }
  }
}