{
  "generatedAt": "2026-03-11T18:20:12.345Z",
  "airports": {
    "KPIT": {
      "status": "OK",
      "delay": "—",
      "metarCat": "VFR",
      "metarRaw": "SPECI KPIT 111812Z 24009G21KT 10SM SCT022 BKN033 OVC110 18/16 A2970 RMK AO2 WSHFT 1741 RAE12 TSE12 P0026 T01830161 $",
      "metarObsTime": 1773252720
    },
    "KAGC": {
      "status": "OK",
      "delay": "—",
      "metarCat": "VFR",
      "metarRaw": "METAR KAGC 111753Z 24015G23KT 10SM BKN040 BKN095 22/17 A2972 RMK AO2 LTG DSNT NW SLP061 60020 T02170167 10217 20161 58015",
      "metarObsTime": 1773251580
    },
    "KLBE": {
      "status": "OK",
      "delay": "—",
      "metarCat": "VFR",
      "metarRaw": "METAR KLBE 111747Z 22015G30KT 10SM BKN040 OVC060 23/16 A2975",
      "metarObsTime": 1773251220
    },
    "KJST": {
      "status": "OK",
      "delay": "—",
      "metarCat": "VFR",
      "metarRaw": "METAR KJST 111754Z AUTO 24019G38KT 10SM BKN040 OVC050 21/14 A2977 RMK AO2 PK WND 26038/1751 SLP072 60018 T02060139 10206 20139 58018",
      "metarObsTime": 1773251640
    },
    "KERI": {
      "status": "OK",
      "delay": "—",
      "metarCat": "VFR",
      "metarRaw": "METAR KERI 111751Z 19022G30KT 7SM -RA FEW041 BKN065 OVC110 19/16 A2951 RMK AO2 PK WND 18032/1725 SLP989 P0012 60081 T01890161 10189 20150 56046",
      "metarObsTime": 1773251460
    },
    "KDUJ": {
      "status": "OK",
      "delay": "—",
      "metarCat": "MVFR",
      "metarRaw": "SPECI KDUJ 111805Z AUTO 22017G28KT 10SM SCT016 BKN026 OVC080 18/16 A2970 RMK AO2 PK WND 23028/1805 T01780156",
      "metarObsTime": 1773252300
    },
    "KBFD": {
      "status": "OK",
      "delay": "—",
      "metarCat": "MVFR",
      "metarRaw": "METAR KBFD 111753Z AUTO 22009G25KT 170V260 10SM -RA BKN017 BKN028 OVC035 17/14 A2966 RMK AO2 PK WND 21031/1721 SLP037 P0003 60022 T01670144 10167 20150 56022",
      "metarObsTime": 1773251580
    },
    "KBTP": {
      "status": "OK",
      "delay": "—",
      "metarCat": "VFR",
      "metarRaw": "SPECI KBTP 111815Z AUTO 22011G18KT 10SM VCTS -RA FEW035 SCT070 OVC100 18/18 A2969 RMK AO2 LTG DSNT S TSB09 P0000 $",
      "metarObsTime": 1773252900
    },
    "KFKL": {
      "status": "OK",
      "delay": "—",
      "metarCat": "MVFR",
      "metarRaw": "METAR KFKL 111756Z AUTO 21015G27KT 10SM BKN018 BKN025 OVC029 A2965 RMK AO2 PK WND 23027/1750 RAE37 SLPNO P0002 60017 58013 FZRANO $",
      "metarObsTime": 1773251760
    },
    "KIDI": {
      "status": "OK",
      "delay": "—",
      "metarCat": "—",
      "metarRaw": "—",
      "metarObsTime": null
    },
    "KMDT": {
      "status": "OK",
      "delay": "—",
      "metarCat": "VFR",
      "metarRaw": "METAR KMDT 111756Z 14007KT 10SM SCT080 BKN095 BKN120 19/14 A2979 RMK AO2 SLP088 60004 T01940144 10194 20094 58027",
      "metarObsTime": 1773251760
    },
    "KCXY": {
      "status": "OK",
      "delay": "—",
      "metarCat": "VFR",
      "metarRaw": "METAR KCXY 111756Z 35003KT 7SM SCT085 BKN110 18/14 A2979 RMK AO2 RAE02 PRESFR SLP089 P0000 60006 T01780144 10178 20122 58031",
      "metarObsTime": 1773251760
    },
    "KMUI": {
      "status": "OK",
      "delay": "—",
      "metarCat": "VFR",
      "metarRaw": "METAR KMUI 111757Z 00000KT 10SM VCSH SCT075 BKN090 OVC140 18/15 A2979 RMK AO2A RAE08 SLP090 60007 T01780149 10192 20107 58023",
      "metarObsTime": 1773251820
    },
    "KUNV": {
      "status": "OK",
      "delay": "—",
      "metarCat": "VFR",
      "metarRaw": "METAR KUNV 111753Z 21011G16KT 10SM SCT041 SCT047 BKN055 18/17 A2975 RMK LTG DSNT NE AND W",
      "metarObsTime": 1773251580
    },
    "KAOO": {
      "status": "OK",
      "delay": "—",
      "metarCat": "VFR",
      "metarRaw": "METAR KAOO 111753Z AUTO 21016G24KT 10SM FEW047 22/17 A2976 RMK AO2 RAB08E18 SLP072 P0000 6//// T02220172 10222 20100 58032",
      "metarObsTime": 1773251580
    },
    "KLNS": {
      "status": "OK",
      "delay": "—",
      "metarCat": "VFR",
      "metarRaw": "METAR KLNS 111753Z 19007G15KT 10SM BKN110 22/14 A2982 RMK AO2 SLP095 60000 T02220144 10222 20128 58026",
      "metarObsTime": 1773251580
    },
    "KIPT": {
      "status": "OK",
      "delay": "—",
      "metarCat": "VFR",
      "metarRaw": "METAR KIPT 111754Z 15013G26KT 9SM FEW025 SCT050 BKN095 18/15 A2973 RMK AO2 PK WND 16029/1743 LTG DSNT NE AND E AND W RAE29 SLP066 P0001 60001 T01780150 10206 20072 56021 $",
      "metarObsTime": 1773251640
    },
    "KPHL": {
      "status": "OK",
      "delay": "—",
      "metarCat": "VFR",
      "metarRaw": "METAR KPHL 111754Z 20005KT 10SM FEW050 SCT090 BKN120 BKN210 22/17 A2985 RMK AO2 RAE33 SLP106 P0001 60001 T02220167 10228 20133 58025 $",
      "metarObsTime": 1773251640
    },
    "KABE": {
      "status": "OK",
      "delay": "—",
      "metarCat": "VFR",
      "metarRaw": "METAR KABE 111751Z 19011KT 10SM -RA BKN110 22/12 A2982 RMK AO2 RAB10E24B50 SLP096 P0000 60000 T02220122 10233 20100 57024 $",
      "metarObsTime": 1773251460
    },
    "KAVP": {
      "status": "OK",
      "delay": "—",
      "metarCat": "MVFR",
      "metarRaw": "SPECI KAVP 111810Z 20004KT 5SM -RA FEW034 BKN080 OVC100 18/15 A2977 RMK AO2 LTG DSNT W PRESFR P0002 T01830150",
      "metarObsTime": 1773252600
    },
    "KHZL": {
      "status": "OK",
      "delay": "—",
      "metarCat": "VFR",
      "metarRaw": "METAR KHZL 111755Z AUTO 17005KT 10SM -RA SCT028 SCT050 BKN085 18/13 A2983 RMK AO2 P0001",
      "metarObsTime": 1773251700
    }
  }
}