{
  "generatedAt": "2026-03-18T12:00:20.540Z",
  "airports": {
    "KPIT": {
      "status": "OK",
      "delay": "—",
      "metarCat": "VFR",
      "metarRaw": "METAR KPIT 181151Z 13003KT 10SM SCT150 BKN250 M09/M12 A3029 RMK AO2 SLP284 70005 T10891117 11083 21094 51008",
      "metarObsTime": 1773834660
    },
    "KAGC": {
      "status": "OK",
      "delay": "—",
      "metarCat": "VFR",
      "metarRaw": "METAR KAGC 181153Z 16006KT 9SM CLR M09/M11 A3029 RMK AO2 SLP282 70001 T10891111 11083 21094 51009",
      "metarObsTime": 1773834780
    },
    "KLBE": {
      "status": "OK",
      "delay": "—",
      "metarCat": "VFR",
      "metarRaw": "METAR KLBE 181147Z 00000KT 10SM SCT080 M08/M09 A3033",
      "metarObsTime": 1773834420
    },
    "KJST": {
      "status": "OK",
      "delay": "—",
      "metarCat": "VFR",
      "metarRaw": "METAR KJST 181154Z AUTO 20003KT 10SM CLR M11/M13 A3021 RMK AO2 SLP273 T11111133 11106 21122 50010",
      "metarObsTime": 1773834840
    },
    "KERI": {
      "status": "OK",
      "delay": "—",
      "metarCat": "VFR",
      "metarRaw": "METAR KERI 181151Z 18010KT 10SM OVC048 M06/M11 A3029 RMK AO2 SLP270 60001 70006 T10611111 11061 21061 53016",
      "metarObsTime": 1773834660
    },
    "KDUJ": {
      "status": "OK",
      "delay": "—",
      "metarCat": "VFR",
      "metarRaw": "METAR KDUJ 181153Z AUTO 22003KT 10SM CLR M11/M13 A3024 RMK AO2 SLP272 I6000 T11111133 11111 21133 51015",
      "metarObsTime": 1773834780
    },
    "KBFD": {
      "status": "OK",
      "delay": "—",
      "metarCat": "VFR",
      "metarRaw": "METAR KBFD 181153Z AUTO 18003KT 10SM OVC039 M11/M13 A3020 RMK AO2 SLP264 60000 T11111128 11106 21128 53012",
      "metarObsTime": 1773834780
    },
    "KBTP": {
      "status": "OK",
      "delay": "—",
      "metarCat": "VFR",
      "metarRaw": "METAR KBTP 181056Z AUTO 17005KT 10SM CLR M11/M12 A3029 RMK AO2 SLP284 T11061117 FZRANO $",
      "metarObsTime": 1773831360
    },
    "KFKL": {
      "status": "OK",
      "delay": "—",
      "metarCat": "VFR",
      "metarRaw": "METAR KFKL 181056Z AUTO 20006KT 10SM BKN046 M11/M12 A3024 RMK AO2 SLP272 T11111122 FZRANO",
      "metarObsTime": 1773831360
    },
    "KIDI": {
      "status": "OK",
      "delay": "—",
      "metarCat": "VFR",
      "metarRaw": "METAR KIDI 181155Z AUTO 00000KT 10SM CLR M10/M11 A3030 RMK A01",
      "metarObsTime": 1773834900
    },
    "KMDT": {
      "status": "OK",
      "delay": "—",
      "metarCat": "VFR",
      "metarRaw": "METAR KMDT 181056Z 25006KT 10SM FEW250 M04/M11 A3040 RMK AO2 SLP298 T10391106",
      "metarObsTime": 1773831360
    },
    "KCXY": {
      "status": "OK",
      "delay": "—",
      "metarCat": "VFR",
      "metarRaw": "METAR KCXY 181056Z 24005KT 10SM CLR M06/M12 A3040 RMK AO2 SLP300 T10561117",
      "metarObsTime": 1773831360
    },
    "KMUI": {
      "status": "OK",
      "delay": "—",
      "metarCat": "VFR",
      "metarRaw": "METAR KMUI 181055Z 28003KT 10SM FEW045 BKN250 M05/M10 A3036 RMK AO2A SLP290 T10521104",
      "metarObsTime": 1773831300
    },
    "KUNV": {
      "status": "OK",
      "delay": "—",
      "metarCat": "VFR",
      "metarRaw": "METAR KUNV 181053Z 17004KT 10SM CLR M10/M12 A3030",
      "metarObsTime": 1773831180
    },
    "KAOO": {
      "status": "OK",
      "delay": "—",
      "metarCat": "VFR",
      "metarRaw": "METAR KAOO 181153Z AUTO 21004KT 10SM CLR M09/M13 A3029 RMK AO2 SLP283 T10891128 11078 21106 50012",
      "metarObsTime": 1773834780
    },
    "KLNS": {
      "status": "OK",
      "delay": "—",
      "metarCat": "VFR",
      "metarRaw": "METAR KLNS 181153Z 00000KT 10SM CLR M05/M11 A3042 RMK AO2 SLP305 T10501111 11039 21067 51036",
      "metarObsTime": 1773834780
    },
    "KIPT": {
      "status": "OK",
      "delay": "—",
      "metarCat": "VFR",
      "metarRaw": "METAR KIPT 181154Z 36004KT 10SM CLR M07/M10 A3037 RMK AO2 SLP293 70001 T10721100 11061 21072 51031 $",
      "metarObsTime": 1773834840
    },
    "KPHL": {
      "status": "OK",
      "delay": "—",
      "metarCat": "VFR",
      "metarRaw": "METAR KPHL 181154Z 32009G18KT 10SM FEW045 FEW080 BKN210 BKN300 M02/M12 A3045 RMK AO2 SLP309 VIRGA T10221122 11006 21022 51039 $",
      "metarObsTime": 1773834840
    },
    "KABE": {
      "status": "OK",
      "delay": "—",
      "metarCat": "VFR",
      "metarRaw": "METAR KABE 181151Z 25004KT 10SM CLR M06/M13 A3041 RMK AO2 SLP305 T10561128 11039 21072 $",
      "metarObsTime": 1773834660
    },
    "KAVP": {
      "status": "OK",
      "delay": "—",
      "metarCat": "VFR",
      "metarRaw": "METAR KAVP 181154Z AUTO 00000KT 10SM CLR M07/M14 A3035 RMK AO2 SLP290 T10671139 11056 21078 53034",
      "metarObsTime": 1773834840
    },
    "KHZL": {
      "status": "OK",
      "delay": "—",
      "metarCat": "VFR",
      "metarRaw": "METAR KHZL 181135Z AUTO 00000KT 10SM CLR M08/M13 RMK AO2",
      "metarObsTime": 1773833700
    }
  }
}