{
  "generatedAt": "2026-04-13T09:20:50.678Z",
  "airports": {
    "KPIT": {
      "status": "OK",
      "delay": "—",
      "metarCat": "VFR",
      "metarRaw": "METAR KPIT 130851Z 21014G21KT 10SM SCT070 BKN140 22/07 A3001 RMK AO2 SLP159 T02220072 56007 $",
      "metarObsTime": 1776070260
    },
    "KAGC": {
      "status": "OK",
      "delay": "—",
      "metarCat": "VFR",
      "metarRaw": "METAR KAGC 130853Z 20009KT 10SM CLR 21/08 A3002 RMK AO2 SLP163 T02060083 55005",
      "metarObsTime": 1776070380
    },
    "KLBE": {
      "status": "OK",
      "delay": "—",
      "metarCat": "VFR",
      "metarRaw": "METAR KLBE 130915Z AUTO 20013KT 10SM CLR 22/09 A3006 RMK AO2",
      "metarObsTime": 1776071700
    },
    "KJST": {
      "status": "OK",
      "delay": "—",
      "metarCat": "VFR",
      "metarRaw": "METAR KJST 130854Z AUTO 21010G17KT 10SM CLR 18/08 A3008 RMK AO2 SLP175 T01780078 56007",
      "metarObsTime": 1776070440
    },
    "KERI": {
      "status": "OK",
      "delay": "—",
      "metarCat": "VFR",
      "metarRaw": "METAR KERI 130851Z AUTO 20012KT 10SM BKN120 22/07 A2989 RMK AO2 PK WND 18028/0817 SLP117 T02170072 56010 $",
      "metarObsTime": 1776070260
    },
    "KDUJ": {
      "status": "OK",
      "delay": "—",
      "metarCat": "VFR",
      "metarRaw": "METAR KDUJ 130853Z AUTO 20009KT 10SM SCT110 19/09 A3001 RMK AO2 SLP153 T01890089 56012",
      "metarObsTime": 1776070380
    },
    "KBFD": {
      "status": "OK",
      "delay": "—",
      "metarCat": "VFR",
      "metarRaw": "METAR KBFD 130853Z AUTO 19008KT 10SM FEW110 17/08 A3001 RMK AO2 SLP149 T01720078 56012",
      "metarObsTime": 1776070380
    },
    "KBTP": {
      "status": "OK",
      "delay": "—",
      "metarCat": "VFR",
      "metarRaw": "METAR KBTP 130856Z AUTO 20008KT 10SM CLR 20/08 A3001 RMK AO2 SLP162 T02000083 56007 $",
      "metarObsTime": 1776070560
    },
    "KFKL": {
      "status": "OK",
      "delay": "—",
      "metarCat": "VFR",
      "metarRaw": "METAR KFKL 130856Z AUTO 20011KT 10SM CLR 18/08 A2999 RMK AO2 SLP149 T01780078 56008",
      "metarObsTime": 1776070560
    },
    "KIDI": {
      "status": "OK",
      "delay": "—",
      "metarCat": "VFR",
      "metarRaw": "METAR KIDI 130915Z AUTO 22011G17KT 10SM FEW050 SCT060 20/09 A3004 RMK A01",
      "metarObsTime": 1776071700
    },
    "KMDT": {
      "status": "OK",
      "delay": "—",
      "metarCat": "VFR",
      "metarRaw": "METAR KMDT 130856Z 07003KT 10SM OVC190 11/08 A3013 RMK AO2 SLP202 T01110083 56018",
      "metarObsTime": 1776070560
    },
    "KCXY": {
      "status": "OK",
      "delay": "—",
      "metarCat": "VFR",
      "metarRaw": "METAR KCXY 130856Z AUTO 08003KT 10SM CLR 11/08 A3013 RMK AO2 SLP204 T01110083 56020 $",
      "metarObsTime": 1776070560
    },
    "KMUI": {
      "status": "OK",
      "delay": "—",
      "metarCat": "IFR",
      "metarRaw": "SPECI KMUI 130835Z AUTO 03003KT 2 1/2SM BR OVC200 11/09 A3013 RMK AO2 VIS 2 1/2V6 SLP206",
      "metarObsTime": 1776069300
    },
    "KUNV": {
      "status": "OK",
      "delay": "—",
      "metarCat": "VFR",
      "metarRaw": "METAR KUNV 130915Z AUTO 21006KT 10SM CLR 15/08 A3006 RMK AO2 T01480077",
      "metarObsTime": 1776071700
    },
    "KAOO": {
      "status": "OK",
      "delay": "—",
      "metarCat": "VFR",
      "metarRaw": "METAR KAOO 130853Z AUTO 20004KT 10SM CLR 16/09 A3009 RMK AO2 SLP182 T01560089 55009",
      "metarObsTime": 1776070380
    },
    "KLNS": {
      "status": "OK",
      "delay": "—",
      "metarCat": "VFR",
      "metarRaw": "METAR KLNS 130853Z AUTO 11005KT 10SM CLR 09/08 A3014 RMK AO2 SLP206 T00940078 56023",
      "metarObsTime": 1776070380
    },
    "KIPT": {
      "status": "OK",
      "delay": "—",
      "metarCat": "VFR",
      "metarRaw": "METAR KIPT 130854Z AUTO 08009KT 10SM CLR 13/07 A3008 RMK AO2 SLP186 T01280072 56019 $",
      "metarObsTime": 1776070440
    },
    "KPHL": {
      "status": "OK",
      "delay": "—",
      "metarCat": "VFR",
      "metarRaw": "METAR KPHL 130854Z 00000KT 10SM SCT023 BKN070 11/08 A3018 RMK AO2 SLP220 T01060078 56025 $",
      "metarObsTime": 1776070440
    },
    "KABE": {
      "status": "OK",
      "delay": "—",
      "metarCat": "MVFR",
      "metarRaw": "METAR KABE 130851Z 17005KT 10SM OVC017 12/07 A3016 RMK AO2 SLP214 T01170072 56023 $",
      "metarObsTime": 1776070260
    },
    "KAVP": {
      "status": "OK",
      "delay": "—",
      "metarCat": "VFR",
      "metarRaw": "METAR KAVP 130854Z 21007G16KT 10SM CLR 12/07 A3010 RMK AO2 SLP191 T01170072 56019",
      "metarObsTime": 1776070440
    },
    "KHZL": {
      "status": "OK",
      "delay": "—",
      "metarCat": "VFR",
      "metarRaw": "METAR KHZL 130915Z AUTO 16003KT 10SM SCT011 10/07 A3015 RMK AO2",
      "metarObsTime": 1776071700
    }
  }
}