{
  "generatedAt": "2026-04-14T09:41:00.601Z",
  "airports": {
    "KPIT": {
      "status": "OK",
      "delay": "—",
      "metarCat": "VFR",
      "metarRaw": "METAR KPIT 140851Z 18004KT 10SM OVC046 18/09 A3002 RMK AO2 SLP166 T01780089 56008",
      "metarObsTime": 1776156660
    },
    "KAGC": {
      "status": "OK",
      "delay": "—",
      "metarCat": "VFR",
      "metarRaw": "METAR KAGC 140853Z 19007KT 10SM SCT045 OVC065 18/09 A3003 RMK AO2 SLP165 T01780089 56006",
      "metarObsTime": 1776156780
    },
    "KLBE": {
      "status": "OK",
      "delay": "—",
      "metarCat": "VFR",
      "metarRaw": "METAR KLBE 140935Z AUTO 20010KT 10SM FEW043 SCT049 18/10 A3006 RMK AO2",
      "metarObsTime": 1776159300
    },
    "KJST": {
      "status": "OK",
      "delay": "—",
      "metarCat": "VFR",
      "metarRaw": "METAR KJST 140854Z AUTO 25011KT 10SM FEW039 17/07 A3006 RMK AO2 SLP167 T01720067 56013",
      "metarObsTime": 1776156840
    },
    "KERI": {
      "status": "OK",
      "delay": "—",
      "metarCat": "VFR",
      "metarRaw": "METAR KERI 140851Z AUTO 18014G21KT 10SM CLR 18/14 A2992 RMK AO2 SLP127 60000 T01780139 58009 $",
      "metarObsTime": 1776156660
    },
    "KDUJ": {
      "status": "OK",
      "delay": "—",
      "metarCat": "VFR",
      "metarRaw": "METAR KDUJ 140853Z AUTO 19004KT 10SM SCT036 SCT045 16/13 A3002 RMK AO2 SLP156 T01610128 58010",
      "metarObsTime": 1776156780
    },
    "KBFD": {
      "status": "OK",
      "delay": "—",
      "metarCat": "VFR",
      "metarRaw": "METAR KBFD 140853Z AUTO 15004KT 10SM BKN110 13/13 A3002 RMK AO2 SLP155 60002 T01330128 55012",
      "metarObsTime": 1776156780
    },
    "KBTP": {
      "status": "OK",
      "delay": "—",
      "metarCat": "VFR",
      "metarRaw": "METAR KBTP 140856Z AUTO 20008KT 10SM FEW040 BKN070 18/09 A3002 RMK AO2 SLP164 T01780094 56012 $",
      "metarObsTime": 1776156960
    },
    "KFKL": {
      "status": "OK",
      "delay": "—",
      "metarCat": "VFR",
      "metarRaw": "METAR KFKL 140856Z AUTO 17007KT 10SM FEW032 BKN041 16/13 A3001 RMK AO2 SLP154 T01610128 56015",
      "metarObsTime": 1776156960
    },
    "KIDI": {
      "status": "OK",
      "delay": "—",
      "metarCat": "VFR",
      "metarRaw": "METAR KIDI 140935Z AUTO 22008KT 10SM BKN042 BKN048 OVC075 17/10 A3004 RMK A01",
      "metarObsTime": 1776159300
    },
    "KMDT": {
      "status": "OK",
      "delay": "—",
      "metarCat": "VFR",
      "metarRaw": "METAR KMDT 140856Z 14003KT 10SM CLR 14/12 A3001 RMK AO2 SLP161 T01440122 55001",
      "metarObsTime": 1776156960
    },
    "KCXY": {
      "status": "OK",
      "delay": "—",
      "metarCat": "VFR",
      "metarRaw": "METAR KCXY 140856Z AUTO 25006KT 10SM CLR 18/13 A3001 RMK AO2 SLP160 T01830128 55004 $",
      "metarObsTime": 1776156960
    },
    "KMUI": {
      "status": "OK",
      "delay": "—",
      "metarCat": "VFR",
      "metarRaw": "METAR KMUI 140855Z AUTO 00000KT 10SM CLR 14/14 A3000 RMK AO2 SLP159 T01380135 55003",
      "metarObsTime": 1776156900
    },
    "KUNV": {
      "status": "OK",
      "delay": "—",
      "metarCat": "VFR",
      "metarRaw": "METAR KUNV 140935Z AUTO 24006KT 10SM OVC044 17/11 A3003 RMK AO2 T01720111",
      "metarObsTime": 1776159300
    },
    "KAOO": {
      "status": "OK",
      "delay": "—",
      "metarCat": "VFR",
      "metarRaw": "METAR KAOO 140853Z AUTO 22011KT 10SM FEW043 18/08 A3005 RMK AO2 SLP166 T01780083 56007",
      "metarObsTime": 1776156780
    },
    "KLNS": {
      "status": "OK",
      "delay": "—",
      "metarCat": "VFR",
      "metarRaw": "METAR KLNS 140853Z AUTO 21003KT 10SM CLR 15/12 A3002 RMK AO2 SLP162 T01500117 55002",
      "metarObsTime": 1776156780
    },
    "KIPT": {
      "status": "OK",
      "delay": "—",
      "metarCat": "VFR",
      "metarRaw": "METAR KIPT 140854Z AUTO 10004KT 10SM CLR 13/13 A2998 RMK AO2 SLP151 60000 T01330128 56006 $",
      "metarObsTime": 1776156840
    },
    "KPHL": {
      "status": "OK",
      "delay": "—",
      "metarCat": "VFR",
      "metarRaw": "METAR KPHL 140854Z 24006KT 10SM FEW250 16/11 A3000 RMK AO2 SLP159 T01610111 56005 $",
      "metarObsTime": 1776156840
    },
    "KABE": {
      "status": "OK",
      "delay": "—",
      "metarCat": "MVFR",
      "metarRaw": "SPECI KABE 140911Z 24005KT 3SM BR FEW002 14/14 A3000 RMK AO2 T01390139 $",
      "metarObsTime": 1776157860
    },
    "KAVP": {
      "status": "OK",
      "delay": "—",
      "metarCat": "VFR",
      "metarRaw": "METAR KAVP 140854Z 00000KT 10SM CLR 15/14 A3001 RMK AO2 SLP154 60015 T01500139 55002",
      "metarObsTime": 1776156840
    },
    "KHZL": {
      "status": "OK",
      "delay": "—",
      "metarCat": "VFR",
      "metarRaw": "METAR KHZL 140935Z AUTO 00000KT 10SM CLR 12/11 A3006 RMK AO2",
      "metarObsTime": 1776159300
    }
  }
}