{
  "generatedAt": "2026-03-12T18:00:14.751Z",
  "airports": {
    "KPIT": {
      "status": "OK",
      "delay": "—",
      "metarCat": "VFR",
      "metarRaw": "METAR KPIT 121751Z 32017G23KT 10SM SCT030 BKN200 03/M08 A3001 RMK AO2 SLP179 T00331078 10039 20006 58003 $",
      "metarObsTime": 1773337860
    },
    "KAGC": {
      "status": "OK",
      "delay": "—",
      "metarCat": "VFR",
      "metarRaw": "METAR KAGC 121753Z 32011G25KT 10SM CLR 02/M09 A3000 RMK AO2 SLP171 T00221094 10022 20000 58003",
      "metarObsTime": 1773337980
    },
    "KLBE": {
      "status": "OK",
      "delay": "—",
      "metarCat": "VFR",
      "metarRaw": "METAR KLBE 121747Z 28011G22KT 10SM FEW043 SCT065 BKN110 03/M05 A3001",
      "metarObsTime": 1773337620
    },
    "KJST": {
      "status": "OK",
      "delay": "—",
      "metarCat": "VFR",
      "metarRaw": "METAR KJST 121754Z AUTO 29018G25KT 10SM SCT023 SCT027 M01/M06 A2989 RMK AO2 PK WND 33026/1659 SLP139 60000 I6002 T10111056 11011 21028 56007",
      "metarObsTime": 1773338040
    },
    "KERI": {
      "status": "OK",
      "delay": "—",
      "metarCat": "VFR",
      "metarRaw": "METAR KERI 121751Z 28010G25KT 10SM OVC034 01/M07 A3005 RMK AO2 SLP185 T00061067 10011 21006 58004",
      "metarObsTime": 1773337860
    },
    "KDUJ": {
      "status": "OK",
      "delay": "—",
      "metarCat": "VFR",
      "metarRaw": "METAR KDUJ 121753Z AUTO 31013G21KT 10SM BKN033 00/M07 A2992 RMK AO2 SLP145 T00001072 10000 21022 58006",
      "metarObsTime": 1773337980
    },
    "KBFD": {
      "status": "OK",
      "delay": "—",
      "metarCat": "MVFR",
      "metarRaw": "METAR KBFD 121753Z AUTO 29013G24KT 10SM BKN028 BKN037 M02/M07 A2989 RMK AO2 SLP139 T10221072 11017 21033 58008",
      "metarObsTime": 1773337980
    },
    "KBTP": {
      "status": "OK",
      "delay": "—",
      "metarCat": "VFR",
      "metarRaw": "METAR KBTP 121756Z AUTO 32014G23KT 10SM FEW047 03/M08 A3001 RMK AO2 SLP177 T00331078 10033 21006 58006 $",
      "metarObsTime": 1773338160
    },
    "KFKL": {
      "status": "OK",
      "delay": "—",
      "metarCat": "VFR",
      "metarRaw": "METAR KFKL 121756Z AUTO 32014G20KT 10SM FEW039 A2999 RMK AO2 SLPNO 60000 57006 FZRANO $",
      "metarObsTime": 1773338160
    },
    "KIDI": {
      "status": "OK",
      "delay": "—",
      "metarCat": "VFR",
      "metarRaw": "METAR KIDI 121715Z AUTO 30011KT 10SM SCT032 02/M04 A2997 RMK A01",
      "metarObsTime": 1773335700
    },
    "KMDT": {
      "status": "OK",
      "delay": "—",
      "metarCat": "VFR",
      "metarRaw": "METAR KMDT 121656Z 32014G22KT 10SM BKN080 OVC090 03/M03 A2989 RMK AO2 SLP122 T00331033 $",
      "metarObsTime": 1773334560
    },
    "KCXY": {
      "status": "OK",
      "delay": "—",
      "metarCat": "VFR",
      "metarRaw": "METAR KCXY 121656Z 31013G20KT 10SM SCT039 OVC090 04/M04 A2990 RMK AO2 SLP126 T00391044",
      "metarObsTime": 1773334560
    },
    "KMUI": {
      "status": "OK",
      "delay": "—",
      "metarCat": "VFR",
      "metarRaw": "METAR KMUI 121655Z 28011G18KT 10SM SCT037 OVC080 04/M03 A2986 RMK AO2A SLP116 T00401035",
      "metarObsTime": 1773334500
    },
    "KUNV": {
      "status": "OK",
      "delay": "—",
      "metarCat": "VFR",
      "metarRaw": "METAR KUNV 121753Z 31013G18KT 10SM BKN031 01/M05 A2990",
      "metarObsTime": 1773337980
    },
    "KAOO": {
      "status": "OK",
      "delay": "—",
      "metarCat": "VFR",
      "metarRaw": "METAR KAOO 121753Z AUTO 32010G21KT 10SM FEW035 01/M06 A2992 RMK AO2 SLP139 60000 T00111061 10011 20000 58004",
      "metarObsTime": 1773337980
    },
    "KLNS": {
      "status": "OK",
      "delay": "—",
      "metarCat": "VFR",
      "metarRaw": "METAR KLNS 121753Z 31012G20KT 10SM BKN065 OVC075 03/M03 A2988 RMK AO2 SLP120 60011 T00331033 10056 20033 55006",
      "metarObsTime": 1773337980
    },
    "KIPT": {
      "status": "OK",
      "delay": "—",
      "metarCat": "VFR",
      "metarRaw": "METAR KIPT 121754Z 30011G20KT 10SM OVC045 04/M06 A2988 RMK AO2 SLP118 T00391056 10044 20028 58003 $",
      "metarObsTime": 1773338040
    },
    "KPHL": {
      "status": "OK",
      "delay": "—",
      "metarCat": "VFR",
      "metarRaw": "METAR KPHL 121754Z 31012G20KT 10SM -RA FEW018 SCT027 OVC045 05/01 A2985 RMK AO2 PLE29 SLP109 P0002 60003 T00500006 10139 20050 55000",
      "metarObsTime": 1773338040
    },
    "KABE": {
      "status": "OK",
      "delay": "—",
      "metarCat": "VFR",
      "metarRaw": "METAR KABE 121751Z 31011G17KT 10SM BKN048 OVC060 04/M03 A2983 RMK AO2 RAB25E34 SLP102 P0000 60019 T00391033 10083 20039 51005 $",
      "metarObsTime": 1773337860
    },
    "KAVP": {
      "status": "OK",
      "delay": "—",
      "metarCat": "VFR",
      "metarRaw": "METAR KAVP 121754Z AUTO 33012G19KT 10SM BKN040 OVC100 03/M05 A2982 RMK AO2 PK WND 34026/1715 SLP097 60000 T00281050 10033 20017 58004",
      "metarObsTime": 1773338040
    },
    "KHZL": {
      "status": "OK",
      "delay": "—",
      "metarCat": "VFR",
      "metarRaw": "METAR KHZL 121735Z AUTO 32006KT 10SM SCT033 SCT075 OVC080 01/M05 A2982 RMK AO2",
      "metarObsTime": 1773336900
    }
  }
}