{
  "generatedAt": "2026-04-02T00:00:43.334Z",
  "airports": {
    "KPIT": {
      "status": "OK",
      "delay": "—",
      "metarCat": "IFR",
      "metarRaw": "METAR KPIT 012351Z 34008KT 10SM BKN006 OVC030 10/08 A3010 RMK AO2 SLP202 T01000078 10133 20100 53008",
      "metarObsTime": 1775087460
    },
    "KAGC": {
      "status": "OK",
      "delay": "—",
      "metarCat": "IFR",
      "metarRaw": "METAR KAGC 012353Z 34008G17KT 10SM OVC009 13/12 A3008 RMK AO2 LTG DSNT SW SLP189 T01330117 10200 20133 53013",
      "metarObsTime": 1775087580
    },
    "KLBE": {
      "status": "OK",
      "delay": "—",
      "metarCat": "VFR",
      "metarRaw": "METAR KLBE 012353Z 32010KT 10SM SCT120 19/16 A3006",
      "metarObsTime": 1775087580
    },
    "KJST": {
      "status": "OK",
      "delay": "—",
      "metarCat": "VFR",
      "metarRaw": "METAR KJST 012354Z AUTO 17003KT 10SM FEW090 SCT120 19/12 A3007 RMK AO2 SLP179 T01890122 10211 20178 53001",
      "metarObsTime": 1775087640
    },
    "KERI": {
      "status": "OK",
      "delay": "—",
      "metarCat": "IFR",
      "metarRaw": "METAR KERI 012351Z 05015G24KT 10SM OVC007 02/01 A3022 RMK AO2 PK WND 05028/2335 RAE47 SLP241 P0003 60026 T00170011 10028 20017 53003 $",
      "metarObsTime": 1775087460
    },
    "KDUJ": {
      "status": "OK",
      "delay": "—",
      "metarCat": "MVFR",
      "metarRaw": "METAR KDUJ 012353Z AUTO 02010KT 4SM -RA BR SCT005 BKN019 OVC046 09/08 A3013 RMK AO2 PRESRR SLP203 P0013 60025 T00890078 10133 20089 53007",
      "metarObsTime": 1775087580
    },
    "KBFD": {
      "status": "OK",
      "delay": "—",
      "metarCat": "VFR",
      "metarRaw": "METAR KBFD 012353Z AUTO 05006KT 7SM -RA FEW006 FEW050 OVC070 04/04 A3016 RMK AO2 SLP221 P0005 60031 T00440039 10067 20044 55002",
      "metarObsTime": 1775087580
    },
    "KBTP": {
      "status": "OK",
      "delay": "—",
      "metarCat": "IFR",
      "metarRaw": "METAR KBTP 012356Z AUTO 08010KT 2 1/2SM RA SCT008 BKN016 OVC023 09/ A3010 RMK AO2 RAB18 SLP201 P0015 60015 T0094 10122 20094 50000 $",
      "metarObsTime": 1775087760
    },
    "KFKL": {
      "status": "OK",
      "delay": "—",
      "metarCat": "IFR",
      "metarRaw": "METAR KFKL 012356Z AUTO 04007KT 10SM -RA OVC005 07/06 A3014 RMK AO2 SLP215 P0005 60034 T00670061 10072 20067 56007",
      "metarObsTime": 1775087760
    },
    "KIDI": {
      "status": "OK",
      "delay": "—",
      "metarCat": "VFR",
      "metarRaw": "METAR KIDI 012355Z AUTO 02007KT 10SM BKN070 BKN075 OVC100 14/13 A3008 RMK A01",
      "metarObsTime": 1775087700
    },
    "KMDT": {
      "status": "OK",
      "delay": "—",
      "metarCat": "VFR",
      "metarRaw": "METAR KMDT 012356Z 06008KT 10SM BKN065 OVC100 23/13 A3007 RMK AO2 LTG DSNT S SLP180 T02280133 10256 20228 53011 $",
      "metarObsTime": 1775087760
    },
    "KCXY": {
      "status": "OK",
      "delay": "—",
      "metarCat": "VFR",
      "metarRaw": "METAR KCXY 012356Z 33011KT 10SM BKN060 BKN075 OVC090 22/13 A3008 RMK AO2 LTG DSNT S SLP186 T02170128 10256 20217 53015",
      "metarObsTime": 1775087760
    },
    "KMUI": {
      "status": "OK",
      "delay": "—",
      "metarCat": "VFR",
      "metarRaw": "METAR KMUI 012255Z 01008KT 10SM SCT045 BKN100 BKN250 22/14 A3004 RMK AO2A SLP173 T02240142",
      "metarObsTime": 1775084100
    },
    "KUNV": {
      "status": "OK",
      "delay": "—",
      "metarCat": "MVFR",
      "metarRaw": "METAR KUNV 012353Z 05013G17KT 10SM BKN014 OVC023 10/07 A3013",
      "metarObsTime": 1775087580
    },
    "KAOO": {
      "status": "OK",
      "delay": "—",
      "metarCat": "VFR",
      "metarRaw": "METAR KAOO 012353Z AUTO 01013G19KT 10SM OVC080 17/13 A3008 RMK AO2 RAB06E20 SLP182 P0001 60001 T01670133 10228 20167 53007",
      "metarObsTime": 1775087580
    },
    "KLNS": {
      "status": "OK",
      "delay": "—",
      "metarCat": "MVFR",
      "metarRaw": "METAR KLNS 012353Z 05011KT 4SM -RA SCT047 BKN070 OVC090 19/14 A3007 RMK AO2 LTG DSNT S AND SW RAB40 SLP183 P0008 60008 T01890144 10256 20189 53010",
      "metarObsTime": 1775087580
    },
    "KIPT": {
      "status": "OK",
      "delay": "—",
      "metarCat": "MVFR",
      "metarRaw": "METAR KIPT 012354Z VRB04KT 10SM OVC030 09/04 A3019 RMK AO2 SLP223 T00890039 10156 20089 51004 $",
      "metarObsTime": 1775087640
    },
    "KPHL": {
      "status": "OK",
      "delay": "—",
      "metarCat": "VFR",
      "metarRaw": "METAR KPHL 012354Z 04006KT 10SM FEW055 SCT120 BKN240 BKN280 24/12 A3006 RMK AO2 SLP178 T02440117 10289 20233 53008 $",
      "metarObsTime": 1775087640
    },
    "KABE": {
      "status": "OK",
      "delay": "—",
      "metarCat": "VFR",
      "metarRaw": "METAR KABE 012351Z 05011KT 10SM CLR 14/10 A3013 RMK AO2 SLP202 T01440100 10250 20144 51017 $",
      "metarObsTime": 1775087460
    },
    "KAVP": {
      "status": "OK",
      "delay": "—",
      "metarCat": "MVFR",
      "metarRaw": "METAR KAVP 012354Z AUTO 06007KT 10SM BKN016 OVC031 08/06 A3021 RMK AO2 SLP228 60001 T00830056 10128 20083 51007",
      "metarObsTime": 1775087640
    },
    "KHZL": {
      "status": "OK",
      "delay": "—",
      "metarCat": "IFR",
      "metarRaw": "METAR KHZL 012355Z AUTO 36005KT 10SM OVC006 07/05 A3021 RMK AO2",
      "metarObsTime": 1775087700
    }
  }
}