{
  "generatedAt": "2026-04-02T02:30:32.476Z",
  "airports": {
    "KPIT": {
      "status": "OK",
      "delay": "—",
      "metarCat": "IFR",
      "metarRaw": "SPECI KPIT 020208Z 33011KT 4SM RA BR OVC005 09/08 A3015 RMK AO2 P0006 T00890078 $",
      "metarObsTime": 1775095680
    },
    "KAGC": {
      "status": "OK",
      "delay": "—",
      "metarCat": "MVFR",
      "metarRaw": "SPECI KAGC 020207Z 34005KT 10SM OVC011 11/09 A3013 RMK AO2 T01060094",
      "metarObsTime": 1775095620
    },
    "KLBE": {
      "status": "OK",
      "delay": "—",
      "metarCat": "MVFR",
      "metarRaw": "METAR KLBE 020215Z AUTO 00000KT 10SM OVC010 13/13 A3015 RMK AO2",
      "metarObsTime": 1775096100
    },
    "KJST": {
      "status": "OK",
      "delay": "—",
      "metarCat": "MVFR",
      "metarRaw": "SPECI KJST 020213Z AUTO 29003KT 5SM -RA BR FEW026 BKN050 OVC080 16/14 A3014 RMK AO2 P0004 T01610139",
      "metarObsTime": 1775095980
    },
    "KERI": {
      "status": "OK",
      "delay": "—",
      "metarCat": "IFR",
      "metarRaw": "METAR KERI 020151Z 04015G23KT 6SM -RA BR OVC005 02/02 A3025 RMK AO2 SLP250 P0001 T00220017 $",
      "metarObsTime": 1775094660
    },
    "KDUJ": {
      "status": "OK",
      "delay": "—",
      "metarCat": "IFR",
      "metarRaw": "SPECI KDUJ 020211Z AUTO 06008KT 10SM BKN006 BKN020 OVC055 08/07 A3016 RMK AO2 CIG 002V010 T00780072",
      "metarObsTime": 1775095860
    },
    "KBFD": {
      "status": "OK",
      "delay": "—",
      "metarCat": "VFR",
      "metarRaw": "SPECI KBFD 020200Z AUTO 07009KT 6SM -RA BR SCT006 BKN043 OVC050 04/03 A3020 RMK AO2 P0001 T00390033",
      "metarObsTime": 1775095200
    },
    "KBTP": {
      "status": "OK",
      "delay": "—",
      "metarCat": "IFR",
      "metarRaw": "SPECI KBTP 020227Z AUTO 08008KT 2 1/2SM +RA SCT006 BKN027 OVC045 09/ A3016 RMK AO2 VIS 1 1/4V5 P0017 $",
      "metarObsTime": 1775096820
    },
    "KFKL": {
      "status": "OK",
      "delay": "—",
      "metarCat": "IFR",
      "metarRaw": "METAR KFKL 020156Z AUTO 04008KT 10SM -RA OVC005 06/06 A3017 RMK AO2 CIG 003V008 SLP226 P0004 T00610056",
      "metarObsTime": 1775094960
    },
    "KIDI": {
      "status": "OK",
      "delay": "—",
      "metarCat": "MVFR",
      "metarRaw": "METAR KIDI 020215Z AUTO 06007KT 10SM BKN017 OVC027 13/11 A3014 RMK A01",
      "metarObsTime": 1775096100
    },
    "KMDT": {
      "status": "OK",
      "delay": "—",
      "metarCat": "VFR",
      "metarRaw": "METAR KMDT 020156Z 07007KT 10SM SCT050 BKN090 OVC120 18/12 A3013 RMK AO2 SLP202 T01780122 $",
      "metarObsTime": 1775094960
    },
    "KCXY": {
      "status": "OK",
      "delay": "—",
      "metarCat": "VFR",
      "metarRaw": "METAR KCXY 020156Z AUTO 03005KT 10SM FEW090 BKN110 17/12 A3014 RMK AO2 SLP205 T01720122",
      "metarObsTime": 1775094960
    },
    "KMUI": {
      "status": "OK",
      "delay": "—",
      "metarCat": "—",
      "metarRaw": "—",
      "metarObsTime": null
    },
    "KUNV": {
      "status": "OK",
      "delay": "—",
      "metarCat": "MVFR",
      "metarRaw": "METAR KUNV 020215Z AUTO 05011G17KT 10SM OVC010 07/06 A3018 RMK AO2 LTG DSNT W T00700060",
      "metarObsTime": 1775096100
    },
    "KAOO": {
      "status": "OK",
      "delay": "—",
      "metarCat": "VFR",
      "metarRaw": "METAR KAOO 020153Z AUTO 02010KT 10SM SCT075 OVC095 12/09 A3013 RMK AO2 LTG DSNT W SLP202 T01170094",
      "metarObsTime": 1775094780
    },
    "KLNS": {
      "status": "OK",
      "delay": "—",
      "metarCat": "VFR",
      "metarRaw": "METAR KLNS 020153Z 09009KT 10SM SCT110 16/13 A3012 RMK AO2 RAB18E41 SLP198 P0001 T01560128",
      "metarObsTime": 1775094780
    },
    "KIPT": {
      "status": "OK",
      "delay": "—",
      "metarCat": "MVFR",
      "metarRaw": "METAR KIPT 020154Z 02005KT 5SM RA BR FEW024 BKN035 OVC055 07/05 A3023 RMK AO2 RAB10 SLP239 P0005 T00720050 $",
      "metarObsTime": 1775094840
    },
    "KPHL": {
      "status": "OK",
      "delay": "—",
      "metarCat": "MVFR",
      "metarRaw": "METAR KPHL 020154Z 35007KT 3SM RA BR FEW024 BKN037 OVC065 18/16 A3019 RMK AO2 PK WND 26026/0128 TSB06E37 SLP221 P0025 T01780156 $",
      "metarObsTime": 1775094840
    },
    "KABE": {
      "status": "OK",
      "delay": "—",
      "metarCat": "VFR",
      "metarRaw": "METAR KABE 020151Z 06013KT 10SM -RA BKN060 OVC075 12/08 A3019 RMK AO2 RAB41 SLP224 P0000 T01220078 $",
      "metarObsTime": 1775094660
    },
    "KAVP": {
      "status": "OK",
      "delay": "—",
      "metarCat": "VFR",
      "metarRaw": "METAR KAVP 020154Z AUTO 04007KT 10SM BKN055 OVC080 08/06 A3021 RMK AO2 SLP229 T00780056",
      "metarObsTime": 1775094840
    },
    "KHZL": {
      "status": "OK",
      "delay": "—",
      "metarCat": "VFR",
      "metarRaw": "METAR KHZL 020215Z AUTO 00000KT 10SM SCT043 OVC060 08/04 A3021 RMK AO2",
      "metarObsTime": 1775096100
    }
  }
}