{
  "generatedAt": "2026-04-20T08:40:54.233Z",
  "airports": {
    "KPIT": {
      "status": "OK",
      "delay": "—",
      "metarCat": "VFR",
      "metarRaw": "SPECI KPIT 200836Z 33009KT 10SM -SN SCT009 SCT025 OVC045 02/M01 A3017 RMK AO2 RAE0755B16E34 P0000 T00221006 $",
      "metarObsTime": 1776674160
    },
    "KAGC": {
      "status": "OK",
      "delay": "—",
      "metarCat": "VFR",
      "metarRaw": "SPECI KAGC 200838Z 34006KT 10SM SCT013 BKN039 OVC090 02/01 A3015 RMK AO2 RAB0755E31SNB02E07 P0003 T00220006",
      "metarObsTime": 1776674280
    },
    "KLBE": {
      "status": "OK",
      "delay": "—",
      "metarCat": "MVFR",
      "metarRaw": "METAR KLBE 200835Z AUTO 32007KT 10SM SCT016 BKN026 OVC031 03/01 A3016 RMK AO2",
      "metarObsTime": 1776674100
    },
    "KJST": {
      "status": "OK",
      "delay": "—",
      "metarCat": "MVFR",
      "metarRaw": "SPECI KJST 200837Z AUTO 34011KT 10SM SCT005 BKN010 OVC017 01/M02 A3007 RMK AO2 T00061017 $",
      "metarObsTime": 1776674220
    },
    "KERI": {
      "status": "OK",
      "delay": "—",
      "metarCat": "VFR",
      "metarRaw": "METAR KERI 200751Z AUTO 34013G19KT 10SM FEW060 01/M08 A3020 RMK AO2 SLP233 T00061083 $",
      "metarObsTime": 1776671460
    },
    "KDUJ": {
      "status": "OK",
      "delay": "—",
      "metarCat": "IFR",
      "metarRaw": "METAR KDUJ 200753Z AUTO 30007KT 10SM BKN005 OVC009 00/M01 A3008 RMK AO2 SNE09 SLP200 P0000 T00001006 $",
      "metarObsTime": 1776671580
    },
    "KBFD": {
      "status": "OK",
      "delay": "—",
      "metarCat": "MVFR",
      "metarRaw": "SPECI KBFD 200823Z AUTO 34010KT 10SM BKN017 BKN034 BKN046 M02/M04 A3008 RMK AO2 T10171044",
      "metarObsTime": 1776673380
    },
    "KBTP": {
      "status": "OK",
      "delay": "—",
      "metarCat": "MVFR",
      "metarRaw": "METAR KBTP 200756Z AUTO 29006KT 10SM -RA SCT007 BKN014 OVC055 02/02 A3016 RMK AO2 RAB21 SLP227 P0000 T00170017 FZRANO $",
      "metarObsTime": 1776671760
    },
    "KFKL": {
      "status": "OK",
      "delay": "—",
      "metarCat": "—",
      "metarRaw": "—",
      "metarObsTime": null
    },
    "KIDI": {
      "status": "OK",
      "delay": "—",
      "metarCat": "VFR",
      "metarRaw": "METAR KIDI 200835Z AUTO 31005KT 10SM FEW029 BKN048 OVC060 01/00 A3014 RMK A01",
      "metarObsTime": 1776674100
    },
    "KMDT": {
      "status": "OK",
      "delay": "—",
      "metarCat": "VFR",
      "metarRaw": "METAR KMDT 200756Z 33004KT 10SM FEW075 04/00 A3011 RMK AO2 SLP197 T00440000",
      "metarObsTime": 1776671760
    },
    "KCXY": {
      "status": "OK",
      "delay": "—",
      "metarCat": "VFR",
      "metarRaw": "METAR KCXY 200756Z AUTO 23004KT 10SM CLR 02/M01 A3011 RMK AO2 SLP200 T00171006 $",
      "metarObsTime": 1776671760
    },
    "KMUI": {
      "status": "OK",
      "delay": "—",
      "metarCat": "VFR",
      "metarRaw": "METAR KMUI 200755Z AUTO 00000KT 10SM CLR 04/02 A3008 RMK AO2 SLP191 T00430015",
      "metarObsTime": 1776671700
    },
    "KUNV": {
      "status": "OK",
      "delay": "—",
      "metarCat": "MVFR",
      "metarRaw": "METAR KUNV 200835Z AUTO 00000KT 10SM BKN013 BKN037 OVC080 02/02 A3010 RMK AO2 T00150015",
      "metarObsTime": 1776674100
    },
    "KAOO": {
      "status": "OK",
      "delay": "—",
      "metarCat": "MVFR",
      "metarRaw": "METAR KAOO 200753Z AUTO 28008KT 10SM -RA FEW016 BKN023 OVC040 03/00 A3009 RMK AO2 RAB07E21B44UPB19E20 SLP200 P0000 T00330000",
      "metarObsTime": 1776671580
    },
    "KLNS": {
      "status": "OK",
      "delay": "—",
      "metarCat": "VFR",
      "metarRaw": "METAR KLNS 200753Z AUTO 00000KT 10SM CLR 04/M02 A3011 RMK AO2 SLP197 T00391017",
      "metarObsTime": 1776671580
    },
    "KIPT": {
      "status": "OK",
      "delay": "—",
      "metarCat": "VFR",
      "metarRaw": "METAR KIPT 200754Z AUTO 26007KT 10SM SCT065 BKN080 OVC095 04/01 A3009 RMK AO2 SLP192 T00390011 $",
      "metarObsTime": 1776671640
    },
    "KPHL": {
      "status": "OK",
      "delay": "—",
      "metarCat": "VFR",
      "metarRaw": "METAR KPHL 200754Z 23005KT 10SM FEW080 06/M02 A3012 RMK AO2 SLP199 T00611017 $",
      "metarObsTime": 1776671640
    },
    "KABE": {
      "status": "OK",
      "delay": "—",
      "metarCat": "VFR",
      "metarRaw": "METAR KABE 200751Z 00000KT 10SM FEW080 00/M01 A3009 RMK AO2 SLP193 T00001011 $",
      "metarObsTime": 1776671460
    },
    "KAVP": {
      "status": "OK",
      "delay": "—",
      "metarCat": "VFR",
      "metarRaw": "METAR KAVP 200754Z 00000KT 10SM BKN065 OVC110 00/M01 A3006 RMK AO2 SLP184 T00001011",
      "metarObsTime": 1776671640
    },
    "KHZL": {
      "status": "OK",
      "delay": "—",
      "metarCat": "VFR",
      "metarRaw": "METAR KHZL 200835Z AUTO 00000KT 7SM SCT023 BKN035 OVC050 02/M02 A3009 RMK AO2",
      "metarObsTime": 1776674100
    }
  }
}