{
  "generatedAt": "2026-03-18T00:40:11.874Z",
  "airports": {
    "KPIT": {
      "status": "OK",
      "delay": "—",
      "metarCat": "VFR",
      "metarRaw": "METAR KPIT 172351Z 26010KT 10SM SCT012 SCT030 BKN070 M06/M12 A3015 RMK AO2 SLP237 60000 T10561122 11028 21056 53034",
      "metarObsTime": 1773791460
    },
    "KAGC": {
      "status": "OK",
      "delay": "—",
      "metarCat": "VFR",
      "metarRaw": "METAR KAGC 172353Z 27009KT 10SM CLR M06/M12 A3015 RMK AO2 SLP233 60000 T10611117 11039 21061 53036",
      "metarObsTime": 1773791580
    },
    "KLBE": {
      "status": "OK",
      "delay": "—",
      "metarCat": "VFR",
      "metarRaw": "METAR KLBE 172347Z 24013G21KT 10SM SCT024 BKN070 M06/M09 A3017",
      "metarObsTime": 1773791220
    },
    "KJST": {
      "status": "OK",
      "delay": "—",
      "metarCat": "VFR",
      "metarRaw": "METAR KJST 172354Z AUTO 27014G22KT 8SM FEW030 BKN038 M08/M12 A3003 RMK AO2 UPB16E21SNE08 SLP210 P0000 60000 T10831122 11056 21083 51039",
      "metarObsTime": 1773791640
    },
    "KERI": {
      "status": "OK",
      "delay": "—",
      "metarCat": "VFR",
      "metarRaw": "METAR KERI 172351Z 27010KT 10SM FEW022 BKN043 OVC065 M05/M11 A3014 RMK AO2 SNE39 SLP219 P0000 60001 T10501111 11039 21061 51025",
      "metarObsTime": 1773791460
    },
    "KDUJ": {
      "status": "OK",
      "delay": "—",
      "metarCat": "MVFR",
      "metarRaw": "SPECI KDUJ 180008Z AUTO 27008KT 3SM -SN BR BKN022 OVC070 M09/M11 A3007 RMK AO2 P0000 T10891111",
      "metarObsTime": 1773792480
    },
    "KBFD": {
      "status": "OK",
      "delay": "—",
      "metarCat": "VFR",
      "metarRaw": "METAR KBFD 172353Z AUTO 30009KT 9SM SCT025 BKN033 OVC042 M09/M13 A3002 RMK AO2 SNB06E37 SLP200 P0000 60000 T10941133 11061 21094 51038",
      "metarObsTime": 1773791580
    },
    "KBTP": {
      "status": "OK",
      "delay": "—",
      "metarCat": "VFR",
      "metarRaw": "METAR KBTP 172356Z AUTO 28008G18KT 10SM CLR M07/M13 A3015 RMK AO2 SNB29E40 SLPNO P0000 60002 T10671128 11006 21067 53035 FZRANO $",
      "metarObsTime": 1773791760
    },
    "KFKL": {
      "status": "OK",
      "delay": "—",
      "metarCat": "VFR",
      "metarRaw": "METAR KFKL 172356Z AUTO 26005KT 9SM -SN SCT060 M09/M11 A3011 RMK AO2 SNB01 SLP224 P0000 60000 T10891111 11039 21089 51031 FZRANO",
      "metarObsTime": 1773791760
    },
    "KIDI": {
      "status": "OK",
      "delay": "—",
      "metarCat": "VFR",
      "metarRaw": "METAR KIDI 180015Z AUTO 27007KT 10SM SCT049 BKN060 BKN070 M07/M13 A3013 RMK A01",
      "metarObsTime": 1773792900
    },
    "KMDT": {
      "status": "OK",
      "delay": "—",
      "metarCat": "VFR",
      "metarRaw": "METAR KMDT 172356Z 30012KT 10SM SCT046 BKN055 BKN065 M01/M09 A3011 RMK AO2 SLP200 T10061089 10028 21006 53041",
      "metarObsTime": 1773791760
    },
    "KCXY": {
      "status": "OK",
      "delay": "—",
      "metarCat": "VFR",
      "metarRaw": "METAR KCXY 172356Z 30011G19KT 10SM BKN055 BKN080 BKN095 M01/M10 A3012 RMK AO2 SLP205 60000 T10061100 10028 21011 53042",
      "metarObsTime": 1773791760
    },
    "KMUI": {
      "status": "OK",
      "delay": "—",
      "metarCat": "VFR",
      "metarRaw": "METAR KMUI 172355Z 27010G17KT 10SM FEW035 BKN075 BKN090 M00/M10 A3007 RMK AO2A SLP191 60000 T10041098 10028 21006 52037",
      "metarObsTime": 1773791700
    },
    "KUNV": {
      "status": "OK",
      "delay": "—",
      "metarCat": "VFR",
      "metarRaw": "METAR KUNV 172353Z 29008KT 10SM SCT042 M05/M12 A3008",
      "metarObsTime": 1773791580
    },
    "KAOO": {
      "status": "OK",
      "delay": "—",
      "metarCat": "MVFR",
      "metarRaw": "SPECI KAOO 180002Z AUTO 29013G20KT 4SM -SN FEW017 BKN025 M07/M10 A3010 RMK AO2 P0000 T10671100",
      "metarObsTime": 1773792120
    },
    "KLNS": {
      "status": "OK",
      "delay": "—",
      "metarCat": "VFR",
      "metarRaw": "METAR KLNS 172353Z 29015G20KT 10SM FEW050 M01/M09 A3008 RMK AO2 SLP192 T10061094 10044 21006 53036",
      "metarObsTime": 1773791580
    },
    "KIPT": {
      "status": "OK",
      "delay": "—",
      "metarCat": "VFR",
      "metarRaw": "METAR KIPT 172354Z 28008KT 10SM SCT055 BKN070 M03/M09 A3008 RMK AO2 SLP193 60001 T10281089 10006 21028 53040",
      "metarObsTime": 1773791640
    },
    "KPHL": {
      "status": "OK",
      "delay": "—",
      "metarCat": "VFR",
      "metarRaw": "METAR KPHL 172354Z 28013KT 10SM SCT065 BKN090 03/M12 A3009 RMK AO2 SLP189 T00281117 10061 20028 51037 $",
      "metarObsTime": 1773791640
    },
    "KABE": {
      "status": "OK",
      "delay": "—",
      "metarCat": "VFR",
      "metarRaw": "METAR KABE 172351Z 28011G17KT 10SM FEW065 OVC090 M01/M10 A3006 RMK AO2 SLP183 60000 T10061100 10028 21011 53036 $",
      "metarObsTime": 1773791460
    },
    "KAVP": {
      "status": "OK",
      "delay": "—",
      "metarCat": "VFR",
      "metarRaw": "METAR KAVP 172354Z 27005KT 10SM SCT046 SCT060 BKN080 M03/M08 A3002 RMK AO2 SNE26 SLP176 P0000 60000 T10331083 10006 21033 51037",
      "metarObsTime": 1773791640
    },
    "KHZL": {
      "status": "OK",
      "delay": "—",
      "metarCat": "VFR",
      "metarRaw": "METAR KHZL 180015Z AUTO 27004KT 10SM SCT050 SCT070 M04/M08 RMK AO2",
      "metarObsTime": 1773792900
    }
  }
}