{
  "generatedAt": "2026-03-17T15:40:14.643Z",
  "airports": {
    "KPIT": {
      "status": "OK",
      "delay": "—",
      "metarCat": "MVFR",
      "metarRaw": "SPECI KPIT 171534Z 26016G24KT 10SM FEW017 BKN028 BKN037 M04/M11 A2997 RMK AO2 SNE34 P0000 T10391111 $",
      "metarObsTime": 1773761640
    },
    "KAGC": {
      "status": "OK",
      "delay": "—",
      "metarCat": "VFR",
      "metarRaw": "METAR KAGC 171453Z 26012KT 9SM FEW021 SCT027 OVC033 M04/M09 A2996 RMK AO2 SNE1357B31E49 SLP167 P0000 60000 T10441094 51034",
      "metarObsTime": 1773759180
    },
    "KLBE": {
      "status": "OK",
      "delay": "—",
      "metarCat": "MVFR",
      "metarRaw": "METAR KLBE 171447Z 25016KT 9SM -SN BKN020 BKN033 M04/M08 A2999",
      "metarObsTime": 1773758820
    },
    "KJST": {
      "status": "OK",
      "delay": "—",
      "metarCat": "LIFR",
      "metarRaw": "SPECI KJST 171523Z AUTO 26017G26KT 1/2SM SN FZFG SCT013 BKN022 OVC035 M07/M09 A2986 RMK AO2 PK WND 26032/1509 P0000 T10721094",
      "metarObsTime": 1773760980
    },
    "KERI": {
      "status": "OK",
      "delay": "—",
      "metarCat": "LIFR",
      "metarRaw": "SPECI KERI 171533Z 27015G29KT 1/4SM R06/1400V3000FT SN FZFG BKN007 BKN018 OVC027 M07/M08 A2997 RMK AO2 PK WND 26029/1527 P0001 T10671083",
      "metarObsTime": 1773761580
    },
    "KDUJ": {
      "status": "OK",
      "delay": "—",
      "metarCat": "MVFR",
      "metarRaw": "SPECI KDUJ 171509Z AUTO 28017G35KT 5SM HZ SCT039 BKN049 M06/M13 A2985 RMK AO2 PK WND 27037/1454 T10611133",
      "metarObsTime": 1773760140
    },
    "KBFD": {
      "status": "OK",
      "delay": "—",
      "metarCat": "LIFR",
      "metarRaw": "SPECI KBFD 171530Z AUTO 27014G38KT 1/2SM SN FEW016 BKN025 OVC045 M08/M13 A2981 RMK AO2 PK WND 28038/1524 P0000 T10781128",
      "metarObsTime": 1773761400
    },
    "KBTP": {
      "status": "OK",
      "delay": "—",
      "metarCat": "MVFR",
      "metarRaw": "SPECI KBTP 171525Z AUTO 24014KT 3SM -SN FEW014 BKN030 OVC048 M03/M08 A2996 RMK AO2 P0000 FZRANO $",
      "metarObsTime": 1773761100
    },
    "KFKL": {
      "status": "OK",
      "delay": "—",
      "metarCat": "IFR",
      "metarRaw": "SPECI KFKL 171533Z AUTO 28011G14KT 1 3/4SM -SN FEW008 BKN013 OVC018 M04/M08 A2992 RMK AO2 P0000 FZRANO",
      "metarObsTime": 1773761580
    },
    "KIDI": {
      "status": "OK",
      "delay": "—",
      "metarCat": "MVFR",
      "metarRaw": "METAR KIDI 171535Z AUTO 26019G26KT 4SM HZ FEW030 SCT034 BKN042 M04/M11 A2994 RMK A01",
      "metarObsTime": 1773761700
    },
    "KMDT": {
      "status": "OK",
      "delay": "—",
      "metarCat": "VFR",
      "metarRaw": "METAR KMDT 171456Z 29023G29KT 10SM BKN050 01/M09 A2996 RMK AO2 PK WND 29031/1422 SLP148 T00111089 51033",
      "metarObsTime": 1773759360
    },
    "KCXY": {
      "status": "OK",
      "delay": "—",
      "metarCat": "VFR",
      "metarRaw": "METAR KCXY 171456Z 28014G26KT 10SM BKN050 01/M10 A2997 RMK AO2 PK WND 30026/1450 SLP151 T00061100 51031",
      "metarObsTime": 1773759360
    },
    "KMUI": {
      "status": "OK",
      "delay": "—",
      "metarCat": "VFR",
      "metarRaw": "METAR KMUI 171455Z 28015G26KT 10SM BKN049 00/M11 A2993 RMK AO2A PK WND 28030/20 SLP143 T00031108 52035",
      "metarObsTime": 1773759300
    },
    "KUNV": {
      "status": "OK",
      "delay": "—",
      "metarCat": "VFR",
      "metarRaw": "METAR KUNV 171453Z 29014G25KT 10SM BKN038 BKN045 M03/M10 A2990",
      "metarObsTime": 1773759180
    },
    "KAOO": {
      "status": "OK",
      "delay": "—",
      "metarCat": "VFR",
      "metarRaw": "METAR KAOO 171453Z AUTO 26017G23KT 10SM BKN037 OVC047 M04/M11 A2991 RMK AO2 PK WND 25030/1408 SNE08 SLP149 P0000 60000 T10391111 52019",
      "metarObsTime": 1773759180
    },
    "KLNS": {
      "status": "OK",
      "delay": "—",
      "metarCat": "VFR",
      "metarRaw": "METAR KLNS 171453Z 28021G29KT 10SM SCT049 01/M09 A2995 RMK AO2 PK WND 28032/1429 SLP147 T00111089 51032",
      "metarObsTime": 1773759180
    },
    "KIPT": {
      "status": "OK",
      "delay": "—",
      "metarCat": "VFR",
      "metarRaw": "METAR KIPT 171454Z 25012G19KT 10SM OVC050 M03/M08 A2991 RMK AO2 PK WND 24026/1427 SLP134 T10281078 51038",
      "metarObsTime": 1773759240
    },
    "KPHL": {
      "status": "OK",
      "delay": "—",
      "metarCat": "VFR",
      "metarRaw": "METAR KPHL 171454Z 27018G24KT 10SM SCT055 SCT090 SCT220 03/M09 A2997 RMK AO2 PK WND 29031/1417 SLP148 T00281094 51037 $",
      "metarObsTime": 1773759240
    },
    "KABE": {
      "status": "OK",
      "delay": "—",
      "metarCat": "—",
      "metarRaw": "METAR KABE 171451Z A2991 RMK AO2 PK WND 26027/1357 SLPNO 53039 $",
      "metarObsTime": 1773759060
    },
    "KAVP": {
      "status": "OK",
      "delay": "—",
      "metarCat": "VFR",
      "metarRaw": "SPECI KAVP 171534Z 26014G24KT 10SM BKN039 OVC050 M02/M10 A2987 RMK AO2 T10221100",
      "metarObsTime": 1773761640
    },
    "KHZL": {
      "status": "OK",
      "delay": "—",
      "metarCat": "VFR",
      "metarRaw": "METAR KHZL 171535Z AUTO 27005KT 7SM -SN OVC031 M02/M10 RMK AO2",
      "metarObsTime": 1773761700
    }
  }
}