{
  "generatedAt": "2026-03-16T13:50:16.830Z",
  "airports": {
    "KPIT": {
      "status": "OK",
      "delay": "—",
      "metarCat": "VFR",
      "metarRaw": "METAR KPIT 161251Z 18008KT 10SM -RA SCT045 BKN065 OVC090 13/11 A2941 RMK AO2 SLP961 T01280106 PNO VISNO SE $",
      "metarObsTime": 1773665460
    },
    "KAGC": {
      "status": "OK",
      "delay": "—",
      "metarCat": "VFR",
      "metarRaw": "METAR KAGC 161253Z 17007KT 10SM -RA OVC070 12/11 A2943 RMK AO2 PK WND 23028/1157 SLP969 P0002 T01220111",
      "metarObsTime": 1773665580
    },
    "KLBE": {
      "status": "OK",
      "delay": "—",
      "metarCat": "VFR",
      "metarRaw": "METAR KLBE 161345Z 17009KT 6SM BR FEW047 OVC065 13/12 A2948",
      "metarObsTime": 1773668700
    },
    "KJST": {
      "status": "OK",
      "delay": "—",
      "metarCat": "MVFR",
      "metarRaw": "SPECI KJST 161331Z AUTO 26014G21KT 3SM RA BR SCT013 BKN025 OVC048 12/11 A2950 RMK AO2 PK WND 15032/1309 WSHFT 1310 RAB23 P0005 T01170106",
      "metarObsTime": 1773667860
    },
    "KERI": {
      "status": "OK",
      "delay": "—",
      "metarCat": "VFR",
      "metarRaw": "METAR KERI 161251Z 18011KT 10SM -RA SCT050 BKN070 OVC090 13/12 A2929 RMK AO2 SLP916 P0006 T01330117 $",
      "metarObsTime": 1773665460
    },
    "KDUJ": {
      "status": "OK",
      "delay": "—",
      "metarCat": "VFR",
      "metarRaw": "METAR KDUJ 161253Z AUTO 17013G25KT 10SM BKN050 BKN065 14/10 A2940 RMK AO2 SLP957 T01390100",
      "metarObsTime": 1773665580
    },
    "KBFD": {
      "status": "OK",
      "delay": "—",
      "metarCat": "MVFR",
      "metarRaw": "SPECI KBFD 161328Z AUTO 17009G24KT 120V200 10SM BKN015 BKN024 OVC032 13/10 A2940 RMK AO2 PK WND 15028/1257 T01280100",
      "metarObsTime": 1773667680
    },
    "KBTP": {
      "status": "OK",
      "delay": "—",
      "metarCat": "—",
      "metarRaw": "—",
      "metarObsTime": null
    },
    "KFKL": {
      "status": "OK",
      "delay": "—",
      "metarCat": "VFR",
      "metarRaw": "METAR KFKL 161256Z AUTO 20010KT 10SM -RA FEW014 SCT044 OVC055 12/11 A2938 RMK AO2 PK WND 23026/1223 WSHFT 1209 RAB16 SLP950 P0000 T01220106",
      "metarObsTime": 1773665760
    },
    "KIDI": {
      "status": "OK",
      "delay": "—",
      "metarCat": "VFR",
      "metarRaw": "METAR KIDI 161335Z AUTO 23010KT 9SM FEW030 BKN050 OVC060 13/11 A2948 RMK A01",
      "metarObsTime": 1773668100
    },
    "KMDT": {
      "status": "OK",
      "delay": "—",
      "metarCat": "MVFR",
      "metarRaw": "METAR KMDT 161256Z 12008KT 10SM BKN013 OVC021 15/14 A2960 RMK AO2 RAB00E11 SLP023 P0001 T01500139",
      "metarObsTime": 1773665760
    },
    "KCXY": {
      "status": "OK",
      "delay": "—",
      "metarCat": "MVFR",
      "metarRaw": "SPECI KCXY 161337Z 15010G19KT 6SM BR BKN016 BKN024 OVC029 17/16 A2957 RMK AO2 PRESFR T01720156",
      "metarObsTime": 1773668220
    },
    "KMUI": {
      "status": "OK",
      "delay": "—",
      "metarCat": "IFR",
      "metarRaw": "SPECI KMUI 161310Z 17005KT 10SM OVC005 16/16 A2959 RMK AO2A SLP023",
      "metarObsTime": 1773666600
    },
    "KUNV": {
      "status": "OK",
      "delay": "—",
      "metarCat": "MVFR",
      "metarRaw": "METAR KUNV 161253Z 21009G14KT 170V230 10SM OVC012 15/14 A2952",
      "metarObsTime": 1773665580
    },
    "KAOO": {
      "status": "OK",
      "delay": "—",
      "metarCat": "VFR",
      "metarRaw": "METAR KAOO 161253Z AUTO 17021G29KT 10SM BKN044 15/13 A2949 RMK AO2 PK WND 17038/1154 SLP986 T01500128",
      "metarObsTime": 1773665580
    },
    "KLNS": {
      "status": "OK",
      "delay": "—",
      "metarCat": "MVFR",
      "metarRaw": "SPECI KLNS 161311Z 19017G27KT 10SM BKN010 OVC014 17/16 A2962 RMK AO2 PK WND 18033/1258 CIG 006V012 T01720156",
      "metarObsTime": 1773666660
    },
    "KIPT": {
      "status": "OK",
      "delay": "—",
      "metarCat": "MVFR",
      "metarRaw": "SPECI KIPT 161341Z 13014G29KT 10SM SCT010 OVC015 16/13 A2951 RMK AO2 PK WND 10029/1336 T01560133",
      "metarObsTime": 1773668460
    },
    "KPHL": {
      "status": "OK",
      "delay": "—",
      "metarCat": "IFR",
      "metarRaw": "SPECI KPHL 161316Z 17011KT 10SM BKN007 OVC023 17/15 A2969 RMK AO2 RAE14 CIG 006V009 VCSH P0001 T01670150 $",
      "metarObsTime": 1773666960
    },
    "KABE": {
      "status": "OK",
      "delay": "—",
      "metarCat": "IFR",
      "metarRaw": "SPECI KABE 161333Z 20011G16KT 2SM -RA OVC010 16/15 A2965 RMK AO2 SFC VIS 10 P0009 T01610150 $",
      "metarObsTime": 1773667980
    },
    "KAVP": {
      "status": "OK",
      "delay": "—",
      "metarCat": "MVFR",
      "metarRaw": "SPECI KAVP 161346Z 17011G23KT 9SM -RA SCT018 BKN025 OVC060 17/14 A2959 RMK AO2 RAE20B36 P0000 T01670139",
      "metarObsTime": 1773668760
    },
    "KHZL": {
      "status": "OK",
      "delay": "—",
      "metarCat": "LIFR",
      "metarRaw": "METAR KHZL 161335Z AUTO 14007KT 110V170 5SM -DZ OVC003 13/12 A2965 RMK AO2 P0001",
      "metarObsTime": 1773668100
    }
  }
}