{
  "generatedAt": "2026-04-09T21:50:40.942Z",
  "airports": {
    "KPIT": {
      "status": "OK",
      "delay": "—",
      "metarCat": "VFR",
      "metarRaw": "METAR KPIT 092051Z 27011G22KT 10SM SCT050 SCT130 SCT250 23/04 A3023 RMK AO2 SLP243 T02330039 56013",
      "metarObsTime": 1775767860
    },
    "KAGC": {
      "status": "OK",
      "delay": "—",
      "metarCat": "VFR",
      "metarRaw": "METAR KAGC 092053Z 24006G15KT 10SM CLR 23/04 A3024 RMK AO2 PK WND 20029/2027 SLP243 T02280044 56013",
      "metarObsTime": 1775767980
    },
    "KLBE": {
      "status": "OK",
      "delay": "—",
      "metarCat": "VFR",
      "metarRaw": "METAR KLBE 092147Z 19011KT 10SM FEW080 23/06 A3026",
      "metarObsTime": 1775771220
    },
    "KJST": {
      "status": "OK",
      "delay": "—",
      "metarCat": "VFR",
      "metarRaw": "METAR KJST 092054Z AUTO 15011KT 10SM CLR 18/00 A3029 RMK AO2 SLP262 T01780000 56014",
      "metarObsTime": 1775768040
    },
    "KERI": {
      "status": "OK",
      "delay": "—",
      "metarCat": "VFR",
      "metarRaw": "METAR KERI 092051Z 26007G16KT 10SM BKN080 OVC095 16/06 A3019 RMK AO2 SLP226 T01560056 53008 $",
      "metarObsTime": 1775767860
    },
    "KDUJ": {
      "status": "OK",
      "delay": "—",
      "metarCat": "VFR",
      "metarRaw": "METAR KDUJ 092053Z AUTO 21009G19KT 170V250 10SM CLR 21/03 A3023 RMK AO2 SLP238 T02110028 56013",
      "metarObsTime": 1775767980
    },
    "KBFD": {
      "status": "OK",
      "delay": "—",
      "metarCat": "VFR",
      "metarRaw": "METAR KBFD 092053Z AUTO 24011G24KT 10SM SCT085 21/01 A3021 RMK AO2 SLP228 T02060011 56016",
      "metarObsTime": 1775767980
    },
    "KBTP": {
      "status": "OK",
      "delay": "—",
      "metarCat": "VFR",
      "metarRaw": "METAR KBTP 092056Z AUTO 23007G18KT 10SM CLR 23/05 A3023 RMK AO2 SLP243 T02280050 56014 $",
      "metarObsTime": 1775768160
    },
    "KFKL": {
      "status": "OK",
      "delay": "—",
      "metarCat": "VFR",
      "metarRaw": "METAR KFKL 092056Z AUTO 22009G18KT 180V270 10SM CLR 23/04 A3021 RMK AO2 SLP230 T02280044 58015",
      "metarObsTime": 1775768160
    },
    "KIDI": {
      "status": "OK",
      "delay": "—",
      "metarCat": "VFR",
      "metarRaw": "METAR KIDI 092135Z AUTO 22013G19KT 10SM CLR 23/05 A3024 RMK A01",
      "metarObsTime": 1775770500
    },
    "KMDT": {
      "status": "OK",
      "delay": "—",
      "metarCat": "VFR",
      "metarRaw": "METAR KMDT 092056Z 15011KT 10SM BKN250 16/00 A3039 RMK AO2 SLP294 T01560000 56025",
      "metarObsTime": 1775768160
    },
    "KCXY": {
      "status": "OK",
      "delay": "—",
      "metarCat": "VFR",
      "metarRaw": "METAR KCXY 092056Z VRB05KT 10SM CLR 17/M03 A3040 RMK AO2 SLP295 T01671028 56024 $",
      "metarObsTime": 1775768160
    },
    "KMUI": {
      "status": "OK",
      "delay": "—",
      "metarCat": "VFR",
      "metarRaw": "METAR KMUI 092055Z 17011KT 10SM BKN250 16/M01 A3039 RMK AO2A SLP297 T01601011 57025",
      "metarObsTime": 1775768100
    },
    "KUNV": {
      "status": "OK",
      "delay": "—",
      "metarCat": "VFR",
      "metarRaw": "METAR KUNV 092053Z 18008G14KT 150V210 10SM CLR 17/00 A3032",
      "metarObsTime": 1775767980
    },
    "KAOO": {
      "status": "OK",
      "delay": "—",
      "metarCat": "VFR",
      "metarRaw": "METAR KAOO 092053Z AUTO 16011KT 10SM CLR 17/01 A3033 RMK AO2 SLP275 T01670011 56018 $",
      "metarObsTime": 1775767980
    },
    "KLNS": {
      "status": "OK",
      "delay": "—",
      "metarCat": "VFR",
      "metarRaw": "METAR KLNS 092053Z 14008G16KT 10SM CLR 14/M01 A3042 RMK AO2 SLP302 T01441006 56025",
      "metarObsTime": 1775767980
    },
    "KIPT": {
      "status": "OK",
      "delay": "—",
      "metarCat": "VFR",
      "metarRaw": "METAR KIPT 092054Z 10SM CLR 16/M02 A3034 RMK AO2 PK WND 13031/2008 SLP276 T01561022 56023",
      "metarObsTime": 1775768040
    },
    "KPHL": {
      "status": "OK",
      "delay": "—",
      "metarCat": "VFR",
      "metarRaw": "METAR KPHL 092054Z 23009KT 200V270 10SM FEW200 SCT300 SCT350 16/03 A3045 RMK AO2 SLP312 T01610028 56026 $",
      "metarObsTime": 1775768040
    },
    "KABE": {
      "status": "OK",
      "delay": "—",
      "metarCat": "VFR",
      "metarRaw": "METAR KABE 092051Z 19008KT 10SM CLR 16/M03 A3042 RMK AO2 SLP304 T01561028 56027 $",
      "metarObsTime": 1775767860
    },
    "KAVP": {
      "status": "OK",
      "delay": "—",
      "metarCat": "VFR",
      "metarRaw": "METAR KAVP 092054Z 19009G22KT 140V220 10SM CLR 15/M07 A3037 RMK AO2 SLP286 T01501067 56023",
      "metarObsTime": 1775768040
    },
    "KHZL": {
      "status": "OK",
      "delay": "—",
      "metarCat": "VFR",
      "metarRaw": "METAR KHZL 092135Z AUTO 17007KT 130V210 10SM CLR 14/M06 A3040 RMK AO2",
      "metarObsTime": 1775770500
    }
  }
}