{
  "generatedAt": "2026-03-21T14:50:16.111Z",
  "airports": {
    "KPIT": {
      "status": "OK",
      "delay": "—",
      "metarCat": "MVFR",
      "metarRaw": "SPECI KPIT 211416Z 34006KT 9SM OVC015 07/03 A2999 RMK AO2 T00670028",
      "metarObsTime": 1774102560
    },
    "KAGC": {
      "status": "OK",
      "delay": "—",
      "metarCat": "MVFR",
      "metarRaw": "METAR KAGC 211353Z VRB03KT 6SM HZ BKN018 07/03 A2997 RMK AO2 SLP155 T00720033",
      "metarObsTime": 1774101180
    },
    "KLBE": {
      "status": "OK",
      "delay": "—",
      "metarCat": "MVFR",
      "metarRaw": "METAR KLBE 211353Z 00000KT 10SM OVC020 09/06 A2998",
      "metarObsTime": 1774101180
    },
    "KJST": {
      "status": "OK",
      "delay": "—",
      "metarCat": "VFR",
      "metarRaw": "SPECI KJST 211437Z AUTO 00000KT 10SM SCT013 07/03 A2993 RMK AO2 T00670028",
      "metarObsTime": 1774103820
    },
    "KERI": {
      "status": "OK",
      "delay": "—",
      "metarCat": "MVFR",
      "metarRaw": "SPECI KERI 211423Z 08010KT 10SM FEW008 OVC015 02/01 A3003 RMK AO2 T00220011",
      "metarObsTime": 1774102980
    },
    "KDUJ": {
      "status": "OK",
      "delay": "—",
      "metarCat": "MVFR",
      "metarRaw": "SPECI KDUJ 211438Z AUTO 34006KT 10SM OVC015 04/01 A2999 RMK AO2 T00390006",
      "metarObsTime": 1774103880
    },
    "KBFD": {
      "status": "OK",
      "delay": "—",
      "metarCat": "IFR",
      "metarRaw": "SPECI KBFD 211419Z AUTO VRB04KT 10SM OVC005 01/M01 A2998 RMK AO2 CIG 003V009 T00061006",
      "metarObsTime": 1774102740
    },
    "KBTP": {
      "status": "OK",
      "delay": "—",
      "metarCat": "MVFR",
      "metarRaw": "METAR KBTP 211356Z AUTO VRB04KT 10SM OVC018 07/03 A2999 RMK AO2 SLP164 T00670033 $",
      "metarObsTime": 1774101360
    },
    "KFKL": {
      "status": "OK",
      "delay": "—",
      "metarCat": "IFR",
      "metarRaw": "METAR KFKL 211356Z AUTO 02008KT 10SM OVC009 03/01 A3001 RMK AO2 SLP172 T00280011",
      "metarObsTime": 1774101360
    },
    "KIDI": {
      "status": "OK",
      "delay": "—",
      "metarCat": "MVFR",
      "metarRaw": "METAR KIDI 211435Z AUTO 36009KT 10SM OVC018 07/04 A2999 RMK A01",
      "metarObsTime": 1774103700
    },
    "KMDT": {
      "status": "OK",
      "delay": "—",
      "metarCat": "VFR",
      "metarRaw": "METAR KMDT 211356Z 34010KT 10SM CLR 12/07 A2990 RMK AO2 SLP125 T01220067",
      "metarObsTime": 1774101360
    },
    "KCXY": {
      "status": "OK",
      "delay": "—",
      "metarCat": "VFR",
      "metarRaw": "METAR KCXY 211356Z 34007KT 290V360 10SM SCT024 12/06 A2991 RMK AO2 SLP130 T01170061",
      "metarObsTime": 1774101360
    },
    "KMUI": {
      "status": "OK",
      "delay": "—",
      "metarCat": "MVFR",
      "metarRaw": "SPECI KMUI 211411Z AUTO 36009G16KT 10SM BKN026 11/06 A2990 RMK AO2 BKN V SCT SLP129",
      "metarObsTime": 1774102260
    },
    "KUNV": {
      "status": "OK",
      "delay": "—",
      "metarCat": "—",
      "metarRaw": "—",
      "metarObsTime": null
    },
    "KAOO": {
      "status": "OK",
      "delay": "—",
      "metarCat": "VFR",
      "metarRaw": "METAR KAOO 211353Z AUTO 35009KT 10SM CLR 09/03 A2994 RMK AO2 SLP141 T00890033",
      "metarObsTime": 1774101180
    },
    "KLNS": {
      "status": "OK",
      "delay": "—",
      "metarCat": "VFR",
      "metarRaw": "METAR KLNS 211353Z 01013G20KT 10SM SCT020 11/06 A2989 RMK AO2 SLP123 T01110061",
      "metarObsTime": 1774101180
    },
    "KIPT": {
      "status": "OK",
      "delay": "—",
      "metarCat": "MVFR",
      "metarRaw": "METAR KIPT 211354Z 35007KT 10SM OVC018 06/02 A2997 RMK AO2 SLP153 T00560017 $",
      "metarObsTime": 1774101240
    },
    "KPHL": {
      "status": "OK",
      "delay": "—",
      "metarCat": "VFR",
      "metarRaw": "METAR KPHL 211354Z 35016G20KT 10SM FEW018 14/09 A2987 RMK AO2 PK WND 35029/1312 SLP116 T01390094 $",
      "metarObsTime": 1774101240
    },
    "KABE": {
      "status": "OK",
      "delay": "—",
      "metarCat": "MVFR",
      "metarRaw": "METAR KABE 211351Z 33013KT 10SM OVC021 08/03 A2991 RMK AO2 SLP131 T00780033 $",
      "metarObsTime": 1774101060
    },
    "KAVP": {
      "status": "OK",
      "delay": "—",
      "metarCat": "MVFR",
      "metarRaw": "METAR KAVP 211354Z 35012G18KT 10SM OVC018 03/M01 A2996 RMK AO2 SLP148 T00281011",
      "metarObsTime": 1774101240
    },
    "KHZL": {
      "status": "OK",
      "delay": "—",
      "metarCat": "IFR",
      "metarRaw": "METAR KHZL 211435Z AUTO 33012KT 10SM OVC007 02/00 A2996 RMK AO2",
      "metarObsTime": 1774103700
    }
  }
}