{
  "generatedAt": "2026-03-23T12:30:20.737Z",
  "airports": {
    "KPIT": {
      "status": "OK",
      "delay": "—",
      "metarCat": "MVFR",
      "metarRaw": "SPECI KPIT 231224Z 34016G23KT 10SM BKN010 OVC019 03/01 A2995 RMK AO2 PK WND 32028/1208 T00280006",
      "metarObsTime": 1774268640
    },
    "KAGC": {
      "status": "OK",
      "delay": "—",
      "metarCat": "MVFR",
      "metarRaw": "SPECI KAGC 231226Z 33017G28KT 10SM FEW008 BKN012 OVC021 03/01 A2993 RMK AO2 PK WND 32028/1221 RAB02E11 P0000 T00280006",
      "metarObsTime": 1774268760
    },
    "KLBE": {
      "status": "OK",
      "delay": "—",
      "metarCat": "IFR",
      "metarRaw": "METAR KLBE 231150Z 29016KT 2SM BR OVC007 05/05 A2990",
      "metarObsTime": 1774266600
    },
    "KJST": {
      "status": "OK",
      "delay": "—",
      "metarCat": "LIFR",
      "metarRaw": "SPECI KJST 231224Z AUTO 30021G29KT 2 1/2SM -RA BR BKN004 OVC008 04/03 A2981 RMK AO2 PK WND 29029/1207 CIG 002V007 P0000 T00390033",
      "metarObsTime": 1774268640
    },
    "KERI": {
      "status": "OK",
      "delay": "—",
      "metarCat": "VFR",
      "metarRaw": "SPECI KERI 231222Z 03013G21KT 10SM FEW015 SCT023 OVC036 01/M03 A3002 RMK AO2 T00061028",
      "metarObsTime": 1774268520
    },
    "KDUJ": {
      "status": "OK",
      "delay": "—",
      "metarCat": "IFR",
      "metarRaw": "METAR KDUJ 231153Z AUTO 34009G17KT 4SM BR OVC006 02/01 A2983 RMK AO2 CIG 004V010 SLP109 60001 70086 T00220011 10083 20022 53030",
      "metarObsTime": 1774266780
    },
    "KBFD": {
      "status": "OK",
      "delay": "—",
      "metarCat": "LIFR",
      "metarRaw": "SPECI KBFD 231200Z AUTO 35010KT 1 3/4SM BR OVC004 M02/M03 A2986 RMK AO2 T10221028",
      "metarObsTime": 1774267200
    },
    "KBTP": {
      "status": "OK",
      "delay": "—",
      "metarCat": "MVFR",
      "metarRaw": "SPECI KBTP 231214Z AUTO 33012G21KT 10SM BKN015 BKN019 OVC023 02/01 A2995 RMK AO2 FZRANO $",
      "metarObsTime": 1774268040
    },
    "KFKL": {
      "status": "OK",
      "delay": "—",
      "metarCat": "IFR",
      "metarRaw": "METAR KFKL 231156Z AUTO 34010G17KT 310V020 10SM OVC006 M01/M01 A2994 RMK AO2 UPE14 CIG 005V012 SLP150 P0000 60000 70036 T10061011 10044 21006 53044 FZRANO",
      "metarObsTime": 1774266960
    },
    "KIDI": {
      "status": "OK",
      "delay": "—",
      "metarCat": "IFR",
      "metarRaw": "METAR KIDI 231215Z AUTO 31012G18KT 1 1/4SM BR OVC007 04/04 A2987 RMK A01",
      "metarObsTime": 1774268100
    },
    "KMDT": {
      "status": "OK",
      "delay": "—",
      "metarCat": "IFR",
      "metarRaw": "METAR KMDT 231156Z 32009KT 9SM OVC006 09/08 A2971 RMK AO2 SLP063 60043 70059 T00890083 10144 20089 53008 $",
      "metarObsTime": 1774266960
    },
    "KCXY": {
      "status": "OK",
      "delay": "—",
      "metarCat": "MVFR",
      "metarRaw": "METAR KCXY 231156Z 33010KT 10SM FEW008 OVC013 08/07 A2974 RMK AO2 SLP070 60043 70065 T00830067 10139 20083 53016",
      "metarObsTime": 1774266960
    },
    "KMUI": {
      "status": "OK",
      "delay": "—",
      "metarCat": "IFR",
      "metarRaw": "METAR KMUI 231156Z VRB04KT 7SM BKN006 OVC014 08/08 A2971 RMK AO2A RAE40 SLP064 60042 70053 T00830080 10128 20083 53013",
      "metarObsTime": 1774266960
    },
    "KUNV": {
      "status": "OK",
      "delay": "—",
      "metarCat": "IFR",
      "metarRaw": "SPECI KUNV 231222Z 04008KT 3SM BR BKN005 OVC010 03/03 A2983",
      "metarObsTime": 1774268520
    },
    "KAOO": {
      "status": "OK",
      "delay": "—",
      "metarCat": "MVFR",
      "metarRaw": "METAR KAOO 231153Z AUTO 33013G21KT 6SM -RA BR SCT018 OVC026 11/08 A2975 RMK AO2 RAB38 SLP071 P0000 60019 70049 T01060083 10117 20106 53021",
      "metarObsTime": 1774266780
    },
    "KLNS": {
      "status": "OK",
      "delay": "—",
      "metarCat": "IFR",
      "metarRaw": "METAR KLNS 231153Z 02011KT 10SM OVC006 11/09 A2969 RMK AO2 CIG 004V008 SLP054 60047 70056 T01060094 10144 20106 53001",
      "metarObsTime": 1774266780
    },
    "KIPT": {
      "status": "OK",
      "delay": "—",
      "metarCat": "MVFR",
      "metarRaw": "METAR KIPT 231154Z 33007KT 10SM OVC019 02/00 A2983 RMK AO2 SLP104 60007 70084 T00220000 10056 20022 53027 $",
      "metarObsTime": 1774266840
    },
    "KPHL": {
      "status": "OK",
      "delay": "—",
      "metarCat": "IFR",
      "metarRaw": "METAR KPHL 231154Z 06006KT 8SM -RA BKN008 BKN022 OVC035 12/10 A2969 RMK AO2 SLP052 P0004 60007 70007 T01170100 10144 20117 56007 $",
      "metarObsTime": 1774266840
    },
    "KABE": {
      "status": "OK",
      "delay": "—",
      "metarCat": "MVFR",
      "metarRaw": "SPECI KABE 231212Z 04009KT 10SM FEW006 SCT012 OVC023 07/06 A2975 RMK AO2 RAE1157 P0000 T00670056 $",
      "metarObsTime": 1774267920
    },
    "KAVP": {
      "status": "OK",
      "delay": "—",
      "metarCat": "IFR",
      "metarRaw": "METAR KAVP 231154Z 01006KT 2 1/2SM -RA BR OVC008 02/01 A2978 RMK AO2 SFC VIS 3 RAB09 CIG 005V011 SLP088 P0000 60022 70106 T00170011 10056 20017 53011",
      "metarObsTime": 1774266840
    },
    "KHZL": {
      "status": "OK",
      "delay": "—",
      "metarCat": "LIFR",
      "metarRaw": "METAR KHZL 231215Z AUTO 34005KT 1 1/4SM -DZ OVC003 02/01 A2978 RMK AO2",
      "metarObsTime": 1774268100
    }
  }
}