{
  "generatedAt": "2026-04-03T19:50:31.558Z",
  "airports": {
    "KPIT": {
      "status": "OK",
      "delay": "—",
      "metarCat": "VFR",
      "metarRaw": "METAR KPIT 031851Z 22011G28KT 10SM SCT027 BKN038 BKN170 23/15 A3011 RMK AO2 PK WND 23028/1846 SLP198 T02330150",
      "metarObsTime": 1775242260
    },
    "KAGC": {
      "status": "OK",
      "delay": "—",
      "metarCat": "VFR",
      "metarRaw": "METAR KAGC 031853Z 25017G26KT 10SM BKN038 OVC050 23/15 A3013 RMK AO2 PK WND 23026/1822 SLP200 T02280150",
      "metarObsTime": 1775242380
    },
    "KLBE": {
      "status": "OK",
      "delay": "—",
      "metarCat": "VFR",
      "metarRaw": "METAR KLBE 031947Z 24011G20KT 10SM BKN047 BKN055 24/16 A3014",
      "metarObsTime": 1775245620
    },
    "KJST": {
      "status": "OK",
      "delay": "—",
      "metarCat": "VFR",
      "metarRaw": "METAR KJST 031854Z AUTO 25014G22KT 10SM SCT037 OVC049 21/13 A3016 RMK AO2 PK WND 27026/1803 SLP208 T02110133",
      "metarObsTime": 1775242440
    },
    "KERI": {
      "status": "OK",
      "delay": "—",
      "metarCat": "VFR",
      "metarRaw": "METAR KERI 031851Z AUTO 25018G34KT 10SM SCT045 SCT055 21/14 A3002 RMK AO2 PK WND 26034/1849 SLP162 T02110144",
      "metarObsTime": 1775242260
    },
    "KDUJ": {
      "status": "OK",
      "delay": "—",
      "metarCat": "VFR",
      "metarRaw": "METAR KDUJ 031853Z AUTO 22014G27KT 10SM SCT035 BKN047 BKN060 22/14 A3010 RMK AO2 PK WND 23029/1818 SLP187 T02220144",
      "metarObsTime": 1775242380
    },
    "KBFD": {
      "status": "OK",
      "delay": "—",
      "metarCat": "VFR",
      "metarRaw": "METAR KBFD 031853Z AUTO 25009G21KT 210V280 10SM SCT033 BKN042 OVC080 22/14 A3007 RMK AO2 SLP177 T02170139",
      "metarObsTime": 1775242380
    },
    "KBTP": {
      "status": "OK",
      "delay": "—",
      "metarCat": "VFR",
      "metarRaw": "METAR KBTP 031856Z AUTO 24012G21KT 10SM BKN038 OVC050 23/16 A3011 RMK AO2 SLP197 T02330156 $",
      "metarObsTime": 1775242560
    },
    "KFKL": {
      "status": "OK",
      "delay": "—",
      "metarCat": "VFR",
      "metarRaw": "METAR KFKL 031856Z AUTO 25010G16KT 10SM FEW040 BKN065 BKN100 22/15 A3009 RMK AO2 RAB34E47 SLP183 P0000 T02220150",
      "metarObsTime": 1775242560
    },
    "KIDI": {
      "status": "OK",
      "delay": "—",
      "metarCat": "VFR",
      "metarRaw": "METAR KIDI 031935Z AUTO 25013G20KT 10SM BKN039 BKN048 OVC055 22/15 A3013 RMK A01",
      "metarObsTime": 1775244900
    },
    "KMDT": {
      "status": "OK",
      "delay": "—",
      "metarCat": "VFR",
      "metarRaw": "METAR KMDT 031856Z 14003KT 9SM SCT014 BKN200 16/12 A3018 RMK AO2 SLP220 T01560117 $",
      "metarObsTime": 1775242560
    },
    "KCXY": {
      "status": "OK",
      "delay": "—",
      "metarCat": "VFR",
      "metarRaw": "METAR KCXY 031856Z 00000KT 6SM HZ SCT014 16/12 A3018 RMK AO2 SLP222 T01560117",
      "metarObsTime": 1775242560
    },
    "KMUI": {
      "status": "OK",
      "delay": "—",
      "metarCat": "IFR",
      "metarRaw": "SPECI KMUI 031927Z AUTO 00000KT 10SM OVC008 15/14 A3017 RMK AO2 SLP221",
      "metarObsTime": 1775244420
    },
    "KUNV": {
      "status": "OK",
      "delay": "—",
      "metarCat": "—",
      "metarRaw": "—",
      "metarObsTime": null
    },
    "KAOO": {
      "status": "OK",
      "delay": "—",
      "metarCat": "VFR",
      "metarRaw": "METAR KAOO 031853Z AUTO 20008KT 10SM SCT060 OVC110 24/14 A3013 RMK AO2 SLP201 T02390144",
      "metarObsTime": 1775242380
    },
    "KLNS": {
      "status": "OK",
      "delay": "—",
      "metarCat": "VFR",
      "metarRaw": "SPECI KLNS 031909Z 21008KT 10SM FEW019 18/13 A3018 RMK AO2 T01780133",
      "metarObsTime": 1775243340
    },
    "KIPT": {
      "status": "OK",
      "delay": "—",
      "metarCat": "MVFR",
      "metarRaw": "SPECI KIPT 031937Z 09005KT 10SM BKN015 13/09 A3012 RMK AO2 T01330094",
      "metarObsTime": 1775245020
    },
    "KPHL": {
      "status": "OK",
      "delay": "—",
      "metarCat": "IFR",
      "metarRaw": "METAR KPHL 031854Z 24007KT 7SM OVC009 15/12 A3022 RMK AO2 SLP232 T01500117 $",
      "metarObsTime": 1775242440
    },
    "KABE": {
      "status": "OK",
      "delay": "—",
      "metarCat": "VFR",
      "metarRaw": "SPECI KABE 031924Z 28007KT 10SM FEW017 15/11 A3018 RMK AO2 T01500106 $",
      "metarObsTime": 1775244240
    },
    "KAVP": {
      "status": "OK",
      "delay": "—",
      "metarCat": "VFR",
      "metarRaw": "METAR KAVP 031854Z 25010KT 10SM FEW120 18/10 A3013 RMK AO2 SLP201 T01780100",
      "metarObsTime": 1775242440
    },
    "KHZL": {
      "status": "OK",
      "delay": "—",
      "metarCat": "VFR",
      "metarRaw": "METAR KHZL 031935Z AUTO 20005KT 10SM BKN110 17/09 A3018 RMK AO2",
      "metarObsTime": 1775244900
    }
  }
}