{
  "generatedAt": "2026-04-27T21:51:03.917Z",
  "faaFlow": {
    "updatedAt": "2026-04-27T21:51:02.517Z",
    "source": "https://www.fly.faa.gov/adv/adv_spt",
    "terminal": [
      {
        "time": "—",
        "text": "AFTER",
        "code": "FLOW",
        "label": "FAA flow impact",
        "level": "yellow",
        "section": "Terminal Planned",
        "airports": []
      },
      {
        "time": "0200",
        "text": "MEM GROUND STOP/DELAY PROGRAM POSSIBLE",
        "code": "GS",
        "label": "Ground stop possible",
        "level": "yellow",
        "section": "Terminal Planned",
        "airports": []
      },
      {
        "time": "—",
        "text": "AFTER",
        "code": "FLOW",
        "label": "FAA flow impact",
        "level": "yellow",
        "section": "Terminal Planned",
        "airports": []
      },
      {
        "time": "0200",
        "text": "IND GROUND STOP POSSIBLE",
        "code": "GS",
        "label": "Ground stop possible",
        "level": "yellow",
        "section": "Terminal Planned",
        "airports": []
      },
      {
        "time": "—",
        "text": "AFTER",
        "code": "FLOW",
        "label": "FAA flow impact",
        "level": "yellow",
        "section": "Terminal Planned",
        "airports": []
      },
      {
        "time": "0200",
        "text": "SDF GROUND STOP/DELAY PROGRAM POSSIBLE",
        "code": "GS",
        "label": "Ground stop possible",
        "level": "yellow",
        "section": "Terminal Planned",
        "airports": []
      },
      {
        "time": "—",
        "text": "AFTER",
        "code": "FLOW",
        "label": "FAA flow impact",
        "level": "yellow",
        "section": "Terminal Planned",
        "airports": []
      },
      {
        "time": "0300",
        "text": "SEA GROUND STOP/DELAY PROGRAM POSSIBLE",
        "code": "GS",
        "label": "Ground stop possible",
        "level": "yellow",
        "section": "Terminal Planned",
        "airports": []
      }
    ],
    "enroute": [],
    "airports": {
      "KPIT": null,
      "KAGC": null,
      "KLBE": null,
      "KJST": null,
      "KERI": null,
      "KDUJ": null,
      "KBFD": null,
      "KBTP": null,
      "KFKL": null,
      "KIDI": null,
      "KMDT": null,
      "KCXY": null,
      "KMUI": null,
      "KUNV": null,
      "KAOO": null,
      "KLNS": null,
      "KIPT": null,
      "KPHL": null,
      "KABE": null,
      "KAVP": null,
      "KHZL": null
    }
  },
  "airports": {
    "KPIT": {
      "status": "OK",
      "delay": "—",
      "metarCat": "VFR",
      "metarRaw": "METAR KPIT 272051Z 13013G20KT 10SM FEW130 BKN250 23/02 A3004 RMK AO2 SLP178 T02330022 58025",
      "metarObsTime": 1777323060,
      "faaFlow": null
    },
    "KAGC": {
      "status": "OK",
      "delay": "—",
      "metarCat": "VFR",
      "metarRaw": "METAR KAGC 272053Z 11011G18KT 10SM CLR 22/04 A3005 RMK AO2 SLP180 T02220039 57020",
      "metarObsTime": 1777323180,
      "faaFlow": null
    },
    "KLBE": {
      "status": "OK",
      "delay": "—",
      "metarCat": "VFR",
      "metarRaw": "METAR KLBE 272147Z 12009G19KT 10SM CLR 22/04 A3009",
      "metarObsTime": 1777326420,
      "faaFlow": null
    },
    "KJST": {
      "status": "OK",
      "delay": "—",
      "metarCat": "VFR",
      "metarRaw": "METAR KJST 272054Z AUTO 13009G17KT 10SM CLR 17/04 A3014 RMK AO2 SLP210 T01720044 58014",
      "metarObsTime": 1777323240,
      "faaFlow": null
    },
    "KERI": {
      "status": "OK",
      "delay": "—",
      "metarCat": "VFR",
      "metarRaw": "METAR KERI 272051Z 14008G18KT 10SM CLR 24/04 A3003 RMK AO2 WSHFT 2035 SLP168 T02390044 58025",
      "metarObsTime": 1777323060,
      "faaFlow": null
    },
    "KDUJ": {
      "status": "OK",
      "delay": "—",
      "metarCat": "VFR",
      "metarRaw": "METAR KDUJ 272053Z AUTO 11011G18KT 10SM CLR 19/04 A3012 RMK AO2 SLP200 T01890039 58016",
      "metarObsTime": 1777323180,
      "faaFlow": null
    },
    "KBFD": {
      "status": "OK",
      "delay": "—",
      "metarCat": "VFR",
      "metarRaw": "METAR KBFD 272053Z AUTO 13010G18KT 10SM CLR 20/01 A3012 RMK AO2 SLP201 T02000006 56018 $",
      "metarObsTime": 1777323180,
      "faaFlow": null
    },
    "KBTP": {
      "status": "OK",
      "delay": "—",
      "metarCat": "VFR",
      "metarRaw": "METAR KBTP 272056Z AUTO 11013KT 10SM CLR 22/03 A3007 RMK AO2 SLPNO T02220033 56019 $",
      "metarObsTime": 1777323360,
      "faaFlow": null
    },
    "KFKL": {
      "status": "OK",
      "delay": "—",
      "metarCat": "—",
      "metarRaw": "—",
      "metarObsTime": null,
      "faaFlow": null
    },
    "KIDI": {
      "status": "OK",
      "delay": "—",
      "metarCat": "VFR",
      "metarRaw": "METAR KIDI 272135Z AUTO 12013KT 10SM CLR 21/05 A3011 RMK A01",
      "metarObsTime": 1777325700,
      "faaFlow": null
    },
    "KMDT": {
      "status": "OK",
      "delay": "—",
      "metarCat": "VFR",
      "metarRaw": "METAR KMDT 272056Z 17006KT 10SM FEW050 SCT250 21/05 A3018 RMK AO2 SLP220 T02060050 58009",
      "metarObsTime": 1777323360,
      "faaFlow": null
    },
    "KCXY": {
      "status": "OK",
      "delay": "—",
      "metarCat": "VFR",
      "metarRaw": "METAR KCXY 272056Z 10008KT 10SM CLR 21/04 A3018 RMK AO2 SLP222 T02110044 58008",
      "metarObsTime": 1777323360,
      "faaFlow": null
    },
    "KMUI": {
      "status": "OK",
      "delay": "—",
      "metarCat": "VFR",
      "metarRaw": "METAR KMUI 272055Z 00000KT 10SM FEW065 FEW250 23/05 A3016 RMK AO2A SLP216 T02340048 58007",
      "metarObsTime": 1777323300,
      "faaFlow": null
    },
    "KUNV": {
      "status": "OK",
      "delay": "—",
      "metarCat": "—",
      "metarRaw": "—",
      "metarObsTime": null,
      "faaFlow": null
    },
    "KAOO": {
      "status": "OK",
      "delay": "—",
      "metarCat": "VFR",
      "metarRaw": "METAR KAOO 272053Z AUTO 14010G21KT 10SM CLR 19/03 A3016 RMK AO2 SLP213 T01890033 58015",
      "metarObsTime": 1777323180,
      "faaFlow": null
    },
    "KLNS": {
      "status": "OK",
      "delay": "—",
      "metarCat": "VFR",
      "metarRaw": "METAR KLNS 272053Z VRB05KT 10SM FEW050 20/05 A3020 RMK AO2 SLP226 T02000050 56006",
      "metarObsTime": 1777323180,
      "faaFlow": null
    },
    "KIPT": {
      "status": "OK",
      "delay": "—",
      "metarCat": "VFR",
      "metarRaw": "METAR KIPT 272054Z 25003KT 10SM CLR 22/03 A3015 RMK AO2 SLP210 T02170033 58010 $",
      "metarObsTime": 1777323240,
      "faaFlow": null
    },
    "KPHL": {
      "status": "OK",
      "delay": "—",
      "metarCat": "VFR",
      "metarRaw": "METAR KPHL 272054Z 05006KT 10SM FEW065 SCT300 23/04 A3021 RMK AO2 SLP228 T02280044 56008 $",
      "metarObsTime": 1777323240,
      "faaFlow": null
    },
    "KABE": {
      "status": "OK",
      "delay": "—",
      "metarCat": "VFR",
      "metarRaw": "METAR KABE 272051Z 12007KT 10SM CLR 22/04 A3019 RMK AO2 SLP225 T02170044 56009",
      "metarObsTime": 1777323060,
      "faaFlow": null
    },
    "KAVP": {
      "status": "OK",
      "delay": "—",
      "metarCat": "VFR",
      "metarRaw": "SPECI KAVP 272136Z VRB04KT 10SM CLR 22/01 A3015 RMK AO2 T02220011",
      "metarObsTime": 1777325760,
      "faaFlow": null
    },
    "KHZL": {
      "status": "OK",
      "delay": "—",
      "metarCat": "VFR",
      "metarRaw": "METAR KHZL 272135Z AUTO 13007KT 090V160 10SM CLR 20/01 A3022 RMK AO2",
      "metarObsTime": 1777325700,
      "faaFlow": null
    }
  }
}