{
  "generatedAt": "2026-04-03T18:30:33.769Z",
  "airports": {
    "KPIT": {
      "status": "OK",
      "delay": "—",
      "metarCat": "VFR",
      "metarRaw": "METAR KPIT 031751Z 23016G24KT 10SM BKN034 OVC130 23/15 A3012 RMK AO2 PK WND 23029/1705 SLP199 60003 T02330150 10233 20183 58001",
      "metarObsTime": 1775238660
    },
    "KAGC": {
      "status": "OK",
      "delay": "—",
      "metarCat": "VFR",
      "metarRaw": "METAR KAGC 031753Z 25013G30KT 10SM OVC036 22/15 A3013 RMK AO2 PK WND 24030/1746 SLP203 60005 T02170150 10228 20183 53001",
      "metarObsTime": 1775238780
    },
    "KLBE": {
      "status": "OK",
      "delay": "—",
      "metarCat": "VFR",
      "metarRaw": "METAR KLBE 031750Z 22015G25KT 10SM OVC040 23/16 A3015",
      "metarObsTime": 1775238600
    },
    "KJST": {
      "status": "OK",
      "delay": "—",
      "metarCat": "VFR",
      "metarRaw": "METAR KJST 031754Z AUTO 25013G24KT 10SM OVC038 21/13 A3016 RMK AO2 PK WND 23031/1708 SLP208 60002 T02060128 10211 20122 55006",
      "metarObsTime": 1775238840
    },
    "KERI": {
      "status": "OK",
      "delay": "—",
      "metarCat": "VFR",
      "metarRaw": "METAR KERI 031751Z 25015G25KT 10SM FEW044 BKN050 BKN070 22/14 A3001 RMK AO2 PK WND 24028/1741 SLP160 T02220139 10250 20194 53008",
      "metarObsTime": 1775238660
    },
    "KDUJ": {
      "status": "OK",
      "delay": "—",
      "metarCat": "VFR",
      "metarRaw": "METAR KDUJ 031753Z AUTO 22013G24KT 10SM FEW029 SCT034 BKN047 21/15 A3010 RMK AO2 SLP189 60017 T02110150 10211 20100 56005",
      "metarObsTime": 1775238780
    },
    "KBFD": {
      "status": "OK",
      "delay": "—",
      "metarCat": "VFR",
      "metarRaw": "METAR KBFD 031753Z AUTO 23011G20KT 10SM SCT025 BKN035 OVC060 19/14 A3008 RMK AO2 SLP180 60004 T01940144 10194 20111 58002",
      "metarObsTime": 1775238780
    },
    "KBTP": {
      "status": "OK",
      "delay": "—",
      "metarCat": "VFR",
      "metarRaw": "METAR KBTP 031756Z AUTO 22012G17KT 10SM BKN036 BKN046 OVC055 23/16 A3012 RMK AO2 SLP199 60003 T02280156 10233 20172 57001 $",
      "metarObsTime": 1775238960
    },
    "KFKL": {
      "status": "OK",
      "delay": "—",
      "metarCat": "VFR",
      "metarRaw": "METAR KFKL 031756Z AUTO 24013G16KT 10SM SCT032 BKN040 OVC070 22/16 A3009 RMK AO2 SLP185 T02220156 10222 20172 51001",
      "metarObsTime": 1775238960
    },
    "KIDI": {
      "status": "OK",
      "delay": "—",
      "metarCat": "VFR",
      "metarRaw": "METAR KIDI 031815Z AUTO 24015KT 10SM BKN039 BKN048 OVC065 23/15 A3013 RMK A01",
      "metarObsTime": 1775240100
    },
    "KMDT": {
      "status": "OK",
      "delay": "—",
      "metarCat": "MVFR",
      "metarRaw": "SPECI KMDT 031808Z 09003KT 7SM BKN010 OVC014 13/11 A3020 RMK AO2 CIG 007V013 T01280106 $",
      "metarObsTime": 1775239680
    },
    "KCXY": {
      "status": "OK",
      "delay": "—",
      "metarCat": "MVFR",
      "metarRaw": "METAR KCXY 031756Z 09005KT 4SM BR OVC011 12/10 A3021 RMK AO2 SLP232 T01220100 10122 20061 56015",
      "metarObsTime": 1775238960
    },
    "KMUI": {
      "status": "OK",
      "delay": "—",
      "metarCat": "—",
      "metarRaw": "—",
      "metarObsTime": null
    },
    "KUNV": {
      "status": "OK",
      "delay": "—",
      "metarCat": "VFR",
      "metarRaw": "METAR KUNV 031753Z 24011KT 10SM SCT050 18/12 A3014",
      "metarObsTime": 1775238780
    },
    "KAOO": {
      "status": "OK",
      "delay": "—",
      "metarCat": "VFR",
      "metarRaw": "METAR KAOO 031753Z AUTO 21008KT 10SM CLR 22/14 A3014 RMK AO2 SLP204 60000 T02220144 10222 20083 56020",
      "metarObsTime": 1775238780
    },
    "KLNS": {
      "status": "OK",
      "delay": "—",
      "metarCat": "MVFR",
      "metarRaw": "METAR KLNS 031753Z VRB04KT 10SM OVC010 13/11 A3021 RMK AO2 SLP232 T01330111 10133 20061 58023",
      "metarObsTime": 1775238780
    },
    "KIPT": {
      "status": "OK",
      "delay": "—",
      "metarCat": "MVFR",
      "metarRaw": "METAR KIPT 031754Z 11006KT 10SM OVC010 11/08 A3016 RMK AO2 SLP215 T01060078 10106 20061 58023",
      "metarObsTime": 1775238840
    },
    "KPHL": {
      "status": "OK",
      "delay": "—",
      "metarCat": "IFR",
      "metarRaw": "METAR KPHL 031754Z 26006KT 8SM OVC007 14/11 A3025 RMK AO2 SLP241 60000 T01390111 10139 20072 58020 $",
      "metarObsTime": 1775238840
    },
    "KABE": {
      "status": "OK",
      "delay": "—",
      "metarCat": "MVFR",
      "metarRaw": "METAR KABE 031751Z VRB05KT 10SM OVC012 12/09 A3021 RMK AO2 SLP233 T01220089 10122 20050 58022 $",
      "metarObsTime": 1775238660
    },
    "KAVP": {
      "status": "OK",
      "delay": "—",
      "metarCat": "VFR",
      "metarRaw": "METAR KAVP 031754Z 25011G16KT 10SM FEW120 17/09 A3014 RMK AO2 SLP205 60000 T01720094 10172 20061 58028",
      "metarObsTime": 1775238840
    },
    "KHZL": {
      "status": "OK",
      "delay": "—",
      "metarCat": "VFR",
      "metarRaw": "METAR KHZL 031815Z AUTO 21007KT 10SM OVC110 17/09 A3019 RMK AO2",
      "metarObsTime": 1775240100
    }
  }
}