{
  "generatedAt": "2026-03-06T11:40:15.587Z",
  "airports": {
    "KPIT": {
      "status": "OK",
      "delay": "—",
      "metarCat": "MVFR",
      "metarRaw": "METAR KPIT 061051Z 00000KT 7SM FEW003 SCT018 OVC024 12/12 A3015 RMK AO2 SLP218 T01220117 $",
      "metarObsTime": 1772794260
    },
    "KAGC": {
      "status": "OK",
      "delay": "—",
      "metarCat": "MVFR",
      "metarRaw": "METAR KAGC 061053Z 19005KT 6SM BR OVC027 13/12 A3016 RMK AO2 SLP215 T01280122",
      "metarObsTime": 1772794380
    },
    "KLBE": {
      "status": "OK",
      "delay": "—",
      "metarCat": "MVFR",
      "metarRaw": "METAR KLBE 061135Z AUTO 00000KT 4SM BR OVC025 13/13 A3019 RMK AO2",
      "metarObsTime": 1772796900
    },
    "KJST": {
      "status": "OK",
      "delay": "—",
      "metarCat": "IFR",
      "metarRaw": "METAR KJST 061054Z AUTO 23003KT 10SM OVC008 12/11 A3017 RMK AO2 CIG 006V012 SLP215 T01170111",
      "metarObsTime": 1772794440
    },
    "KERI": {
      "status": "OK",
      "delay": "—",
      "metarCat": "LIFR",
      "metarRaw": "SPECI KERI 061117Z 00000KT 1/4SM R06/2400V2600FT FG VV002 00/00 A3018 RMK AO2 T00000000",
      "metarObsTime": 1772795820
    },
    "KDUJ": {
      "status": "OK",
      "delay": "—",
      "metarCat": "LIFR",
      "metarRaw": "SPECI KDUJ 061105Z AUTO 28004KT 6SM BR OVC004 10/09 A3015 RMK AO2 T01000094",
      "metarObsTime": 1772795100
    },
    "KBFD": {
      "status": "OK",
      "delay": "—",
      "metarCat": "LIFR",
      "metarRaw": "SPECI KBFD 061120Z AUTO 22003KT 8SM OVC002 08/07 A3014 RMK AO2 T00780072",
      "metarObsTime": 1772796000
    },
    "KBTP": {
      "status": "OK",
      "delay": "—",
      "metarCat": "LIFR",
      "metarRaw": "SPECI KBTP 061136Z AUTO 16003KT 3SM BR OVC004 12/ A3017 RMK AO2 $",
      "metarObsTime": 1772796960
    },
    "KFKL": {
      "status": "OK",
      "delay": "—",
      "metarCat": "LIFR",
      "metarRaw": "METAR KFKL 061056Z AUTO 21005KT 1/4SM FG OVC002 08/08 A3016 RMK AO2 SLP219 T00780078",
      "metarObsTime": 1772794560
    },
    "KIDI": {
      "status": "OK",
      "delay": "—",
      "metarCat": "IFR",
      "metarRaw": "METAR KIDI 061135Z AUTO 00000KT 1 3/4SM BR OVC007 12/12 A3018 RMK A01",
      "metarObsTime": 1772796900
    },
    "KMDT": {
      "status": "OK",
      "delay": "—",
      "metarCat": "LIFR",
      "metarRaw": "METAR KMDT 061056Z 12005KT 2SM BR OVC004 05/04 A3024 RMK AO2 CIG 003V007 SLP243 T00500044",
      "metarObsTime": 1772794560
    },
    "KCXY": {
      "status": "OK",
      "delay": "—",
      "metarCat": "LIFR",
      "metarRaw": "SPECI KCXY 061122Z AUTO 11006KT 1 3/4SM BR OVC003 05/04 A3025 RMK AO2 T00500044",
      "metarObsTime": 1772796120
    },
    "KMUI": {
      "status": "OK",
      "delay": "—",
      "metarCat": "LIFR",
      "metarRaw": "SPECI KMUI 061123Z 07007KT 3SM BR OVC004 05/05 A3024 RMK AO2A SLP246",
      "metarObsTime": 1772796180
    },
    "KUNV": {
      "status": "OK",
      "delay": "—",
      "metarCat": "LIFR",
      "metarRaw": "METAR KUNV 061053Z 00000KT 1/4SM R24/P6000FT FG OVC003 07/07 A3018",
      "metarObsTime": 1772794380
    },
    "KAOO": {
      "status": "OK",
      "delay": "—",
      "metarCat": "MVFR",
      "metarRaw": "METAR KAOO 061053Z AUTO 00000KT 3SM BR SCT036 08/08 A3017 RMK AO2 SLP222 T00780078",
      "metarObsTime": 1772794380
    },
    "KLNS": {
      "status": "OK",
      "delay": "—",
      "metarCat": "LIFR",
      "metarRaw": "SPECI KLNS 061121Z 10008KT 1SM BR OVC003 04/04 A3025 RMK AO2 T00440039",
      "metarObsTime": 1772796060
    },
    "KIPT": {
      "status": "OK",
      "delay": "—",
      "metarCat": "IFR",
      "metarRaw": "METAR KIPT 061054Z AUTO 11006KT 9SM OVC007 06/05 A3021 RMK AO2 SLP233 T00560050 $",
      "metarObsTime": 1772794440
    },
    "KPHL": {
      "status": "OK",
      "delay": "—",
      "metarCat": "IFR",
      "metarRaw": "SPECI KPHL 061129Z 06007KT 8SM OVC006 04/03 A3028 RMK AO2 T00440028 $",
      "metarObsTime": 1772796540
    },
    "KABE": {
      "status": "OK",
      "delay": "—",
      "metarCat": "IFR",
      "metarRaw": "METAR KABE 061051Z 05007KT 9SM OVC006 03/02 A3028 RMK AO2 SLP258 T00280022",
      "metarObsTime": 1772794260
    },
    "KAVP": {
      "status": "OK",
      "delay": "—",
      "metarCat": "MVFR",
      "metarRaw": "METAR KAVP 061054Z AUTO 00000KT 10SM OVC011 02/01 A3024 RMK AO2 RAB0955E05UPB05E08 SLP245 P0000 T00220006",
      "metarObsTime": 1772794440
    },
    "KHZL": {
      "status": "OK",
      "delay": "—",
      "metarCat": "LIFR",
      "metarRaw": "METAR KHZL 061135Z AUTO 11003KT 2 1/2SM BR OVC002 01/00 A3025 RMK AO2",
      "metarObsTime": 1772796900
    }
  }
}