{
  "generatedAt": "2026-03-15T03:30:13.400Z",
  "airports": {
    "KPIT": {
      "status": "OK",
      "delay": "—",
      "metarCat": "VFR",
      "metarRaw": "METAR KPIT 150251Z 07004KT 10SM SCT110 OVC180 06/M09 A3023 RMK AO2 SLP251 T00561089 50004",
      "metarObsTime": 1773543060
    },
    "KAGC": {
      "status": "OK",
      "delay": "—",
      "metarCat": "VFR",
      "metarRaw": "METAR KAGC 150253Z 07005KT 10SM CLR 05/M09 A3023 RMK AO2 SLP249 T00501089 50006",
      "metarObsTime": 1773543180
    },
    "KLBE": {
      "status": "OK",
      "delay": "—",
      "metarCat": "VFR",
      "metarRaw": "METAR KLBE 150315Z AUTO 05003KT 10SM CLR 05/M06 A3026 RMK AO2",
      "metarObsTime": 1773544500
    },
    "KJST": {
      "status": "OK",
      "delay": "—",
      "metarCat": "VFR",
      "metarRaw": "METAR KJST 150254Z AUTO 00000KT 10SM FEW080 OVC110 03/M12 A3022 RMK AO2 SLP253 T00331117 51012",
      "metarObsTime": 1773543240
    },
    "KERI": {
      "status": "OK",
      "delay": "—",
      "metarCat": "VFR",
      "metarRaw": "METAR KERI 150251Z 07006KT 10SM BKN110 00/M07 A3028 RMK AO2 SLP261 T00001072 58005 $",
      "metarObsTime": 1773543060
    },
    "KDUJ": {
      "status": "OK",
      "delay": "—",
      "metarCat": "VFR",
      "metarRaw": "METAR KDUJ 150253Z AUTO 05005KT 10SM OVC090 01/M09 A3025 RMK AO2 SLP260 T00111089 51017",
      "metarObsTime": 1773543180
    },
    "KBFD": {
      "status": "OK",
      "delay": "—",
      "metarCat": "VFR",
      "metarRaw": "METAR KBFD 150253Z AUTO 00000KT 10SM BKN110 M02/M07 A3025 RMK AO2 SLP268 T10221072 53013",
      "metarObsTime": 1773543180
    },
    "KBTP": {
      "status": "OK",
      "delay": "—",
      "metarCat": "VFR",
      "metarRaw": "METAR KBTP 150256Z AUTO 08005KT 10SM OVC085 04/M07 A3025 RMK AO2 SLP258 T00391072 50006 $",
      "metarObsTime": 1773543360
    },
    "KFKL": {
      "status": "OK",
      "delay": "—",
      "metarCat": "VFR",
      "metarRaw": "METAR KFKL 150256Z AUTO 08006KT 10SM OVC090 A3025 RMK AO2 SLPNO 50006 FZRANO $",
      "metarObsTime": 1773543360
    },
    "KIDI": {
      "status": "OK",
      "delay": "—",
      "metarCat": "VFR",
      "metarRaw": "METAR KIDI 150315Z AUTO 09003KT 10SM SCT047 BKN055 OVC070 03/M05 A3026 RMK A01",
      "metarObsTime": 1773544500
    },
    "KMDT": {
      "status": "OK",
      "delay": "—",
      "metarCat": "VFR",
      "metarRaw": "METAR KMDT 150256Z 00000KT 10SM BKN100 OVC120 07/M06 A3030 RMK AO2 SLP262 T00671056 51027 $",
      "metarObsTime": 1773543360
    },
    "KCXY": {
      "status": "OK",
      "delay": "—",
      "metarCat": "VFR",
      "metarRaw": "METAR KCXY 150256Z AUTO 00000KT 10SM OVC100 07/M07 A3030 RMK AO2 SLP264 T00721072 51027",
      "metarObsTime": 1773543360
    },
    "KMUI": {
      "status": "OK",
      "delay": "—",
      "metarCat": "VFR",
      "metarRaw": "METAR KMUI 150255Z AUTO 33004KT 10SM FEW080 OVC110 07/M07 A3028 RMK AO2 SLP260 T00661074 52027 $",
      "metarObsTime": 1773543300
    },
    "KUNV": {
      "status": "OK",
      "delay": "—",
      "metarCat": "VFR",
      "metarRaw": "METAR KUNV 150315Z AUTO 05006KT 10SM OVC100 04/M10 A3029 RMK AO2 T00351099",
      "metarObsTime": 1773544500
    },
    "KAOO": {
      "status": "OK",
      "delay": "—",
      "metarCat": "VFR",
      "metarRaw": "METAR KAOO 150253Z AUTO 00000KT 10SM BKN075 OVC100 04/M07 A3026 RMK AO2 SLP259 T00391072 51015",
      "metarObsTime": 1773543180
    },
    "KLNS": {
      "status": "OK",
      "delay": "—",
      "metarCat": "VFR",
      "metarRaw": "METAR KLNS 150253Z 00000KT 10SM BKN110 03/M04 A3031 RMK AO2 SLP264 T00331044 51030",
      "metarObsTime": 1773543180
    },
    "KIPT": {
      "status": "OK",
      "delay": "—",
      "metarCat": "VFR",
      "metarRaw": "METAR KIPT 150254Z AUTO 00000KT 10SM FEW120 03/M06 A3032 RMK AO2 SLP270 T00331056 51028",
      "metarObsTime": 1773543240
    },
    "KPHL": {
      "status": "OK",
      "delay": "—",
      "metarCat": "VFR",
      "metarRaw": "METAR KPHL 150254Z 02004KT 10SM SCT140 BKN250 08/M10 A3032 RMK AO2 SLP266 T00831100 51028 $",
      "metarObsTime": 1773543240
    },
    "KABE": {
      "status": "OK",
      "delay": "—",
      "metarCat": "VFR",
      "metarRaw": "METAR KABE 150251Z 02004KT 10SM CLR 04/M13 A3031 RMK AO2 SLP267 T00441128 51030 $",
      "metarObsTime": 1773543060
    },
    "KAVP": {
      "status": "OK",
      "delay": "—",
      "metarCat": "VFR",
      "metarRaw": "METAR KAVP 150254Z 01006KT 10SM CLR 00/M08 A3031 RMK AO2 SLP270 T00001078 51028",
      "metarObsTime": 1773543240
    },
    "KHZL": {
      "status": "OK",
      "delay": "—",
      "metarCat": "VFR",
      "metarRaw": "METAR KHZL 150315Z AUTO 35003KT 10SM OVC110 02/M11 A3031 RMK AO2",
      "metarObsTime": 1773544500
    }
  }
}