{
  "generatedAt": "2026-04-02T06:40:30.945Z",
  "airports": {
    "KPIT": {
      "status": "OK",
      "delay": "—",
      "metarCat": "LIFR",
      "metarRaw": "METAR KPIT 020551Z 32004KT 1SM R28R/P6000FT OVC003 09/08 A3014 RMK AO2 SFC VIS 7 SLP217 60016 T00890083 10100 20089 53000 $",
      "metarObsTime": 1775109060
    },
    "KAGC": {
      "status": "OK",
      "delay": "—",
      "metarCat": "IFR",
      "metarRaw": "SPECI KAGC 020616Z 18004KT 7SM OVC009 11/10 A3013 RMK AO2 T01060100",
      "metarObsTime": 1775110560
    },
    "KLBE": {
      "status": "OK",
      "delay": "—",
      "metarCat": "VFR",
      "metarRaw": "METAR KLBE 020635Z AUTO 00000KT 10SM FEW017 FEW070 SCT120 12/12 A3014 RMK AO2",
      "metarObsTime": 1775111700
    },
    "KJST": {
      "status": "OK",
      "delay": "—",
      "metarCat": "LIFR",
      "metarRaw": "METAR KJST 020554Z AUTO 07008KT 5SM BR OVC002 09/09 A3016 RMK AO2 RAE01 SLP212 P0000 60005 T00890089 10194 20089 51009",
      "metarObsTime": 1775109240
    },
    "KERI": {
      "status": "OK",
      "delay": "—",
      "metarCat": "IFR",
      "metarRaw": "METAR KERI 020551Z AUTO 05020G29KT 10SM OVC009 03/01 A3022 RMK AO2 PK WND 05029/0551 SLP242 60002 T00280011 10033 20017 50003 $",
      "metarObsTime": 1775109060
    },
    "KDUJ": {
      "status": "OK",
      "delay": "—",
      "metarCat": "IFR",
      "metarRaw": "METAR KDUJ 020553Z AUTO 10010KT 10SM OVC006 06/06 A3016 RMK AO2 RAE09 SLP217 P0000 60082 T00610056 10083 20061 55007",
      "metarObsTime": 1775109180
    },
    "KBFD": {
      "status": "OK",
      "delay": "—",
      "metarCat": "IFR",
      "metarRaw": "METAR KBFD 020553Z AUTO 09006KT 10SM OVC005 03/02 A3019 RMK AO2 SLP235 60024 T00280022 10044 20028 58000",
      "metarObsTime": 1775109180
    },
    "KBTP": {
      "status": "OK",
      "delay": "—",
      "metarCat": "LIFR",
      "metarRaw": "METAR KBTP 020556Z AUTO 00000KT 10SM OVC004 09/ A3016 RMK AO2 SLP221 60028 T0094 10094 20089 53000 $",
      "metarObsTime": 1775109360
    },
    "KFKL": {
      "status": "OK",
      "delay": "—",
      "metarCat": "IFR",
      "metarRaw": "METAR KFKL 020556Z AUTO 06007KT 10SM OVC005 07/06 A3017 RMK AO2 SLP226 60010 T00670061 10067 20061 55001",
      "metarObsTime": 1775109360
    },
    "KIDI": {
      "status": "OK",
      "delay": "—",
      "metarCat": "MVFR",
      "metarRaw": "METAR KIDI 020635Z AUTO 09010KT 10SM OVC020 11/09 A3014 RMK A01",
      "metarObsTime": 1775111700
    },
    "KMDT": {
      "status": "OK",
      "delay": "—",
      "metarCat": "MVFR",
      "metarRaw": "SPECI KMDT 020635Z 08006KT 10SM -RA SCT022 BKN027 OVC032 12/11 A3020 RMK AO2 P0004 T01220106 $",
      "metarObsTime": 1775111700
    },
    "KCXY": {
      "status": "OK",
      "delay": "—",
      "metarCat": "MVFR",
      "metarRaw": "SPECI KCXY 020603Z AUTO 06006KT 10SM -RA BKN020 OVC032 12/10 A3021 RMK AO2 P0000 T01220100",
      "metarObsTime": 1775109780
    },
    "KMUI": {
      "status": "OK",
      "delay": "—",
      "metarCat": "MVFR",
      "metarRaw": "SPECI KMUI 020622Z AUTO 05007KT 10SM -RA FEW004 OVC017 12/11 A3021 RMK AO2 RAB0555E10DZB10E11RAB11E12RAB22 SLP232",
      "metarObsTime": 1775110920
    },
    "KUNV": {
      "status": "OK",
      "delay": "—",
      "metarCat": "LIFR",
      "metarRaw": "METAR KUNV 020635Z AUTO 02005KT 10SM OVC004 05/05 A3023 RMK AO2 T00530052",
      "metarObsTime": 1775111700
    },
    "KAOO": {
      "status": "OK",
      "delay": "—",
      "metarCat": "MVFR",
      "metarRaw": "SPECI KAOO 020623Z AUTO 04007KT 10SM OVC010 08/07 A3021 RMK AO2 CIG 008V014 T00830067",
      "metarObsTime": 1775110980
    },
    "KLNS": {
      "status": "OK",
      "delay": "—",
      "metarCat": "MVFR",
      "metarRaw": "SPECI KLNS 020633Z AUTO 02008KT 4SM -RA BR SCT008 OVC015 12/11 A3022 RMK AO2 RAB0555 P0009 T01220111",
      "metarObsTime": 1775111580
    },
    "KIPT": {
      "status": "OK",
      "delay": "—",
      "metarCat": "MVFR",
      "metarRaw": "METAR KIPT 020554Z AUTO 00000KT 4SM RA BR FEW012 SCT017 OVC042 06/06 A3026 RMK AO2 SLP249 P0011 60072 T00610056 10089 20056 50012 $",
      "metarObsTime": 1775109240
    },
    "KPHL": {
      "status": "OK",
      "delay": "—",
      "metarCat": "MVFR",
      "metarRaw": "SPECI KPHL 020611Z 07017G27KT 7SM -RA BKN012 OVC018 13/11 A3022 RMK AO2 PK WND 07032/0556 P0005 T01280106 $",
      "metarObsTime": 1775110260
    },
    "KABE": {
      "status": "OK",
      "delay": "—",
      "metarCat": "MVFR",
      "metarRaw": "METAR KABE 020551Z 06012G21KT 10SM OVC024 09/07 A3025 RMK AO2 SLP243 60004 T00940067 10144 20094 53017 $",
      "metarObsTime": 1775109060
    },
    "KAVP": {
      "status": "OK",
      "delay": "—",
      "metarCat": "MVFR",
      "metarRaw": "SPECI KAVP 020636Z AUTO 36004KT 8SM -RA FEW004 BKN016 OVC026 06/06 A3027 RMK AO2 P0003 T00610061",
      "metarObsTime": 1775111760
    },
    "KHZL": {
      "status": "OK",
      "delay": "—",
      "metarCat": "MVFR",
      "metarRaw": "METAR KHZL 020635Z AUTO 33004KT 10SM OVC018 07/05 A3027 RMK AO2",
      "metarObsTime": 1775111700
    }
  }
}