{
  "generatedAt": "2026-03-16T23:00:19.425Z",
  "airports": {
    "KPIT": {
      "status": "OK",
      "delay": "—",
      "metarCat": "LIFR",
      "metarRaw": "METAR KPIT 162251Z 27014G22KT 1/4SM R28R/2600V3000FT +SN FZFG VV005 M02/M02 A2951 RMK AO2 SLP004 P0005 T10171017 $",
      "metarObsTime": 1773701460
    },
    "KAGC": {
      "status": "OK",
      "delay": "—",
      "metarCat": "LIFR",
      "metarRaw": "METAR KAGC 162253Z 25012G17KT 1/4SM R28/4500V6000FT SN FZFG SCT005 OVC012 M01/M01 A2949 RMK AO2 SLP995 P0000 T10061011",
      "metarObsTime": 1773701580
    },
    "KLBE": {
      "status": "OK",
      "delay": "—",
      "metarCat": "LIFR",
      "metarRaw": "SPECI KLBE 162252Z 25018G28KT 1/4SM SN FG VV001 00/M00 A2950",
      "metarObsTime": 1773701520
    },
    "KJST": {
      "status": "OK",
      "delay": "—",
      "metarCat": "LIFR",
      "metarRaw": "METAR KJST 162254Z AUTO 28014G25KT 1/2SM -SN FZFG OVC004 M01/M01 A2939 RMK AO2 PK WND 29026/2155 RAB02E05UPB05E07SNE02B07 SLP961 P0006 T10061011",
      "metarObsTime": 1773701640
    },
    "KERI": {
      "status": "OK",
      "delay": "—",
      "metarCat": "LIFR",
      "metarRaw": "METAR KERI 162251Z 25014G28KT 1/4SM R06/4000V5000FT SN FZFG OVC009 M01/M03 A2945 RMK AO2 PK WND 26029/2154 SLPNO P0001 T10111028 $",
      "metarObsTime": 1773701460
    },
    "KDUJ": {
      "status": "OK",
      "delay": "—",
      "metarCat": "LIFR",
      "metarRaw": "METAR KDUJ 162253Z AUTO 25016KT 1/2SM SN FZFG BKN005 OVC009 M01/M02 A2938 RMK AO2 PK WND 28030/2231 SLP955 P0002 T10061017",
      "metarObsTime": 1773701580
    },
    "KBFD": {
      "status": "OK",
      "delay": "—",
      "metarCat": "LIFR",
      "metarRaw": "METAR KBFD 162253Z AUTO 25011G20KT 220V300 3/4SM -SN BR SCT008 OVC015 00/M01 A2934 RMK AO2 PK WND 28027/2203 RAE06SNB06 SLP939 P0004 T00001011",
      "metarObsTime": 1773701580
    },
    "KBTP": {
      "status": "OK",
      "delay": "—",
      "metarCat": "—",
      "metarRaw": "—",
      "metarObsTime": null
    },
    "KFKL": {
      "status": "OK",
      "delay": "—",
      "metarCat": "LIFR",
      "metarRaw": "METAR KFKL 162256Z AUTO 26011G19KT 3/4SM -SN BR OVC004 M02/M02 A2944 RMK AO2 CIG 003V008 SLP977 P0005 T10171022 FZRANO",
      "metarObsTime": 1773701760
    },
    "KIDI": {
      "status": "OK",
      "delay": "—",
      "metarCat": "IFR",
      "metarRaw": "METAR KIDI 162255Z AUTO 26013G20KT 1SM BR BKN008 OVC013 00/M00 A2945 RMK A01 P0002",
      "metarObsTime": 1773701700
    },
    "KMDT": {
      "status": "OK",
      "delay": "—",
      "metarCat": "VFR",
      "metarRaw": "SPECI KMDT 162242Z 14013KT 10SM FEW017 BKN055 BKN110 15/13 A2929 RMK AO2 RAE33 P0001 T01500133",
      "metarObsTime": 1773700920
    },
    "KCXY": {
      "status": "OK",
      "delay": "—",
      "metarCat": "MVFR",
      "metarRaw": "SPECI KCXY 162229Z 12011G21KT 10SM -RA BKN015 BKN032 OVC090 16/14 A2930 RMK AO2 P0000 T01610139",
      "metarObsTime": 1773700140
    },
    "KMUI": {
      "status": "OK",
      "delay": "—",
      "metarCat": "MVFR",
      "metarRaw": "METAR KMUI 162255Z 15005KT 8SM -RA FEW007 OVC011 16/16 A2930 RMK AO2A SLP924 T01600157",
      "metarObsTime": 1773701700
    },
    "KUNV": {
      "status": "OK",
      "delay": "—",
      "metarCat": "MVFR",
      "metarRaw": "METAR KUNV 162253Z 27010G17KT 5SM RA BR BKN018 OVC027 05/04 A2934",
      "metarObsTime": 1773701580
    },
    "KAOO": {
      "status": "OK",
      "delay": "—",
      "metarCat": "VFR",
      "metarRaw": "METAR KAOO 162253Z AUTO 28011G20KT 7SM -RA SCT018 OVC033 03/01 A2938 RMK AO2 PK WND 31031/2223 PRESRR SLP953 P0006 T00330006",
      "metarObsTime": 1773701580
    },
    "KLNS": {
      "status": "OK",
      "delay": "—",
      "metarCat": "MVFR",
      "metarRaw": "METAR KLNS 162253Z 16015G26KT 10SM OVC010 17/16 A2932 RMK AO2 PK WND 18026/2250 RAE46 SLP928 P0001 T01670156",
      "metarObsTime": 1773701580
    },
    "KIPT": {
      "status": "OK",
      "delay": "—",
      "metarCat": "MVFR",
      "metarRaw": "METAR KIPT 162254Z 10SM OVC022 17/13 A2924 RMK AO2 PK WND 10030/2213 RAB00E19 SLP902 P0001 T01670128",
      "metarObsTime": 1773701640
    },
    "KPHL": {
      "status": "OK",
      "delay": "—",
      "metarCat": "MVFR",
      "metarRaw": "METAR KPHL 162254Z 17015G26KT 6SM -RA BR OVC011 17/15 A2942 RMK AO2 PK WND 16027/2230 PRESFR SLP961 CIG 009V013 P0006 T01670150 $",
      "metarObsTime": 1773701640
    },
    "KABE": {
      "status": "OK",
      "delay": "—",
      "metarCat": "VFR",
      "metarRaw": "METAR KABE 162251Z 17007KT 130V210 9SM -RA SCT015 BKN080 OVC100 17/15 A2938 RMK AO2 SLP950 P0003 T01670150 $",
      "metarObsTime": 1773701460
    },
    "KAVP": {
      "status": "OK",
      "delay": "—",
      "metarCat": "VFR",
      "metarRaw": "METAR KAVP 162254Z 19010G23KT 150V220 10SM -RA OVC100 16/13 A2932 RMK AO2 PK WND 20027/2221 SLP923 P0002 T01610128",
      "metarObsTime": 1773701640
    },
    "KHZL": {
      "status": "OK",
      "delay": "—",
      "metarCat": "MVFR",
      "metarRaw": "METAR KHZL 162235Z AUTO 15008G18KT 110V190 5SM -RA OVC013 14/12 A2936 RMK AO2 P0003",
      "metarObsTime": 1773700500
    }
  }
}