{
  "generatedAt": "2026-03-12T14:30:18.443Z",
  "airports": {
    "KPIT": {
      "status": "OK",
      "delay": "—",
      "metarCat": "VFR",
      "metarRaw": "METAR KPIT 121351Z 31018G25KT 10SM SCT028 BKN037 OVC200 01/M05 A3002 RMK AO2 SLP176 T00111050 $",
      "metarObsTime": 1773323460
    },
    "KAGC": {
      "status": "OK",
      "delay": "—",
      "metarCat": "MVFR",
      "metarRaw": "SPECI KAGC 121418Z 33007G16KT 10SM BKN028 OVC034 01/M05 A3001 RMK AO2 T00061050",
      "metarObsTime": 1773325080
    },
    "KLBE": {
      "status": "OK",
      "delay": "—",
      "metarCat": "MVFR",
      "metarRaw": "METAR KLBE 121347Z 29009G18KT 10SM BKN028 OVC036 01/M03 A3003",
      "metarObsTime": 1773323220
    },
    "KJST": {
      "status": "OK",
      "delay": "—",
      "metarCat": "MVFR",
      "metarRaw": "SPECI KJST 121426Z AUTO 30015G28KT 10SM SCT014 BKN022 OVC027 M02/M05 A2991 RMK AO2 PK WND 31028/1419 T10221050",
      "metarObsTime": 1773325560
    },
    "KERI": {
      "status": "OK",
      "delay": "—",
      "metarCat": "VFR",
      "metarRaw": "METAR KERI 121351Z 29015G23KT 10SM OVC042 00/M06 A3006 RMK AO2 SLP187 T00001056",
      "metarObsTime": 1773323460
    },
    "KDUJ": {
      "status": "OK",
      "delay": "—",
      "metarCat": "MVFR",
      "metarRaw": "METAR KDUJ 121353Z AUTO 31011G17KT 10SM OVC021 M02/M06 A2995 RMK AO2 SLP149 T10221061",
      "metarObsTime": 1773323580
    },
    "KBFD": {
      "status": "OK",
      "delay": "—",
      "metarCat": "MVFR",
      "metarRaw": "METAR KBFD 121353Z AUTO 29016G23KT 10SM OVC016 M03/M06 A2992 RMK AO2 PK WND 31027/1311 SLP140 T10281061",
      "metarObsTime": 1773323580
    },
    "KBTP": {
      "status": "OK",
      "delay": "—",
      "metarCat": "MVFR",
      "metarRaw": "SPECI KBTP 121412Z AUTO 31011KT 10SM OVC028 00/M04 A3002 RMK AO2 FZRANO $",
      "metarObsTime": 1773324720
    },
    "KFKL": {
      "status": "OK",
      "delay": "—",
      "metarCat": "MVFR",
      "metarRaw": "METAR KFKL 121356Z AUTO 31013G19KT 10SM OVC027 A3000 RMK AO2 SLPNO FZRANO $",
      "metarObsTime": 1773323760
    },
    "KIDI": {
      "status": "OK",
      "delay": "—",
      "metarCat": "—",
      "metarRaw": "—",
      "metarObsTime": null
    },
    "KMDT": {
      "status": "OK",
      "delay": "—",
      "metarCat": "VFR",
      "metarRaw": "METAR KMDT 121356Z 32019G31KT 10SM FEW035 OVC075 04/M01 A2986 RMK AO2 PK WND 33035/1333 RAE18 SLP112 P0000 T00441011 $",
      "metarObsTime": 1773323760
    },
    "KCXY": {
      "status": "OK",
      "delay": "—",
      "metarCat": "VFR",
      "metarRaw": "METAR KCXY 121356Z 31016G29KT 10SM FEW039 OVC080 04/M03 A2987 RMK AO2 PK WND 32032/1340 RAE17B41E43 SLP116 P0000 T00391033",
      "metarObsTime": 1773323760
    },
    "KMUI": {
      "status": "OK",
      "delay": "—",
      "metarCat": "VFR",
      "metarRaw": "METAR KMUI 121357Z 27005G23KT 10SM VCSH BKN033 OVC080 05/M01 A2982 RMK AO2A RAE29PLE29 SLP102 T00511012",
      "metarObsTime": 1773323820
    },
    "KUNV": {
      "status": "OK",
      "delay": "—",
      "metarCat": "MVFR",
      "metarRaw": "METAR KUNV 121353Z 32012G20KT 290V360 10SM BKN022 OVC027 01/M05 A2993",
      "metarObsTime": 1773323580
    },
    "KAOO": {
      "status": "OK",
      "delay": "—",
      "metarCat": "MVFR",
      "metarRaw": "METAR KAOO 121353Z AUTO 32016G27KT 10SM BKN021 BKN027 OVC034 00/M04 A2992 RMK AO2 PK WND 33027/1339 SLP139 T00001044",
      "metarObsTime": 1773323580
    },
    "KLNS": {
      "status": "OK",
      "delay": "—",
      "metarCat": "VFR",
      "metarRaw": "METAR KLNS 121353Z 30012KT 10SM -RA BKN048 BKN070 OVC095 04/02 A2983 RMK AO2 PK WND 33026/1302 SLP103 P0003 T00390017 $",
      "metarObsTime": 1773323580
    },
    "KIPT": {
      "status": "OK",
      "delay": "—",
      "metarCat": "VFR",
      "metarRaw": "METAR KIPT 121354Z 30015G22KT 10SM BKN041 OVC110 03/M05 A2989 RMK AO2 SLP122 T00281050 $",
      "metarObsTime": 1773323640
    },
    "KPHL": {
      "status": "OK",
      "delay": "—",
      "metarCat": "VFR",
      "metarRaw": "METAR KPHL 121354Z 32015G26KT 10SM -RA FEW017 SCT023 OVC055 08/04 A2981 RMK AO2 PK WND 34031/1255 RAE24B50 SLP092 P0000 T00830039 $",
      "metarObsTime": 1773323640
    },
    "KABE": {
      "status": "OK",
      "delay": "—",
      "metarCat": "VFR",
      "metarRaw": "METAR KABE 121351Z 32011KT 10SM -RA FEW028 FEW055 OVC090 05/02 A2978 RMK AO2 SLP083 P0006 T00500017 $",
      "metarObsTime": 1773323460
    },
    "KAVP": {
      "status": "OK",
      "delay": "—",
      "metarCat": "VFR",
      "metarRaw": "METAR KAVP 121354Z 34017G25KT 10SM SCT033 SCT100 03/M03 A2982 RMK AO2 PK WND 34028/1340 SLP097 T00331033",
      "metarObsTime": 1773323640
    },
    "KHZL": {
      "status": "OK",
      "delay": "—",
      "metarCat": "VFR",
      "metarRaw": "METAR KHZL 121415Z AUTO 32011G21KT 10SM SCT027 SCT033 OVC075 02/M04 A2978 RMK AO2",
      "metarObsTime": 1773324900
    }
  }
}