{
  "generatedAt": "2026-03-06T00:00:18.875Z",
  "airports": {
    "KPIT": {
      "status": "OK",
      "delay": "—",
      "metarCat": "MVFR",
      "metarRaw": "METAR KPIT 052351Z 25006KT 10SM BKN020 OVC095 15/13 A3005 RMK AO2 SLP182 60003 T01500133 10167 20150 53016",
      "metarObsTime": 1772754660
    },
    "KAGC": {
      "status": "OK",
      "delay": "—",
      "metarCat": "VFR",
      "metarRaw": "METAR KAGC 052353Z 22010KT 10SM SCT043 15/13 A3004 RMK AO2 SLP178 60008 T01500128 10161 20150 53012",
      "metarObsTime": 1772754780
    },
    "KLBE": {
      "status": "OK",
      "delay": "—",
      "metarCat": "MVFR",
      "metarRaw": "METAR KLBE 052353Z 21005KT 7SM -RA FEW017 BKN029 OVC070 15/15 A3008",
      "metarObsTime": 1772754780
    },
    "KJST": {
      "status": "OK",
      "delay": "—",
      "metarCat": "MVFR",
      "metarRaw": "METAR KJST 052354Z AUTO 23014KT 7SM -RA SCT006 BKN010 OVC014 14/13 A3006 RMK AO2 CIG 008V013 SLP182 P0011 60024 T01390128 10139 20133 53006",
      "metarObsTime": 1772754840
    },
    "KERI": {
      "status": "OK",
      "delay": "—",
      "metarCat": "LIFR",
      "metarRaw": "METAR KERI 052351Z 03006KT 3SM -RA BR OVC002 02/01 A3004 RMK AO2 UPB2253E08 SLP180 P0003 60045 T00170011 10056 20017 51017",
      "metarObsTime": 1772754660
    },
    "KDUJ": {
      "status": "OK",
      "delay": "—",
      "metarCat": "IFR",
      "metarRaw": "METAR KDUJ 052353Z AUTO 00000KT 10SM FEW003 BKN008 OVC011 10/10 A3002 RMK AO2 RAE52 SLP172 P0008 60039 T01000100 10111 20083 53010",
      "metarObsTime": 1772754780
    },
    "KBFD": {
      "status": "OK",
      "delay": "—",
      "metarCat": "VFR",
      "metarRaw": "METAR KBFD 052353Z AUTO 13007KT 9SM -RA FEW009 BKN038 OVC048 06/06 A3002 RMK AO2 SLP174 P0003 60056 T00610056 10067 20061 51001",
      "metarObsTime": 1772754780
    },
    "KBTP": {
      "status": "OK",
      "delay": "—",
      "metarCat": "IFR",
      "metarRaw": "METAR KBTP 052356Z AUTO 23007KT 10SM BKN008 OVC014 14/ A3005 RMK AO2 CIG 005V010 SLP183 60022 T0139 10150 20139 53013 $",
      "metarObsTime": 1772754960
    },
    "KFKL": {
      "status": "OK",
      "delay": "—",
      "metarCat": "IFR",
      "metarRaw": "METAR KFKL 052356Z AUTO 25007KT 3SM -RA BR OVC007 13/13 A3003 RMK AO2 RAB38 CIG 004V009 SLP172 P0000 60039 T01280128 10133 20106 53010",
      "metarObsTime": 1772754960
    },
    "KIDI": {
      "status": "OK",
      "delay": "—",
      "metarCat": "MVFR",
      "metarRaw": "METAR KIDI 052355Z AUTO 23009KT 10SM BKN012 OVC017 15/14 A3006 RMK A01",
      "metarObsTime": 1772754900
    },
    "KMDT": {
      "status": "OK",
      "delay": "—",
      "metarCat": "LIFR",
      "metarRaw": "METAR KMDT 052356Z 11010KT 1SM R13/P6000FT BR OVC004 08/08 A3012 RMK AO2 SFC VIS 2 SLP202 60004 T00830078 10089 20061 50000",
      "metarObsTime": 1772754960
    },
    "KCXY": {
      "status": "OK",
      "delay": "—",
      "metarCat": "LIFR",
      "metarRaw": "METAR KCXY 052356Z 10009KT 2SM BR OVC003 08/08 A3012 RMK AO2 SLP204 60002 T00830078 10094 20078 58002",
      "metarObsTime": 1772754960
    },
    "KMUI": {
      "status": "OK",
      "delay": "—",
      "metarCat": "LIFR",
      "metarRaw": "SPECI KMUI 052330Z 08006KT 4SM -RA BR OVC004 08/08 A3013 RMK AO2A SLP208",
      "metarObsTime": 1772753400
    },
    "KUNV": {
      "status": "OK",
      "delay": "—",
      "metarCat": "IFR",
      "metarRaw": "METAR KUNV 052353Z 00000KT 3SM RA OVC006 07/07 A3007",
      "metarObsTime": 1772754780
    },
    "KAOO": {
      "status": "OK",
      "delay": "—",
      "metarCat": "LIFR",
      "metarRaw": "METAR KAOO 052353Z AUTO 00000KT 1/2SM -RA FG FEW003 BKN030 OVC070 08/08 A3007 RMK AO2 SLP189 P0003 60012 T00830078 10106 20083 52003",
      "metarObsTime": 1772754780
    },
    "KLNS": {
      "status": "OK",
      "delay": "—",
      "metarCat": "IFR",
      "metarRaw": "METAR KLNS 052353Z 10010KT 2SM BR OVC005 08/07 A3015 RMK AO2 RAB03E14 SLP211 P0000 60001 T00780072 10094 20078 51002",
      "metarObsTime": 1772754780
    },
    "KIPT": {
      "status": "OK",
      "delay": "—",
      "metarCat": "MVFR",
      "metarRaw": "METAR KIPT 052354Z VRB06G16KT 8SM -RA OVC010 09/07 A3008 RMK AO2 SLP189 P0009 60028 T00890072 10089 20072 56011 $",
      "metarObsTime": 1772754840
    },
    "KPHL": {
      "status": "OK",
      "delay": "—",
      "metarCat": "LIFR",
      "metarRaw": "METAR KPHL 052354Z 06006KT 5SM BR OVC003 08/06 A3019 RMK AO2 SLP221 T00780061 10094 20078 50002 $",
      "metarObsTime": 1772754840
    },
    "KABE": {
      "status": "OK",
      "delay": "—",
      "metarCat": "IFR",
      "metarRaw": "METAR KABE 052351Z 09004KT 6SM -RA BR OVC005 06/06 A3020 RMK AO2 SLP228 P0006 60018 T00610056 10078 20061 50010",
      "metarObsTime": 1772754660
    },
    "KAVP": {
      "status": "OK",
      "delay": "—",
      "metarCat": "MVFR",
      "metarRaw": "METAR KAVP 052354Z 00000KT 5SM RA BR BKN015 BKN025 OVC030 06/04 A3016 RMK AO2 SLP216 P0004 60017 T00560039 10078 20056 51014",
      "metarObsTime": 1772754840
    },
    "KHZL": {
      "status": "OK",
      "delay": "—",
      "metarCat": "LIFR",
      "metarRaw": "METAR KHZL 052355Z AUTO 12007KT 4SM UP OVC004 05/04 A3014 RMK AO2 P0014",
      "metarObsTime": 1772754900
    }
  }
}