{
  "generatedAt": "2026-03-26T19:40:23.481Z",
  "airports": {
    "KPIT": {
      "status": "OK",
      "delay": "—",
      "metarCat": "VFR",
      "metarRaw": "METAR KPIT 261851Z 22022G32KT 10SM BKN050 23/10 A2978 RMK AO2 PK WND 23032/1851 SLP085 T02280100",
      "metarObsTime": 1774551060
    },
    "KAGC": {
      "status": "OK",
      "delay": "—",
      "metarCat": "VFR",
      "metarRaw": "METAR KAGC 261853Z 22020G31KT 10SM BKN055 23/11 A2979 RMK AO2 PK WND 22034/1826 SLP087 T02280106",
      "metarObsTime": 1774551180
    },
    "KLBE": {
      "status": "OK",
      "delay": "—",
      "metarCat": "VFR",
      "metarRaw": "METAR KLBE 261850Z 20017G29KT 10SM SCT040 BKN060 BKN075 23/12 A2982",
      "metarObsTime": 1774551000
    },
    "KJST": {
      "status": "OK",
      "delay": "—",
      "metarCat": "VFR",
      "metarRaw": "METAR KJST 261854Z AUTO 20011G21KT 170V240 10SM BKN055 20/09 A2983 RMK AO2 WSHFT 1813 SLP094 T02000094",
      "metarObsTime": 1774551240
    },
    "KERI": {
      "status": "OK",
      "delay": "—",
      "metarCat": "VFR",
      "metarRaw": "METAR KERI 261851Z 07007KT 7SM -RA FEW038 BKN070 BKN095 16/12 A2968 RMK AO2 RAB1759 PRESFR SLP050 P0001 T01610117",
      "metarObsTime": 1774551060
    },
    "KDUJ": {
      "status": "OK",
      "delay": "—",
      "metarCat": "VFR",
      "metarRaw": "METAR KDUJ 261853Z AUTO 24016G23KT 10SM SCT048 SCT060 22/10 A2977 RMK AO2 PK WND 21026/1841 SLP074 T02170100",
      "metarObsTime": 1774551180
    },
    "KBFD": {
      "status": "OK",
      "delay": "—",
      "metarCat": "VFR",
      "metarRaw": "METAR KBFD 261853Z AUTO 22006KT 10SM BKN049 OVC060 19/08 A2975 RMK AO2 RAB26E36 SLP069 P0000 T01940083",
      "metarObsTime": 1774551180
    },
    "KBTP": {
      "status": "OK",
      "delay": "—",
      "metarCat": "VFR",
      "metarRaw": "METAR KBTP 261856Z AUTO 22016G28KT 10SM BKN065 24/11 A2977 RMK AO2 PK WND 20028/1854 SLP079 T02440111 $",
      "metarObsTime": 1774551360
    },
    "KFKL": {
      "status": "OK",
      "delay": "—",
      "metarCat": "VFR",
      "metarRaw": "METAR KFKL 261856Z AUTO 24015G23KT 10SM BKN055 22/11 A2974 RMK AO2 PRESFR SLP063 T02220106",
      "metarObsTime": 1774551360
    },
    "KIDI": {
      "status": "OK",
      "delay": "—",
      "metarCat": "VFR",
      "metarRaw": "METAR KIDI 261935Z AUTO 23019G31KT 10SM BKN055 OVC070 23/10 A2976 RMK A01",
      "metarObsTime": 1774553700
    },
    "KMDT": {
      "status": "OK",
      "delay": "—",
      "metarCat": "VFR",
      "metarRaw": "METAR KMDT 261856Z 19011G20KT 10SM FEW150 SCT250 23/08 A2979 RMK AO2 SLP088 T02330083",
      "metarObsTime": 1774551360
    },
    "KCXY": {
      "status": "OK",
      "delay": "—",
      "metarCat": "VFR",
      "metarRaw": "METAR KCXY 261856Z 23007G18KT 10SM CLR 26/09 A2979 RMK AO2 SLP087 T02560089",
      "metarObsTime": 1774551360
    },
    "KMUI": {
      "status": "OK",
      "delay": "—",
      "metarCat": "—",
      "metarRaw": "—",
      "metarObsTime": null
    },
    "KUNV": {
      "status": "OK",
      "delay": "—",
      "metarCat": "VFR",
      "metarRaw": "METAR KUNV 261853Z 23019G23KT 10SM SCT060 23/10 A2978",
      "metarObsTime": 1774551180
    },
    "KAOO": {
      "status": "OK",
      "delay": "—",
      "metarCat": "VFR",
      "metarRaw": "METAR KAOO 261853Z AUTO 25015G23KT 10SM CLR 23/10 A2980 RMK AO2 PK WND 23027/1814 SLP088 T02330100",
      "metarObsTime": 1774551180
    },
    "KLNS": {
      "status": "OK",
      "delay": "—",
      "metarCat": "VFR",
      "metarRaw": "METAR KLNS 261853Z 23011KT 10SM CLR 24/09 A2981 RMK AO2 SLP092 T02440094",
      "metarObsTime": 1774551180
    },
    "KIPT": {
      "status": "OK",
      "delay": "—",
      "metarCat": "VFR",
      "metarRaw": "METAR KIPT 261854Z 24011G18KT 10SM BKN070 24/08 A2973 RMK AO2 SLP065 T02440078 $",
      "metarObsTime": 1774551240
    },
    "KPHL": {
      "status": "OK",
      "delay": "—",
      "metarCat": "VFR",
      "metarRaw": "METAR KPHL 261854Z 24017KT 10SM FEW090 SCT180 SCT280 24/08 A2986 RMK AO2 SLP110 T02440078",
      "metarObsTime": 1774551240
    },
    "KABE": {
      "status": "OK",
      "delay": "—",
      "metarCat": "VFR",
      "metarRaw": "METAR KABE 261851Z 21011G20KT 10SM CLR 23/07 A2982 RMK AO2 SLP096 T02280067 $",
      "metarObsTime": 1774551060
    },
    "KAVP": {
      "status": "OK",
      "delay": "—",
      "metarCat": "VFR",
      "metarRaw": "METAR KAVP 261854Z 24013G23KT 10SM CLR 22/06 A2977 RMK AO2 PK WND 23028/1815 SLP077 T02170061",
      "metarObsTime": 1774551240
    },
    "KHZL": {
      "status": "OK",
      "delay": "—",
      "metarCat": "VFR",
      "metarRaw": "METAR KHZL 261935Z AUTO 21007KT 10SM CLR 21/05 A2982 RMK AO2",
      "metarObsTime": 1774553700
    }
  }
}