{
  "generatedAt": "2026-03-17T21:10:16.141Z",
  "airports": {
    "KPIT": {
      "status": "OK",
      "delay": "—",
      "metarCat": "VFR",
      "metarRaw": "METAR KPIT 172051Z 28015G21KT 10SM FEW015 SCT040 SCT250 M04/M11 A3005 RMK AO2 PK WND 30034/2012 SNE48 SLP200 P0000 60000 T10441106 53016",
      "metarObsTime": 1773780660
    },
    "KAGC": {
      "status": "OK",
      "delay": "—",
      "metarCat": "IFR",
      "metarRaw": "METAR KAGC 172053Z 29012G20KT 2 1/2SM HZ BKN021 BKN032 OVC075 M04/M11 A3004 RMK AO2 PK WND 28028/1956 SNB02E51 SLP194 P0000 60000 T10441111 53015",
      "metarObsTime": 1773780780
    },
    "KLBE": {
      "status": "OK",
      "delay": "—",
      "metarCat": "VFR",
      "metarRaw": "METAR KLBE 172049Z 24009G28KT 10SM SCT033 BKN048 BKN080 M03/M08 A3005",
      "metarObsTime": 1773780540
    },
    "KJST": {
      "status": "OK",
      "delay": "—",
      "metarCat": "VFR",
      "metarRaw": "METAR KJST 172054Z AUTO 26012G23KT 7SM -SN SCT027 BKN034 OVC060 M06/M12 A2991 RMK AO2 PK WND 29036/2005 UPB12E19SNE05B26 SLP165 P0000 60000 T10611117 53009",
      "metarObsTime": 1773780840
    },
    "KERI": {
      "status": "OK",
      "delay": "—",
      "metarCat": "VFR",
      "metarRaw": "METAR KERI 172051Z 28014G23KT 10SM R06/1200VP6000FT BKN033 OVC045 M05/M12 A3007 RMK AO2 PK WND 27026/2020 SLP193 60000 T10501122 53022",
      "metarObsTime": 1773780660
    },
    "KDUJ": {
      "status": "OK",
      "delay": "—",
      "metarCat": "MVFR",
      "metarRaw": "METAR KDUJ 172053Z AUTO 30010G19KT 3SM -SN SCT019 BKN027 OVC042 M07/M11 A2994 RMK AO2 SLP167 P0000 60000 T10671111 51012",
      "metarObsTime": 1773780780
    },
    "KBFD": {
      "status": "OK",
      "delay": "—",
      "metarCat": "VFR",
      "metarRaw": "METAR KBFD 172053Z AUTO 31018G26KT 10SM OVC045 M07/M16 A2990 RMK AO2 PK WND 28029/1958 SNB23E32 SLP157 P0000 60000 T10721156 51016",
      "metarObsTime": 1773780780
    },
    "KBTP": {
      "status": "OK",
      "delay": "—",
      "metarCat": "VFR",
      "metarRaw": "METAR KBTP 172056Z AUTO 27012G23KT 8SM FEW014 SCT050 SCT060 M03/M11 A3004 RMK AO2 SNE47 SLPNO P0000 60002 T10331106 51011 FZRANO $",
      "metarObsTime": 1773780960
    },
    "KFKL": {
      "status": "OK",
      "delay": "—",
      "metarCat": "MVFR",
      "metarRaw": "METAR KFKL 172056Z AUTO 27014G20KT 6SM -SN SCT010 BKN019 OVC038 M06/M09 A3001 RMK AO2 SNB05 SLP188 P0000 60000 T10561094 53021 FZRANO",
      "metarObsTime": 1773780960
    },
    "KIDI": {
      "status": "OK",
      "delay": "—",
      "metarCat": "VFR",
      "metarRaw": "METAR KIDI 172055Z AUTO 28018G23KT 10SM FEW025 SCT035 BKN045 M04/M11 A3000 RMK A01",
      "metarObsTime": 1773780900
    },
    "KMDT": {
      "status": "OK",
      "delay": "—",
      "metarCat": "VFR",
      "metarRaw": "METAR KMDT 172056Z 29015G23KT 10SM BKN045 BKN080 02/M11 A2999 RMK AO2 SLP158 T00221106 53011",
      "metarObsTime": 1773780960
    },
    "KCXY": {
      "status": "OK",
      "delay": "—",
      "metarCat": "VFR",
      "metarRaw": "METAR KCXY 172056Z 26011G19KT 10SM FEW046 OVC070 02/M13 A2999 RMK AO2 PK WND 32027/2031 SLP161 T00171128 53012",
      "metarObsTime": 1773780960
    },
    "KMUI": {
      "status": "OK",
      "delay": "—",
      "metarCat": "VFR",
      "metarRaw": "METAR KMUI 172055Z 28009G17KT 10SM SCT040 BKN075 01/M09 A2996 RMK AO2A PK WND 29026/15 SNB10E32 SLP153 60000 T00091092 52015",
      "metarObsTime": 1773780900
    },
    "KUNV": {
      "status": "OK",
      "delay": "—",
      "metarCat": "MVFR",
      "metarRaw": "METAR KUNV 172053Z 32008G14KT 5SM VCSH SCT037 BKN047 BKN050 M03/M08 A2996",
      "metarObsTime": 1773780780
    },
    "KAOO": {
      "status": "OK",
      "delay": "—",
      "metarCat": "IFR",
      "metarRaw": "SPECI KAOO 172058Z AUTO 26013KT 2 1/2SM -SN FEW008 SCT023 BKN039 M04/M09 A2997 RMK AO2 P0000 T10441089",
      "metarObsTime": 1773781080
    },
    "KLNS": {
      "status": "OK",
      "delay": "—",
      "metarCat": "VFR",
      "metarRaw": "METAR KLNS 172053Z 29017KT 10SM BKN080 01/M11 A2998 RMK AO2 PK WND 29029/2018 SLP155 T00111106 53012",
      "metarObsTime": 1773780780
    },
    "KIPT": {
      "status": "OK",
      "delay": "—",
      "metarCat": "VFR",
      "metarRaw": "METAR KIPT 172054Z 25012G20KT 10SM BKN055 BKN085 M01/M09 A2996 RMK AO2 SNE1958 SLP152 P0000 60001 T10111089 53018",
      "metarObsTime": 1773780840
    },
    "KPHL": {
      "status": "OK",
      "delay": "—",
      "metarCat": "VFR",
      "metarRaw": "METAR KPHL 172054Z 29021G26KT 10SM BKN070 05/M12 A2998 RMK AO2 PK WND 29026/2047 SLP152 T00501117 53013 $",
      "metarObsTime": 1773780840
    },
    "KABE": {
      "status": "OK",
      "delay": "—",
      "metarCat": "VFR",
      "metarRaw": "METAR KABE 172051Z 30011G22KT 10SM BKN050 02/M09 A2995 RMK AO2 PK WND 30026/2017 SLP145 T00221094 53010 $",
      "metarObsTime": 1773780660
    },
    "KAVP": {
      "status": "OK",
      "delay": "—",
      "metarCat": "VFR",
      "metarRaw": "METAR KAVP 172054Z 27014G26KT 10SM FEW041 FEW050 BKN075 00/M09 A2991 RMK AO2 PK WND 26026/2049 SNB1955E09 SLP135 P0000 60000 T00001094 53013",
      "metarObsTime": 1773780840
    },
    "KHZL": {
      "status": "OK",
      "delay": "—",
      "metarCat": "—",
      "metarRaw": "METAR KHZL 172055Z AUTO 29006KT 10SM M02/M06 RMK AO2",
      "metarObsTime": 1773780900
    }
  }
}