{
  "generatedAt": "2026-04-02T13:50:38.218Z",
  "airports": {
    "KPIT": {
      "status": "OK",
      "delay": "—",
      "metarCat": "LIFR",
      "metarRaw": "METAR KPIT 021251Z 08005KT 1/8SM R28R/2200V2800FT FG VV002 11/11 A3016 RMK AO2 RAB1155E49 SLP224 P0001 T01060106",
      "metarObsTime": 1775134260
    },
    "KAGC": {
      "status": "OK",
      "delay": "—",
      "metarCat": "LIFR",
      "metarRaw": "SPECI KAGC 021323Z 11004KT 3/4SM R28/0500VP6000FT BR OVC002 12/12 A3016 RMK AO2 RAE06 P0000 T01220122",
      "metarObsTime": 1775136180
    },
    "KLBE": {
      "status": "OK",
      "delay": "—",
      "metarCat": "VFR",
      "metarRaw": "METAR KLBE 021347Z 00000KT 10SM BKN045 14/14 A3020",
      "metarObsTime": 1775137620
    },
    "KJST": {
      "status": "OK",
      "delay": "—",
      "metarCat": "VFR",
      "metarRaw": "SPECI KJST 021312Z AUTO 18005KT 10SM FEW007 BKN036 OVC090 11/11 A3022 RMK AO2 RAB1256E06 P0000 T01110106",
      "metarObsTime": 1775135520
    },
    "KERI": {
      "status": "OK",
      "delay": "—",
      "metarCat": "MVFR",
      "metarRaw": "METAR KERI 021251Z 05008KT 10SM FEW007 OVC011 03/02 A3021 RMK AO2 SLP236 T00330017 $",
      "metarObsTime": 1775134260
    },
    "KDUJ": {
      "status": "OK",
      "delay": "—",
      "metarCat": "LIFR",
      "metarRaw": "METAR KDUJ 021253Z AUTO 11009KT 6SM BR OVC003 07/06 A3021 RMK AO2 SLP235 T00720061",
      "metarObsTime": 1775134380
    },
    "KBFD": {
      "status": "OK",
      "delay": "—",
      "metarCat": "LIFR",
      "metarRaw": "SPECI KBFD 021341Z AUTO 13006KT 3/4SM BR OVC002 05/05 A3022 RMK AO2 T00500050",
      "metarObsTime": 1775137260
    },
    "KBTP": {
      "status": "OK",
      "delay": "—",
      "metarCat": "IFR",
      "metarRaw": "METAR KBTP 021256Z AUTO 10005KT 10SM -RA OVC006 11/ A3019 RMK AO2 SLP233 P0000 T0106 $",
      "metarObsTime": 1775134560
    },
    "KFKL": {
      "status": "OK",
      "delay": "—",
      "metarCat": "LIFR",
      "metarRaw": "METAR KFKL 021256Z AUTO 12007KT 3/4SM -RA BR OVC003 07/07 A3020 RMK AO2 RAB48 SLP234 P0000 T00720072",
      "metarObsTime": 1775134560
    },
    "KIDI": {
      "status": "OK",
      "delay": "—",
      "metarCat": "VFR",
      "metarRaw": "METAR KIDI 021335Z AUTO 09005KT 10SM SCT060 SCT070 SCT095 14/12 A3020 RMK A01",
      "metarObsTime": 1775136900
    },
    "KMDT": {
      "status": "OK",
      "delay": "—",
      "metarCat": "IFR",
      "metarRaw": "METAR KMDT 021256Z 11012KT 9SM BKN007 OVC011 09/08 A3032 RMK AO2 DZE13 SLP268 P0000 T00940078",
      "metarObsTime": 1775134560
    },
    "KCXY": {
      "status": "OK",
      "delay": "—",
      "metarCat": "IFR",
      "metarRaw": "METAR KCXY 021256Z 11012KT 3SM BR OVC009 09/08 A3032 RMK AO2 CIG 006V012 SLP268 T00940083",
      "metarObsTime": 1775134560
    },
    "KMUI": {
      "status": "OK",
      "delay": "—",
      "metarCat": "LIFR",
      "metarRaw": "METAR KMUI 021255Z 09006KT 2SM -DZ BR OVC004 10/09 A3031 RMK AO2A SLP268 T00950090",
      "metarObsTime": 1775134500
    },
    "KUNV": {
      "status": "OK",
      "delay": "—",
      "metarCat": "LIFR",
      "metarRaw": "METAR KUNV 021253Z COR 36003KT 3/4SM R24/5500FT -RA BR OVC002 06/06 A3028",
      "metarObsTime": 1775134380
    },
    "KAOO": {
      "status": "OK",
      "delay": "—",
      "metarCat": "LIFR",
      "metarRaw": "SPECI KAOO 021338Z AUTO 00000KT 1/2SM FG OVC002 08/08 A3027 RMK AO2 T00780078",
      "metarObsTime": 1775137080
    },
    "KLNS": {
      "status": "OK",
      "delay": "—",
      "metarCat": "IFR",
      "metarRaw": "METAR KLNS 021253Z 09013KT 10SM OVC009 08/07 A3033 RMK AO2 SLP270 T00830067",
      "metarObsTime": 1775134380
    },
    "KIPT": {
      "status": "OK",
      "delay": "—",
      "metarCat": "MVFR",
      "metarRaw": "METAR KIPT 021254Z 08006KT 10SM OVC013 08/07 A3030 RMK AO2 SLP263 T00830072 $",
      "metarObsTime": 1775134440
    },
    "KPHL": {
      "status": "OK",
      "delay": "—",
      "metarCat": "IFR",
      "metarRaw": "SPECI KPHL 021301Z 07015KT 7SM OVC009 08/07 A3037 RMK AO2 CIG 007V011 T00830067 $",
      "metarObsTime": 1775134860
    },
    "KABE": {
      "status": "OK",
      "delay": "—",
      "metarCat": "IFR",
      "metarRaw": "SPECI KABE 021340Z 09012KT 10SM OVC008 08/06 A3039 RMK AO2 T00780061 $",
      "metarObsTime": 1775137200
    },
    "KAVP": {
      "status": "OK",
      "delay": "—",
      "metarCat": "MVFR",
      "metarRaw": "METAR KAVP 021254Z VRB06KT 10SM OVC015 07/04 A3033 RMK AO2 SLP272 T00720044",
      "metarObsTime": 1775134440
    },
    "KHZL": {
      "status": "OK",
      "delay": "—",
      "metarCat": "LIFR",
      "metarRaw": "METAR KHZL 021335Z AUTO 12009G17KT 070V160 5SM BR OVC004 06/05 A3035 RMK AO2",
      "metarObsTime": 1775136900
    }
  }
}