{
  "generatedAt": "2026-03-16T04:30:17.762Z",
  "airports": {
    "KPIT": {
      "status": "OK",
      "delay": "—",
      "metarCat": "VFR",
      "metarRaw": "METAR KPIT 160351Z 15024G28KT 10SM SCT100 SCT200 14/07 A2962 RMK AO2 SLP034 T01440067 VISNO SE $",
      "metarObsTime": 1773633060
    },
    "KAGC": {
      "status": "OK",
      "delay": "—",
      "metarCat": "VFR",
      "metarRaw": "METAR KAGC 160353Z 15019G40KT 10SM CLR 13/06 A2965 RMK AO2 PK WND 14040/0348 SLP041 T01330061",
      "metarObsTime": 1773633180
    },
    "KLBE": {
      "status": "OK",
      "delay": "—",
      "metarCat": "VFR",
      "metarRaw": "METAR KLBE 160415Z AUTO 12022G33KT 10SM FEW090 13/09 A2965 RMK AO2",
      "metarObsTime": 1773634500
    },
    "KJST": {
      "status": "OK",
      "delay": "—",
      "metarCat": "IFR",
      "metarRaw": "METAR KJST 160354Z AUTO 15016G28KT 10SM OVC007 07/06 A2978 RMK AO2 PK WND 16038/0255 SLP092 T00720056",
      "metarObsTime": 1773633240
    },
    "KERI": {
      "status": "OK",
      "delay": "—",
      "metarCat": "—",
      "metarRaw": "—",
      "metarObsTime": null
    },
    "KDUJ": {
      "status": "OK",
      "delay": "—",
      "metarCat": "MVFR",
      "metarRaw": "METAR KDUJ 160353Z AUTO 13012G31KT 10SM OVC014 09/06 A2974 RMK AO2 PK WND 12033/0339 SLP074 T00890056 $",
      "metarObsTime": 1773633180
    },
    "KBFD": {
      "status": "OK",
      "delay": "—",
      "metarCat": "IFR",
      "metarRaw": "SPECI KBFD 160403Z AUTO 15018G39KT 10SM OVC009 07/05 A2972 RMK AO2 PK WND 14039/0358 T00720050",
      "metarObsTime": 1773633780
    },
    "KBTP": {
      "status": "OK",
      "delay": "—",
      "metarCat": "—",
      "metarRaw": "—",
      "metarObsTime": null
    },
    "KFKL": {
      "status": "OK",
      "delay": "—",
      "metarCat": "VFR",
      "metarRaw": "METAR KFKL 160356Z AUTO 15015G24KT 10SM CLR 10/05 A2963 RMK AO2 PK WND 14031/0327 SLPNO T01000050",
      "metarObsTime": 1773633360
    },
    "KIDI": {
      "status": "OK",
      "delay": "—",
      "metarCat": "MVFR",
      "metarRaw": "METAR KIDI 160415Z AUTO 15017G28KT 110V180 10SM OVC020 11/07 A2970 RMK A01",
      "metarObsTime": 1773634500
    },
    "KMDT": {
      "status": "OK",
      "delay": "—",
      "metarCat": "MVFR",
      "metarRaw": "METAR KMDT 160356Z 10011KT 10SM OVC017 09/06 A2996 RMK AO2 PRESFR SLP147 T00940056 $",
      "metarObsTime": 1773633360
    },
    "KCXY": {
      "status": "OK",
      "delay": "—",
      "metarCat": "MVFR",
      "metarRaw": "METAR KCXY 160356Z AUTO 09008KT 10SM OVC016 09/05 A2996 RMK AO2 PRESFR SLP148 T00890050",
      "metarObsTime": 1773633360
    },
    "KMUI": {
      "status": "OK",
      "delay": "—",
      "metarCat": "MVFR",
      "metarRaw": "SPECI KMUI 160419Z AUTO 05009KT 10SM SCT006 OVC013 07/07 A2995 RMK AO2 CIG 006V013 PRESFR SLP147 $",
      "metarObsTime": 1773634740
    },
    "KUNV": {
      "status": "OK",
      "delay": "—",
      "metarCat": "MVFR",
      "metarRaw": "METAR KUNV 160415Z AUTO 00000KT 10SM UP OVC012 07/06 A2988 RMK AO2 T00700058",
      "metarObsTime": 1773634500
    },
    "KAOO": {
      "status": "OK",
      "delay": "—",
      "metarCat": "IFR",
      "metarRaw": "SPECI KAOO 160418Z AUTO 14011G19KT 6SM BR OVC008 08/07 A2983 RMK AO2 PRESFR T00830072",
      "metarObsTime": 1773634680
    },
    "KLNS": {
      "status": "OK",
      "delay": "—",
      "metarCat": "MVFR",
      "metarRaw": "METAR KLNS 160353Z AUTO 10012KT 10SM OVC016 09/06 A2999 RMK AO2 SLP158 T00890061",
      "metarObsTime": 1773633180
    },
    "KIPT": {
      "status": "OK",
      "delay": "—",
      "metarCat": "MVFR",
      "metarRaw": "METAR KIPT 160354Z AUTO 09011G22KT 5SM BR OVC014 06/04 A2995 RMK AO2 RAE48 SLP146 P0002 T00610044 $",
      "metarObsTime": 1773633240
    },
    "KPHL": {
      "status": "OK",
      "delay": "—",
      "metarCat": "VFR",
      "metarRaw": "SPECI KPHL 160413Z 10010KT 7SM -RA OVC042 11/08 A3004 RMK AO2 RAB0359 P0000 T01110078 $",
      "metarObsTime": 1773634380
    },
    "KABE": {
      "status": "OK",
      "delay": "—",
      "metarCat": "MVFR",
      "metarRaw": "METAR KABE 160351Z 08007KT 10SM OVC015 06/03 A3007 RMK AO2 SLP185 T00610033 $",
      "metarObsTime": 1773633060
    },
    "KAVP": {
      "status": "OK",
      "delay": "—",
      "metarCat": "VFR",
      "metarRaw": "METAR KAVP 160354Z 13007G19KT 10SM SCT016 OVC035 08/05 A2998 RMK AO2 PK WND 15026/0329 SLP156 T00780050",
      "metarObsTime": 1773633240
    },
    "KHZL": {
      "status": "OK",
      "delay": "—",
      "metarCat": "LIFR",
      "metarRaw": "METAR KHZL 160415Z AUTO 13012G22KT 100V160 3SM -RA OVC003 05/03 A2998 RMK AO2",
      "metarObsTime": 1773634500
    }
  }
}