{
  "generatedAt": "2026-03-19T07:30:15.061Z",
  "airports": {
    "KPIT": {
      "status": "OK",
      "delay": "—",
      "metarCat": "VFR",
      "metarRaw": "METAR KPIT 190651Z 18005KT 10SM OVC037 02/M07 A3012 RMK AO2 SLP218 T00221072 $",
      "metarObsTime": 1773903060
    },
    "KAGC": {
      "status": "OK",
      "delay": "—",
      "metarCat": "VFR",
      "metarRaw": "METAR KAGC 190653Z AUTO 18007KT 10SM OVC040 02/M07 A3011 RMK AO2 SLP214 T00171067",
      "metarObsTime": 1773903180
    },
    "KLBE": {
      "status": "OK",
      "delay": "—",
      "metarCat": "VFR",
      "metarRaw": "METAR KLBE 190715Z AUTO 19006KT 10SM OVC043 05/M04 A3014 RMK AO2",
      "metarObsTime": 1773904500
    },
    "KJST": {
      "status": "OK",
      "delay": "—",
      "metarCat": "VFR",
      "metarRaw": "METAR KJST 190654Z AUTO 19007KT 10SM OVC036 M01/M08 A3010 RMK AO2 SLP217 T10061078",
      "metarObsTime": 1773903240
    },
    "KERI": {
      "status": "OK",
      "delay": "—",
      "metarCat": "VFR",
      "metarRaw": "METAR KERI 190651Z AUTO 19010KT 10SM BKN036 OVC055 02/M07 A3011 RMK AO2 SLP203 T00171067",
      "metarObsTime": 1773903060
    },
    "KDUJ": {
      "status": "OK",
      "delay": "—",
      "metarCat": "VFR",
      "metarRaw": "METAR KDUJ 190653Z AUTO 12005KT 10SM OVC040 M01/M06 A3010 RMK AO2 SLP212 T10111061",
      "metarObsTime": 1773903180
    },
    "KBFD": {
      "status": "OK",
      "delay": "—",
      "metarCat": "VFR",
      "metarRaw": "METAR KBFD 190653Z AUTO 16005KT 10SM OVC036 M03/M06 A3008 RMK AO2 SLP211 T10281056",
      "metarObsTime": 1773903180
    },
    "KBTP": {
      "status": "OK",
      "delay": "—",
      "metarCat": "VFR",
      "metarRaw": "METAR KBTP 190656Z AUTO 19005KT 10SM OVC040 01/M06 A3013 RMK AO2 SLP220 T00111056 FZRANO $",
      "metarObsTime": 1773903360
    },
    "KFKL": {
      "status": "OK",
      "delay": "—",
      "metarCat": "VFR",
      "metarRaw": "METAR KFKL 190656Z AUTO 19006KT 10SM OVC034 M01/M06 A3011 RMK AO2 SLP214 T10061056 FZRANO",
      "metarObsTime": 1773903360
    },
    "KIDI": {
      "status": "OK",
      "delay": "—",
      "metarCat": "VFR",
      "metarRaw": "METAR KIDI 190715Z AUTO VRB05KT 10SM OVC045 02/M05 A3012 RMK A01",
      "metarObsTime": 1773904500
    },
    "KMDT": {
      "status": "OK",
      "delay": "—",
      "metarCat": "VFR",
      "metarRaw": "METAR KMDT 190656Z VRB04KT 10SM OVC060 01/M07 A3027 RMK AO2 SLP254 T00111067",
      "metarObsTime": 1773903360
    },
    "KCXY": {
      "status": "OK",
      "delay": "—",
      "metarCat": "VFR",
      "metarRaw": "METAR KCXY 190656Z AUTO 00000KT 10SM BKN060 OVC110 01/M08 A3027 RMK AO2 SLP255 T00111078",
      "metarObsTime": 1773903360
    },
    "KMUI": {
      "status": "OK",
      "delay": "—",
      "metarCat": "VFR",
      "metarRaw": "METAR KMUI 190655Z AUTO 00000KT 10SM OVC060 00/M05 A3025 RMK AO2 SLP252 T00001048",
      "metarObsTime": 1773903300
    },
    "KUNV": {
      "status": "OK",
      "delay": "—",
      "metarCat": "VFR",
      "metarRaw": "METAR KUNV 190715Z AUTO 00000KT 10SM OVC045 00/M10 A3017 RMK AO2 T00021102",
      "metarObsTime": 1773904500
    },
    "KAOO": {
      "status": "OK",
      "delay": "—",
      "metarCat": "VFR",
      "metarRaw": "METAR KAOO 190653Z AUTO 18007KT 10SM OVC045 00/M10 A3017 RMK AO2 SLP232 T00001100",
      "metarObsTime": 1773903180
    },
    "KLNS": {
      "status": "OK",
      "delay": "—",
      "metarCat": "VFR",
      "metarRaw": "METAR KLNS 190653Z AUTO 17008KT 10SM OVC065 00/M07 A3028 RMK AO2 SLP258 T00001067",
      "metarObsTime": 1773903180
    },
    "KIPT": {
      "status": "OK",
      "delay": "—",
      "metarCat": "VFR",
      "metarRaw": "METAR KIPT 190654Z AUTO 09005KT 10SM OVC050 01/M08 A3023 RMK AO2 SLP242 T00061083 $",
      "metarObsTime": 1773903240
    },
    "KPHL": {
      "status": "OK",
      "delay": "—",
      "metarCat": "VFR",
      "metarRaw": "METAR KPHL 190654Z 16007KT 10SM SCT080 OVC110 01/M06 A3034 RMK AO2 SLP272 T00111056",
      "metarObsTime": 1773903240
    },
    "KABE": {
      "status": "OK",
      "delay": "—",
      "metarCat": "VFR",
      "metarRaw": "METAR KABE 190651Z AUTO 18004KT 10SM BKN070 OVC090 01/M08 A3030 RMK AO2 SLP264 T00061083",
      "metarObsTime": 1773903060
    },
    "KAVP": {
      "status": "OK",
      "delay": "—",
      "metarCat": "VFR",
      "metarRaw": "METAR KAVP 190654Z 24003KT 10SM SCT060 BKN075 OVC090 M01/M11 A3023 RMK AO2 SLP245 T10061106",
      "metarObsTime": 1773903240
    },
    "KHZL": {
      "status": "OK",
      "delay": "—",
      "metarCat": "VFR",
      "metarRaw": "METAR KHZL 190715Z AUTO 14005KT 10SM OVC046 M01/M10 RMK AO2",
      "metarObsTime": 1773904500
    }
  }
}