{
  "generatedAt": "2026-04-19T08:20:48.887Z",
  "airports": {
    "KPIT": {
      "status": "OK",
      "delay": "—",
      "metarCat": "MVFR",
      "metarRaw": "SPECI KPIT 190813Z 23006KT 5SM -RA BR FEW015 BKN025 OVC034 07/06 A2997 RMK AO2 P0003 T00720061 $",
      "metarObsTime": 1776586380
    },
    "KAGC": {
      "status": "OK",
      "delay": "—",
      "metarCat": "MVFR",
      "metarRaw": "SPECI KAGC 190804Z 30004KT 3SM -RA BR BKN026 OVC034 07/05 A2997 RMK AO2 P0002 T00670050",
      "metarObsTime": 1776585840
    },
    "KLBE": {
      "status": "OK",
      "delay": "—",
      "metarCat": "VFR",
      "metarRaw": "METAR KLBE 190815Z AUTO 26008KT 9SM -RA FEW018 SCT046 OVC065 08/07 A2999 RMK AO2",
      "metarObsTime": 1776586500
    },
    "KJST": {
      "status": "OK",
      "delay": "—",
      "metarCat": "MVFR",
      "metarRaw": "METAR KJST 190754Z AUTO 30013G21KT 10SM -RA FEW014 SCT022 OVC028 05/03 A2991 RMK AO2 RAE46B53 SLP122 P0003 T00500028",
      "metarObsTime": 1776585240
    },
    "KERI": {
      "status": "OK",
      "delay": "—",
      "metarCat": "VFR",
      "metarRaw": "METAR KERI 190751Z AUTO 29013G19KT 10SM FEW060 SCT080 OVC110 07/M01 A2995 RMK AO2 SLP144 T00671006 $",
      "metarObsTime": 1776585060
    },
    "KDUJ": {
      "status": "OK",
      "delay": "—",
      "metarCat": "VFR",
      "metarRaw": "METAR KDUJ 190753Z AUTO 28009KT 10SM OVC060 06/03 A2990 RMK AO2 RAB11E22 SLP119 P0000 T00610033",
      "metarObsTime": 1776585180
    },
    "KBFD": {
      "status": "OK",
      "delay": "—",
      "metarCat": "MVFR",
      "metarRaw": "SPECI KBFD 190813Z AUTO 30007KT 10SM -RA FEW018 BKN023 OVC045 04/02 A2988 RMK AO2 P0000 T00390022",
      "metarObsTime": 1776586380
    },
    "KBTP": {
      "status": "OK",
      "delay": "—",
      "metarCat": "MVFR",
      "metarRaw": "SPECI KBTP 190807Z AUTO 27005KT 9SM -RA FEW019 BKN024 OVC034 06/06 A2998 RMK AO2 PRESRR P0001 $",
      "metarObsTime": 1776586020
    },
    "KFKL": {
      "status": "OK",
      "delay": "—",
      "metarCat": "—",
      "metarRaw": "—",
      "metarObsTime": null
    },
    "KIDI": {
      "status": "OK",
      "delay": "—",
      "metarCat": "VFR",
      "metarRaw": "METAR KIDI 190815Z AUTO 31008KT 7SM SCT020 BKN032 OVC070 06/05 A2996 RMK A01",
      "metarObsTime": 1776586500
    },
    "KMDT": {
      "status": "OK",
      "delay": "—",
      "metarCat": "IFR",
      "metarRaw": "METAR KMDT 190756Z 04004KT 5SM -RA BR FEW006 OVC008 13/13 A2977 RMK AO2 SLP080 P0007 T01330128",
      "metarObsTime": 1776585360
    },
    "KCXY": {
      "status": "OK",
      "delay": "—",
      "metarCat": "IFR",
      "metarRaw": "METAR KCXY 190756Z AUTO 07005KT 8SM -RA OVC006 14/13 A2977 RMK AO2 SLP080 P0005 T01390128 $",
      "metarObsTime": 1776585360
    },
    "KMUI": {
      "status": "OK",
      "delay": "—",
      "metarCat": "IFR",
      "metarRaw": "SPECI KMUI 190757Z AUTO 07003KT 10SM -RA OVC007 13/13 A2976 RMK AO2 RAB57 SLP079",
      "metarObsTime": 1776585420
    },
    "KUNV": {
      "status": "OK",
      "delay": "—",
      "metarCat": "VFR",
      "metarRaw": "METAR KUNV 190815Z AUTO 32008KT 10SM SCT037 OVC042 10/04 A2987 RMK AO2 T00950036",
      "metarObsTime": 1776586500
    },
    "KAOO": {
      "status": "OK",
      "delay": "—",
      "metarCat": "VFR",
      "metarRaw": "METAR KAOO 190753Z AUTO 31015G24KT 10SM FEW027 BKN035 OVC047 09/01 A2988 RMK AO2 RAB00E11 SLP112 P0000 T00890011",
      "metarObsTime": 1776585180
    },
    "KLNS": {
      "status": "OK",
      "delay": "—",
      "metarCat": "VFR",
      "metarRaw": "METAR KLNS 190753Z AUTO 12005KT 10SM OVC065 13/12 A2977 RMK AO2 RAE02 SLP079 P0000 T01280117",
      "metarObsTime": 1776585180
    },
    "KIPT": {
      "status": "OK",
      "delay": "—",
      "metarCat": "MVFR",
      "metarRaw": "METAR KIPT 190754Z AUTO 29013G22KT 10SM -RA BKN024 OVC031 14/10 A2977 RMK AO2 RAB0659E22B40 SLP079 P0005 T01390100 $",
      "metarObsTime": 1776585240
    },
    "KPHL": {
      "status": "OK",
      "delay": "—",
      "metarCat": "IFR",
      "metarRaw": "SPECI KPHL 190812Z 08008KT 10SM OVC007 12/09 A2979 RMK AO2 T01170094 $",
      "metarObsTime": 1776586320
    },
    "KABE": {
      "status": "OK",
      "delay": "—",
      "metarCat": "IFR",
      "metarRaw": "METAR KABE 190751Z 14005KT 10SM OVC007 11/09 A2979 RMK AO2 RAE02 SLP087 P0000 T01110094 $",
      "metarObsTime": 1776585060
    },
    "KAVP": {
      "status": "OK",
      "delay": "—",
      "metarCat": "MVFR",
      "metarRaw": "METAR KAVP 190754Z AUTO 00000KT 10SM -RA OVC014 13/11 A2976 RMK AO2 RAE01B18 SLP072 P0001 T01280111",
      "metarObsTime": 1776585240
    },
    "KHZL": {
      "status": "OK",
      "delay": "—",
      "metarCat": "LIFR",
      "metarRaw": "METAR KHZL 190815Z AUTO 00000KT 4SM BR OVC004 11/10 A2979 RMK AO2 P0001",
      "metarObsTime": 1776586500
    }
  }
}