{
  "generatedAt": "2026-03-22T15:40:15.259Z",
  "airports": {
    "KPIT": {
      "status": "OK",
      "delay": "—",
      "metarCat": "VFR",
      "metarRaw": "METAR KPIT 221451Z 22012G23KT 10SM SCT110 BKN250 22/10 A2971 RMK AO2 SLP063 T02170100 56005",
      "metarObsTime": 1774191060
    },
    "KAGC": {
      "status": "OK",
      "delay": "—",
      "metarCat": "VFR",
      "metarRaw": "METAR KAGC 221453Z 19011KT 10SM CLR 21/09 A2972 RMK AO2 SLP065 T02110089 56004",
      "metarObsTime": 1774191180
    },
    "KLBE": {
      "status": "OK",
      "delay": "—",
      "metarCat": "VFR",
      "metarRaw": "METAR KLBE 221453Z 21022G30KT 10SM CLR 22/09 A2975",
      "metarObsTime": 1774191180
    },
    "KJST": {
      "status": "OK",
      "delay": "—",
      "metarCat": "VFR",
      "metarRaw": "METAR KJST 221454Z AUTO 23013KT 10SM CLR 20/06 A2975 RMK AO2 SLP068 T02000061 56006",
      "metarObsTime": 1774191240
    },
    "KERI": {
      "status": "OK",
      "delay": "—",
      "metarCat": "VFR",
      "metarRaw": "METAR KERI 221451Z 31004KT 10SM FEW090 BKN110 10/04 A2967 RMK AO2 RAE14 SLP051 P0000 60000 T01000044 53011",
      "metarObsTime": 1774191060
    },
    "KDUJ": {
      "status": "OK",
      "delay": "—",
      "metarCat": "VFR",
      "metarRaw": "METAR KDUJ 221453Z AUTO 24017G25KT 10SM BKN100 18/07 A2969 RMK AO2 PK WND 25026/1439 RAE1354 SLP049 P0000 60000 T01830067 58006",
      "metarObsTime": 1774191180
    },
    "KBFD": {
      "status": "OK",
      "delay": "—",
      "metarCat": "VFR",
      "metarRaw": "METAR KBFD 221453Z AUTO 26008G16KT 200V290 10SM FEW070 OVC090 15/06 A2970 RMK AO2 SLP055 T01500056 53003 $",
      "metarObsTime": 1774191180
    },
    "KBTP": {
      "status": "OK",
      "delay": "—",
      "metarCat": "VFR",
      "metarRaw": "METAR KBTP 221456Z AUTO 26015G19KT 10SM CLR 22/10 A2971 RMK AO2 SLP061 T02220100 56006 $",
      "metarObsTime": 1774191360
    },
    "KFKL": {
      "status": "OK",
      "delay": "—",
      "metarCat": "VFR",
      "metarRaw": "METAR KFKL 221456Z AUTO 22012G17KT 10SM SCT110 18/08 A2969 RMK AO2 SLP051 T01780083 58001",
      "metarObsTime": 1774191360
    },
    "KIDI": {
      "status": "OK",
      "delay": "—",
      "metarCat": "VFR",
      "metarRaw": "METAR KIDI 221535Z AUTO 23012G24KT 10SM CLR 23/10 A2972 RMK A01",
      "metarObsTime": 1774193700
    },
    "KMDT": {
      "status": "OK",
      "delay": "—",
      "metarCat": "VFR",
      "metarRaw": "METAR KMDT 221456Z 13008KT 10SM SCT250 13/08 A2978 RMK AO2 SLP085 T01330083 56020",
      "metarObsTime": 1774191360
    },
    "KCXY": {
      "status": "OK",
      "delay": "—",
      "metarCat": "VFR",
      "metarRaw": "METAR KCXY 221456Z 09005KT 10SM CLR 14/08 A2978 RMK AO2 SLP087 T01390083 56017",
      "metarObsTime": 1774191360
    },
    "KMUI": {
      "status": "OK",
      "delay": "—",
      "metarCat": "MVFR",
      "metarRaw": "METAR KMUI 221455Z AUTO 22004KT 10SM OVC010 11/10 A2978 RMK AO2 SLP088 T01120098 57017",
      "metarObsTime": 1774191300
    },
    "KUNV": {
      "status": "OK",
      "delay": "—",
      "metarCat": "VFR",
      "metarRaw": "METAR KUNV 221453Z 21008KT 10SM CLR 17/06 A2971",
      "metarObsTime": 1774191180
    },
    "KAOO": {
      "status": "OK",
      "delay": "—",
      "metarCat": "VFR",
      "metarRaw": "METAR KAOO 221453Z AUTO 21017KT 10SM CLR 21/07 A2973 RMK AO2 SLP064 T02060067 56016",
      "metarObsTime": 1774191180
    },
    "KLNS": {
      "status": "OK",
      "delay": "—",
      "metarCat": "VFR",
      "metarRaw": "METAR KLNS 221453Z 22005KT 10SM CLR 13/09 A2980 RMK AO2 SLP092 T01280089 57020",
      "metarObsTime": 1774191180
    },
    "KIPT": {
      "status": "OK",
      "delay": "—",
      "metarCat": "VFR",
      "metarRaw": "METAR KIPT 221454Z 11009G17KT 9SM CLR 12/07 A2973 RMK AO2 SLP069 T01220067 58014 $",
      "metarObsTime": 1774191240
    },
    "KPHL": {
      "status": "OK",
      "delay": "—",
      "metarCat": "MVFR",
      "metarRaw": "SPECI KPHL 221529Z 20010KT 10SM OVC010 13/10 A2982 RMK AO2 CIG 008V012 T01330100 $",
      "metarObsTime": 1774193340
    },
    "KABE": {
      "status": "OK",
      "delay": "—",
      "metarCat": "MVFR",
      "metarRaw": "METAR KABE 221451Z 20009KT 10SM OVC015 11/07 A2980 RMK AO2 SLP093 T01060067 56022 $",
      "metarObsTime": 1774191060
    },
    "KAVP": {
      "status": "OK",
      "delay": "—",
      "metarCat": "VFR",
      "metarRaw": "SPECI KAVP 221508Z 24006KT 10SM SCT090 BKN120 12/06 A2975 RMK AO2 T01220061",
      "metarObsTime": 1774192080
    },
    "KHZL": {
      "status": "OK",
      "delay": "—",
      "metarCat": "VFR",
      "metarRaw": "METAR KHZL 221535Z AUTO 22004KT 10SM BKN085 15/06 A2978 RMK AO2",
      "metarObsTime": 1774193700
    }
  }
}