{
  "generatedAt": "2026-03-17T05:10:11.619Z",
  "airports": {
    "KPIT": {
      "status": "OK",
      "delay": "—",
      "metarCat": "IFR",
      "metarRaw": "METAR KPIT 170451Z 25015G25KT 5SM -SN BR BKN009 OVC028 M04/M06 A2964 RMK AO2 PK WND 27026/0417 SLP054 P0000 T10441056 401561044 $",
      "metarObsTime": 1773723060
    },
    "KAGC": {
      "status": "OK",
      "delay": "—",
      "metarCat": "MVFR",
      "metarRaw": "SPECI KAGC 170506Z 26017G27KT 10SM SCT025 BKN029 BKN080 M04/M08 A2964 RMK AO2 PK WND 25027/0501 T10441078 $",
      "metarObsTime": 1773723960
    },
    "KLBE": {
      "status": "OK",
      "delay": "—",
      "metarCat": "MVFR",
      "metarRaw": "METAR KLBE 170455Z AUTO 24019G29KT 3SM -SN HZ FEW025 BKN030 M04/M07 A2965 RMK AO2",
      "metarObsTime": 1773723300
    },
    "KJST": {
      "status": "OK",
      "delay": "—",
      "metarCat": "MVFR",
      "metarRaw": "METAR KJST 170454Z AUTO 27025G41KT 4SM UP BKN021 OVC035 M06/M09 A2951 RMK AO2 PK WND 26041/0453 UPE25B46 SLP005 P0000 T10561089 401611056",
      "metarObsTime": 1773723240
    },
    "KERI": {
      "status": "OK",
      "delay": "—",
      "metarCat": "IFR",
      "metarRaw": "SPECI KERI 170456Z AUTO 26022G37KT 1 3/4SM -SN FEW013 BKN026 OVC031 M03/M08 A2955 RMK AO2 PK WND 25037/0455 VIS 1/2V5 SNB53 P0000 T10331078 $",
      "metarObsTime": 1773723360
    },
    "KDUJ": {
      "status": "OK",
      "delay": "—",
      "metarCat": "IFR",
      "metarRaw": "SPECI KDUJ 170441Z AUTO 25014G26KT 2SM HZ BKN018 BKN025 M05/M08 A2950 RMK AO2 PK WND 24039/0412 SNB0355E27 P0000 T10501078",
      "metarObsTime": 1773722460
    },
    "KBFD": {
      "status": "OK",
      "delay": "—",
      "metarCat": "MVFR",
      "metarRaw": "SPECI KBFD 170505Z AUTO 25011G21KT 210V280 10SM SCT024 BKN028 BKN036 M06/M09 A2943 RMK AO2 T10561094",
      "metarObsTime": 1773723900
    },
    "KBTP": {
      "status": "OK",
      "delay": "—",
      "metarCat": "—",
      "metarRaw": "—",
      "metarObsTime": null
    },
    "KFKL": {
      "status": "OK",
      "delay": "—",
      "metarCat": "MVFR",
      "metarRaw": "SPECI KFKL 170503Z AUTO 26013G17KT 3SM -SN BR FEW008 BKN019 OVC025 M06/M08 A2956 RMK AO2 P0000 FZRANO",
      "metarObsTime": 1773723780
    },
    "KIDI": {
      "status": "OK",
      "delay": "—",
      "metarCat": "IFR",
      "metarRaw": "METAR KIDI 170455Z AUTO 25016G33KT 2 1/2SM HZ SCT021 OVC026 M04/M06 A2959 RMK A01",
      "metarObsTime": 1773723300
    },
    "KMDT": {
      "status": "OK",
      "delay": "—",
      "metarCat": "VFR",
      "metarRaw": "METAR KMDT 170456Z 29009KT 10SM FEW024 SCT040 OVC050 02/M01 A2957 RMK AO2 SNE0359 PRESRR SLP014 P0000 T00171006 401830006",
      "metarObsTime": 1773723360
    },
    "KCXY": {
      "status": "OK",
      "delay": "—",
      "metarCat": "VFR",
      "metarRaw": "METAR KCXY 170456Z AUTO 28005KT 10SM SCT030 BKN039 OVC048 01/M01 A2957 RMK AO2 SNE0357 PRESRR SLP017 P0000 T00111006 401940006",
      "metarObsTime": 1773723360
    },
    "KMUI": {
      "status": "OK",
      "delay": "—",
      "metarCat": "VFR",
      "metarRaw": "METAR KMUI 170455Z AUTO 25016KT 10SM FEW026 SCT110 02/M01 A2952 RMK AO2 PK WND 30028/25 SNB0355E19UPB19E23SNB23E24 PRESRR SLP000 P0003 T00201006 401930010",
      "metarObsTime": 1773723300
    },
    "KUNV": {
      "status": "OK",
      "delay": "—",
      "metarCat": "VFR",
      "metarRaw": "METAR KUNV 170455Z AUTO 27015G22KT 10SM BKN031 BKN037 OVC050 M02/M07 A2953 RMK AO2 T10221066",
      "metarObsTime": 1773723300
    },
    "KAOO": {
      "status": "OK",
      "delay": "—",
      "metarCat": "VFR",
      "metarRaw": "METAR KAOO 170453Z AUTO 27024G37KT 6SM HZ BKN036 BKN047 M03/M09 A2956 RMK AO2 PK WND 27037/0444 UPB06E16 SLP016 P0000 T10281089 401781028",
      "metarObsTime": 1773723180
    },
    "KLNS": {
      "status": "OK",
      "delay": "—",
      "metarCat": "VFR",
      "metarRaw": "METAR KLNS 170453Z AUTO 27012KT 10SM SCT026 BKN035 OVC095 01/M01 A2956 RMK AO2 PK WND 31034/0404 SNE24 PRESRR SLP010 P0001 T00111006 401890006",
      "metarObsTime": 1773723180
    },
    "KIPT": {
      "status": "OK",
      "delay": "—",
      "metarCat": "VFR",
      "metarRaw": "METAR KIPT 170454Z AUTO 27016G28KT 10SM CLR 00/M02 A2950 RMK AO2 PK WND 28028/0448 SNE35 SLP991 P0007 T00001017 401830000",
      "metarObsTime": 1773723240
    },
    "KPHL": {
      "status": "OK",
      "delay": "—",
      "metarCat": "MVFR",
      "metarRaw": "METAR KPHL 170454Z 28017G29KT 4SM -RA SCT025 BKN050 OVC090 05/02 A2953 RMK AO2 PK WND 30032/0357 SLP000 P0002 T00500017 402000050 $",
      "metarObsTime": 1773723240
    },
    "KABE": {
      "status": "OK",
      "delay": "—",
      "metarCat": "MVFR",
      "metarRaw": "SPECI KABE 170506Z 26011KT 10SM -RA BKN015 BKN037 OVC070 02/01 A2948 RMK AO2 P0001 T00220006 $",
      "metarObsTime": 1773723960
    },
    "KAVP": {
      "status": "OK",
      "delay": "—",
      "metarCat": "LIFR",
      "metarRaw": "METAR KAVP 170454Z 24014G23KT 3/4SM R04/P6000FT -SN BR VV008 00/M01 A2942 RMK AO2 PK WND 25027/0440 SLP961 P0009 T00001006 402000000",
      "metarObsTime": 1773723240
    },
    "KHZL": {
      "status": "OK",
      "delay": "—",
      "metarCat": "LIFR",
      "metarRaw": "METAR KHZL 170455Z AUTO 28005KT 3/4SM SN BKN005 00/M01 RMK AO2 P0006",
      "metarObsTime": 1773723300
    }
  }
}