{
  "generatedAt": "2026-03-06T15:50:22.955Z",
  "airports": {
    "KPIT": {
      "status": "OK",
      "delay": "—",
      "metarCat": "MVFR",
      "metarRaw": "SPECI KPIT 061539Z 23006KT 10SM BKN014 BKN038 OVC110 17/13 A3019 RMK AO2 T01720133",
      "metarObsTime": 1772811540
    },
    "KAGC": {
      "status": "OK",
      "delay": "—",
      "metarCat": "IFR",
      "metarRaw": "METAR KAGC 061453Z 19007KT 10SM BKN007 OVC019 16/14 A3019 RMK AO2 CIG 006V011 SLP228 T01610139 51010",
      "metarObsTime": 1772808780
    },
    "KLBE": {
      "status": "OK",
      "delay": "—",
      "metarCat": "MVFR",
      "metarRaw": "METAR KLBE 061447Z 21006KT 6SM BR SCT010 BKN020 OVC050 16/15 A3022",
      "metarObsTime": 1772808420
    },
    "KJST": {
      "status": "OK",
      "delay": "—",
      "metarCat": "MVFR",
      "metarRaw": "SPECI KJST 061502Z AUTO 22005KT 10SM BKN016 OVC032 13/11 A3021 RMK AO2 T01330111",
      "metarObsTime": 1772809320
    },
    "KERI": {
      "status": "OK",
      "delay": "—",
      "metarCat": "LIFR",
      "metarRaw": "SPECI KERI 061541Z 04005KT 1 3/4SM -RA BR BKN003 OVC009 03/02 A3019 RMK AO2 RAB15 P0001 T00280022",
      "metarObsTime": 1772811660
    },
    "KDUJ": {
      "status": "OK",
      "delay": "—",
      "metarCat": "MVFR",
      "metarRaw": "SPECI KDUJ 061524Z AUTO 25007KT 10SM SCT011 BKN014 OVC037 13/11 A3021 RMK AO2 T01330111",
      "metarObsTime": 1772810640
    },
    "KBFD": {
      "status": "OK",
      "delay": "—",
      "metarCat": "IFR",
      "metarRaw": "SPECI KBFD 061509Z AUTO 22004KT 10SM BKN008 OVC013 11/09 A3020 RMK AO2 T01060094",
      "metarObsTime": 1772809740
    },
    "KBTP": {
      "status": "OK",
      "delay": "—",
      "metarCat": "MVFR",
      "metarRaw": "SPECI KBTP 061513Z AUTO 21007KT 10SM OVC010 16/15 A3021 RMK AO2 CIG 007V013 $",
      "metarObsTime": 1772809980
    },
    "KFKL": {
      "status": "OK",
      "delay": "—",
      "metarCat": "LIFR",
      "metarRaw": "SPECI KFKL 061544Z AUTO 18007KT 6SM BR OVC002 13/13 A3020 RMK AO2",
      "metarObsTime": 1772811840
    },
    "KIDI": {
      "status": "OK",
      "delay": "—",
      "metarCat": "MVFR",
      "metarRaw": "METAR KIDI 061535Z AUTO 23009KT 10SM FEW014 BKN021 BKN025 17/14 A3022 RMK A01",
      "metarObsTime": 1772811300
    },
    "KMDT": {
      "status": "OK",
      "delay": "—",
      "metarCat": "IFR",
      "metarRaw": "SPECI KMDT 061514Z 13009KT 3SM BR OVC006 06/04 A3031 RMK AO2 SFC VIS 4 T00560044",
      "metarObsTime": 1772810040
    },
    "KCXY": {
      "status": "OK",
      "delay": "—",
      "metarCat": "IFR",
      "metarRaw": "SPECI KCXY 061531Z 12007KT 5SM BR OVC005 05/04 A3032 RMK AO2 CIG 003V007 T00500044",
      "metarObsTime": 1772811060
    },
    "KMUI": {
      "status": "OK",
      "delay": "—",
      "metarCat": "IFR",
      "metarRaw": "METAR KMUI 061455Z 07006KT 3SM BR OVC005 05/04 A3030 RMK AO2A SLP267 T00470043 52018",
      "metarObsTime": 1772808900
    },
    "KUNV": {
      "status": "OK",
      "delay": "—",
      "metarCat": "LIFR",
      "metarRaw": "METAR KUNV 061453Z 00000KT 2SM BR OVC003 08/08 A3024",
      "metarObsTime": 1772808780
    },
    "KAOO": {
      "status": "OK",
      "delay": "—",
      "metarCat": "VFR",
      "metarRaw": "METAR KAOO 061453Z AUTO 05003KT 6SM BR FEW026 12/11 A3021 RMK AO2 SLP235 T01220106 50011",
      "metarObsTime": 1772808780
    },
    "KLNS": {
      "status": "OK",
      "delay": "—",
      "metarCat": "IFR",
      "metarRaw": "SPECI KLNS 061531Z 08007KT 2 1/2SM BR OVC005 04/04 A3032 RMK AO2 T00440039",
      "metarObsTime": 1772811060
    },
    "KIPT": {
      "status": "OK",
      "delay": "—",
      "metarCat": "IFR",
      "metarRaw": "METAR KIPT 061454Z VRB06KT 7SM OVC006 06/04 A3027 RMK AO2 SLP255 T00560044 51015",
      "metarObsTime": 1772808840
    },
    "KPHL": {
      "status": "OK",
      "delay": "—",
      "metarCat": "IFR",
      "metarRaw": "METAR KPHL 061454Z 08008KT 10SM OVC009 06/03 A3035 RMK AO2 SLP275 T00560033 51019 $",
      "metarObsTime": 1772808840
    },
    "KABE": {
      "status": "OK",
      "delay": "—",
      "metarCat": "IFR",
      "metarRaw": "METAR KABE 061451Z 06006KT 6SM BR OVC006 03/02 A3034 RMK AO2 SLP276 60000 T00330022 51015",
      "metarObsTime": 1772808660
    },
    "KAVP": {
      "status": "OK",
      "delay": "—",
      "metarCat": "MVFR",
      "metarRaw": "METAR KAVP 061454Z VRB03KT 10SM OVC011 03/01 A3029 RMK AO2 SLP262 T00330011 51012",
      "metarObsTime": 1772808840
    },
    "KHZL": {
      "status": "OK",
      "delay": "—",
      "metarCat": "LIFR",
      "metarRaw": "METAR KHZL 061535Z AUTO 14003KT 1 3/4SM BR OVC002 02/01 A3031 RMK AO2",
      "metarObsTime": 1772811300
    }
  }
}