{
  "generatedAt": "2026-04-13T00:00:52.205Z",
  "airports": {
    "KPIT": {
      "status": "OK",
      "delay": "—",
      "metarCat": "VFR",
      "metarRaw": "METAR KPIT 122351Z 19004KT 10SM FEW120 OVC230 24/08 A3008 RMK AO2 SLP190 T02440083 10261 20233 58013 $",
      "metarObsTime": 1776037860
    },
    "KAGC": {
      "status": "OK",
      "delay": "—",
      "metarCat": "VFR",
      "metarRaw": "METAR KAGC 122353Z AUTO 18004KT 10SM CLR 24/08 A3008 RMK AO2 SLP189 T02390083 10256 20228 56014",
      "metarObsTime": 1776037980
    },
    "KLBE": {
      "status": "OK",
      "delay": "—",
      "metarCat": "VFR",
      "metarRaw": "METAR KLBE 122253Z 22015KT 10SM CLR 24/11 A3012",
      "metarObsTime": 1776034380
    },
    "KJST": {
      "status": "OK",
      "delay": "—",
      "metarCat": "VFR",
      "metarRaw": "METAR KJST 122354Z AUTO 15008KT 10SM CLR 18/08 A3017 RMK AO2 SLP215 T01830078 10222 20183 56007",
      "metarObsTime": 1776038040
    },
    "KERI": {
      "status": "OK",
      "delay": "—",
      "metarCat": "VFR",
      "metarRaw": "METAR KERI 122351Z 19010KT 10SM CLR 23/10 A3000 RMK AO2 SLP158 T02280100 10256 20183 56014 $",
      "metarObsTime": 1776037860
    },
    "KDUJ": {
      "status": "OK",
      "delay": "—",
      "metarCat": "VFR",
      "metarRaw": "METAR KDUJ 122353Z AUTO 20003KT 10SM CLR 21/08 A3011 RMK AO2 SLP198 T02060078 10228 20194 56010",
      "metarObsTime": 1776037980
    },
    "KBFD": {
      "status": "OK",
      "delay": "—",
      "metarCat": "VFR",
      "metarRaw": "METAR KBFD 122353Z AUTO 19006KT 10SM CLR 19/07 A3011 RMK AO2 SLP196 T01940067 10211 20172 56010",
      "metarObsTime": 1776037980
    },
    "KBTP": {
      "status": "OK",
      "delay": "—",
      "metarCat": "VFR",
      "metarRaw": "METAR KBTP 122356Z AUTO 18005KT 10SM CLR 23/10 A3009 RMK AO2 SLP193 T02280100 10256 20217 56012 $",
      "metarObsTime": 1776038160
    },
    "KFKL": {
      "status": "OK",
      "delay": "—",
      "metarCat": "VFR",
      "metarRaw": "METAR KFKL 122356Z AUTO 20009KT 10SM CLR 20/10 A3008 RMK AO2 SLP189 T02000100 10239 20200 56012",
      "metarObsTime": 1776038160
    },
    "KIDI": {
      "status": "OK",
      "delay": "—",
      "metarCat": "VFR",
      "metarRaw": "METAR KIDI 122355Z AUTO 15007G14KT 10SM CLR 22/09 A3012 RMK A01",
      "metarObsTime": 1776038100
    },
    "KMDT": {
      "status": "OK",
      "delay": "—",
      "metarCat": "VFR",
      "metarRaw": "METAR KMDT 122356Z 15013G22KT 10SM FEW070 BKN150 17/04 A3024 RMK AO2 SLP243 T01670039 10189 20167 56009",
      "metarObsTime": 1776038160
    },
    "KCXY": {
      "status": "OK",
      "delay": "—",
      "metarCat": "VFR",
      "metarRaw": "METAR KCXY 122356Z 14014G20KT 10SM CLR 17/04 A3025 RMK AO2 SLP244 T01670044 10206 20167 56006 $",
      "metarObsTime": 1776038160
    },
    "KMUI": {
      "status": "OK",
      "delay": "—",
      "metarCat": "—",
      "metarRaw": "—",
      "metarObsTime": null
    },
    "KUNV": {
      "status": "OK",
      "delay": "—",
      "metarCat": "VFR",
      "metarRaw": "METAR KUNV 122353Z 16007G15KT 10SM CLR 19/07 A3017",
      "metarObsTime": 1776037980
    },
    "KAOO": {
      "status": "OK",
      "delay": "—",
      "metarCat": "VFR",
      "metarRaw": "METAR KAOO 122353Z AUTO 17013G19KT 10SM FEW100 18/07 A3018 RMK AO2 SLP219 T01830072 10222 20183 56008",
      "metarObsTime": 1776037980
    },
    "KLNS": {
      "status": "OK",
      "delay": "—",
      "metarCat": "VFR",
      "metarRaw": "METAR KLNS 122353Z 13010KT 10SM CLR 12/04 A3029 RMK AO2 SLP258 T01170044 10189 20117 55005",
      "metarObsTime": 1776037980
    },
    "KIPT": {
      "status": "OK",
      "delay": "—",
      "metarCat": "VFR",
      "metarRaw": "METAR KIPT 122354Z 13009G21KT 10SM CLR 18/07 A3018 RMK AO2 PK WND 17027/2305 SLP220 T01780067 10200 20167 56012 $",
      "metarObsTime": 1776038040
    },
    "KPHL": {
      "status": "OK",
      "delay": "—",
      "metarCat": "VFR",
      "metarRaw": "METAR KPHL 122354Z 17011G19KT 10SM FEW110 SCT190 SCT330 14/01 A3034 RMK AO2 SLP274 T01440011 10194 20144 55003 $",
      "metarObsTime": 1776038040
    },
    "KABE": {
      "status": "OK",
      "delay": "—",
      "metarCat": "VFR",
      "metarRaw": "METAR KABE 122351Z 18006KT 10SM CLR 16/04 A3030 RMK AO2 SLP261 T01560039 10183 20156 56004 $",
      "metarObsTime": 1776037860
    },
    "KAVP": {
      "status": "OK",
      "delay": "—",
      "metarCat": "VFR",
      "metarRaw": "METAR KAVP 122354Z 10SM CLR 14/03 A3024 RMK AO2 SLP241 T01440033 10183 20144 56007",
      "metarObsTime": 1776038040
    },
    "KHZL": {
      "status": "OK",
      "delay": "—",
      "metarCat": "VFR",
      "metarRaw": "METAR KHZL 122355Z AUTO 15004KT 10SM CLR 13/03 A3029 RMK AO2",
      "metarObsTime": 1776038100
    }
  }
}