{
  "generatedAt": "2026-03-24T22:50:20.785Z",
  "airports": {
    "KPIT": {
      "status": "OK",
      "delay": "—",
      "metarCat": "VFR",
      "metarRaw": "METAR KPIT 242151Z 00000KT 10SM FEW120 OVC250 08/M10 A3031 RMK AO2 SLP283 T00781100",
      "metarObsTime": 1774389060
    },
    "KAGC": {
      "status": "OK",
      "delay": "—",
      "metarCat": "VFR",
      "metarRaw": "METAR KAGC 242153Z 29003KT 10SM CLR 08/M09 A3030 RMK AO2 SLP278 T00781089",
      "metarObsTime": 1774389180
    },
    "KLBE": {
      "status": "OK",
      "delay": "—",
      "metarCat": "VFR",
      "metarRaw": "METAR KLBE 242247Z 26005KT 10SM CLR 07/M08 A3033",
      "metarObsTime": 1774392420
    },
    "KJST": {
      "status": "OK",
      "delay": "—",
      "metarCat": "VFR",
      "metarRaw": "METAR KJST 242154Z AUTO 31007KT 10SM CLR 06/M08 A3026 RMK AO2 SLP271 T00611083",
      "metarObsTime": 1774389240
    },
    "KERI": {
      "status": "OK",
      "delay": "—",
      "metarCat": "VFR",
      "metarRaw": "METAR KERI 242151Z 23005KT 10SM BKN085 02/M06 A3036 RMK AO2 SLP290 T00171061",
      "metarObsTime": 1774389060
    },
    "KDUJ": {
      "status": "OK",
      "delay": "—",
      "metarCat": "VFR",
      "metarRaw": "METAR KDUJ 242153Z AUTO 27007KT 10SM CLR 06/M11 A3027 RMK AO2 SLP270 T00561111",
      "metarObsTime": 1774389180
    },
    "KBFD": {
      "status": "OK",
      "delay": "—",
      "metarCat": "VFR",
      "metarRaw": "METAR KBFD 242153Z AUTO 26007KT 10SM BKN090 BKN120 04/M11 A3026 RMK AO2 SLP266 T00441106",
      "metarObsTime": 1774389180
    },
    "KBTP": {
      "status": "OK",
      "delay": "—",
      "metarCat": "VFR",
      "metarRaw": "METAR KBTP 242156Z AUTO 28005KT 10SM CLR 07/M09 A3032 RMK AO2 SLP288 T00721089 $",
      "metarObsTime": 1774389360
    },
    "KFKL": {
      "status": "OK",
      "delay": "—",
      "metarCat": "VFR",
      "metarRaw": "METAR KFKL 242156Z AUTO 29006KT 10SM SCT100 06/M09 A3031 RMK AO2 SLP282 T00561089",
      "metarObsTime": 1774389360
    },
    "KIDI": {
      "status": "OK",
      "delay": "—",
      "metarCat": "VFR",
      "metarRaw": "METAR KIDI 242235Z AUTO 27008KT 10SM CLR 06/M09 A3031 RMK A01",
      "metarObsTime": 1774391700
    },
    "KMDT": {
      "status": "OK",
      "delay": "—",
      "metarCat": "VFR",
      "metarRaw": "METAR KMDT 242156Z 21007KT 10SM SCT250 09/M04 A3033 RMK AO2 SLP273 T00941044",
      "metarObsTime": 1774389360
    },
    "KCXY": {
      "status": "OK",
      "delay": "—",
      "metarCat": "VFR",
      "metarRaw": "METAR KCXY 242156Z 20010KT 10SM CLR 09/M06 A3033 RMK AO2 SLP274 T00941056",
      "metarObsTime": 1774389360
    },
    "KMUI": {
      "status": "OK",
      "delay": "—",
      "metarCat": "VFR",
      "metarRaw": "METAR KMUI 242155Z 23008KT 10SM BKN250 11/M05 A3030 RMK AO2A SLP267 T01101051",
      "metarObsTime": 1774389300
    },
    "KUNV": {
      "status": "OK",
      "delay": "—",
      "metarCat": "—",
      "metarRaw": "—",
      "metarObsTime": null
    },
    "KAOO": {
      "status": "OK",
      "delay": "—",
      "metarCat": "VFR",
      "metarRaw": "METAR KAOO 242153Z AUTO 21007KT 10SM CLR 08/M08 A3029 RMK AO2 SLP271 T00781083",
      "metarObsTime": 1774389180
    },
    "KLNS": {
      "status": "OK",
      "delay": "—",
      "metarCat": "VFR",
      "metarRaw": "METAR KLNS 242153Z 28008KT 10SM CLR 09/M06 A3033 RMK AO2 SLP273 T00891056",
      "metarObsTime": 1774389180
    },
    "KIPT": {
      "status": "OK",
      "delay": "—",
      "metarCat": "VFR",
      "metarRaw": "METAR KIPT 242154Z 13004KT 10SM CLR 08/M05 A3029 RMK AO2 SLP260 T00831050 $",
      "metarObsTime": 1774389240
    },
    "KPHL": {
      "status": "OK",
      "delay": "—",
      "metarCat": "VFR",
      "metarRaw": "METAR KPHL 242154Z 22009KT 10SM SCT280 10/M06 A3035 RMK AO2 SLP276 T01001056 $",
      "metarObsTime": 1774389240
    },
    "KABE": {
      "status": "OK",
      "delay": "—",
      "metarCat": "VFR",
      "metarRaw": "METAR KABE 242151Z 24007KT 10SM CLR 08/M07 A3032 RMK AO2 SLPNO T00831067 $",
      "metarObsTime": 1774389060
    },
    "KAVP": {
      "status": "OK",
      "delay": "—",
      "metarCat": "VFR",
      "metarRaw": "METAR KAVP 242154Z 23010G19KT 10SM CLR 07/M09 A3028 RMK AO2 SLP259 T00721094",
      "metarObsTime": 1774389240
    },
    "KHZL": {
      "status": "OK",
      "delay": "—",
      "metarCat": "VFR",
      "metarRaw": "METAR KHZL 242235Z AUTO 27003KT 10SM CLR 06/M07 A3030 RMK AO2",
      "metarObsTime": 1774391700
    }
  }
}