{
  "generatedAt": "2026-03-17T12:10:16.443Z",
  "airports": {
    "KPIT": {
      "status": "OK",
      "delay": "—",
      "metarCat": "MVFR",
      "metarRaw": "METAR KPIT 171151Z 25012G18KT 5SM -SN FEW014 BKN026 OVC040 M06/M09 A2986 RMK AO2 SLP134 P0000 60000 7//// T10561089 11050 21056 52023 $",
      "metarObsTime": 1773748260
    },
    "KAGC": {
      "status": "OK",
      "delay": "—",
      "metarCat": "VFR",
      "metarRaw": "METAR KAGC 171153Z 24016G22KT 10SM SCT026 SCT035 OVC055 M06/M09 A2986 RMK AO2 SNE29 SLP131 P0000 60000 70010 T10561094 11056 21061 53023",
      "metarObsTime": 1773748380
    },
    "KLBE": {
      "status": "OK",
      "delay": "—",
      "metarCat": "IFR",
      "metarRaw": "METAR KLBE 171151Z 21007KT 2SM -SN BR BKN010 OVC016 M05/M07 A2989",
      "metarObsTime": 1773748260
    },
    "KJST": {
      "status": "OK",
      "delay": "—",
      "metarCat": "MVFR",
      "metarRaw": "SPECI KJST 171207Z AUTO 28011G21KT 4SM -SN BR BKN017 OVC046 M08/M11 A2977 RMK AO2 P0000 T10831106",
      "metarObsTime": 1773749220
    },
    "KERI": {
      "status": "OK",
      "delay": "—",
      "metarCat": "VFR",
      "metarRaw": "METAR KERI 171151Z 12016G32KT 8SM BKN032 OVC039 M06/M12 A2981 RMK PK WIND280/34",
      "metarObsTime": 1773748260
    },
    "KDUJ": {
      "status": "OK",
      "delay": "—",
      "metarCat": "IFR",
      "metarRaw": "METAR KDUJ 171153Z AUTO 25012KT 1 1/4SM -SN BKN026 OVC036 M08/M11 A2976 RMK AO2 SLP099 P0000 60000 70015 T10781106 11061 21083 51018 TSNO",
      "metarObsTime": 1773748380
    },
    "KBFD": {
      "status": "OK",
      "delay": "—",
      "metarCat": "VFR",
      "metarRaw": "SPECI KBFD 171200Z AUTO 26011G26KT 6SM -SN OVC039 M09/M13 A2970 RMK AO2 PK WND 27026/1157 P0000 T10891133",
      "metarObsTime": 1773748800
    },
    "KBTP": {
      "status": "OK",
      "delay": "—",
      "metarCat": "—",
      "metarRaw": "—",
      "metarObsTime": null
    },
    "KFKL": {
      "status": "OK",
      "delay": "—",
      "metarCat": "VFR",
      "metarRaw": "METAR KFKL 171156Z AUTO 25009G18KT 9SM -SN FEW018 OVC034 M07/M09 A2980 RMK AO2 SLP113 P0000 60000 7//// T10721094 11061 21072 51033 FZRANO",
      "metarObsTime": 1773748560
    },
    "KIDI": {
      "status": "OK",
      "delay": "—",
      "metarCat": "VFR",
      "metarRaw": "METAR KIDI 171155Z AUTO 25011KT 10SM SCT030 BKN035 OVC050 M06/M09 A2984 RMK A01",
      "metarObsTime": 1773748500
    },
    "KMDT": {
      "status": "OK",
      "delay": "—",
      "metarCat": "VFR",
      "metarRaw": "METAR KMDT 171156Z 30015G28KT 10SM FEW060 M02/M09 A2986 RMK AO2 PK WND 30028/1148 SLP113 70054 T10171094 10017 21017 53044",
      "metarObsTime": 1773748560
    },
    "KCXY": {
      "status": "OK",
      "delay": "—",
      "metarCat": "VFR",
      "metarRaw": "METAR KCXY 171156Z 29011KT 10SM CLR M02/M12 A2987 RMK AO2 SLP117 70086 T10221117 10006 21028 51048",
      "metarObsTime": 1773748560
    },
    "KMUI": {
      "status": "OK",
      "delay": "—",
      "metarCat": "VFR",
      "metarRaw": "METAR KMUI 171155Z 28015G22KT 240V320 10SM BKN043 M02/M10 A2982 RMK AO2A SLP103 60000 70061 T10211102 10016 21022 52048",
      "metarObsTime": 1773748500
    },
    "KUNV": {
      "status": "OK",
      "delay": "—",
      "metarCat": "VFR",
      "metarRaw": "METAR KUNV 171153Z 27014G22KT 10SM SCT029 SCT038 M06/M11 A2979",
      "metarObsTime": 1773748380
    },
    "KAOO": {
      "status": "OK",
      "delay": "—",
      "metarCat": "VFR",
      "metarRaw": "METAR KAOO 171153Z AUTO 27014G25KT 10SM FEW029 BKN035 OVC050 M06/M12 A2981 RMK AO2 SNE1055 SLP113 P0000 60000 70055 T10561117 11033 21061 53033",
      "metarObsTime": 1773748380
    },
    "KLNS": {
      "status": "OK",
      "delay": "—",
      "metarCat": "VFR",
      "metarRaw": "METAR KLNS 171153Z 28019G30KT 10SM CLR M02/M11 A2986 RMK AO2 PK WND 29031/1128 SLP112 70058 T10221106 10011 21022 53052",
      "metarObsTime": 1773748380
    },
    "KIPT": {
      "status": "OK",
      "delay": "—",
      "metarCat": "VFR",
      "metarRaw": "METAR KIPT 171154Z 26011G21KT 10SM FEW036 BKN046 OVC055 M04/M08 A2980 RMK AO2 SNE18 SLP095 P0000 60000 70112 T10391078 11011 21039 53050",
      "metarObsTime": 1773748440
    },
    "KPHL": {
      "status": "OK",
      "delay": "—",
      "metarCat": "VFR",
      "metarRaw": "METAR KPHL 171154Z 27019G29KT 10SM SCT047 SCT090 01/M09 A2986 RMK AO2 PK WND 29032/1126 SLP110 70023 T00111089 10039 20011 53048 $",
      "metarObsTime": 1773748440
    },
    "KABE": {
      "status": "OK",
      "delay": "—",
      "metarCat": "VFR",
      "metarRaw": "METAR KABE 171151Z 26014G23KT 10SM CLR M02/M10 A2980 RMK AO2 PK WND 26028/1112 SLP092 60000 70066 T10171100 10022 21022 53049 $",
      "metarObsTime": 1773748260
    },
    "KAVP": {
      "status": "OK",
      "delay": "—",
      "metarCat": "VFR",
      "metarRaw": "METAR KAVP 171154Z AUTO 25017G26KT 10SM BKN042 M04/M08 A2973 RMK AO2 PK WND 26026/1154 SLP069 60000 70115 T10391078 10000 21039 53046",
      "metarObsTime": 1773748440
    },
    "KHZL": {
      "status": "OK",
      "delay": "—",
      "metarCat": "VFR",
      "metarRaw": "METAR KHZL 171155Z AUTO 27009G16KT 240V330 10SM SCT034 M05/M10 RMK AO2",
      "metarObsTime": 1773748500
    }
  }
}