{
  "generatedAt": "2026-03-27T00:40:27.145Z",
  "airports": {
    "KPIT": {
      "status": "OK",
      "delay": "—",
      "metarCat": "VFR",
      "metarRaw": "SPECI KPIT 270007Z 23007KT 10SM FEW025 BKN050 OVC250 23/13 A2964 RMK AO2 OCNL LTG DSNT NW-N T02330128",
      "metarObsTime": 1774570020
    },
    "KAGC": {
      "status": "OK",
      "delay": "—",
      "metarCat": "VFR",
      "metarRaw": "METAR KAGC 262353Z 21011G23KT 10SM FEW055 23/13 A2964 RMK AO2 SLP037 T02280128 10239 20222 56025",
      "metarObsTime": 1774569180
    },
    "KLBE": {
      "status": "OK",
      "delay": "—",
      "metarCat": "VFR",
      "metarRaw": "METAR KLBE 262350Z 21012KT 10SM SCT055 BKN065 22/14 A2969",
      "metarObsTime": 1774569000
    },
    "KJST": {
      "status": "OK",
      "delay": "—",
      "metarCat": "VFR",
      "metarRaw": "METAR KJST 262354Z AUTO 23013KT 10SM OVC047 19/12 A2970 RMK AO2 PK WND 23026/2300 SLP049 T01940117 10206 20189 56021",
      "metarObsTime": 1774569240
    },
    "KERI": {
      "status": "OK",
      "delay": "—",
      "metarCat": "MVFR",
      "metarRaw": "METAR KERI 262351Z 04012KT 5SM -RA BR FEW007 BKN055 OVC070 08/08 A2978 RMK AO2 WSHFT 2244 TSB2257E22 SLP086 P0030 60041 T00830078 10172 20067 53014",
      "metarObsTime": 1774569060
    },
    "KDUJ": {
      "status": "OK",
      "delay": "—",
      "metarCat": "IFR",
      "metarRaw": "SPECI KDUJ 270023Z AUTO 00000KT 1 3/4SM +RA BR FEW027 OVC036 16/14 A2963 RMK AO2 VIS 3/4V4 LTG DSNT W P0006 T01560139",
      "metarObsTime": 1774570980
    },
    "KBFD": {
      "status": "OK",
      "delay": "—",
      "metarCat": "IFR",
      "metarRaw": "SPECI KBFD 270023Z AUTO 03011G27KT 3SM RA BR BKN005 OVC070 10/09 A2970 RMK AO2 PK WND 34027/0016 P0015 T01000089",
      "metarObsTime": 1774570980
    },
    "KBTP": {
      "status": "OK",
      "delay": "—",
      "metarCat": "VFR",
      "metarRaw": "SPECI KBTP 270025Z AUTO 21007KT 10SM VCTS -RA SCT049 BKN065 OVC100 21/14 A2962 RMK AO2 LTG DSNT NW-NE TSB19RAB18 P0000 $",
      "metarObsTime": 1774571100
    },
    "KFKL": {
      "status": "OK",
      "delay": "—",
      "metarCat": "VFR",
      "metarRaw": "SPECI KFKL 270028Z AUTO 01009G17KT 10SM RA SCT007 SCT011 OVC034 10/09 A2977 RMK AO2 PK WND 34033/0011 LTG DSNT NE AND S P0005",
      "metarObsTime": 1774571280
    },
    "KIDI": {
      "status": "OK",
      "delay": "—",
      "metarCat": "VFR",
      "metarRaw": "METAR KIDI 270035Z AUTO 22010G17KT 10SM SCT050 OVC065 21/13 A2965 RMK A01",
      "metarObsTime": 1774571700
    },
    "KMDT": {
      "status": "OK",
      "delay": "—",
      "metarCat": "VFR",
      "metarRaw": "METAR KMDT 262356Z 21009G14KT 10SM BKN080 OVC250 24/10 A2966 RMK AO2 SLP042 T02390100 10250 20222 56024",
      "metarObsTime": 1774569360
    },
    "KCXY": {
      "status": "OK",
      "delay": "—",
      "metarCat": "VFR",
      "metarRaw": "METAR KCXY 262356Z 22008G21KT 10SM BKN075 24/11 A2966 RMK AO2 SLP044 T02390106 10261 20239 55021",
      "metarObsTime": 1774569360
    },
    "KMUI": {
      "status": "OK",
      "delay": "—",
      "metarCat": "VFR",
      "metarRaw": "SPECI KMUI 270016Z 22012KT 10SM -RA BKN065 BKN085 24/12 A2963 RMK AO2A LTG DSNT NW RAB16 SLP035",
      "metarObsTime": 1774570560
    },
    "KUNV": {
      "status": "OK",
      "delay": "—",
      "metarCat": "VFR",
      "metarRaw": "METAR KUNV 262353Z 22010G16KT 10SM VCTS OVC050 21/12 A2964 RMK LTG DSNT N AND NE",
      "metarObsTime": 1774569180
    },
    "KAOO": {
      "status": "OK",
      "delay": "—",
      "metarCat": "VFR",
      "metarRaw": "METAR KAOO 262353Z AUTO 23014KT 10SM OVC055 21/12 A2969 RMK AO2 PK WND 24026/2259 SLP049 T02110117 10244 20211 55017",
      "metarObsTime": 1774569180
    },
    "KLNS": {
      "status": "OK",
      "delay": "—",
      "metarCat": "VFR",
      "metarRaw": "METAR KLNS 262353Z 18008KT 10SM FEW080 21/09 A2966 RMK AO2 SLP045 T02060094 10250 20206 56029",
      "metarObsTime": 1774569180
    },
    "KIPT": {
      "status": "OK",
      "delay": "—",
      "metarCat": "VFR",
      "metarRaw": "METAR KIPT 262354Z 24010G19KT 10SM -RA OVC070 23/11 A2959 RMK AO2 PK WND 20031/2314 RAB50 SLP019 P0000 60000 T02280111 10250 20228 55026 $",
      "metarObsTime": 1774569240
    },
    "KPHL": {
      "status": "OK",
      "delay": "—",
      "metarCat": "VFR",
      "metarRaw": "METAR KPHL 262354Z 20011G22KT 10SM FEW100 SCT280 22/10 A2972 RMK AO2 SLP062 T02220100 10256 20222 58024",
      "metarObsTime": 1774569240
    },
    "KABE": {
      "status": "OK",
      "delay": "—",
      "metarCat": "VFR",
      "metarRaw": "METAR KABE 262351Z AUTO 20013G22KT 10SM CLR 22/08 A2965 RMK AO2 SLP039 T02170083 10244 20211 56033 $",
      "metarObsTime": 1774569060
    },
    "KAVP": {
      "status": "OK",
      "delay": "—",
      "metarCat": "VFR",
      "metarRaw": "METAR KAVP 262354Z 20010G23KT 10SM BKN080 22/09 A2959 RMK AO2 SLP015 T02170089 10222 20211 56041",
      "metarObsTime": 1774569240
    },
    "KHZL": {
      "status": "OK",
      "delay": "—",
      "metarCat": "VFR",
      "metarRaw": "METAR KHZL 270035Z AUTO 18005KT 10SM -RA SCT075 BKN100 OVC110 20/09 A2969 RMK AO2",
      "metarObsTime": 1774571700
    }
  }
}