{
  "generatedAt": "2026-03-23T21:20:17.467Z",
  "airports": {
    "KPIT": {
      "status": "OK",
      "delay": "—",
      "metarCat": "MVFR",
      "metarRaw": "METAR KPIT 232051Z 31016KT 9SM -SN FEW014 BKN025 OVC035 02/M04 A3022 RMK AO2 PK WND 32029/2021 SNB10 SLP251 P0000 60000 T00171039 53028",
      "metarObsTime": 1774299060
    },
    "KAGC": {
      "status": "OK",
      "delay": "—",
      "metarCat": "MVFR",
      "metarRaw": "METAR KAGC 232053Z 32013G22KT 10SM BKN025 OVC029 02/M03 A3020 RMK AO2 PK WND 32027/1955 SLP241 60000 T00171033 53029",
      "metarObsTime": 1774299180
    },
    "KLBE": {
      "status": "OK",
      "delay": "—",
      "metarCat": "MVFR",
      "metarRaw": "METAR KLBE 232047Z 30011G28KT 10SM BKN030 OVC040 03/M01 A3019",
      "metarObsTime": 1774298820
    },
    "KJST": {
      "status": "OK",
      "delay": "—",
      "metarCat": "MVFR",
      "metarRaw": "SPECI KJST 232059Z AUTO 30012G21KT 4SM -SN BR SCT011 BKN019 OVC039 00/M02 A3008 RMK AO2 P0000 T00001022",
      "metarObsTime": 1774299540
    },
    "KERI": {
      "status": "OK",
      "delay": "—",
      "metarCat": "VFR",
      "metarRaw": "METAR KERI 232051Z 30009G17KT 10SM FEW024 BKN041 OVC049 01/M06 A3026 RMK AO2 SNE21 SLP255 P0000 60001 T00061056 53034",
      "metarObsTime": 1774299060
    },
    "KDUJ": {
      "status": "OK",
      "delay": "—",
      "metarCat": "IFR",
      "metarRaw": "SPECI KDUJ 232110Z AUTO 28012G21KT 1 1/2SM -SN FEW016 BKN025 OVC032 01/M03 A3010 RMK AO2 SNB2057 P0000 T00111028",
      "metarObsTime": 1774300200
    },
    "KBFD": {
      "status": "OK",
      "delay": "—",
      "metarCat": "MVFR",
      "metarRaw": "METAR KBFD 232053Z AUTO 32011KT 6SM -SN OVC024 M01/M04 A3009 RMK AO2 SNB38 SLP208 P0000 60000 T10061044 53016",
      "metarObsTime": 1774299180
    },
    "KBTP": {
      "status": "OK",
      "delay": "—",
      "metarCat": "VFR",
      "metarRaw": "SPECI KBTP 232117Z AUTO 31012G18KT 10SM FEW019 SCT025 OVC046 01/M03 A3024 RMK AO2 UPB03E14SNE03 P0000 FZRANO $",
      "metarObsTime": 1774300620
    },
    "KFKL": {
      "status": "OK",
      "delay": "—",
      "metarCat": "MVFR",
      "metarRaw": "METAR KFKL 232056Z AUTO 31015G21KT 6SM -SN BKN019 OVC028 M01/M03 A3021 RMK AO2 UPE04SNB04 SLP244 P0000 60000 T10061033 53030 FZRANO",
      "metarObsTime": 1774299360
    },
    "KIDI": {
      "status": "OK",
      "delay": "—",
      "metarCat": "MVFR",
      "metarRaw": "METAR KIDI 232115Z AUTO 29020KT 10SM BKN027 OVC034 02/M02 A3016 RMK A01",
      "metarObsTime": 1774300500
    },
    "KMDT": {
      "status": "OK",
      "delay": "—",
      "metarCat": "VFR",
      "metarRaw": "METAR KMDT 232056Z 33018G29KT 10SM BKN045 OVC049 06/M03 A3008 RMK AO2 PK WND 31035/2011 SLP188 T00611028 53036",
      "metarObsTime": 1774299360
    },
    "KCXY": {
      "status": "OK",
      "delay": "—",
      "metarCat": "VFR",
      "metarRaw": "METAR KCXY 232056Z 33016G23KT 10SM BKN042 OVC050 06/M02 A3008 RMK AO2 PK WND 32027/2038 SLP190 T00611022 53036",
      "metarObsTime": 1774299360
    },
    "KMUI": {
      "status": "OK",
      "delay": "—",
      "metarCat": "VFR",
      "metarRaw": "METAR KMUI 232055Z 33012G23KT 10SM BKN032 04/M04 A3008 RMK SLPNO WND DATA ESTMD ALSTG ESTMD 52037",
      "metarObsTime": 1774299300
    },
    "KUNV": {
      "status": "OK",
      "delay": "—",
      "metarCat": "VFR",
      "metarRaw": "METAR KUNV 232053Z 33005KT 10SM OVC040 03/M04 A3009",
      "metarObsTime": 1774299180
    },
    "KAOO": {
      "status": "OK",
      "delay": "—",
      "metarCat": "VFR",
      "metarRaw": "METAR KAOO 232053Z AUTO 33015G25KT 10SM BKN047 OVC055 04/M04 A3008 RMK AO2 PK WND 32027/2014 SLP194 T00391039 53017",
      "metarObsTime": 1774299180
    },
    "KLNS": {
      "status": "OK",
      "delay": "—",
      "metarCat": "VFR",
      "metarRaw": "METAR KLNS 232053Z 32027G35KT 10SM FEW032 SCT042 06/M02 A3004 RMK AO2 PK WND 31035/2052 SLP175 T00561017 53028",
      "metarObsTime": 1774299180
    },
    "KIPT": {
      "status": "OK",
      "delay": "—",
      "metarCat": "VFR",
      "metarRaw": "METAR KIPT 232054Z 33009KT 10SM OVC041 03/M05 A3011 RMK AO2 SLP200 T00281050 53026",
      "metarObsTime": 1774299240
    },
    "KPHL": {
      "status": "OK",
      "delay": "—",
      "metarCat": "VFR",
      "metarRaw": "METAR KPHL 232054Z 33020G32KT 10SM BKN031 07/00 A3002 RMK AO2 PK WND 33032/2054 SLP164 60000 T00720000 53038",
      "metarObsTime": 1774299240
    },
    "KABE": {
      "status": "OK",
      "delay": "—",
      "metarCat": "MVFR",
      "metarRaw": "METAR KABE 232051Z 33017G30KT 10SM OVC030 03/M03 A3003 RMK AO2 PK WND 34030/2043 SLP173 T00331033 53035 $",
      "metarObsTime": 1774299060
    },
    "KAVP": {
      "status": "OK",
      "delay": "—",
      "metarCat": "MVFR",
      "metarRaw": "SPECI KAVP 232114Z 34013G22KT 10SM BKN030 OVC035 00/M05 A3007 RMK AO2 T00001050",
      "metarObsTime": 1774300440
    },
    "KHZL": {
      "status": "OK",
      "delay": "—",
      "metarCat": "MVFR",
      "metarRaw": "METAR KHZL 232115Z AUTO 32013G21KT 10SM OVC021 00/M05 A3006 RMK AO2",
      "metarObsTime": 1774300500
    }
  }
}