{
  "generatedAt": "2026-04-05T09:00:45.901Z",
  "airports": {
    "KPIT": {
      "status": "OK",
      "delay": "—",
      "metarCat": "IFR",
      "metarRaw": "METAR KPIT 050851Z 27007KT 7SM -RA BKN005 BKN013 OVC032 10/09 A2988 RMK AO2 SLP119 P0004 60013 T01000089 50008 $",
      "metarObsTime": 1775379060
    },
    "KAGC": {
      "status": "OK",
      "delay": "—",
      "metarCat": "VFR",
      "metarRaw": "METAR KAGC 050853Z 29008G17KT 9SM -RA FEW011 OVC042 11/09 A2987 RMK AO2 SLP113 P0003 60018 T01060089 53006",
      "metarObsTime": 1775379180
    },
    "KLBE": {
      "status": "OK",
      "delay": "—",
      "metarCat": "MVFR",
      "metarRaw": "METAR KLBE 050855Z AUTO 28005G10KT 5SM -RA BR FEW009 BKN012 OVC030 12/11 A2990 RMK AO2 P0015",
      "metarObsTime": 1775379300
    },
    "KJST": {
      "status": "OK",
      "delay": "—",
      "metarCat": "MVFR",
      "metarRaw": "METAR KJST 050854Z AUTO 23009KT 9SM -RA BKN013 OVC021 16/14 A2983 RMK AO2 RAE08B50 SLP087 P0000 60000 T01610139 56018",
      "metarObsTime": 1775379240
    },
    "KERI": {
      "status": "OK",
      "delay": "—",
      "metarCat": "MVFR",
      "metarRaw": "METAR KERI 050751Z AUTO 25014G22KT 10SM -RA OVC023 08/06 A2985 RMK AO2 SLP107 P0004 T00780061",
      "metarObsTime": 1775375460
    },
    "KDUJ": {
      "status": "OK",
      "delay": "—",
      "metarCat": "IFR",
      "metarRaw": "METAR KDUJ 050853Z AUTO 29009KT 4SM RA BR BKN006 OVC012 11/09 A2983 RMK AO2 PK WND 27028/0759 CIG 004V010 SLP093 P0015 60042 T01060094 53003",
      "metarObsTime": 1775379180
    },
    "KBFD": {
      "status": "OK",
      "delay": "—",
      "metarCat": "IFR",
      "metarRaw": "METAR KBFD 050853Z AUTO 26007G17KT 230V290 6SM -RA BR BKN008 OVC013 10/09 A2980 RMK AO2 SLP082 P0007 60045 T01000089 53001",
      "metarObsTime": 1775379180
    },
    "KBTP": {
      "status": "OK",
      "delay": "—",
      "metarCat": "IFR",
      "metarRaw": "METAR KBTP 050856Z AUTO 26007KT 10SM -RA OVC009 09/ A2988 RMK AO2 CIG 007V014 SLP118 P0002 60005 T0094 50003 $",
      "metarObsTime": 1775379360
    },
    "KFKL": {
      "status": "OK",
      "delay": "—",
      "metarCat": "MVFR",
      "metarRaw": "METAR KFKL 050856Z AUTO 27009KT 10SM -RA BKN013 OVC023 09/08 A2986 RMK AO2 SLP107 P0002 60017 T00890078 51001",
      "metarObsTime": 1775379360
    },
    "KIDI": {
      "status": "OK",
      "delay": "—",
      "metarCat": "MVFR",
      "metarRaw": "METAR KIDI 050855Z AUTO 29011G21KT 5SM BR SCT012 BKN022 OVC028 11/11 A2987 RMK A01 P0027",
      "metarObsTime": 1775379300
    },
    "KMDT": {
      "status": "OK",
      "delay": "—",
      "metarCat": "LIFR",
      "metarRaw": "METAR KMDT 050856Z 11007KT 2 1/2SM BR OVC003 09/09 A2988 RMK AO2 SLP118 T00940089 55017 $",
      "metarObsTime": 1775379360
    },
    "KCXY": {
      "status": "OK",
      "delay": "—",
      "metarCat": "LIFR",
      "metarRaw": "METAR KCXY 050856Z AUTO 10009KT 1 3/4SM BR OVC003 09/09 A2989 RMK AO2 SLP120 T00940089 56027 $",
      "metarObsTime": 1775379360
    },
    "KMUI": {
      "status": "OK",
      "delay": "—",
      "metarCat": "LIFR",
      "metarRaw": "SPECI KMUI 050844Z AUTO 06006KT 2 3/4SM BR OVC002 07/07 A2989 RMK AO2 RAE0755RAB38E44 SLP123",
      "metarObsTime": 1775378640
    },
    "KUNV": {
      "status": "OK",
      "delay": "—",
      "metarCat": "—",
      "metarRaw": "—",
      "metarObsTime": null
    },
    "KAOO": {
      "status": "OK",
      "delay": "—",
      "metarCat": "VFR",
      "metarRaw": "METAR KAOO 050853Z AUTO 21013G20KT 10SM -RA SCT038 BKN080 OVC090 18/14 A2982 RMK AO2 RAB0758E30B51 SLP087 P0000 60000 T01780139 56015",
      "metarObsTime": 1775379180
    },
    "KLNS": {
      "status": "OK",
      "delay": "—",
      "metarCat": "LIFR",
      "metarRaw": "METAR KLNS 050853Z AUTO 09006KT 2SM BR OVC002 08/08 A2989 RMK AO2 SLP121 T00830083 56032",
      "metarObsTime": 1775379180
    },
    "KIPT": {
      "status": "OK",
      "delay": "—",
      "metarCat": "MVFR",
      "metarRaw": "METAR KIPT 050854Z AUTO 08011G18KT 10SM OVC010 11/09 A2983 RMK AO2 SLP099 T01060089 56025",
      "metarObsTime": 1775379240
    },
    "KPHL": {
      "status": "OK",
      "delay": "—",
      "metarCat": "LIFR",
      "metarRaw": "METAR KPHL 050854Z 09005KT 1/2SM FG OVC003 09/09 A2993 RMK AO2 SLP134 T00940089 56036 RVRNO $",
      "metarObsTime": 1775379240
    },
    "KABE": {
      "status": "OK",
      "delay": "—",
      "metarCat": "LIFR",
      "metarRaw": "METAR KABE 050851Z 09007KT 3SM BR OVC003 06/05 A2993 RMK AO2 SLP137 T00560050 56042 $",
      "metarObsTime": 1775379060
    },
    "KAVP": {
      "status": "OK",
      "delay": "—",
      "metarCat": "MVFR",
      "metarRaw": "METAR KAVP 050854Z AUTO 00000KT 10SM OVC012 09/07 A2987 RMK AO2 SLP110 T00940067 56035",
      "metarObsTime": 1775379240
    },
    "KHZL": {
      "status": "OK",
      "delay": "—",
      "metarCat": "—",
      "metarRaw": "—",
      "metarObsTime": null
    }
  }
}