{
  "generatedAt": "2026-03-25T06:20:22.470Z",
  "airports": {
    "KPIT": {
      "status": "OK",
      "delay": "—",
      "metarCat": "VFR",
      "metarRaw": "METAR KPIT 250551Z 02003KT 10SM BKN085 OVC200 04/M07 A3030 RMK AO2 SLP277 T00441072 10072 20028 53000",
      "metarObsTime": 1774417860
    },
    "KAGC": {
      "status": "OK",
      "delay": "—",
      "metarCat": "VFR",
      "metarRaw": "METAR KAGC 250553Z 06004KT 10SM SCT085 BKN110 04/M07 A3029 RMK AO2 SLP270 T00391067 10067 20039 58002",
      "metarObsTime": 1774417980
    },
    "KLBE": {
      "status": "OK",
      "delay": "—",
      "metarCat": "VFR",
      "metarRaw": "METAR KLBE 250615Z AUTO 00000KT 10SM FEW090 SCT120 01/M02 A3032 RMK AO2",
      "metarObsTime": 1774419300
    },
    "KJST": {
      "status": "OK",
      "delay": "—",
      "metarCat": "VFR",
      "metarRaw": "METAR KJST 250454Z AUTO 00000KT 10SM BKN090 03/M09 A3027 RMK AO2 SLP270 T00281094 400671078 $",
      "metarObsTime": 1774414440
    },
    "KERI": {
      "status": "OK",
      "delay": "—",
      "metarCat": "VFR",
      "metarRaw": "METAR KERI 250551Z AUTO 00000KT 10SM CLR M03/M05 A3034 RMK AO2 SLP283 T10281050 10011 21033 58006",
      "metarObsTime": 1774417860
    },
    "KDUJ": {
      "status": "OK",
      "delay": "—",
      "metarCat": "VFR",
      "metarRaw": "METAR KDUJ 250553Z AUTO 00000KT 10SM CLR 00/M10 A3028 RMK AO2 SLP272 T00001100 10039 21006 50001",
      "metarObsTime": 1774417980
    },
    "KBFD": {
      "status": "OK",
      "delay": "—",
      "metarCat": "VFR",
      "metarRaw": "METAR KBFD 250553Z AUTO 00000KT 10SM CLR M03/M06 A3029 RMK AO2 SLP276 T10331061 10022 21039 52000",
      "metarObsTime": 1774417980
    },
    "KBTP": {
      "status": "OK",
      "delay": "—",
      "metarCat": "VFR",
      "metarRaw": "METAR KBTP 250556Z AUTO 00000KT 10SM CLR 00/M04 A3031 RMK AO2 SLP283 T00001044 10056 21006 58001 FZRANO $",
      "metarObsTime": 1774418160
    },
    "KFKL": {
      "status": "OK",
      "delay": "—",
      "metarCat": "VFR",
      "metarRaw": "METAR KFKL 250556Z AUTO 02006KT 10SM CLR M02/M05 A3032 RMK AO2 SLP282 T10171050 10044 21022 51001 FZRANO",
      "metarObsTime": 1774418160
    },
    "KIDI": {
      "status": "OK",
      "delay": "—",
      "metarCat": "VFR",
      "metarRaw": "METAR KIDI 250615Z AUTO 09006KT 10SM SCT090 SCT120 M02/M05 A3031 RMK A01",
      "metarObsTime": 1774419300
    },
    "KMDT": {
      "status": "OK",
      "delay": "—",
      "metarCat": "VFR",
      "metarRaw": "METAR KMDT 250556Z 08004KT 10SM CLR 04/M03 A3035 RMK AO2 SLP279 T00391028 10078 20017 50000",
      "metarObsTime": 1774418160
    },
    "KCXY": {
      "status": "OK",
      "delay": "—",
      "metarCat": "VFR",
      "metarRaw": "METAR KCXY 250556Z AUTO 00000KT 10SM CLR 03/M04 A3035 RMK AO2 SLP280 T00281039 10078 20028 58001",
      "metarObsTime": 1774418160
    },
    "KMUI": {
      "status": "OK",
      "delay": "—",
      "metarCat": "VFR",
      "metarRaw": "METAR KMUI 250555Z AUTO 00000KT 10SM CLR 02/M00 A3032 RMK AO2 SLP274 T00161002 10076 20011 50000 $",
      "metarObsTime": 1774418100
    },
    "KUNV": {
      "status": "OK",
      "delay": "—",
      "metarCat": "VFR",
      "metarRaw": "METAR KUNV 250615Z AUTO 00000KT 10SM CLR 02/M09 A3031 RMK AO2 T00181087",
      "metarObsTime": 1774419300
    },
    "KAOO": {
      "status": "OK",
      "delay": "—",
      "metarCat": "VFR",
      "metarRaw": "METAR KAOO 250553Z AUTO 35003KT 10SM FEW080 OVC090 02/M06 A3031 RMK AO2 SLP276 T00171061 10067 20000 56001",
      "metarObsTime": 1774417980
    },
    "KLNS": {
      "status": "OK",
      "delay": "—",
      "metarCat": "VFR",
      "metarRaw": "METAR KLNS 250553Z AUTO 09003KT 10SM FEW100 02/M02 A3035 RMK AO2 SLP281 T00221022 10067 20022 50001",
      "metarObsTime": 1774417980
    },
    "KIPT": {
      "status": "OK",
      "delay": "—",
      "metarCat": "VFR",
      "metarRaw": "METAR KIPT 250554Z AUTO 34004KT 10SM CLR M01/M04 A3035 RMK AO2 SLP282 T10061039 10056 21006 53009 $",
      "metarObsTime": 1774418040
    },
    "KPHL": {
      "status": "OK",
      "delay": "—",
      "metarCat": "VFR",
      "metarRaw": "METAR KPHL 250554Z 20006KT 10SM BKN110 05/M01 A3039 RMK AO2 SLP291 T00501011 10083 20044 50001 $",
      "metarObsTime": 1774418040
    },
    "KABE": {
      "status": "OK",
      "delay": "—",
      "metarCat": "VFR",
      "metarRaw": "METAR KABE 250551Z 26003KT 10SM CLR 03/M04 A3035 RMK AO2 SLPNO T00281044 10056 20017 50003",
      "metarObsTime": 1774417860
    },
    "KAVP": {
      "status": "OK",
      "delay": "—",
      "metarCat": "VFR",
      "metarRaw": "METAR KAVP 250554Z 10003KT 10SM CLR M01/M06 A3033 RMK AO2 SLP276 T10061061 10050 21011 53010",
      "metarObsTime": 1774418040
    },
    "KHZL": {
      "status": "OK",
      "delay": "—",
      "metarCat": "VFR",
      "metarRaw": "METAR KHZL 250615Z AUTO 00000KT 10SM CLR 00/M06 A3033 RMK AO2",
      "metarObsTime": 1774419300
    }
  }
}