{
  "generatedAt": "2026-03-23T04:00:20.987Z",
  "airports": {
    "KPIT": {
      "status": "OK",
      "delay": "—",
      "metarCat": "IFR",
      "metarRaw": "METAR KPIT 230351Z 03003KT 4SM -TSRA BR BKN005 OVC040CB 09/08 A2979 RMK AO2 SLP091 OCNL LTGICCC OHD TS OHD MOV E P0012 T00890083",
      "metarObsTime": 1774237860
    },
    "KAGC": {
      "status": "OK",
      "delay": "—",
      "metarCat": "IFR",
      "metarRaw": "METAR KAGC 230353Z 31006KT 1 1/4SM +TSRA BR SCT009 BKN034 OVC070 11/11 A2979 RMK AO2 LTG DSNT S-W TSE11B43 SLP085 P0024 T01110106",
      "metarObsTime": 1774237980
    },
    "KLBE": {
      "status": "OK",
      "delay": "—",
      "metarCat": "VFR",
      "metarRaw": "METAR KLBE 230355Z AUTO 33007KT 10SM VCTS UP FEW017 SCT048 BKN070 13/12 A2978 RMK AO2 LTG DSNT SW AND W P0009",
      "metarObsTime": 1774238100
    },
    "KJST": {
      "status": "OK",
      "delay": "—",
      "metarCat": "VFR",
      "metarRaw": "METAR KJST 230354Z AUTO 01010G19KT 6SM RA BR FEW014 SCT060 OVC080 11/09 A2975 RMK AO2 RAB15 SLP065 P0006 T01110089",
      "metarObsTime": 1774238040
    },
    "KERI": {
      "status": "OK",
      "delay": "—",
      "metarCat": "IFR",
      "metarRaw": "METAR KERI 230351Z AUTO 03013KT 5SM BR OVC007 02/01 A2981 RMK AO2 SLP101 T00220011",
      "metarObsTime": 1774237860
    },
    "KDUJ": {
      "status": "OK",
      "delay": "—",
      "metarCat": "IFR",
      "metarRaw": "METAR KDUJ 230353Z AUTO 00000KT 2 1/2SM RA BR SCT002 SCT013 OVC070 08/08 A2973 RMK AO2 SLP065 P0016 T00830078",
      "metarObsTime": 1774237980
    },
    "KBFD": {
      "status": "OK",
      "delay": "—",
      "metarCat": "LIFR",
      "metarRaw": "METAR KBFD 230353Z AUTO 08007KT 10SM -RA OVC004 03/03 A2974 RMK AO2 SLP070 P0003 T00330028 $",
      "metarObsTime": 1774237980
    },
    "KBTP": {
      "status": "OK",
      "delay": "—",
      "metarCat": "IFR",
      "metarRaw": "METAR KBTP 230356Z AUTO 03004KT 2 1/2SM +RA FEW047 BKN055 OVC085 08/ A2977 RMK AO2 LTG DSNT S SLP084 P0020 T0083 402720083 $",
      "metarObsTime": 1774238160
    },
    "KFKL": {
      "status": "OK",
      "delay": "—",
      "metarCat": "LIFR",
      "metarRaw": "METAR KFKL 230356Z AUTO VRB03KT 6SM -RA BR BKN004 OVC090 05/05 A2976 RMK AO2 CIG 002V008 SLP080 P0003 T00500050",
      "metarObsTime": 1774238160
    },
    "KIDI": {
      "status": "OK",
      "delay": "—",
      "metarCat": "IFR",
      "metarRaw": "METAR KIDI 230355Z AUTO 03008G13KT 2 1/2SM BR FEW007 BKN032 OVC090 12/12 A2974 RMK A01 P0023",
      "metarObsTime": 1774238100
    },
    "KMDT": {
      "status": "OK",
      "delay": "—",
      "metarCat": "VFR",
      "metarRaw": "SPECI KMDT 230349Z 00000KT 6SM -RA BR FEW055 15/14 A2964 RMK AO2 RAB45 P0000 T01500144 $",
      "metarObsTime": 1774237740
    },
    "KCXY": {
      "status": "OK",
      "delay": "—",
      "metarCat": "VFR",
      "metarRaw": "METAR KCXY 230256Z AUTO 09007KT 10SM CLR 16/14 A2964 RMK AO2 RAE27 SLP037 P0006 60017 T01560144 58024",
      "metarObsTime": 1774234560
    },
    "KMUI": {
      "status": "OK",
      "delay": "—",
      "metarCat": "VFR",
      "metarRaw": "METAR KMUI 230355Z AUTO 04006KT 10SM FEW110 15/14 A2963 RMK AO2 LTG DSNT W-NW SLP036 T01460143",
      "metarObsTime": 1774238100
    },
    "KUNV": {
      "status": "OK",
      "delay": "—",
      "metarCat": "MVFR",
      "metarRaw": "METAR KUNV 230355Z AUTO 01004KT 5SM +RA BKN010 BKN019 OVC025 12/12 A2976 RMK AO2 P0010 T01230123",
      "metarObsTime": 1774238100
    },
    "KAOO": {
      "status": "OK",
      "delay": "—",
      "metarCat": "VFR",
      "metarRaw": "METAR KAOO 230353Z AUTO 35013G19KT 10SM -RA OVC055 14/10 A2978 RMK AO2 RAB53 PRESRR SLP076 P0000 T01440100",
      "metarObsTime": 1774237980
    },
    "KLNS": {
      "status": "OK",
      "delay": "—",
      "metarCat": "VFR",
      "metarRaw": "METAR KLNS 230353Z AUTO 09006KT 8SM CLR 13/13 A2964 RMK AO2 RAB0256E09 SLP038 P0000 T01330128",
      "metarObsTime": 1774237980
    },
    "KIPT": {
      "status": "OK",
      "delay": "—",
      "metarCat": "MVFR",
      "metarRaw": "METAR KIPT 230354Z AUTO 33008KT 4SM RA BR SCT020 BKN031 OVC055 07/05 A2980 RMK AO2 RAB15 SLP093 P0009 T00720050 $",
      "metarObsTime": 1774238040
    },
    "KPHL": {
      "status": "OK",
      "delay": "—",
      "metarCat": "VFR",
      "metarRaw": "METAR KPHL 230354Z 08011KT 10SM SCT120 BKN150 OVC230 16/10 A2964 RMK AO2 PRESFR SLP038 T01610100 $",
      "metarObsTime": 1774238040
    },
    "KABE": {
      "status": "OK",
      "delay": "—",
      "metarCat": "IFR",
      "metarRaw": "METAR KABE 230351Z 03009KT 7SM BKN005 OVC075 12/12 A2968 RMK AO2 RAE24 SLP051 P0002 T01220117 $",
      "metarObsTime": 1774237860
    },
    "KAVP": {
      "status": "OK",
      "delay": "—",
      "metarCat": "MVFR",
      "metarRaw": "METAR KAVP 230354Z 35006KT 10SM OVC013 08/07 A2976 RMK AO2 RAE12 SLP078 P0000 T00780067",
      "metarObsTime": 1774238040
    },
    "KHZL": {
      "status": "OK",
      "delay": "—",
      "metarCat": "MVFR",
      "metarRaw": "METAR KHZL 230355Z AUTO 34006KT 10SM SCT005 OVC015 08/07 A2973 RMK AO2",
      "metarObsTime": 1774238100
    }
  }
}