{
  "generatedAt": "2026-04-07T14:50:43.862Z",
  "airports": {
    "KPIT": {
      "status": "OK",
      "delay": "—",
      "metarCat": "VFR",
      "metarRaw": "METAR KPIT 071351Z 35012KT 10SM FEW036 00/M09 A3039 RMK AO2 SLP307 T00001089",
      "metarObsTime": 1775569860
    },
    "KAGC": {
      "status": "OK",
      "delay": "—",
      "metarCat": "VFR",
      "metarRaw": "METAR KAGC 071353Z 32009G18KT 10SM FEW036 M01/M10 A3037 RMK AO2 SLP298 T10061100",
      "metarObsTime": 1775569980
    },
    "KLBE": {
      "status": "OK",
      "delay": "—",
      "metarCat": "VFR",
      "metarRaw": "METAR KLBE 071447Z 28010G20KT 20SM SCT040 01/M08 A3040",
      "metarObsTime": 1775573220
    },
    "KJST": {
      "status": "OK",
      "delay": "—",
      "metarCat": "VFR",
      "metarRaw": "SPECI KJST 071417Z AUTO 30021G28KT 10SM FEW025 M01/M07 A3026 RMK AO2 PK WND 32028/1414 T10111072",
      "metarObsTime": 1775571420
    },
    "KERI": {
      "status": "OK",
      "delay": "—",
      "metarCat": "VFR",
      "metarRaw": "SPECI KERI 071424Z 30012G19KT 10SM FEW026 OVC033 M03/M11 A3046 RMK AO2 SNE1355 P0000 T10281106 $",
      "metarObsTime": 1775571840
    },
    "KDUJ": {
      "status": "OK",
      "delay": "—",
      "metarCat": "VFR",
      "metarRaw": "METAR KDUJ 071353Z AUTO 32014G25KT 10SM BKN032 M04/M11 A3030 RMK AO2 PK WND 31028/1318 SLP279 T10391111",
      "metarObsTime": 1775569980
    },
    "KBFD": {
      "status": "OK",
      "delay": "—",
      "metarCat": "MVFR",
      "metarRaw": "SPECI KBFD 071441Z AUTO 29016G27KT 8SM -SN BKN030 OVC034 M05/M11 A3029 RMK AO2 PK WND 30028/1359 SNB1357 P0000 T10501106",
      "metarObsTime": 1775572860
    },
    "KBTP": {
      "status": "OK",
      "delay": "—",
      "metarCat": "VFR",
      "metarRaw": "METAR KBTP 071356Z AUTO 33011G18KT 10SM OVC034 M01/M08 A3040 RMK AO2 SLP313 T10061078 FZRANO $",
      "metarObsTime": 1775570160
    },
    "KFKL": {
      "status": "OK",
      "delay": "—",
      "metarCat": "VFR",
      "metarRaw": "METAR KFKL 071356Z AUTO 31010G17KT 9SM -SN OVC034 M03/M09 A3038 RMK AO2 SLP305 P0000 T10331094 FZRANO",
      "metarObsTime": 1775570160
    },
    "KIDI": {
      "status": "OK",
      "delay": "—",
      "metarCat": "VFR",
      "metarRaw": "METAR KIDI 071435Z AUTO 30014G23KT 10SM BKN035 M00/M07 A3037 RMK A01",
      "metarObsTime": 1775572500
    },
    "KMDT": {
      "status": "OK",
      "delay": "—",
      "metarCat": "VFR",
      "metarRaw": "METAR KMDT 071356Z 31018G24KT 10SM FEW055 FEW250 08/M05 A3023 RMK AO2 PK WND 30032/1314 SLP240 T00831050",
      "metarObsTime": 1775570160
    },
    "KCXY": {
      "status": "OK",
      "delay": "—",
      "metarCat": "VFR",
      "metarRaw": "METAR KCXY 071356Z 30015G25KT 10SM FEW050 07/M06 A3024 RMK AO2 PK WND 29030/1259 RAB04E17 SLP244 P0000 T00721056 $",
      "metarObsTime": 1775570160
    },
    "KMUI": {
      "status": "OK",
      "delay": "—",
      "metarCat": "VFR",
      "metarRaw": "METAR KMUI 071355Z 30022G29KT 10SM SCT041 08/M07 A3020 RMK AO2A SLP232 T00791066",
      "metarObsTime": 1775570100
    },
    "KUNV": {
      "status": "OK",
      "delay": "—",
      "metarCat": "VFR",
      "metarRaw": "METAR KUNV 071353Z 32015G24KT 10SM BKN041 BKN047 02/M08 A3028",
      "metarObsTime": 1775569980
    },
    "KAOO": {
      "status": "OK",
      "delay": "—",
      "metarCat": "VFR",
      "metarRaw": "METAR KAOO 071353Z AUTO 32018G27KT 10SM CLR 02/M07 A3027 RMK AO2 PK WND 33031/1326 SLP265 T00171072 $",
      "metarObsTime": 1775569980
    },
    "KLNS": {
      "status": "OK",
      "delay": "—",
      "metarCat": "VFR",
      "metarRaw": "METAR KLNS 071353Z 30018G28KT 10SM FEW046 08/M03 A3021 RMK AO2 PK WND 29028/1345 SLP233 T00781028",
      "metarObsTime": 1775569980
    },
    "KIPT": {
      "status": "OK",
      "delay": "—",
      "metarCat": "VFR",
      "metarRaw": "METAR KIPT 071354Z 30017G26KT 10SM BKN050 BKN060 04/M07 A3024 RMK AO2 PK WND 30028/1316 SLP243 T00441067",
      "metarObsTime": 1775570040
    },
    "KPHL": {
      "status": "OK",
      "delay": "—",
      "metarCat": "VFR",
      "metarRaw": "METAR KPHL 071354Z 27020G30KT 10SM SCT060 SCT300 11/M03 A3020 RMK AO2 PK WND 26030/1335 SLP226 T01111033",
      "metarObsTime": 1775570040
    },
    "KABE": {
      "status": "OK",
      "delay": "—",
      "metarCat": "VFR",
      "metarRaw": "METAR KABE 071351Z 30016G24KT 10SM FEW055 08/M04 A3018 RMK AO2 SLP220 T00831044 $",
      "metarObsTime": 1775569860
    },
    "KAVP": {
      "status": "OK",
      "delay": "—",
      "metarCat": "VFR",
      "metarRaw": "SPECI KAVP 071404Z 31017G24KT 10SM FEW049 OVC060 05/M06 A3017 RMK AO2 WSHFT 1344 T00501061",
      "metarObsTime": 1775570640
    },
    "KHZL": {
      "status": "OK",
      "delay": "—",
      "metarCat": "VFR",
      "metarRaw": "METAR KHZL 071435Z AUTO 28008G19KT 200V310 10SM SCT039 05/M07 A3020 RMK AO2",
      "metarObsTime": 1775572500
    }
  }
}