{
  "generatedAt": "2026-04-03T05:50:32.012Z",
  "airports": {
    "KPIT": {
      "status": "OK",
      "delay": "—",
      "metarCat": "VFR",
      "metarRaw": "METAR KPIT 030451Z 15006KT 10SM -RA OVC100 19/14 A3007 RMK AO2 RAB11 SLP182 P0000 T01890139 402670083",
      "metarObsTime": 1775191860
    },
    "KAGC": {
      "status": "OK",
      "delay": "—",
      "metarCat": "VFR",
      "metarRaw": "METAR KAGC 030453Z 16009KT 10SM FEW090 BKN120 18/13 A3008 RMK AO2 SLP183 T01780133 402610106",
      "metarObsTime": 1775191980
    },
    "KLBE": {
      "status": "OK",
      "delay": "—",
      "metarCat": "VFR",
      "metarRaw": "METAR KLBE 030535Z AUTO VRB06KT 10SM CLR 18/13 A3012 RMK AO2",
      "metarObsTime": 1775194500
    },
    "KJST": {
      "status": "OK",
      "delay": "—",
      "metarCat": "LIFR",
      "metarRaw": "SPECI KJST 030505Z AUTO 16012G17KT 7SM OVC003 10/09 A3019 RMK AO2 T01000094",
      "metarObsTime": 1775192700
    },
    "KERI": {
      "status": "OK",
      "delay": "—",
      "metarCat": "VFR",
      "metarRaw": "METAR KERI 030451Z AUTO 16015G26KT 10SM FEW120 17/13 A2994 RMK AO2 PK WND 15033/0354 SLP138 T01720128 402110017 $",
      "metarObsTime": 1775191860
    },
    "KDUJ": {
      "status": "OK",
      "delay": "—",
      "metarCat": "IFR",
      "metarRaw": "METAR KDUJ 030453Z AUTO 12012KT 10SM OVC007 09/09 A3013 RMK AO2 RAE03 CIG 004V011 SLP203 P0000 T00940089 402060056",
      "metarObsTime": 1775191980
    },
    "KBFD": {
      "status": "OK",
      "delay": "—",
      "metarCat": "IFR",
      "metarRaw": "METAR KBFD 030453Z AUTO 15009G17KT 10SM OVC005 09/08 A3014 RMK AO2 RAB00E09 SLP208 P0000 T00940083 401500028",
      "metarObsTime": 1775191980
    },
    "KBTP": {
      "status": "OK",
      "delay": "—",
      "metarCat": "VFR",
      "metarRaw": "METAR KBTP 030456Z AUTO 13008KT 10SM -RA FEW050 SCT070 OVC100 17/15 A3009 RMK AO2 RAB36 SLP189 P0000 T01720150 $",
      "metarObsTime": 1775192160
    },
    "KFKL": {
      "status": "OK",
      "delay": "—",
      "metarCat": "VFR",
      "metarRaw": "SPECI KFKL 030503Z AUTO 15011KT 10SM OVC070 14/13 A3008 RMK AO2 LTG DSNT NE TSE0457RAE0457",
      "metarObsTime": 1775192580
    },
    "KIDI": {
      "status": "OK",
      "delay": "—",
      "metarCat": "VFR",
      "metarRaw": "METAR KIDI 030535Z AUTO 15009G15KT 10SM FEW033 FEW042 SCT085 14/12 A3014 RMK A01",
      "metarObsTime": 1775194500
    },
    "KMDT": {
      "status": "OK",
      "delay": "—",
      "metarCat": "IFR",
      "metarRaw": "METAR KMDT 030456Z 10009KT 3SM BR OVC006 06/06 A3036 RMK AO2 CIG 004V011 SLP284 T00610056 401330061 $",
      "metarObsTime": 1775192160
    },
    "KCXY": {
      "status": "OK",
      "delay": "—",
      "metarCat": "LIFR",
      "metarRaw": "SPECI KCXY 030521Z AUTO 11006KT 3SM BR OVC004 06/06 A3036 RMK AO2 T00610056",
      "metarObsTime": 1775193660
    },
    "KMUI": {
      "status": "OK",
      "delay": "—",
      "metarCat": "LIFR",
      "metarRaw": "SPECI KMUI 030519Z AUTO 08006KT 2 3/4SM BR OVC003 05/05 A3035 RMK AO2 SLP283",
      "metarObsTime": 1775193540
    },
    "KUNV": {
      "status": "OK",
      "delay": "—",
      "metarCat": "IFR",
      "metarRaw": "METAR KUNV 030535Z AUTO 13003KT 10SM OVC006 07/07 A3027 RMK AO2 T00700070",
      "metarObsTime": 1775194500
    },
    "KAOO": {
      "status": "OK",
      "delay": "—",
      "metarCat": "LIFR",
      "metarRaw": "SPECI KAOO 030530Z AUTO 15007KT 2 1/2SM BR OVC003 08/08 A3025 RMK AO2 T00830078",
      "metarObsTime": 1775194200
    },
    "KLNS": {
      "status": "OK",
      "delay": "—",
      "metarCat": "LIFR",
      "metarRaw": "SPECI KLNS 030525Z AUTO 12007KT 3SM BR OVC004 06/05 A3037 RMK AO2 CIG 003V008 T00560050",
      "metarObsTime": 1775193900
    },
    "KIPT": {
      "status": "OK",
      "delay": "—",
      "metarCat": "IFR",
      "metarRaw": "METAR KIPT 030454Z AUTO 08011G18KT 4SM BR OVC009 07/05 A3030 RMK AO2 SLP264 T00670050 401110061 $",
      "metarObsTime": 1775192040
    },
    "KPHL": {
      "status": "OK",
      "delay": "—",
      "metarCat": "IFR",
      "metarRaw": "SPECI KPHL 030510Z 08009KT 1 1/2SM -DZ BR OVC006 07/06 A3041 RMK AO2 P0000 T00670056 $",
      "metarObsTime": 1775193000
    },
    "KABE": {
      "status": "OK",
      "delay": "—",
      "metarCat": "IFR",
      "metarRaw": "METAR KABE 030451Z 10009KT 7SM OVC009 04/03 A3040 RMK AO2 SLP296 T00440033 401000044 $",
      "metarObsTime": 1775191860
    },
    "KAVP": {
      "status": "OK",
      "delay": "—",
      "metarCat": "MVFR",
      "metarRaw": "METAR KAVP 030454Z AUTO VRB03KT 10SM OVC013 06/03 A3032 RMK AO2 SLP271 T00560028 400830056",
      "metarObsTime": 1775192040
    },
    "KHZL": {
      "status": "OK",
      "delay": "—",
      "metarCat": "LIFR",
      "metarRaw": "METAR KHZL 030535Z AUTO 15004KT 2 1/2SM -DZ OVC002 03/02 A3033 RMK AO2",
      "metarObsTime": 1775194500
    }
  }
}