{
  "generatedAt": "2026-04-01T22:10:31.411Z",
  "airports": {
    "KPIT": {
      "status": "OK",
      "delay": "—",
      "metarCat": "IFR",
      "metarRaw": "METAR KPIT 012151Z 34011G19KT 10SM OVC009 12/09 A3008 RMK AO2 SLP194 T01170094",
      "metarObsTime": 1775080260
    },
    "KAGC": {
      "status": "OK",
      "delay": "—",
      "metarCat": "VFR",
      "metarRaw": "METAR KAGC 012153Z 33010KT 10SM CLR 17/13 A3005 RMK AO2 SLP177 T01720133",
      "metarObsTime": 1775080380
    },
    "KLBE": {
      "status": "OK",
      "delay": "—",
      "metarCat": "VFR",
      "metarRaw": "METAR KLBE 012153Z 00000KT 10SM CLR 22/16 A3004",
      "metarObsTime": 1775080380
    },
    "KJST": {
      "status": "OK",
      "delay": "—",
      "metarCat": "VFR",
      "metarRaw": "METAR KJST 012154Z AUTO 23004KT 10SM OVC090 21/12 A3007 RMK AO2 SLP175 T02060117",
      "metarObsTime": 1775080440
    },
    "KERI": {
      "status": "OK",
      "delay": "—",
      "metarCat": "IFR",
      "metarRaw": "METAR KERI 012151Z 05014G23KT 4SM -RA BR OVC007 02/01 A3018 RMK AO2 SLP227 P0003 T00220011 $",
      "metarObsTime": 1775080260
    },
    "KDUJ": {
      "status": "OK",
      "delay": "—",
      "metarCat": "IFR",
      "metarRaw": "SPECI KDUJ 012203Z AUTO 04010KT 2 1/2SM RA BR OVC005 10/09 A3011 RMK AO2 RAB2158 P0004 T01000089",
      "metarObsTime": 1775080980
    },
    "KBFD": {
      "status": "OK",
      "delay": "—",
      "metarCat": "IFR",
      "metarRaw": "METAR KBFD 012153Z AUTO 08007KT 10SM OVC006 05/04 A3015 RMK AO2 RAE48 SLP212 P0001 T00500044",
      "metarObsTime": 1775080380
    },
    "KBTP": {
      "status": "OK",
      "delay": "—",
      "metarCat": "IFR",
      "metarRaw": "METAR KBTP 012156Z AUTO 36006KT 10SM OVC006 11/11 A3010 RMK AO2 LTG DSNT NE SLP201 T01060106 $",
      "metarObsTime": 1775080560
    },
    "KFKL": {
      "status": "OK",
      "delay": "—",
      "metarCat": "IFR",
      "metarRaw": "METAR KFKL 012156Z AUTO 06009KT 10SM RA BKN005 OVC038 07/06 A3011 RMK AO2 LTG DSNT SE CIG 003V008 SLP204 P0011 T00670061",
      "metarObsTime": 1775080560
    },
    "KIDI": {
      "status": "OK",
      "delay": "—",
      "metarCat": "VFR",
      "metarRaw": "METAR KIDI 012155Z AUTO 03004KT 10SM FEW090 SCT120 20/15 A3005 RMK A01",
      "metarObsTime": 1775080500
    },
    "KMDT": {
      "status": "OK",
      "delay": "—",
      "metarCat": "VFR",
      "metarRaw": "METAR KMDT 012156Z VRB05KT 10SM FEW045 BKN060 24/12 A3003 RMK AO2 SLP168 T02440122 $",
      "metarObsTime": 1775080560
    },
    "KCXY": {
      "status": "OK",
      "delay": "—",
      "metarCat": "VFR",
      "metarRaw": "METAR KCXY 012156Z 07008KT 10SM FEW085 FEW120 24/13 A3004 RMK AO2 SLP170 T02390133",
      "metarObsTime": 1775080560
    },
    "KMUI": {
      "status": "OK",
      "delay": "—",
      "metarCat": "VFR",
      "metarRaw": "METAR KMUI 012155Z 01007KT 10SM FEW050 SCT120 BKN250 24/14 A3003 RMK AO2A SLP169 T02400144",
      "metarObsTime": 1775080500
    },
    "KUNV": {
      "status": "OK",
      "delay": "—",
      "metarCat": "VFR",
      "metarRaw": "METAR KUNV 012153Z COR 04014G18KT 10SM SCT012 SCT043 BKN070 14/11 A3011",
      "metarObsTime": 1775080380
    },
    "KAOO": {
      "status": "OK",
      "delay": "—",
      "metarCat": "VFR",
      "metarRaw": "METAR KAOO 012153Z AUTO 04004KT 10SM FEW080 BKN100 21/14 A3006 RMK AO2 SLP172 T02110144",
      "metarObsTime": 1775080380
    },
    "KLNS": {
      "status": "OK",
      "delay": "—",
      "metarCat": "VFR",
      "metarRaw": "METAR KLNS 012153Z 03007KT 10SM CLR 23/14 A3004 RMK AO2 SLP171 T02280139",
      "metarObsTime": 1775080380
    },
    "KIPT": {
      "status": "OK",
      "delay": "—",
      "metarCat": "MVFR",
      "metarRaw": "METAR KIPT 012154Z 36008KT 10SM OVC025 11/06 A3018 RMK AO2 SLP219 T01060061 $",
      "metarObsTime": 1775080440
    },
    "KPHL": {
      "status": "OK",
      "delay": "—",
      "metarCat": "VFR",
      "metarRaw": "METAR KPHL 012154Z 35004KT 10SM FEW070 FEW120 SCT240 BKN280 28/12 A3004 RMK AO2 SLP170 T02780122 $",
      "metarObsTime": 1775080440
    },
    "KABE": {
      "status": "OK",
      "delay": "—",
      "metarCat": "VFR",
      "metarRaw": "METAR KABE 012151Z 02009KT 10SM BKN050 20/12 A3010 RMK AO2 SLP190 T02000117 $",
      "metarObsTime": 1775080260
    },
    "KAVP": {
      "status": "OK",
      "delay": "—",
      "metarCat": "MVFR",
      "metarRaw": "METAR KAVP 012154Z AUTO 01009KT 10SM OVC014 09/07 A3019 RMK AO2 SLP223 T00940067",
      "metarObsTime": 1775080440
    },
    "KHZL": {
      "status": "OK",
      "delay": "—",
      "metarCat": "VFR",
      "metarRaw": "METAR KHZL 012155Z AUTO 34007KT 10SM CLR 11/07 A3019 RMK AO2",
      "metarObsTime": 1775080500
    }
  }
}