{
  "generatedAt": "2026-03-31T17:10:40.217Z",
  "airports": {
    "KPIT": {
      "status": "OK",
      "delay": "—",
      "metarCat": "VFR",
      "metarRaw": "METAR KPIT 311651Z 21016KT 10SM BKN036 OVC050 22/13 A2997 RMK AO2 PK WND 26031/1556 SLP150 T02170128",
      "metarObsTime": 1774975860
    },
    "KAGC": {
      "status": "OK",
      "delay": "—",
      "metarCat": "VFR",
      "metarRaw": "METAR KAGC 311653Z 21017G27KT 10SM OVC039 22/13 A2999 RMK AO2 PK WND 22028/1558 SLP153 T02170133",
      "metarObsTime": 1774975980
    },
    "KLBE": {
      "status": "OK",
      "delay": "—",
      "metarCat": "VFR",
      "metarRaw": "METAR KLBE 311647Z 22015G30KT 15SM SCT060 23/14 A3001",
      "metarObsTime": 1774975620
    },
    "KJST": {
      "status": "OK",
      "delay": "—",
      "metarCat": "VFR",
      "metarRaw": "METAR KJST 311654Z AUTO 24014G27KT 10SM CLR 21/12 A3002 RMK AO2 PK WND 26033/1644 SLP158 T02060122",
      "metarObsTime": 1774976040
    },
    "KERI": {
      "status": "OK",
      "delay": "—",
      "metarCat": "VFR",
      "metarRaw": "METAR KERI 311651Z 21016G27KT 10SM FEW085 23/14 A2984 RMK AO2 PK WND 21029/1629 SLP099 T02330144",
      "metarObsTime": 1774975860
    },
    "KDUJ": {
      "status": "OK",
      "delay": "—",
      "metarCat": "MVFR",
      "metarRaw": "METAR KDUJ 311653Z AUTO 18003KT 10SM OVC028 17/14 A2998 RMK AO2 RAE22 SLP144 P0002 T01670144",
      "metarObsTime": 1774975980
    },
    "KBFD": {
      "status": "OK",
      "delay": "—",
      "metarCat": "VFR",
      "metarRaw": "METAR KBFD 311653Z AUTO 19010G15KT 10SM BKN034 BKN110 16/14 A2996 RMK AO2 RAE43 SLP139 P0000 T01610139",
      "metarObsTime": 1774975980
    },
    "KBTP": {
      "status": "OK",
      "delay": "—",
      "metarCat": "VFR",
      "metarRaw": "METAR KBTP 311656Z AUTO 21014G21KT 10SM OVC033 21/13 A2998 RMK AO2 SLP151 T02110133 $",
      "metarObsTime": 1774976160
    },
    "KFKL": {
      "status": "OK",
      "delay": "—",
      "metarCat": "MVFR",
      "metarRaw": "METAR KFKL 311656Z AUTO 22017G22KT 10SM OVC030 21/13 A2994 RMK AO2 SLP135 T02060133",
      "metarObsTime": 1774976160
    },
    "KIDI": {
      "status": "OK",
      "delay": "—",
      "metarCat": "VFR",
      "metarRaw": "METAR KIDI 311655Z AUTO 24013KT 10SM OVC034 21/13 A3000 RMK A01",
      "metarObsTime": 1774976100
    },
    "KMDT": {
      "status": "OK",
      "delay": "—",
      "metarCat": "VFR",
      "metarRaw": "METAR KMDT 311656Z 24011G22KT 10SM SCT050 BKN075 BKN250 23/12 A3000 RMK AO2 SLP159 T02330117",
      "metarObsTime": 1774976160
    },
    "KCXY": {
      "status": "OK",
      "delay": "—",
      "metarCat": "VFR",
      "metarRaw": "METAR KCXY 311656Z 26011G18KT 10SM SCT055 OVC075 25/13 A3001 RMK AO2 SLP161 T02500133",
      "metarObsTime": 1774976160
    },
    "KMUI": {
      "status": "OK",
      "delay": "—",
      "metarCat": "VFR",
      "metarRaw": "METAR KMUI 311655Z 22013KT 10SM BKN050 BKN070 BKN250 25/14 A2999 RMK AO2A SLP157 T02510136",
      "metarObsTime": 1774976100
    },
    "KUNV": {
      "status": "OK",
      "delay": "—",
      "metarCat": "VFR",
      "metarRaw": "METAR KUNV 311653Z 22007KT 10SM OVC037 21/12 A3001 RMK LTG DSNT N",
      "metarObsTime": 1774975980
    },
    "KAOO": {
      "status": "OK",
      "delay": "—",
      "metarCat": "VFR",
      "metarRaw": "METAR KAOO 311653Z AUTO 21012G17KT 10SM BKN043 22/13 A3002 RMK AO2 SLP159 T02220128",
      "metarObsTime": 1774975980
    },
    "KLNS": {
      "status": "OK",
      "delay": "—",
      "metarCat": "VFR",
      "metarRaw": "METAR KLNS 311653Z 24011G21KT 10SM BKN070 24/13 A3002 RMK AO2 SLP165 T02390128",
      "metarObsTime": 1774975980
    },
    "KIPT": {
      "status": "OK",
      "delay": "—",
      "metarCat": "VFR",
      "metarRaw": "METAR KIPT 311654Z 27006KT 10SM FEW043 SCT050 BKN085 21/15 A2998 RMK AO2 RAB23E47 SLP150 P0002 T02110150",
      "metarObsTime": 1774976040
    },
    "KPHL": {
      "status": "OK",
      "delay": "—",
      "metarCat": "VFR",
      "metarRaw": "METAR KPHL 311654Z 23015KT 10SM FEW055 BKN280 BKN350 25/11 A3005 RMK AO2 PK WND 23026/1643 SLP176 T02500111 $",
      "metarObsTime": 1774976040
    },
    "KABE": {
      "status": "OK",
      "delay": "—",
      "metarCat": "VFR",
      "metarRaw": "METAR KABE 311651Z 23015G19KT 10SM BKN070 23/12 A3001 RMK AO2 SLP160 T02280122 $",
      "metarObsTime": 1774975860
    },
    "KAVP": {
      "status": "OK",
      "delay": "—",
      "metarCat": "VFR",
      "metarRaw": "METAR KAVP 311654Z 24016G25KT 10SM BKN047 21/11 A2999 RMK AO2 SLP151 T02060111",
      "metarObsTime": 1774976040
    },
    "KHZL": {
      "status": "OK",
      "delay": "—",
      "metarCat": "VFR",
      "metarRaw": "METAR KHZL 311655Z AUTO 26004KT 10SM OVC035 20/11 A3007 RMK AO2",
      "metarObsTime": 1774976100
    }
  }
}