{
  "generatedAt": "2026-04-11T05:40:41.502Z",
  "airports": {
    "KPIT": {
      "status": "OK",
      "delay": "—",
      "metarCat": "IFR",
      "metarRaw": "METAR KPIT 110451Z 32012KT 10SM BKN009 OVC019 09/08 A3027 RMK AO2 RAE17 SLP256 P0000 T00940078 402500094 $",
      "metarObsTime": 1775883060
    },
    "KAGC": {
      "status": "OK",
      "delay": "—",
      "metarCat": "IFR",
      "metarRaw": "METAR KAGC 110453Z 34010G19KT 10SM BKN009 OVC012 11/09 A3025 RMK AO2 RAE0354 SLP243 P0000 T01060089 402500106",
      "metarObsTime": 1775883180
    },
    "KLBE": {
      "status": "OK",
      "delay": "—",
      "metarCat": "MVFR",
      "metarRaw": "METAR KLBE 110535Z AUTO 30010KT 10SM BKN029 OVC036 12/11 A3026 RMK AO2",
      "metarObsTime": 1775885700
    },
    "KJST": {
      "status": "OK",
      "delay": "—",
      "metarCat": "LIFR",
      "metarRaw": "SPECI KJST 110530Z AUTO 32012G22KT 3SM -RA BR OVC003 11/10 A3021 RMK AO2 RAB01 P0001 T01060100",
      "metarObsTime": 1775885400
    },
    "KERI": {
      "status": "OK",
      "delay": "—",
      "metarCat": "IFR",
      "metarRaw": "METAR KERI 110451Z AUTO 27003KT 10SM OVC006 04/03 A3031 RMK AO2 SLP268 T00440033 402060044 $",
      "metarObsTime": 1775883060
    },
    "KDUJ": {
      "status": "OK",
      "delay": "—",
      "metarCat": "MVFR",
      "metarRaw": "SPECI KDUJ 110529Z AUTO 33006KT 10SM BKN015 OVC021 07/06 A3022 RMK AO2 T00720056",
      "metarObsTime": 1775885340
    },
    "KBFD": {
      "status": "OK",
      "delay": "—",
      "metarCat": "IFR",
      "metarRaw": "METAR KBFD 110453Z AUTO 32011KT 10SM BKN006 OVC011 05/04 A3023 RMK AO2 CIG 006V009 SLP233 T00500039 402060050",
      "metarObsTime": 1775883180
    },
    "KBTP": {
      "status": "OK",
      "delay": "—",
      "metarCat": "IFR",
      "metarRaw": "METAR KBTP 110456Z AUTO 31005KT 10SM OVC008 08/08 A3028 RMK AO2 RAE02 CIG 007V012 SLP257 P0001 T00830083 $",
      "metarObsTime": 1775883360
    },
    "KFKL": {
      "status": "OK",
      "delay": "—",
      "metarCat": "LIFR",
      "metarRaw": "SPECI KFKL 110516Z AUTO 33007KT 3SM BR OVC003 06/06 A3028 RMK AO2",
      "metarObsTime": 1775884560
    },
    "KIDI": {
      "status": "OK",
      "delay": "—",
      "metarCat": "MVFR",
      "metarRaw": "METAR KIDI 110535Z AUTO 31012G17KT 10SM OVC011 10/09 A3025 RMK A01",
      "metarObsTime": 1775885700
    },
    "KMDT": {
      "status": "OK",
      "delay": "—",
      "metarCat": "VFR",
      "metarRaw": "METAR KMDT 110456Z 14004KT 10SM -RA FEW060 OVC085 14/12 A3013 RMK AO2 SLP202 P0001 T01440117 402330050",
      "metarObsTime": 1775883360
    },
    "KCXY": {
      "status": "OK",
      "delay": "—",
      "metarCat": "VFR",
      "metarRaw": "METAR KCXY 110456Z AUTO 25003KT 10SM BKN080 OVC100 17/13 A3014 RMK AO2 RAE39 SLP206 P0001 T01670128 402440044 $",
      "metarObsTime": 1775883360
    },
    "KMUI": {
      "status": "OK",
      "delay": "—",
      "metarCat": "VFR",
      "metarRaw": "SPECI KMUI 110443Z AUTO 00000KT 9SM -RA FEW065 OVC090 15/15 A3012 RMK AO2 RAB0355E04RAB43 SLP202",
      "metarObsTime": 1775882580
    },
    "KUNV": {
      "status": "OK",
      "delay": "—",
      "metarCat": "MVFR",
      "metarRaw": "METAR KUNV 110535Z AUTO 32006KT 10SM BKN022 BKN027 OVC032 14/11 A3018 RMK AO2 T01360105",
      "metarObsTime": 1775885700
    },
    "KAOO": {
      "status": "OK",
      "delay": "—",
      "metarCat": "MVFR",
      "metarRaw": "METAR KAOO 110453Z AUTO 30006KT 10SM BKN020 OVC026 14/11 A3018 RMK AO2 SLP215 T01390111 402500044",
      "metarObsTime": 1775883180
    },
    "KLNS": {
      "status": "OK",
      "delay": "—",
      "metarCat": "VFR",
      "metarRaw": "METAR KLNS 110453Z AUTO 10003KT 10SM -RA FEW060 FEW070 OVC095 13/08 A3013 RMK AO2 RAB49 SLP204 P0000 T01280083 402170033",
      "metarObsTime": 1775883180
    },
    "KIPT": {
      "status": "OK",
      "delay": "—",
      "metarCat": "VFR",
      "metarRaw": "METAR KIPT 110454Z AUTO 26005KT 10SM FEW023 OVC046 14/13 A3013 RMK AO2 RAB27E37 SLP203 P0000 T01390128 402330050 $",
      "metarObsTime": 1775883240
    },
    "KPHL": {
      "status": "OK",
      "delay": "—",
      "metarCat": "VFR",
      "metarRaw": "METAR KPHL 110454Z 16009KT 10SM BKN120 13/08 A3014 RMK AO2 PRESFR SLP206 T01330083 402220061 $",
      "metarObsTime": 1775883240
    },
    "KABE": {
      "status": "OK",
      "delay": "—",
      "metarCat": "VFR",
      "metarRaw": "METAR KABE 110451Z 23005KT 10SM OVC100 15/10 A3012 RMK AO2 RAB09E45 SLP199 P0000 T01500100 402220050 $",
      "metarObsTime": 1775883060
    },
    "KAVP": {
      "status": "OK",
      "delay": "—",
      "metarCat": "MVFR",
      "metarRaw": "SPECI KAVP 110532Z AUTO 24010KT 10SM BKN027 OVC034 13/12 A3012 RMK AO2 T01330122",
      "metarObsTime": 1775885520
    },
    "KHZL": {
      "status": "OK",
      "delay": "—",
      "metarCat": "MVFR",
      "metarRaw": "METAR KHZL 110535Z AUTO 27004KT 10SM SCT013 OVC024 13/11 A3016 RMK AO2",
      "metarObsTime": 1775885700
    }
  }
}