{
  "generatedAt": "2026-04-07T13:30:42.349Z",
  "airports": {
    "KPIT": {
      "status": "OK",
      "delay": "—",
      "metarCat": "VFR",
      "metarRaw": "METAR KPIT 071251Z 32016KT 10SM SCT033 M01/M09 A3036 RMK AO2 SLP298 T10061089",
      "metarObsTime": 1775566260
    },
    "KAGC": {
      "status": "OK",
      "delay": "—",
      "metarCat": "VFR",
      "metarRaw": "METAR KAGC 071253Z 34012G21KT 10SM SCT038 M01/M08 A3033 RMK AO2 SLP287 T10061083",
      "metarObsTime": 1775566380
    },
    "KLBE": {
      "status": "OK",
      "delay": "—",
      "metarCat": "VFR",
      "metarRaw": "METAR KLBE 071247Z 30014G24KT 10SM SCT033 01/M06 A3034",
      "metarObsTime": 1775566020
    },
    "KJST": {
      "status": "OK",
      "delay": "—",
      "metarCat": "MVFR",
      "metarRaw": "METAR KJST 071254Z AUTO 30017G25KT 10SM BKN025 M02/M07 A3023 RMK AO2 PK WND 26026/1232 SLP259 T10171072",
      "metarObsTime": 1775566440
    },
    "KERI": {
      "status": "OK",
      "delay": "—",
      "metarCat": "VFR",
      "metarRaw": "METAR KERI 071251Z 30014G25KT 10SM OVC038 M03/M11 A3041 RMK AO2 PK WND 31029/1232 SNB1156E09 SLP307 P0000 T10281111 $",
      "metarObsTime": 1775566260
    },
    "KDUJ": {
      "status": "OK",
      "delay": "—",
      "metarCat": "MVFR",
      "metarRaw": "METAR KDUJ 071253Z AUTO 30014G26KT 10SM OVC030 M04/M11 A3027 RMK AO2 PK WND 33027/1205 SLP270 T10391106",
      "metarObsTime": 1775566380
    },
    "KBFD": {
      "status": "OK",
      "delay": "—",
      "metarCat": "VFR",
      "metarRaw": "METAR KBFD 071253Z AUTO 29011G22KT 9SM SCT022 OVC034 M06/M11 A3024 RMK AO2 SNB1154E52 SLP261 P0000 T10561106",
      "metarObsTime": 1775566380
    },
    "KBTP": {
      "status": "OK",
      "delay": "—",
      "metarCat": "VFR",
      "metarRaw": "METAR KBTP 071256Z AUTO 34009G19KT 10SM SCT032 M01/M08 A3037 RMK AO2 SLP303 T10111083 FZRANO $",
      "metarObsTime": 1775566560
    },
    "KFKL": {
      "status": "OK",
      "delay": "—",
      "metarCat": "VFR",
      "metarRaw": "METAR KFKL 071256Z AUTO 33011G21KT 9SM -SN OVC034 M04/M10 A3035 RMK AO2 SLP296 P0000 T10391100 FZRANO",
      "metarObsTime": 1775566560
    },
    "KIDI": {
      "status": "OK",
      "delay": "—",
      "metarCat": "VFR",
      "metarRaw": "METAR KIDI 071315Z AUTO 31013G18KT 10SM OVC033 M01/M07 A3033 RMK A01",
      "metarObsTime": 1775567700
    },
    "KMDT": {
      "status": "OK",
      "delay": "—",
      "metarCat": "VFR",
      "metarRaw": "METAR KMDT 071256Z 29020G31KT 10SM FEW055 FEW250 07/M03 A3021 RMK AO2 PK WND 29031/1249 SLP233 T00721033",
      "metarObsTime": 1775566560
    },
    "KCXY": {
      "status": "OK",
      "delay": "—",
      "metarCat": "VFR",
      "metarRaw": "METAR KCXY 071256Z 30013G26KT 10SM CLR 07/M06 A3022 RMK AO2 PK WND 29032/1243 RAB36E48 SLP236 P0000 T00721056 $",
      "metarObsTime": 1775566560
    },
    "KMUI": {
      "status": "OK",
      "delay": "—",
      "metarCat": "VFR",
      "metarRaw": "METAR KMUI 071255Z 29018G25KT 10SM SCT041 BKN200 07/M04 A3016 RMK AO2A SLP218 T00721042",
      "metarObsTime": 1775566500
    },
    "KUNV": {
      "status": "OK",
      "delay": "—",
      "metarCat": "VFR",
      "metarRaw": "METAR KUNV 071253Z 32014G22KT 10SM BKN035 01/M08 A3023",
      "metarObsTime": 1775566380
    },
    "KAOO": {
      "status": "OK",
      "delay": "—",
      "metarCat": "VFR",
      "metarRaw": "METAR KAOO 071253Z AUTO 29016G32KT 10SM CLR 01/M07 A3023 RMK AO2 PK WND 28032/1247 SLP250 T00111067 $",
      "metarObsTime": 1775566380
    },
    "KLNS": {
      "status": "OK",
      "delay": "—",
      "metarCat": "VFR",
      "metarRaw": "METAR KLNS 071253Z 29018G27KT 10SM FEW050 07/M02 A3020 RMK AO2 PK WND 30027/1253 SLP227 T00721017",
      "metarObsTime": 1775566380
    },
    "KIPT": {
      "status": "OK",
      "delay": "—",
      "metarCat": "VFR",
      "metarRaw": "METAR KIPT 071254Z 27019G29KT 10SM FEW045 FEW055 04/M07 A3020 RMK AO2 PK WND 26029/1250 SLP230 T00391067",
      "metarObsTime": 1775566440
    },
    "KPHL": {
      "status": "OK",
      "delay": "—",
      "metarCat": "VFR",
      "metarRaw": "METAR KPHL 071254Z 30018G25KT 10SM FEW050 FEW075 SCT300 11/M02 A3018 RMK AO2 PK WND 31028/1231 SLP220 T01061022",
      "metarObsTime": 1775566440
    },
    "KABE": {
      "status": "OK",
      "delay": "—",
      "metarCat": "VFR",
      "metarRaw": "METAR KABE 071251Z 28011G21KT 10SM FEW038 07/M01 A3015 RMK AO2 SLP211 T00721006 $",
      "metarObsTime": 1775566260
    },
    "KAVP": {
      "status": "OK",
      "delay": "—",
      "metarCat": "VFR",
      "metarRaw": "METAR KAVP 071254Z 26010G19KT 10SM OVC065 05/M02 A3014 RMK AO2 SLP209 T00501022",
      "metarObsTime": 1775566440
    },
    "KHZL": {
      "status": "OK",
      "delay": "—",
      "metarCat": "VFR",
      "metarRaw": "METAR KHZL 071315Z AUTO 29008KT 270V330 10SM SCT023 SCT030 BKN044 04/M03 A3016 RMK AO2",
      "metarObsTime": 1775567700
    }
  }
}