{
  "generatedAt": "2026-04-01T23:30:31.047Z",
  "airports": {
    "KPIT": {
      "status": "OK",
      "delay": "—",
      "metarCat": "IFR",
      "metarRaw": "METAR KPIT 012251Z 34008KT 10SM OVC006 11/08 A3008 RMK AO2 SLP193 T01060083",
      "metarObsTime": 1775083860
    },
    "KAGC": {
      "status": "OK",
      "delay": "—",
      "metarCat": "VFR",
      "metarRaw": "SPECI KAGC 012318Z 36008KT 9SM FEW009 SCT060 BKN120 14/12 A3005 RMK AO2 T01440122",
      "metarObsTime": 1775085480
    },
    "KLBE": {
      "status": "OK",
      "delay": "—",
      "metarCat": "VFR",
      "metarRaw": "METAR KLBE 012253Z 00000KT 10SM SCT050 OVC090 21/16 A3006",
      "metarObsTime": 1775083980
    },
    "KJST": {
      "status": "OK",
      "delay": "—",
      "metarCat": "VFR",
      "metarRaw": "METAR KJST 012254Z AUTO 00000KT 10SM FEW050 SCT120 20/12 A3007 RMK AO2 SLP176 T02000122",
      "metarObsTime": 1775084040
    },
    "KERI": {
      "status": "OK",
      "delay": "—",
      "metarCat": "IFR",
      "metarRaw": "SPECI KERI 012307Z 05017G26KT 4SM -RA BR OVC006 02/01 A3023 RMK AO2 PK WND 03027/2254 P0003 T00170006 $",
      "metarObsTime": 1775084820
    },
    "KDUJ": {
      "status": "OK",
      "delay": "—",
      "metarCat": "IFR",
      "metarRaw": "SPECI KDUJ 012327Z AUTO 06010KT 4SM -RA BR BKN005 BKN022 OVC033 09/08 A3010 RMK AO2 P0007 T00890078",
      "metarObsTime": 1775086020
    },
    "KBFD": {
      "status": "OK",
      "delay": "—",
      "metarCat": "IFR",
      "metarRaw": "SPECI KBFD 012327Z AUTO 07007KT 5SM -RA BR BKN005 BKN048 OVC065 05/04 A3016 RMK AO2 P0003 T00500039",
      "metarObsTime": 1775086020
    },
    "KBTP": {
      "status": "OK",
      "delay": "—",
      "metarCat": "MVFR",
      "metarRaw": "METAR KBTP 012256Z AUTO 31007KT 290V360 10SM OVC012 11/10 A3010 RMK AO2 SLP201 T01060100 $",
      "metarObsTime": 1775084160
    },
    "KFKL": {
      "status": "OK",
      "delay": "—",
      "metarCat": "IFR",
      "metarRaw": "METAR KFKL 012256Z AUTO 01005KT 8SM RA OVC005 07/06 A3015 RMK AO2 PRESRR SLP215 P0009 T00670061",
      "metarObsTime": 1775084160
    },
    "KIDI": {
      "status": "OK",
      "delay": "—",
      "metarCat": "VFR",
      "metarRaw": "METAR KIDI 012315Z AUTO 02008KT 10SM CLR 15/13 A3007 RMK A01",
      "metarObsTime": 1775085300
    },
    "KMDT": {
      "status": "OK",
      "delay": "—",
      "metarCat": "VFR",
      "metarRaw": "METAR KMDT 012256Z 08003KT 10SM FEW045 BKN060 23/12 A3004 RMK AO2 LTG DSNT S SLP171 T02330122 $",
      "metarObsTime": 1775084160
    },
    "KCXY": {
      "status": "OK",
      "delay": "—",
      "metarCat": "VFR",
      "metarRaw": "METAR KCXY 012256Z 06006KT 10SM BKN100 23/12 A3005 RMK AO2 LTG DSNT S SLP174 T02330122",
      "metarObsTime": 1775084160
    },
    "KMUI": {
      "status": "OK",
      "delay": "—",
      "metarCat": "VFR",
      "metarRaw": "METAR KMUI 012255Z 01008KT 10SM SCT045 BKN100 BKN250 22/14 A3004 RMK AO2A SLP173 T02240142",
      "metarObsTime": 1775084100
    },
    "KUNV": {
      "status": "OK",
      "delay": "—",
      "metarCat": "MVFR",
      "metarRaw": "METAR KUNV 012253Z 05014G17KT 10SM OVC012 11/09 A3012",
      "metarObsTime": 1775083980
    },
    "KAOO": {
      "status": "OK",
      "delay": "—",
      "metarCat": "VFR",
      "metarRaw": "METAR KAOO 012253Z AUTO 08003KT 10SM SCT075 BKN100 OVC110 19/14 A3006 RMK AO2 RAB24E44 SLP175 P0000 T01940144",
      "metarObsTime": 1775083980
    },
    "KLNS": {
      "status": "OK",
      "delay": "—",
      "metarCat": "VFR",
      "metarRaw": "METAR KLNS 012253Z 04006KT 10SM FEW110 22/13 A3005 RMK AO2 SLP172 T02220133",
      "metarObsTime": 1775083980
    },
    "KIPT": {
      "status": "OK",
      "delay": "—",
      "metarCat": "MVFR",
      "metarRaw": "METAR KIPT 012254Z 06007KT 10SM FEW020 OVC028 09/05 A3018 RMK AO2 SLP222 T00940050 $",
      "metarObsTime": 1775084040
    },
    "KPHL": {
      "status": "OK",
      "delay": "—",
      "metarCat": "VFR",
      "metarRaw": "METAR KPHL 012254Z 02004KT 10SM FEW070 SCT100 SCT240 BKN280 26/12 A3004 RMK AO2 SLP172 T02610122 $",
      "metarObsTime": 1775084040
    },
    "KABE": {
      "status": "OK",
      "delay": "—",
      "metarCat": "VFR",
      "metarRaw": "METAR KABE 012251Z 04011KT 10SM CLR 17/11 A3012 RMK AO2 SLP197 T01720106 $",
      "metarObsTime": 1775083860
    },
    "KAVP": {
      "status": "OK",
      "delay": "—",
      "metarCat": "MVFR",
      "metarRaw": "METAR KAVP 012254Z AUTO 02009KT 10SM OVC015 08/06 A3020 RMK AO2 SLP226 T00830061",
      "metarObsTime": 1775084040
    },
    "KHZL": {
      "status": "OK",
      "delay": "—",
      "metarCat": "IFR",
      "metarRaw": "METAR KHZL 012315Z AUTO 35005KT 10SM OVC008 08/06 A3019 RMK AO2 LTG DSNT S",
      "metarObsTime": 1775085300
    }
  }
}