{
  "generatedAt": "2026-04-29T17:51:13.269Z",
  "faaFlow": {
    "updatedAt": "2026-04-29T17:51:12.364Z",
    "source": "https://www.fly.faa.gov/adv/adv_spt",
    "terminal": [
      {
        "time": "—",
        "text": "UNTIL",
        "code": "FLOW",
        "label": "FAA flow impact",
        "level": "yellow",
        "section": "Terminal Planned",
        "airports": []
      },
      {
        "time": "0000",
        "text": "IAD/BWI GROUND STOP POSSIBLE",
        "code": "GS",
        "label": "Ground stop possible",
        "level": "yellow",
        "section": "Terminal Planned",
        "airports": []
      },
      {
        "time": "—",
        "text": "UNTIL",
        "code": "FLOW",
        "label": "FAA flow impact",
        "level": "yellow",
        "section": "Terminal Planned",
        "airports": []
      },
      {
        "time": "0000",
        "text": "IAH/HOU GROUND STOP/DELAY PROGRAM PROBABLE",
        "code": "GS",
        "label": "Ground stop possible",
        "level": "orange",
        "section": "Terminal Planned",
        "airports": []
      },
      {
        "time": "—",
        "text": "UNTIL",
        "code": "FLOW",
        "label": "FAA flow impact",
        "level": "yellow",
        "section": "Terminal Planned",
        "airports": []
      },
      {
        "time": "0200",
        "text": "EWR/TEB/PHL GROUND STOP/DELAY PROGRAM POSSIBLE",
        "code": "GS",
        "label": "Ground stop possible",
        "level": "yellow",
        "section": "Terminal Planned",
        "airports": [
          "KPHL"
        ]
      },
      {
        "time": "—",
        "text": "UNTIL",
        "code": "FLOW",
        "label": "FAA flow impact",
        "level": "yellow",
        "section": "Terminal Planned",
        "airports": []
      },
      {
        "time": "0300",
        "text": "LGA/JFK/HPN GROUND STOP/DELAY PROGRAM PROBABLE",
        "code": "GS",
        "label": "Ground stop possible",
        "level": "orange",
        "section": "Terminal Planned",
        "airports": []
      }
    ],
    "enroute": [
      {
        "time": "—",
        "text": "UNTIL",
        "code": "FLOW",
        "label": "FAA flow impact",
        "level": "yellow",
        "section": "En Route Planned",
        "airports": []
      },
      {
        "time": "0100",
        "text": "TRANSCON ROUTES POSSIBLE",
        "code": "ROUTE",
        "label": "Route impact possible",
        "level": "blue",
        "section": "En Route Planned",
        "airports": []
      },
      {
        "time": "—",
        "text": "UNTIL",
        "code": "FLOW",
        "label": "FAA flow impact",
        "level": "yellow",
        "section": "En Route Planned",
        "airports": []
      },
      {
        "time": "0100",
        "text": "CAN ROUTES POSSIBLE",
        "code": "ROUTE",
        "label": "Route impact possible",
        "level": "blue",
        "section": "En Route Planned",
        "airports": []
      },
      {
        "time": "—",
        "text": "UNTIL",
        "code": "FLOW",
        "label": "FAA flow impact",
        "level": "yellow",
        "section": "En Route Planned",
        "airports": []
      },
      {
        "time": "0100",
        "text": "IAH/HOU ARRIVAL ROUTES PROBABLE",
        "code": "ROUTE",
        "label": "Route impact possible",
        "level": "orange",
        "section": "En Route Planned",
        "airports": []
      },
      {
        "time": "—",
        "text": "UNTIL",
        "code": "FLOW",
        "label": "FAA flow impact",
        "level": "yellow",
        "section": "En Route Planned",
        "airports": []
      },
      {
        "time": "0100",
        "text": "N90/PHL SWAP/ESCAPE ROUTES PROBABLE",
        "code": "ROUTE",
        "label": "Route impact possible",
        "level": "orange",
        "section": "En Route Planned",
        "airports": [
          "KPHL"
        ]
      },
      {
        "time": "—",
        "text": "UNTIL",
        "code": "FLOW",
        "label": "FAA flow impact",
        "level": "yellow",
        "section": "En Route Planned",
        "airports": []
      },
      {
        "time": "0100",
        "text": "IAD/DCA/BWI SWAP/ESCAPE ROUTES PROBABLE CDRS/SWAP/CAPPING/TUNNELING/HOTLINE/DIVERSION RECOVERY:",
        "code": "ROUTE",
        "label": "Route impact possible",
        "level": "orange",
        "section": "En Route Planned",
        "airports": []
      },
      {
        "time": "—",
        "text": "UNTIL",
        "code": "FLOW",
        "label": "FAA flow impact",
        "level": "yellow",
        "section": "En Route Planned",
        "airports": []
      },
      {
        "time": "2000",
        "text": "ZJX CAPPING/TUNNELING",
        "code": "FLOW",
        "label": "FAA flow impact",
        "level": "yellow",
        "section": "En Route Planned",
        "airports": []
      },
      {
        "time": "—",
        "text": "UNTIL",
        "code": "FLOW",
        "label": "FAA flow impact",
        "level": "yellow",
        "section": "En Route Planned",
        "airports": []
      },
      {
        "time": "2200",
        "text": "ZHU SWAP",
        "code": "ROUTE",
        "label": "Route impact possible",
        "level": "blue",
        "section": "En Route Planned",
        "airports": []
      },
      {
        "time": "—",
        "text": "UNTIL",
        "code": "FLOW",
        "label": "FAA flow impact",
        "level": "yellow",
        "section": "En Route Planned",
        "airports": []
      },
      {
        "time": "0100",
        "text": "TEXAS HOTLINE",
        "code": "FLOW",
        "label": "FAA flow impact",
        "level": "yellow",
        "section": "En Route Planned",
        "airports": []
      },
      {
        "time": "—",
        "text": "UNTIL",
        "code": "FLOW",
        "label": "FAA flow impact",
        "level": "yellow",
        "section": "En Route Planned",
        "airports": []
      },
      {
        "time": "0300",
        "text": "ZFW SWAP",
        "code": "ROUTE",
        "label": "Route impact possible",
        "level": "blue",
        "section": "En Route Planned",
        "airports": []
      },
      {
        "time": "—",
        "text": "UNTIL",
        "code": "FLOW",
        "label": "FAA flow impact",
        "level": "yellow",
        "section": "En Route Planned",
        "airports": []
      },
      {
        "time": "0300",
        "text": "ZDV SWAP RUNWAY/EQUIPMENT/POSSIBLE SYSTEM IMPACT REPORTS(SIRs): LAX - RWY 24R/06L CLOSED",
        "code": "CLOSURE",
        "label": "Closure possible",
        "level": "yellow",
        "section": "En Route Planned",
        "airports": []
      },
      {
        "time": "—",
        "text": "2026",
        "code": "FLOW",
        "label": "FAA flow impact",
        "level": "yellow",
        "section": "En Route Planned",
        "airports": []
      },
      {
        "time": "2026",
        "text": "SAN - CONSTRUCTION PHASE 5.2 UNTIL 05/26/26",
        "code": "FLOW",
        "label": "FAA flow impact",
        "level": "yellow",
        "section": "En Route Planned",
        "airports": []
      },
      {
        "time": "—",
        "text": "AFTER",
        "code": "FLOW",
        "label": "FAA flow impact",
        "level": "yellow",
        "section": "En Route Planned",
        "airports": []
      },
      {
        "time": "1800",
        "text": "ONT",
        "code": "FLOW",
        "label": "FAA flow impact",
        "level": "yellow",
        "section": "En Route Planned",
        "airports": []
      },
      {
        "time": "—",
        "text": "AFTER",
        "code": "FLOW",
        "label": "FAA flow impact",
        "level": "yellow",
        "section": "En Route Planned",
        "airports": []
      },
      {
        "time": "0400",
        "text": "MDW VIP MOVEMENT(S):",
        "code": "FLOW",
        "label": "FAA flow impact",
        "level": "yellow",
        "section": "En Route Planned",
        "airports": []
      },
      {
        "time": "—",
        "text": "AFTER",
        "code": "FLOW",
        "label": "FAA flow impact",
        "level": "yellow",
        "section": "En Route Planned",
        "airports": []
      },
      {
        "time": "2100",
        "text": "ARR NKX NEXT PLANNING WEBINAR:",
        "code": "FLOW",
        "label": "FAA flow impact",
        "level": "yellow",
        "section": "En Route Planned",
        "airports": []
      }
    ],
    "airports": {
      "KPIT": null,
      "KAGC": null,
      "KLBE": null,
      "KJST": null,
      "KERI": null,
      "KDUJ": null,
      "KBFD": null,
      "KBTP": null,
      "KFKL": null,
      "KIDI": null,
      "KMDT": null,
      "KCXY": null,
      "KMUI": null,
      "KUNV": null,
      "KAOO": null,
      "KLNS": null,
      "KIPT": null,
      "KPHL": {
        "code": "ROUTE",
        "level": "orange",
        "label": "Route impact possible",
        "time": "0100",
        "text": "N90/PHL SWAP/ESCAPE ROUTES PROBABLE",
        "section": "En Route Planned"
      },
      "KABE": null,
      "KAVP": null,
      "KHZL": null
    }
  },
  "airports": {
    "KPIT": {
      "status": "OK",
      "delay": "—",
      "metarCat": "VFR",
      "metarRaw": "SPECI KPIT 291735Z 19009KT 10SM -RA SCT009 BKN033 OVC070 18/16 A2971 RMK AO2 RAB08 P0000 T01780156",
      "metarObsTime": 1777484100,
      "faaFlow": null
    },
    "KAGC": {
      "status": "OK",
      "delay": "—",
      "metarCat": "IFR",
      "metarRaw": "METAR KAGC 291653Z 18012G18KT 4SM -RA BR OVC009 16/15 A2974 RMK AO2 RAE03B40 CIG 006V012 SLP072 P0001 T01610150",
      "metarObsTime": 1777481580,
      "faaFlow": null
    },
    "KLBE": {
      "status": "OK",
      "delay": "—",
      "metarCat": "VFR",
      "metarRaw": "METAR KLBE 291747Z 18005KT 10SM SCT033 BKN041 17/15 A2975",
      "metarObsTime": 1777484820,
      "faaFlow": null
    },
    "KJST": {
      "status": "OK",
      "delay": "—",
      "metarCat": "VFR",
      "metarRaw": "METAR KJST 291654Z AUTO 17010KT 10SM OVC070 13/11 A2980 RMK AO2 RAE03 SLP090 P0000 T01280106",
      "metarObsTime": 1777481640,
      "faaFlow": null
    },
    "KERI": {
      "status": "OK",
      "delay": "—",
      "metarCat": "LIFR",
      "metarRaw": "SPECI KERI 291731Z 03007KT 7SM -RA OVC003 09/08 A2979 RMK AO2 RAB29 P0000 T00890078",
      "metarObsTime": 1777483860,
      "faaFlow": null
    },
    "KDUJ": {
      "status": "OK",
      "delay": "—",
      "metarCat": "IFR",
      "metarRaw": "SPECI KDUJ 291724Z AUTO 15007KT 2 1/2SM -RA BR OVC005 13/12 A2976 RMK AO2 P0004 T01280117",
      "metarObsTime": 1777483440,
      "faaFlow": null
    },
    "KBFD": {
      "status": "OK",
      "delay": "—",
      "metarCat": "MVFR",
      "metarRaw": "SPECI KBFD 291717Z AUTO 15004KT 5SM -RA BR FEW004 BKN039 OVC048 11/10 A2978 RMK AO2 P0002 T01060100",
      "metarObsTime": 1777483020,
      "faaFlow": null
    },
    "KBTP": {
      "status": "OK",
      "delay": "—",
      "metarCat": "IFR",
      "metarRaw": "METAR KBTP 291656Z AUTO 16005KT 10SM -RA OVC007 16/ A2975 RMK AO2 SLP076 P0000 T0156 $",
      "metarObsTime": 1777481760,
      "faaFlow": null
    },
    "KFKL": {
      "status": "OK",
      "delay": "—",
      "metarCat": "LIFR",
      "metarRaw": "SPECI KFKL 291742Z AUTO 35004KT 3SM RA BR OVC003 13/12 A2973 RMK AO2 P0009",
      "metarObsTime": 1777484520,
      "faaFlow": null
    },
    "KIDI": {
      "status": "OK",
      "delay": "—",
      "metarCat": "VFR",
      "metarRaw": "METAR KIDI 291735Z AUTO 14007KT 9SM FEW022 BKN055 BKN070 15/14 A2976 RMK A01",
      "metarObsTime": 1777484100,
      "faaFlow": null
    },
    "KMDT": {
      "status": "OK",
      "delay": "—",
      "metarCat": "MVFR",
      "metarRaw": "METAR KMDT 291656Z 12005KT 10SM -RA OVC019 14/09 A2989 RMK AO2 RAB51 SLP123 P0000 T01390094",
      "metarObsTime": 1777481760,
      "faaFlow": null
    },
    "KCXY": {
      "status": "OK",
      "delay": "—",
      "metarCat": "IFR",
      "metarRaw": "SPECI KCXY 291733Z VRB04KT 2 1/2SM HZ OVC019 13/11 A2988 RMK AO2 LTG DSNT N AND NW RAB12E23 P0000 T01330106",
      "metarObsTime": 1777483980,
      "faaFlow": null
    },
    "KMUI": {
      "status": "OK",
      "delay": "—",
      "metarCat": "MVFR",
      "metarRaw": "SPECI KMUI 291734Z 15005KT 10SM VCTS -RA OVC015CB 16/12 A2987 RMK AO2A RAB34 TS 7 NW MOV N SLP117",
      "metarObsTime": 1777484040,
      "faaFlow": null
    },
    "KUNV": {
      "status": "OK",
      "delay": "—",
      "metarCat": "—",
      "metarRaw": "—",
      "metarObsTime": null,
      "faaFlow": null
    },
    "KAOO": {
      "status": "OK",
      "delay": "—",
      "metarCat": "IFR",
      "metarRaw": "METAR KAOO 291653Z AUTO 15009KT 10SM -RA BKN005 BKN070 OVC080 12/11 A2983 RMK AO2 TSE04 CIG 004V008 SLP103 P0011 T01220111",
      "metarObsTime": 1777481580,
      "faaFlow": null
    },
    "KLNS": {
      "status": "OK",
      "delay": "—",
      "metarCat": "MVFR",
      "metarRaw": "METAR KLNS 291653Z 06004KT 9SM -RA OVC023 12/09 A2992 RMK AO2 RAB15 SLP132 P0006 T01170094",
      "metarObsTime": 1777481580,
      "faaFlow": null
    },
    "KIPT": {
      "status": "OK",
      "delay": "—",
      "metarCat": "MVFR",
      "metarRaw": "METAR KIPT 291654Z 11006G15KT 7SM OVC016 13/09 A2986 RMK AO2 SLP113 T01280094",
      "metarObsTime": 1777481640,
      "faaFlow": null
    },
    "KPHL": {
      "status": "OK",
      "delay": "—",
      "metarCat": "VFR",
      "metarRaw": "METAR KPHL 291654Z 19010KT 10SM FEW040 BKN060 BKN095 OVC220 18/05 A2994 RMK AO2 SLP139 T01830050 $",
      "metarObsTime": 1777481640,
      "faaFlow": {
        "code": "ROUTE",
        "level": "orange",
        "label": "Route impact possible",
        "time": "0100",
        "text": "N90/PHL SWAP/ESCAPE ROUTES PROBABLE",
        "section": "En Route Planned"
      }
    },
    "KABE": {
      "status": "OK",
      "delay": "—",
      "metarCat": "VFR",
      "metarRaw": "METAR KABE 291651Z 10SM OVC033 17/07 A2991 RMK AO2 SLP129 T01670072",
      "metarObsTime": 1777481460,
      "faaFlow": null
    },
    "KAVP": {
      "status": "OK",
      "delay": "—",
      "metarCat": "MVFR",
      "metarRaw": "METAR KAVP 291654Z VRB06KT 10SM OVC023 14/09 A2989 RMK AO2 SLP118 T01440089",
      "metarObsTime": 1777481640,
      "faaFlow": null
    },
    "KHZL": {
      "status": "OK",
      "delay": "—",
      "metarCat": "MVFR",
      "metarRaw": "METAR KHZL 291735Z AUTO 18006KT 150V220 10SM VCTS OVC017 13/07 A2992 RMK AO2",
      "metarObsTime": 1777484100,
      "faaFlow": null
    }
  }
}