{
  "generatedAt": "2026-03-11T09:30:20.462Z",
  "airports": {
    "KPIT": {
      "status": "OK",
      "delay": "—",
      "metarCat": "VFR",
      "metarRaw": "METAR KPIT 110851Z 17007KT 10SM FEW029 SCT040 BKN150 17/13 A2984 RMK AO2 SLP106 OCNL LTG DSNT SW T01670133 58023",
      "metarObsTime": 1773219060
    },
    "KAGC": {
      "status": "OK",
      "delay": "—",
      "metarCat": "VFR",
      "metarRaw": "METAR KAGC 110853Z 18008KT 10SM FEW110 16/13 A2985 RMK AO2 LTG DSNT SW AND W SLP109 T01610128 58020",
      "metarObsTime": 1773219180
    },
    "KLBE": {
      "status": "OK",
      "delay": "—",
      "metarCat": "VFR",
      "metarRaw": "METAR KLBE 110915Z AUTO 17006KT 10SM CLR 19/14 A2989 RMK AO2 LTG DSNT W AND NW",
      "metarObsTime": 1773220500
    },
    "KJST": {
      "status": "OK",
      "delay": "—",
      "metarCat": "VFR",
      "metarRaw": "METAR KJST 110854Z AUTO 20008KT 10SM CLR 16/12 A2991 RMK AO2 SLP119 60000 T01610122 58017",
      "metarObsTime": 1773219240
    },
    "KERI": {
      "status": "OK",
      "delay": "—",
      "metarCat": "VFR",
      "metarRaw": "SPECI KERI 110917Z AUTO 16015G26KT 9SM VCTS -RA FEW060 SCT080 SCT110 18/14 A2967 RMK AO2 PK WND 19026/0914 LTG DSNT SW-N RAB16 PRESFR P0000 T01780139",
      "metarObsTime": 1773220620
    },
    "KDUJ": {
      "status": "OK",
      "delay": "—",
      "metarCat": "MVFR",
      "metarRaw": "SPECI KDUJ 110923Z AUTO VRB06KT 10SM BKN025 BKN033 BKN065 16/12 A2986 RMK AO2 T01560122",
      "metarObsTime": 1773220980
    },
    "KBFD": {
      "status": "OK",
      "delay": "—",
      "metarCat": "VFR",
      "metarRaw": "METAR KBFD 110853Z AUTO 19006KT 10SM FEW029 14/12 A2985 RMK AO2 SLP097 T01440117 58026",
      "metarObsTime": 1773219180
    },
    "KBTP": {
      "status": "OK",
      "delay": "—",
      "metarCat": "VFR",
      "metarRaw": "METAR KBTP 110856Z AUTO 18005KT 10SM FEW026 SCT038 17/15 A2984 RMK AO2 SLP107 T01670150 58026 $",
      "metarObsTime": 1773219360
    },
    "KFKL": {
      "status": "OK",
      "delay": "—",
      "metarCat": "VFR",
      "metarRaw": "METAR KFKL 110856Z AUTO 17013KT 10SM FEW028 SCT035 15/13 A2981 RMK AO2 LTG DSNT W SLP090 T01500128 56029",
      "metarObsTime": 1773219360
    },
    "KIDI": {
      "status": "OK",
      "delay": "—",
      "metarCat": "—",
      "metarRaw": "—",
      "metarObsTime": null
    },
    "KMDT": {
      "status": "OK",
      "delay": "—",
      "metarCat": "VFR",
      "metarRaw": "METAR KMDT 110856Z 00000KT 10SM BKN110 10/07 A2991 RMK AO2 SLP128 T01000072 57009",
      "metarObsTime": 1773219360
    },
    "KCXY": {
      "status": "OK",
      "delay": "—",
      "metarCat": "VFR",
      "metarRaw": "METAR KCXY 110856Z AUTO 11005KT 10SM BKN110 13/08 A2991 RMK AO2 SLP127 T01280078 58010",
      "metarObsTime": 1773219360
    },
    "KMUI": {
      "status": "OK",
      "delay": "—",
      "metarCat": "VFR",
      "metarRaw": "METAR KMUI 110855Z AUTO 00000KT 10SM BKN095 12/11 A2990 RMK AO2 SLP126 T01150106 57012",
      "metarObsTime": 1773219300
    },
    "KUNV": {
      "status": "OK",
      "delay": "—",
      "metarCat": "VFR",
      "metarRaw": "METAR KUNV 110915Z AUTO 00000KT 10SM BKN044 OVC065 13/12 A2990 RMK AO2 LTG DSNT SW AND W T01260122",
      "metarObsTime": 1773220500
    },
    "KAOO": {
      "status": "OK",
      "delay": "—",
      "metarCat": "—",
      "metarRaw": "—",
      "metarObsTime": null
    },
    "KLNS": {
      "status": "OK",
      "delay": "—",
      "metarCat": "VFR",
      "metarRaw": "METAR KLNS 110853Z AUTO 10004KT 10SM BKN110 12/08 A2991 RMK AO2 SLP127 T01170083 58013",
      "metarObsTime": 1773219180
    },
    "KIPT": {
      "status": "OK",
      "delay": "—",
      "metarCat": "MVFR",
      "metarRaw": "SPECI KIPT 110918Z AUTO 00000KT 3SM BR FEW003 07/07 A2989 RMK AO2 T00720072 $",
      "metarObsTime": 1773220680
    },
    "KPHL": {
      "status": "OK",
      "delay": "—",
      "metarCat": "VFR",
      "metarRaw": "METAR KPHL 110854Z 00000KT 10SM FEW090 SCT250 13/07 A2995 RMK AO2 SLP140 T01280072 58007 $",
      "metarObsTime": 1773219240
    },
    "KABE": {
      "status": "OK",
      "delay": "—",
      "metarCat": "VFR",
      "metarRaw": "METAR KABE 110851Z AUTO 00000KT 10SM CLR 09/08 A2992 RMK AO2 SLP132 T00890078 58012 $",
      "metarObsTime": 1773219060
    },
    "KAVP": {
      "status": "OK",
      "delay": "—",
      "metarCat": "VFR",
      "metarRaw": "METAR KAVP 110854Z 11005KT 10SM CLR 13/07 A2991 RMK AO2 SLP124 T01330067 58016",
      "metarObsTime": 1773219240
    },
    "KHZL": {
      "status": "OK",
      "delay": "—",
      "metarCat": "VFR",
      "metarRaw": "METAR KHZL 110915Z AUTO 00000KT 10SM OVC085 14/06 A2996 RMK AO2",
      "metarObsTime": 1773220500
    }
  }
}