{
  "generatedAt": "2026-04-26T12:31:04.397Z",
  "faaFlow": {
    "updatedAt": "2026-04-26T12:31:03.471Z",
    "source": "https://www.fly.faa.gov/adv/adv_spt",
    "terminal": [
      {
        "time": "—",
        "text": "AFTER",
        "code": "FLOW",
        "label": "FAA flow impact",
        "level": "yellow",
        "section": "Terminal Planned",
        "airports": []
      },
      {
        "time": "1500",
        "text": "SFO GROUND STOP/DELAY PROGRAM POSSIBLE",
        "code": "GS",
        "label": "Ground stop possible",
        "level": "yellow",
        "section": "Terminal Planned",
        "airports": []
      },
      {
        "time": "—",
        "text": "AFTER",
        "code": "FLOW",
        "label": "FAA flow impact",
        "level": "yellow",
        "section": "Terminal Planned",
        "airports": []
      },
      {
        "time": "1900",
        "text": "JFK GROUND STOP/DELAY PROGRAM POSSIBLE",
        "code": "GS",
        "label": "Ground stop possible",
        "level": "yellow",
        "section": "Terminal Planned",
        "airports": []
      },
      {
        "time": "—",
        "text": "AFTER",
        "code": "FLOW",
        "label": "FAA flow impact",
        "level": "yellow",
        "section": "Terminal Planned",
        "airports": []
      },
      {
        "time": "1900",
        "text": "DEN GROUND STOP/DELAY PROGRAM POSSIBLE",
        "code": "GS",
        "label": "Ground stop possible",
        "level": "yellow",
        "section": "Terminal Planned",
        "airports": []
      }
    ],
    "enroute": [
      {
        "time": "—",
        "text": "AFTER",
        "code": "FLOW",
        "label": "FAA flow impact",
        "level": "yellow",
        "section": "En Route Planned",
        "airports": []
      },
      {
        "time": "1600",
        "text": "Y494 NORTHBOUND CLOSURE POSSIBLE",
        "code": "CLOSURE",
        "label": "Closure possible",
        "level": "yellow",
        "section": "En Route Planned",
        "airports": []
      },
      {
        "time": "—",
        "text": "AFTER",
        "code": "FLOW",
        "label": "FAA flow impact",
        "level": "yellow",
        "section": "En Route Planned",
        "airports": []
      },
      {
        "time": "1800",
        "text": "DEN CDRS/SWAP/ARRIVAL ROUTES PROBABLE",
        "code": "ROUTE",
        "label": "Route impact possible",
        "level": "orange",
        "section": "En Route Planned",
        "airports": []
      },
      {
        "time": "—",
        "text": "AFTER",
        "code": "FLOW",
        "label": "FAA flow impact",
        "level": "yellow",
        "section": "En Route Planned",
        "airports": []
      },
      {
        "time": "2000",
        "text": "MSP ARRIVAL ROUTES POSSIBLE",
        "code": "ROUTE",
        "label": "Route impact possible",
        "level": "blue",
        "section": "En Route Planned",
        "airports": []
      },
      {
        "time": "—",
        "text": "UNTIL",
        "code": "FLOW",
        "label": "FAA flow impact",
        "level": "yellow",
        "section": "En Route Planned",
        "airports": []
      },
      {
        "time": "2300",
        "text": "AR/Y/OCEANIC ROUTE CLOSURES PROBABLE CDRS/SWAP/CAPPING/TUNNELING/HOTLINE/DIVERSION RECOVERY: NONE RUNWAY/EQUIPMENT/POSSIBLE SYSTEM IMPACT REPORTS(SIRs): ORL - AIRPORT CLOSED TO FIXED WING UNTIL 27/",
        "code": "CLOSURE",
        "label": "Closure possible",
        "level": "orange",
        "section": "En Route Planned",
        "airports": []
      },
      {
        "time": "—",
        "text": "2026",
        "code": "FLOW",
        "label": "FAA flow impact",
        "level": "yellow",
        "section": "En Route Planned",
        "airports": []
      },
      {
        "time": "2026",
        "text": "HOU - PROCEDURAL ADJUSTMENT UNTIL 05/31/26",
        "code": "FLOW",
        "label": "FAA flow impact",
        "level": "yellow",
        "section": "En Route Planned",
        "airports": []
      }
    ],
    "airports": {
      "KPIT": null,
      "KAGC": null,
      "KLBE": null,
      "KJST": null,
      "KERI": null,
      "KDUJ": null,
      "KBFD": null,
      "KBTP": null,
      "KFKL": null,
      "KIDI": null,
      "KMDT": null,
      "KCXY": null,
      "KMUI": null,
      "KUNV": null,
      "KAOO": null,
      "KLNS": null,
      "KIPT": null,
      "KPHL": null,
      "KABE": null,
      "KAVP": null,
      "KHZL": null
    }
  },
  "airports": {
    "KPIT": {
      "status": "OK",
      "delay": "—",
      "metarCat": "LIFR",
      "metarRaw": "METAR KPIT 261151Z 03005KT 6SM -DZ BR OVC004 07/06 A3007 RMK AO2 SLP192 P0000 60000 70006 T00720061 10072 20061 53024",
      "metarObsTime": 1777204260,
      "faaFlow": null
    },
    "KAGC": {
      "status": "OK",
      "delay": "—",
      "metarCat": "LIFR",
      "metarRaw": "SPECI KAGC 261226Z 36004KT 1 1/2SM BR OVC004 07/07 A3007 RMK AO2 T00670067",
      "metarObsTime": 1777206360,
      "faaFlow": null
    },
    "KLBE": {
      "status": "OK",
      "delay": "—",
      "metarCat": "LIFR",
      "metarRaw": "METAR KLBE 261147Z 35007KT 1 1/2SM BR OVC003 07/07 A3008",
      "metarObsTime": 1777204020,
      "faaFlow": null
    },
    "KJST": {
      "status": "OK",
      "delay": "—",
      "metarCat": "IFR",
      "metarRaw": "SPECI KJST 261216Z AUTO 08006KT 5SM BR BKN005 OVC011 04/04 A3005 RMK AO2 RAE02 CIG 002V006 P0000 T00440044",
      "metarObsTime": 1777205760,
      "faaFlow": null
    },
    "KERI": {
      "status": "OK",
      "delay": "—",
      "metarCat": "LIFR",
      "metarRaw": "SPECI KERI 261224Z 04009KT 1 1/2SM R06/6000VP6000FT BR OVC003 07/06 A3013 RMK AO2 T00670061",
      "metarObsTime": 1777206240,
      "faaFlow": null
    },
    "KDUJ": {
      "status": "OK",
      "delay": "—",
      "metarCat": "IFR",
      "metarRaw": "METAR KDUJ 261153Z AUTO 10005KT 10SM OVC009 06/04 A3007 RMK AO2 CIG 005V011 SLP190 70048 T00560044 10072 20050 53026",
      "metarObsTime": 1777204380,
      "faaFlow": null
    },
    "KBFD": {
      "status": "OK",
      "delay": "—",
      "metarCat": "IFR",
      "metarRaw": "METAR KBFD 261153Z AUTO 06004KT 10SM OVC007 05/04 A3008 RMK AO2 SLP193 70030 T00500039 10061 20050 53017 $",
      "metarObsTime": 1777204380,
      "faaFlow": null
    },
    "KBTP": {
      "status": "OK",
      "delay": "—",
      "metarCat": "IFR",
      "metarRaw": "SPECI KBTP 261219Z AUTO 05005KT 10SM BKN006 OVC014 07/ A3010 RMK AO2 CIG 004V008 $",
      "metarObsTime": 1777205940,
      "faaFlow": null
    },
    "KFKL": {
      "status": "OK",
      "delay": "—",
      "metarCat": "—",
      "metarRaw": "—",
      "metarObsTime": null,
      "faaFlow": null
    },
    "KIDI": {
      "status": "OK",
      "delay": "—",
      "metarCat": "MVFR",
      "metarRaw": "METAR KIDI 261215Z AUTO 09008G13KT 10SM OVC016 07/06 A3009 RMK A01",
      "metarObsTime": 1777205700,
      "faaFlow": null
    },
    "KMDT": {
      "status": "OK",
      "delay": "—",
      "metarCat": "MVFR",
      "metarRaw": "METAR KMDT 261156Z 02003KT 9SM BKN012 BKN022 OVC027 07/05 A3009 RMK AO2 SLP192 70063 T00670050 10067 20061 53021",
      "metarObsTime": 1777204560,
      "faaFlow": null
    },
    "KCXY": {
      "status": "OK",
      "delay": "—",
      "metarCat": "MVFR",
      "metarRaw": "METAR KCXY 261156Z 02003KT 10SM OVC012 07/04 A3010 RMK AO2 SLP196 70053 T00670044 10067 20061 53022",
      "metarObsTime": 1777204560,
      "faaFlow": null
    },
    "KMUI": {
      "status": "OK",
      "delay": "—",
      "metarCat": "MVFR",
      "metarRaw": "METAR KMUI 261155Z AUTO 02005KT 10SM OVC017 10/09 A3007 RMK AO2 SLP187 70051 T00990090 10099 20092 52020",
      "metarObsTime": 1777204500,
      "faaFlow": null
    },
    "KUNV": {
      "status": "OK",
      "delay": "—",
      "metarCat": "LIFR",
      "metarRaw": "METAR KUNV 261153Z 04004KT 5SM BR BKN004 OVC023 05/05 A3010",
      "metarObsTime": 1777204380,
      "faaFlow": null
    },
    "KAOO": {
      "status": "OK",
      "delay": "—",
      "metarCat": "MVFR",
      "metarRaw": "SPECI KAOO 261220Z AUTO 05004KT 10SM FEW006 SCT013 OVC019 06/04 A3009 RMK AO2 T00560044",
      "metarObsTime": 1777206000,
      "faaFlow": null
    },
    "KLNS": {
      "status": "OK",
      "delay": "—",
      "metarCat": "MVFR",
      "metarRaw": "METAR KLNS 261153Z 02007KT 10SM BKN011 OVC016 06/04 A3008 RMK AO2 SLP189 70052 T00610044 10061 20056 51017",
      "metarObsTime": 1777204380,
      "faaFlow": null
    },
    "KIPT": {
      "status": "OK",
      "delay": "—",
      "metarCat": "VFR",
      "metarRaw": "METAR KIPT 261154Z 00000KT 10SM FEW012 SCT026 OVC036 07/04 A3010 RMK AO2 SLP196 70046 T00720044 10072 20061 53020 $",
      "metarObsTime": 1777204440,
      "faaFlow": null
    },
    "KPHL": {
      "status": "OK",
      "delay": "—",
      "metarCat": "MVFR",
      "metarRaw": "METAR KPHL 261154Z 04012KT 10SM BKN010 OVC015 07/05 A3007 RMK AO2 SLP182 60000 70051 T00720050 10072 20067 53017 $",
      "metarObsTime": 1777204440,
      "faaFlow": null
    },
    "KABE": {
      "status": "OK",
      "delay": "—",
      "metarCat": "MVFR",
      "metarRaw": "METAR KABE 261151Z 02004KT 10SM OVC015 06/04 A3009 RMK AO2 SLP192 70088 T00610039 10061 20050 53020 $",
      "metarObsTime": 1777204260,
      "faaFlow": null
    },
    "KAVP": {
      "status": "OK",
      "delay": "—",
      "metarCat": "MVFR",
      "metarRaw": "METAR KAVP 261154Z 06005KT 10SM OVC017 06/03 A3010 RMK AO2 SLP196 60000 70067 T00560033 10056 20044 53021",
      "metarObsTime": 1777204440,
      "faaFlow": null
    },
    "KHZL": {
      "status": "OK",
      "delay": "—",
      "metarCat": "IFR",
      "metarRaw": "METAR KHZL 261215Z AUTO 00000KT 10SM OVC006 05/03 A3011 RMK AO2",
      "metarObsTime": 1777205700,
      "faaFlow": null
    }
  }
}