{
  "generatedAt": "2026-04-19T19:00:56.561Z",
  "airports": {
    "KPIT": {
      "status": "OK",
      "delay": "—",
      "metarCat": "VFR",
      "metarRaw": "METAR KPIT 191851Z 29019G26KT 10SM BKN055 09/M07 A3006 RMK AO2 PK WND 27030/1805 SLP190 T00891067 $",
      "metarObsTime": 1776624660
    },
    "KAGC": {
      "status": "OK",
      "delay": "—",
      "metarCat": "VFR",
      "metarRaw": "METAR KAGC 191853Z 29013G29KT 10SM BKN080 OVC095 09/M07 A3005 RMK AO2 PK WND 34031/1821 SLP186 T00891067",
      "metarObsTime": 1776624780
    },
    "KLBE": {
      "status": "OK",
      "delay": "—",
      "metarCat": "VFR",
      "metarRaw": "METAR KLBE 191847Z 26011G35KT 10SM SCT049 BKN050 BKN085 10/M06 A3006",
      "metarObsTime": 1776624420
    },
    "KJST": {
      "status": "OK",
      "delay": "—",
      "metarCat": "VFR",
      "metarRaw": "METAR KJST 191854Z AUTO 29018G32KT 10SM BKN065 OVC075 07/M07 A2997 RMK AO2 PK WND 29035/1833 SLP160 T00671072",
      "metarObsTime": 1776624840
    },
    "KERI": {
      "status": "OK",
      "delay": "—",
      "metarCat": "VFR",
      "metarRaw": "METAR KERI 191851Z AUTO 26015G25KT 10SM SCT070 BKN080 07/M04 A3005 RMK AO2 PK WND 26030/1756 SLP181 T00721044 $",
      "metarObsTime": 1776624660
    },
    "KDUJ": {
      "status": "OK",
      "delay": "—",
      "metarCat": "VFR",
      "metarRaw": "METAR KDUJ 191853Z AUTO 28012G26KT 10SM SCT060 BKN080 07/M06 A2998 RMK AO2 PK WND 28032/1825 RAE00 SLP160 P0000 T00721061",
      "metarObsTime": 1776624780
    },
    "KBFD": {
      "status": "OK",
      "delay": "—",
      "metarCat": "VFR",
      "metarRaw": "METAR KBFD 191853Z AUTO 29012G27KT 250V310 10SM BKN055 OVC070 06/M08 A2996 RMK AO2 PK WND 29030/1825 RAE00SNB00E01 SLP155 P0000 T00561078",
      "metarObsTime": 1776624780
    },
    "KBTP": {
      "status": "OK",
      "delay": "—",
      "metarCat": "VFR",
      "metarRaw": "METAR KBTP 191856Z AUTO 29014G24KT 10SM FEW045 BKN070 OVC090 09/M04 A3006 RMK AO2 PK WND 30027/1815 SLP190 T00891044 $",
      "metarObsTime": 1776624960
    },
    "KFKL": {
      "status": "OK",
      "delay": "—",
      "metarCat": "—",
      "metarRaw": "—",
      "metarObsTime": null
    },
    "KIDI": {
      "status": "OK",
      "delay": "—",
      "metarCat": "VFR",
      "metarRaw": "METAR KIDI 191855Z AUTO 28018KT 10SM FEW055 SCT075 BKN090 09/M03 A3003 RMK A01",
      "metarObsTime": 1776624900
    },
    "KMDT": {
      "status": "OK",
      "delay": "—",
      "metarCat": "VFR",
      "metarRaw": "METAR KMDT 191856Z 32005KT 10SM SCT046 BKN055 OVC070 11/01 A2995 RMK AO2 SLP143 T01060011",
      "metarObsTime": 1776624960
    },
    "KCXY": {
      "status": "OK",
      "delay": "—",
      "metarCat": "VFR",
      "metarRaw": "METAR KCXY 191856Z 28012G17KT 10SM BKN048 OVC060 11/01 A2996 RMK AO2 SLP145 T01060011 $",
      "metarObsTime": 1776624960
    },
    "KMUI": {
      "status": "OK",
      "delay": "—",
      "metarCat": "VFR",
      "metarRaw": "METAR KMUI 191755Z AUTO 29005KT 10SM SCT042 BKN055 BKN130 11/02 A2993 RMK AO2 DZB1655E01RAB01E22 SLP138 P0001 60009 T01120022 10112 20076 53000",
      "metarObsTime": 1776621300
    },
    "KUNV": {
      "status": "OK",
      "delay": "—",
      "metarCat": "VFR",
      "metarRaw": "METAR KUNV 191853Z 31013G26KT 10SM SCT060 09/M04 A2996",
      "metarObsTime": 1776624780
    },
    "KAOO": {
      "status": "OK",
      "delay": "—",
      "metarCat": "VFR",
      "metarRaw": "METAR KAOO 191853Z AUTO 30016G28KT 10SM BKN070 OVC085 09/M04 A2997 RMK AO2 PK WND 30033/1810 SLP152 T00941044",
      "metarObsTime": 1776624780
    },
    "KLNS": {
      "status": "OK",
      "delay": "—",
      "metarCat": "VFR",
      "metarRaw": "METAR KLNS 191853Z 29011KT 10SM BKN055 12/02 A2994 RMK AO2 SLP139 T01170022",
      "metarObsTime": 1776624780
    },
    "KIPT": {
      "status": "OK",
      "delay": "—",
      "metarCat": "VFR",
      "metarRaw": "METAR KIPT 191854Z 28006KT 10SM -RA FEW037 BKN070 OVC090 09/02 A2994 RMK AO2 RAB10E24B46 SLP138 P0000 T00890022 $",
      "metarObsTime": 1776624840
    },
    "KPHL": {
      "status": "OK",
      "delay": "—",
      "metarCat": "VFR",
      "metarRaw": "METAR KPHL 191854Z 29009G18KT 10SM -RA SCT022 BKN050 OVC070 09/06 A2996 RMK AO2 SLP145 P0000 T00940056 $",
      "metarObsTime": 1776624840
    },
    "KABE": {
      "status": "OK",
      "delay": "—",
      "metarCat": "VFR",
      "metarRaw": "METAR KABE 191851Z 34009G16KT 10SM -RA SCT025 SCT120 09/03 A2995 RMK AO2 RAB50 SLP142 P0000 T00890028 $",
      "metarObsTime": 1776624660
    },
    "KAVP": {
      "status": "OK",
      "delay": "—",
      "metarCat": "MVFR",
      "metarRaw": "SPECI KAVP 191857Z 34004KT 10SM BKN020 BKN027 OVC033 06/01 A2993 RMK AO2 T00560011",
      "metarObsTime": 1776625020
    },
    "KHZL": {
      "status": "OK",
      "delay": "—",
      "metarCat": "MVFR",
      "metarRaw": "METAR KHZL 191855Z AUTO 32005KT 10SM SCT015 BKN027 OVC039 05/00 A2993 RMK AO2",
      "metarObsTime": 1776624900
    }
  }
}