{
  "generatedAt": "2026-03-06T10:20:13.699Z",
  "airports": {
    "KPIT": {
      "status": "OK",
      "delay": "—",
      "metarCat": "MVFR",
      "metarRaw": "METAR KPIT 060951Z 00000KT 5SM BR FEW002 SCT020 OVC028 12/12 A3014 RMK AO2 SLP214 T01220117 $",
      "metarObsTime": 1772790660
    },
    "KAGC": {
      "status": "OK",
      "delay": "—",
      "metarCat": "MVFR",
      "metarRaw": "SPECI KAGC 061001Z 18006KT 5SM BR OVC025 12/12 A3015 RMK AO2 T01220122",
      "metarObsTime": 1772791260
    },
    "KLBE": {
      "status": "OK",
      "delay": "—",
      "metarCat": "MVFR",
      "metarRaw": "METAR KLBE 061015Z AUTO 00000KT 8SM OVC026 13/13 A3017 RMK AO2",
      "metarObsTime": 1772792100
    },
    "KJST": {
      "status": "OK",
      "delay": "—",
      "metarCat": "IFR",
      "metarRaw": "METAR KJST 060954Z AUTO 23003KT 10SM OVC009 12/11 A3016 RMK AO2 SLP213 T01170111",
      "metarObsTime": 1772790840
    },
    "KERI": {
      "status": "OK",
      "delay": "—",
      "metarCat": "LIFR",
      "metarRaw": "METAR KERI 060951Z AUTO 06003KT 1/4SM R06/1800V2000FT FG VV002 00/00 A3017 RMK AO2 SLP225 T00000000",
      "metarObsTime": 1772790660
    },
    "KDUJ": {
      "status": "OK",
      "delay": "—",
      "metarCat": "LIFR",
      "metarRaw": "METAR KDUJ 060953Z AUTO 27005KT 7SM BKN004 OVC010 11/10 A3013 RMK AO2 CIG 002V007 SLP207 T01060100",
      "metarObsTime": 1772790780
    },
    "KBFD": {
      "status": "OK",
      "delay": "—",
      "metarCat": "LIFR",
      "metarRaw": "SPECI KBFD 061008Z AUTO 25006KT 10SM OVC003 08/08 A3013 RMK AO2 T00780078",
      "metarObsTime": 1772791680
    },
    "KBTP": {
      "status": "OK",
      "delay": "—",
      "metarCat": "IFR",
      "metarRaw": "SPECI KBTP 061015Z AUTO 00000KT 1 3/4SM BR OVC006 12/ A3016 RMK AO2 VIS 3/4V5 $",
      "metarObsTime": 1772792100
    },
    "KFKL": {
      "status": "OK",
      "delay": "—",
      "metarCat": "LIFR",
      "metarRaw": "METAR KFKL 060956Z AUTO 00000KT 1/4SM FG OVC002 08/08 A3015 RMK AO2 SLP215 T00780078",
      "metarObsTime": 1772790960
    },
    "KIDI": {
      "status": "OK",
      "delay": "—",
      "metarCat": "IFR",
      "metarRaw": "METAR KIDI 061015Z AUTO 00000KT 10SM BKN008 OVC012 13/12 A3016 RMK A01",
      "metarObsTime": 1772792100
    },
    "KMDT": {
      "status": "OK",
      "delay": "—",
      "metarCat": "IFR",
      "metarRaw": "METAR KMDT 060956Z 11005KT 4SM BR OVC005 05/05 A3023 RMK AO2 SLP239 T00500050",
      "metarObsTime": 1772790960
    },
    "KCXY": {
      "status": "OK",
      "delay": "—",
      "metarCat": "LIFR",
      "metarRaw": "METAR KCXY 060956Z AUTO 07004KT 2SM BR OVC003 06/05 A3024 RMK AO2 SLP242 T00560050",
      "metarObsTime": 1772790960
    },
    "KMUI": {
      "status": "OK",
      "delay": "—",
      "metarCat": "LIFR",
      "metarRaw": "METAR KMUI 060955Z AUTO 07004KT 6SM BR OVC004 06/05 A3022 RMK AO2 SLP239 T00550052",
      "metarObsTime": 1772790900
    },
    "KUNV": {
      "status": "OK",
      "delay": "—",
      "metarCat": "LIFR",
      "metarRaw": "METAR KUNV 061015Z AUTO 00000KT 1/2SM FG BKN003 OVC009 07/07 A3017 RMK AO2 T00690068",
      "metarObsTime": 1772792100
    },
    "KAOO": {
      "status": "OK",
      "delay": "—",
      "metarCat": "VFR",
      "metarRaw": "METAR KAOO 060953Z AUTO 21006KT 10SM FEW023 OVC043 12/11 A3016 RMK AO2 SLP215 T01170106",
      "metarObsTime": 1772790780
    },
    "KLNS": {
      "status": "OK",
      "delay": "—",
      "metarCat": "LIFR",
      "metarRaw": "SPECI KLNS 061013Z AUTO 11006KT 1 3/4SM BR OVC002 04/04 A3023 RMK AO2 T00440044",
      "metarObsTime": 1772791980
    },
    "KIPT": {
      "status": "OK",
      "delay": "—",
      "metarCat": "IFR",
      "metarRaw": "METAR KIPT 060954Z AUTO 09006KT 8SM OVC008 06/05 A3020 RMK AO2 SLP230 T00610050 $",
      "metarObsTime": 1772790840
    },
    "KPHL": {
      "status": "OK",
      "delay": "—",
      "metarCat": "IFR",
      "metarRaw": "SPECI KPHL 061008Z 05013KT 5SM BR OVC007 05/03 A3026 RMK AO2 T00500033 $",
      "metarObsTime": 1772791680
    },
    "KABE": {
      "status": "OK",
      "delay": "—",
      "metarCat": "IFR",
      "metarRaw": "SPECI KABE 061017Z 07009KT 8SM BKN007 OVC014 03/02 A3027 RMK AO2 T00330022",
      "metarObsTime": 1772792220
    },
    "KAVP": {
      "status": "OK",
      "delay": "—",
      "metarCat": "MVFR",
      "metarRaw": "METAR KAVP 060954Z AUTO 10SM OVC016 03/01 A3023 RMK AO2 RAE46 SLP240 P0000 T00280011",
      "metarObsTime": 1772790840
    },
    "KHZL": {
      "status": "OK",
      "delay": "—",
      "metarCat": "LIFR",
      "metarRaw": "METAR KHZL 061015Z AUTO 00000KT 2 1/2SM BR OVC002 02/01 A3024 RMK AO2",
      "metarObsTime": 1772792100
    }
  }
}