{
  "generatedAt": "2026-03-18T07:00:19.770Z",
  "airports": {
    "KPIT": {
      "status": "OK",
      "delay": "—",
      "metarCat": "VFR",
      "metarRaw": "METAR KPIT 180651Z 23003KT 10SM SCT230 M09/M12 A3025 RMK AO2 SLP271 T10891122",
      "metarObsTime": 1773816660
    },
    "KAGC": {
      "status": "OK",
      "delay": "—",
      "metarCat": "VFR",
      "metarRaw": "METAR KAGC 180653Z 22007KT 10SM CLR M08/M13 A3025 RMK AO2 SLP268 T10831128",
      "metarObsTime": 1773816780
    },
    "KLBE": {
      "status": "OK",
      "delay": "—",
      "metarCat": "VFR",
      "metarRaw": "METAR KLBE 180635Z AUTO 21007KT 10SM CLR M09/M10 A3028 RMK AO2",
      "metarObsTime": 1773815700
    },
    "KJST": {
      "status": "OK",
      "delay": "—",
      "metarCat": "VFR",
      "metarRaw": "METAR KJST 180654Z AUTO 25005KT 10SM CLR M11/M14 A3015 RMK AO2 SLP251 T11111139",
      "metarObsTime": 1773816840
    },
    "KERI": {
      "status": "OK",
      "delay": "—",
      "metarCat": "VFR",
      "metarRaw": "METAR KERI 180651Z AUTO 21008KT 10SM OVC055 M06/M08 A3023 RMK AO2 SNE08 SLP248 P0000 T10611083",
      "metarObsTime": 1773816660
    },
    "KDUJ": {
      "status": "OK",
      "delay": "—",
      "metarCat": "VFR",
      "metarRaw": "METAR KDUJ 180653Z AUTO 22003KT 10SM CLR M13/M14 A3017 RMK AO2 SLP249 I1000 T11281144",
      "metarObsTime": 1773816780
    },
    "KBFD": {
      "status": "OK",
      "delay": "—",
      "metarCat": "MVFR",
      "metarRaw": "METAR KBFD 180653Z AUTO 00000KT 9SM BKN010 OVC014 M12/M13 A3014 RMK AO2 SNE29 SLP240 P0000 T11171128",
      "metarObsTime": 1773816780
    },
    "KBTP": {
      "status": "OK",
      "delay": "—",
      "metarCat": "VFR",
      "metarRaw": "METAR KBTP 180556Z AUTO 00000KT 10SM CLR M12/M13 A3024 RMK AO2 SLP267 T11171128 11067 21117 51012 FZRANO $",
      "metarObsTime": 1773813360
    },
    "KFKL": {
      "status": "OK",
      "delay": "—",
      "metarCat": "VFR",
      "metarRaw": "METAR KFKL 180556Z AUTO 21005KT 10SM BKN050 M10/M11 A3020 RMK AO2 SNE01 SLP253 P0000 60000 T11001111 11083 21100 50012 FZRANO",
      "metarObsTime": 1773813360
    },
    "KIDI": {
      "status": "OK",
      "delay": "—",
      "metarCat": "VFR",
      "metarRaw": "METAR KIDI 180635Z AUTO 00000KT 10SM CLR M11/M12 A3024 RMK A01",
      "metarObsTime": 1773815700
    },
    "KMDT": {
      "status": "OK",
      "delay": "—",
      "metarCat": "VFR",
      "metarRaw": "METAR KMDT 180556Z 32008KT 10SM CLR M03/M12 A3028 RMK AO2 SLP257 T10331122 10000 21033 51017",
      "metarObsTime": 1773813360
    },
    "KCXY": {
      "status": "OK",
      "delay": "—",
      "metarCat": "VFR",
      "metarRaw": "METAR KCXY 180556Z AUTO 31008KT 10SM CLR M03/M13 A3028 RMK AO2 SLP260 T10331133 11006 21039 51018",
      "metarObsTime": 1773813360
    },
    "KMUI": {
      "status": "OK",
      "delay": "—",
      "metarCat": "VFR",
      "metarRaw": "METAR KMUI 180655Z AUTO 28007KT 10SM CLR M04/M12 A3026 RMK AO2 SLP256 T10371124",
      "metarObsTime": 1773816900
    },
    "KUNV": {
      "status": "OK",
      "delay": "—",
      "metarCat": "VFR",
      "metarRaw": "METAR KUNV 180635Z AUTO 28004KT 10SM CLR M08/M12 A3024 RMK AO2 T10791120",
      "metarObsTime": 1773815700
    },
    "KAOO": {
      "status": "OK",
      "delay": "—",
      "metarCat": "MVFR",
      "metarRaw": "METAR KAOO 180653Z AUTO 27004KT 10SM BKN029 M08/M13 A3023 RMK AO2 SLP263 T10831128",
      "metarObsTime": 1773816780
    },
    "KLNS": {
      "status": "OK",
      "delay": "—",
      "metarCat": "VFR",
      "metarRaw": "METAR KLNS 180653Z AUTO 29006KT 10SM CLR M04/M12 A3028 RMK AO2 SLP258 T10441122",
      "metarObsTime": 1773816780
    },
    "KIPT": {
      "status": "OK",
      "delay": "—",
      "metarCat": "VFR",
      "metarRaw": "METAR KIPT 180654Z AUTO 29005KT 10SM BKN055 M07/M12 A3027 RMK AO2 SLP258 T10671122 $",
      "metarObsTime": 1773816840
    },
    "KPHL": {
      "status": "OK",
      "delay": "—",
      "metarCat": "VFR",
      "metarRaw": "METAR KPHL 180654Z 30008KT 10SM CLR M01/M12 A3030 RMK AO2 SLP259 T10111122 $",
      "metarObsTime": 1773816840
    },
    "KABE": {
      "status": "OK",
      "delay": "—",
      "metarCat": "VFR",
      "metarRaw": "METAR KABE 180651Z 28004KT 10SM CLR M05/M12 A3026 RMK AO2 SLP250 T10501117 $",
      "metarObsTime": 1773816660
    },
    "KAVP": {
      "status": "OK",
      "delay": "—",
      "metarCat": "VFR",
      "metarRaw": "METAR KAVP 180654Z AUTO 34011KT 10SM OVC044 M06/M14 A3022 RMK AO2 SLP244 T10561139",
      "metarObsTime": 1773816840
    },
    "KHZL": {
      "status": "OK",
      "delay": "—",
      "metarCat": "VFR",
      "metarRaw": "METAR KHZL 180635Z AUTO 31005KT 10SM SCT041 M07/M14 RMK AO2",
      "metarObsTime": 1773815700
    }
  }
}