{
  "generatedAt": "2026-03-21T12:00:21.264Z",
  "airports": {
    "KPIT": {
      "status": "OK",
      "delay": "—",
      "metarCat": "MVFR",
      "metarRaw": "METAR KPIT 211151Z 34005KT 7SM FEW009 OVC014 06/03 A2994 RMK AO2 SLP149 70001 T00610033 10083 20061 51024 $",
      "metarObsTime": 1774093860
    },
    "KAGC": {
      "status": "OK",
      "delay": "—",
      "metarCat": "MVFR",
      "metarRaw": "METAR KAGC 211153Z 34004KT 6SM HZ OVC016 07/04 A2994 RMK AO2 SLP143 70010 T00670039 10089 20061 51028",
      "metarObsTime": 1774093980
    },
    "KLBE": {
      "status": "OK",
      "delay": "—",
      "metarCat": "MVFR",
      "metarRaw": "METAR KLBE 211147Z 00000KT 5SM BR OVC022 08/07 A2995",
      "metarObsTime": 1774093620
    },
    "KJST": {
      "status": "OK",
      "delay": "—",
      "metarCat": "MVFR",
      "metarRaw": "METAR KJST 211154Z AUTO 29008KT 7SM OVC011 05/03 A2989 RMK AO2 SLP129 70012 T00500033 10106 20050 51025",
      "metarObsTime": 1774094040
    },
    "KERI": {
      "status": "OK",
      "delay": "—",
      "metarCat": "IFR",
      "metarRaw": "METAR KERI 211151Z 06008KT 2SM BR BKN006 OVC012 02/01 A3000 RMK AO2 CIG 004V009 SLP162 70018 T00170011 10033 20017 53024",
      "metarObsTime": 1774093860
    },
    "KDUJ": {
      "status": "OK",
      "delay": "—",
      "metarCat": "MVFR",
      "metarRaw": "METAR KDUJ 211153Z AUTO 30004KT 10SM OVC012 03/01 A2992 RMK AO2 SLP138 70019 T00330011 10072 20033 53028",
      "metarObsTime": 1774093980
    },
    "KBFD": {
      "status": "OK",
      "delay": "—",
      "metarCat": "IFR",
      "metarRaw": "METAR KBFD 211153Z AUTO 34006KT 7SM OVC005 01/00 A2991 RMK AO2 SLP137 70030 T00110000 10050 20011 53022",
      "metarObsTime": 1774093980
    },
    "KBTP": {
      "status": "OK",
      "delay": "—",
      "metarCat": "MVFR",
      "metarRaw": "METAR KBTP 211056Z AUTO 28003KT 8SM OVC016 06/05 A2993 RMK AO2 SLP146 T00610050 $",
      "metarObsTime": 1774090560
    },
    "KFKL": {
      "status": "OK",
      "delay": "—",
      "metarCat": "IFR",
      "metarRaw": "METAR KFKL 211056Z AUTO VRB03KT 10SM OVC009 04/02 A2993 RMK AO2 SLP141 T00390022",
      "metarObsTime": 1774090560
    },
    "KIDI": {
      "status": "OK",
      "delay": "—",
      "metarCat": "MVFR",
      "metarRaw": "METAR KIDI 211155Z AUTO 31007KT 10SM OVC019 06/05 A2994 RMK A01",
      "metarObsTime": 1774094100
    },
    "KMDT": {
      "status": "OK",
      "delay": "—",
      "metarCat": "MVFR",
      "metarRaw": "SPECI KMDT 211149Z 32009KT 5SM BR FEW030 SCT045 09/08 A2985 RMK AO2 T00890083",
      "metarObsTime": 1774093740
    },
    "KCXY": {
      "status": "OK",
      "delay": "—",
      "metarCat": "IFR",
      "metarRaw": "METAR KCXY 211056Z VRB04KT 2SM BR BKN038 09/08 A2983 RMK AO2 SLP105 T00890083",
      "metarObsTime": 1774090560
    },
    "KMUI": {
      "status": "OK",
      "delay": "—",
      "metarCat": "VFR",
      "metarRaw": "METAR KMUI 211155Z AUTO 34006KT 10SM FEW020 13/11 A2984 RMK AO2 SLP108 70030 T01340111 10137 20067 52029",
      "metarObsTime": 1774094100
    },
    "KUNV": {
      "status": "OK",
      "delay": "—",
      "metarCat": "MVFR",
      "metarRaw": "METAR KUNV 211153Z 33005KT 10SM BKN023 07/03 A2989",
      "metarObsTime": 1774093980
    },
    "KAOO": {
      "status": "OK",
      "delay": "—",
      "metarCat": "VFR",
      "metarRaw": "METAR KAOO 211153Z AUTO 34005KT 10SM SCT019 07/03 A2989 RMK AO2 SLP127 70004 T00670033 10094 20067 53026",
      "metarObsTime": 1774093980
    },
    "KLNS": {
      "status": "OK",
      "delay": "—",
      "metarCat": "VFR",
      "metarRaw": "METAR KLNS 211153Z 34008KT 6SM BR FEW022 09/09 A2983 RMK AO2 SLP103 70035 T00940089 10094 20067 53019",
      "metarObsTime": 1774093980
    },
    "KIPT": {
      "status": "OK",
      "delay": "—",
      "metarCat": "MVFR",
      "metarRaw": "METAR KIPT 211154Z 31010KT 10SM OVC025 07/03 A2990 RMK AO2 SLP128 70027 T00670028 10078 20061 51034 $",
      "metarObsTime": 1774094040
    },
    "KPHL": {
      "status": "OK",
      "delay": "—",
      "metarCat": "VFR",
      "metarRaw": "METAR KPHL 211154Z 33005KT 8SM BKN050 10/09 A2982 RMK AO2 SLP096 70009 T01000089 10122 20072 51023 $",
      "metarObsTime": 1774094040
    },
    "KABE": {
      "status": "OK",
      "delay": "—",
      "metarCat": "VFR",
      "metarRaw": "METAR KABE 211151Z 29004KT 10SM CLR 09/06 A2984 RMK AO2 SLP105 70024 T00890056 10094 20078 53025 $",
      "metarObsTime": 1774093860
    },
    "KAVP": {
      "status": "OK",
      "delay": "—",
      "metarCat": "MVFR",
      "metarRaw": "METAR KAVP 211154Z 35009KT 10SM OVC015 04/01 A2990 RMK AO2 SLP127 70040 T00390011 10089 20039 51038",
      "metarObsTime": 1774094040
    },
    "KHZL": {
      "status": "OK",
      "delay": "—",
      "metarCat": "IFR",
      "metarRaw": "METAR KHZL 211135Z AUTO 34007KT 10SM OVC005 05/03 A2988 RMK AO2",
      "metarObsTime": 1774092900
    }
  }
}