{
  "generatedAt": "2026-04-10T16:50:51.433Z",
  "airports": {
    "KPIT": {
      "status": "OK",
      "delay": "—",
      "metarCat": "VFR",
      "metarRaw": "METAR KPIT 101551Z 23011G26KT 10SM FEW150 BKN250 22/05 A3021 RMK AO2 PK WND 23027/1453 SLP231 T02170050",
      "metarObsTime": 1775836260
    },
    "KAGC": {
      "status": "OK",
      "delay": "—",
      "metarCat": "VFR",
      "metarRaw": "METAR KAGC 101553Z 24018G27KT 10SM CLR 22/06 A3021 RMK AO2 PK WND 23027/1553 SLP232 T02170056",
      "metarObsTime": 1775836380
    },
    "KLBE": {
      "status": "OK",
      "delay": "—",
      "metarCat": "VFR",
      "metarRaw": "METAR KLBE 101545Z 21012G22KT 10SM CLR 22/07 A3025",
      "metarObsTime": 1775835900
    },
    "KJST": {
      "status": "OK",
      "delay": "—",
      "metarCat": "VFR",
      "metarRaw": "METAR KJST 101554Z AUTO 25014G29KT 10SM CLR 20/03 A3024 RMK AO2 PK WND 25029/1552 SLP235 T02000033",
      "metarObsTime": 1775836440
    },
    "KERI": {
      "status": "OK",
      "delay": "—",
      "metarCat": "VFR",
      "metarRaw": "METAR KERI 101551Z 22013G29KT 10SM FEW070 21/07 A3009 RMK AO2 PK WND 20034/1505 SLP189 T02060067 $",
      "metarObsTime": 1775836260
    },
    "KDUJ": {
      "status": "OK",
      "delay": "—",
      "metarCat": "VFR",
      "metarRaw": "METAR KDUJ 101553Z AUTO 24018G30KT 10SM CLR 19/05 A3019 RMK AO2 PK WND 27035/1523 SLP219 T01940050",
      "metarObsTime": 1775836380
    },
    "KBFD": {
      "status": "OK",
      "delay": "—",
      "metarCat": "VFR",
      "metarRaw": "METAR KBFD 101553Z AUTO 22016G32KT 10SM FEW060 19/04 A3016 RMK AO2 PK WND 21032/1553 SLP206 T01940044",
      "metarObsTime": 1775836380
    },
    "KBTP": {
      "status": "OK",
      "delay": "—",
      "metarCat": "VFR",
      "metarRaw": "METAR KBTP 101556Z AUTO 23016G22KT 10SM CLR 22/06 A3020 RMK AO2 SLP228 T02170061 $",
      "metarObsTime": 1775836560
    },
    "KFKL": {
      "status": "OK",
      "delay": "—",
      "metarCat": "VFR",
      "metarRaw": "METAR KFKL 101556Z AUTO 25014G21KT 10SM CLR 19/07 A3017 RMK AO2 PK WND 25027/1520 SLP215 P0001 T01940067",
      "metarObsTime": 1775836560
    },
    "KIDI": {
      "status": "OK",
      "delay": "—",
      "metarCat": "VFR",
      "metarRaw": "METAR KIDI 101635Z AUTO 26017G23KT 10SM CLR 22/05 A3021 RMK A01",
      "metarObsTime": 1775838900
    },
    "KMDT": {
      "status": "OK",
      "delay": "—",
      "metarCat": "VFR",
      "metarRaw": "METAR KMDT 101556Z 15004KT 10SM FEW250 14/07 A3029 RMK AO2 SLP257 T01440072",
      "metarObsTime": 1775836560
    },
    "KCXY": {
      "status": "OK",
      "delay": "—",
      "metarCat": "VFR",
      "metarRaw": "METAR KCXY 101556Z VRB04KT 10SM CLR 16/06 A3029 RMK AO2 SLP259 T01610061 $",
      "metarObsTime": 1775836560
    },
    "KMUI": {
      "status": "OK",
      "delay": "—",
      "metarCat": "VFR",
      "metarRaw": "METAR KMUI 101555Z 16005KT 10SM FEW250 17/10 A3028 RMK AO2A SLP258 T01670099",
      "metarObsTime": 1775836500
    },
    "KUNV": {
      "status": "OK",
      "delay": "—",
      "metarCat": "—",
      "metarRaw": "—",
      "metarObsTime": null
    },
    "KAOO": {
      "status": "OK",
      "delay": "—",
      "metarCat": "VFR",
      "metarRaw": "METAR KAOO 101553Z AUTO 19012G20KT 10SM CLR 22/04 A3023 RMK AO2 SLP234 T02170039 $",
      "metarObsTime": 1775836380
    },
    "KLNS": {
      "status": "OK",
      "delay": "—",
      "metarCat": "VFR",
      "metarRaw": "METAR KLNS 101553Z 18006KT 10SM CLR 14/07 A3030 RMK AO2 SLP262 T01440072",
      "metarObsTime": 1775836380
    },
    "KIPT": {
      "status": "OK",
      "delay": "—",
      "metarCat": "VFR",
      "metarRaw": "METAR KIPT 101554Z 11006KT 10SM CLR 15/06 A3023 RMK AO2 SLP238 T01500056",
      "metarObsTime": 1775836440
    },
    "KPHL": {
      "status": "OK",
      "delay": "—",
      "metarCat": "VFR",
      "metarRaw": "METAR KPHL 101554Z 26008KT 10SM FEW280 SCT350 14/06 A3034 RMK AO2 SLP272 T01440056 $",
      "metarObsTime": 1775836440
    },
    "KABE": {
      "status": "OK",
      "delay": "—",
      "metarCat": "VFR",
      "metarRaw": "METAR KABE 101551Z 25004KT 10SM CLR 13/06 A3031 RMK AO2 SLP266 T01280061 $",
      "metarObsTime": 1775836260
    },
    "KAVP": {
      "status": "OK",
      "delay": "—",
      "metarCat": "VFR",
      "metarRaw": "METAR KAVP 101554Z 24009G15KT 10SM CLR 17/03 A3024 RMK AO2 SLP237 T01720033",
      "metarObsTime": 1775836440
    },
    "KHZL": {
      "status": "OK",
      "delay": "—",
      "metarCat": "VFR",
      "metarRaw": "METAR KHZL 101635Z AUTO 15006KT 10SM CLR 17/03 A3027 RMK AO2",
      "metarObsTime": 1775838900
    }
  }
}