{
  "generatedAt": "2026-04-11T07:00:45.154Z",
  "airports": {
    "KPIT": {
      "status": "OK",
      "delay": "—",
      "metarCat": "IFR",
      "metarRaw": "METAR KPIT 110651Z 33013G21KT 10SM BKN009 07/04 A3028 RMK AO2 SLP261 T00670039 $",
      "metarObsTime": 1775890260
    },
    "KAGC": {
      "status": "OK",
      "delay": "—",
      "metarCat": "MVFR",
      "metarRaw": "METAR KAGC 110653Z 34006KT 10SM OVC012 08/06 A3026 RMK AO2 SLP248 T00830061",
      "metarObsTime": 1775890380
    },
    "KLBE": {
      "status": "OK",
      "delay": "—",
      "metarCat": "MVFR",
      "metarRaw": "METAR KLBE 110655Z AUTO 30007KT 10SM OVC014 10/08 A3027 RMK AO2",
      "metarObsTime": 1775890500
    },
    "KJST": {
      "status": "OK",
      "delay": "—",
      "metarCat": "LIFR",
      "metarRaw": "METAR KJST 110654Z AUTO 32013G21KT 1 3/4SM BR OVC002 08/08 A3020 RMK AO2 RAE07 SLP223 P0000 T00830083",
      "metarObsTime": 1775890440
    },
    "KERI": {
      "status": "OK",
      "delay": "—",
      "metarCat": "MVFR",
      "metarRaw": "METAR KERI 110651Z AUTO 34006G15KT 10SM OVC016 04/03 A3032 RMK AO2 SLP273 T00440028 $",
      "metarObsTime": 1775890260
    },
    "KDUJ": {
      "status": "OK",
      "delay": "—",
      "metarCat": "MVFR",
      "metarRaw": "METAR KDUJ 110653Z AUTO 33006KT 10SM FEW015 OVC022 06/04 A3023 RMK AO2 SLP236 T00610039",
      "metarObsTime": 1775890380
    },
    "KBFD": {
      "status": "OK",
      "delay": "—",
      "metarCat": "MVFR",
      "metarRaw": "METAR KBFD 110653Z AUTO 35005KT 10SM SCT006 SCT012 OVC030 04/03 A3023 RMK AO2 SLP236 T00390028",
      "metarObsTime": 1775890380
    },
    "KBTP": {
      "status": "OK",
      "delay": "—",
      "metarCat": "IFR",
      "metarRaw": "METAR KBTP 110656Z AUTO 31005KT 10SM OVC008 07/07 A3029 RMK AO2 CIG 006V011 SLP262 T00670067 $",
      "metarObsTime": 1775890560
    },
    "KFKL": {
      "status": "OK",
      "delay": "—",
      "metarCat": "IFR",
      "metarRaw": "METAR KFKL 110656Z AUTO 33005KT 7SM OVC005 05/04 A3028 RMK AO2 SLP257 T00500044",
      "metarObsTime": 1775890560
    },
    "KIDI": {
      "status": "OK",
      "delay": "—",
      "metarCat": "MVFR",
      "metarRaw": "METAR KIDI 110655Z AUTO 34007G14KT 10SM BKN016 OVC021 09/07 A3025 RMK A01",
      "metarObsTime": 1775890500
    },
    "KMDT": {
      "status": "OK",
      "delay": "—",
      "metarCat": "VFR",
      "metarRaw": "METAR KMDT 110656Z 15005KT 10SM FEW100 13/12 A3012 RMK AO2 SLP201 T01330117",
      "metarObsTime": 1775890560
    },
    "KCXY": {
      "status": "OK",
      "delay": "—",
      "metarCat": "VFR",
      "metarRaw": "METAR KCXY 110656Z AUTO 28006KT 10SM BKN100 16/12 A3013 RMK AO2 SLP202 T01560117 $",
      "metarObsTime": 1775890560
    },
    "KMUI": {
      "status": "OK",
      "delay": "—",
      "metarCat": "VFR",
      "metarRaw": "METAR KMUI 110655Z AUTO 28013G18KT 10SM OVC095 17/14 A3010 RMK AO2 SLP194 T01720137",
      "metarObsTime": 1775890500
    },
    "KUNV": {
      "status": "OK",
      "delay": "—",
      "metarCat": "MVFR",
      "metarRaw": "METAR KUNV 110655Z AUTO 32006G16KT 10SM SCT018 BKN023 OVC028 12/07 A3019 RMK AO2 T01150071",
      "metarObsTime": 1775890500
    },
    "KAOO": {
      "status": "OK",
      "delay": "—",
      "metarCat": "MVFR",
      "metarRaw": "METAR KAOO 110653Z AUTO 32010G18KT 10SM OVC017 12/09 A3019 RMK AO2 RAE02 SLP219 P0000 T01170089",
      "metarObsTime": 1775890380
    },
    "KLNS": {
      "status": "OK",
      "delay": "—",
      "metarCat": "VFR",
      "metarRaw": "METAR KLNS 110653Z AUTO 28003KT 10SM FEW039 OVC110 13/10 A3012 RMK AO2 SLP198 T01280100",
      "metarObsTime": 1775890380
    },
    "KIPT": {
      "status": "OK",
      "delay": "—",
      "metarCat": "MVFR",
      "metarRaw": "METAR KIPT 110654Z AUTO 10SM BKN022 OVC033 12/08 A3017 RMK AO2 PK WND 34026/0558 SLP216 T01170083 $",
      "metarObsTime": 1775890440
    },
    "KPHL": {
      "status": "OK",
      "delay": "—",
      "metarCat": "VFR",
      "metarRaw": "METAR KPHL 110654Z 21003KT 10SM OVC240 13/08 A3012 RMK AO2 SLP198 T01280083 $",
      "metarObsTime": 1775890440
    },
    "KABE": {
      "status": "OK",
      "delay": "—",
      "metarCat": "VFR",
      "metarRaw": "METAR KABE 110651Z 24007KT 10SM FEW034 BKN110 15/11 A3010 RMK AO2 SLP190 T01500111 $",
      "metarObsTime": 1775890260
    },
    "KAVP": {
      "status": "OK",
      "delay": "—",
      "metarCat": "MVFR",
      "metarRaw": "METAR KAVP 110654Z AUTO 01009G18KT 10SM OVC014 08/06 A3018 RMK AO2 WSHFT 0541 SLP218 T00830056",
      "metarObsTime": 1775890440
    },
    "KHZL": {
      "status": "OK",
      "delay": "—",
      "metarCat": "IFR",
      "metarRaw": "METAR KHZL 110655Z AUTO 34011G19KT 10SM OVC007 10/08 A3017 RMK AO2",
      "metarObsTime": 1775890500
    }
  }
}