{
  "generatedAt": "2026-03-27T13:30:22.492Z",
  "airports": {
    "KPIT": {
      "status": "OK",
      "delay": "—",
      "metarCat": "MVFR",
      "metarRaw": "SPECI KPIT 271325Z 35010KT 8SM OVC010 03/01 A3011 RMK AO2 T00280006",
      "metarObsTime": 1774617900
    },
    "KAGC": {
      "status": "OK",
      "delay": "—",
      "metarCat": "LIFR",
      "metarRaw": "SPECI KAGC 271313Z 34008KT 3SM BR OVC003 03/02 A3007 RMK AO2 T00330022",
      "metarObsTime": 1774617180
    },
    "KLBE": {
      "status": "OK",
      "delay": "—",
      "metarCat": "MVFR",
      "metarRaw": "METAR KLBE 271247Z 34008KT 10SM BKN015 BKN020 OVC046 05/03 A3008",
      "metarObsTime": 1774615620
    },
    "KJST": {
      "status": "OK",
      "delay": "—",
      "metarCat": "IFR",
      "metarRaw": "SPECI KJST 271314Z AUTO 34009KT 10SM OVC005 03/02 A2999 RMK AO2 CIG 004V009 T00330022",
      "metarObsTime": 1774617240
    },
    "KERI": {
      "status": "OK",
      "delay": "—",
      "metarCat": "MVFR",
      "metarRaw": "METAR KERI 271251Z 02015G21KT 10SM OVC017 M03/M06 A3023 RMK AO2 SLP241 T10281061 $",
      "metarObsTime": 1774615860
    },
    "KDUJ": {
      "status": "OK",
      "delay": "—",
      "metarCat": "IFR",
      "metarRaw": "METAR KDUJ 271253Z AUTO 35009G18KT 10SM OVC008 00/M02 A3004 RMK AO2 SLP179 T00001017",
      "metarObsTime": 1774615980
    },
    "KBFD": {
      "status": "OK",
      "delay": "—",
      "metarCat": "LIFR",
      "metarRaw": "SPECI KBFD 271312Z AUTO 36009KT 10SM OVC004 M03/M03 A3007 RMK AO2 T10281033",
      "metarObsTime": 1774617120
    },
    "KBTP": {
      "status": "OK",
      "delay": "—",
      "metarCat": "MVFR",
      "metarRaw": "SPECI KBTP 271321Z AUTO 36009KT 10SM OVC014 01/M01 A3013 RMK AO2 FZRANO $",
      "metarObsTime": 1774617660
    },
    "KFKL": {
      "status": "OK",
      "delay": "—",
      "metarCat": "MVFR",
      "metarRaw": "METAR KFKL 271256Z AUTO 01012G19KT 10SM OVC012 M02/M03 A3011 RMK AO2 SLP209 T10171033 FZRANO",
      "metarObsTime": 1774616160
    },
    "KIDI": {
      "status": "OK",
      "delay": "—",
      "metarCat": "MVFR",
      "metarRaw": "METAR KIDI 271315Z AUTO 35008G14KT 9SM OVC011 03/02 A3007 RMK A01",
      "metarObsTime": 1774617300
    },
    "KMDT": {
      "status": "OK",
      "delay": "—",
      "metarCat": "VFR",
      "metarRaw": "METAR KMDT 271256Z 34009G21KT 10SM FEW020 OVC031 09/05 A2997 RMK AO2 PK WND 02028/1200 WSHFT 1154 RAE20 SLP148 P0000 T00890050",
      "metarObsTime": 1774616160
    },
    "KCXY": {
      "status": "OK",
      "delay": "—",
      "metarCat": "MVFR",
      "metarRaw": "SPECI KCXY 271321Z 35012G22KT 10SM OVC029 08/04 A2998 RMK AO2 T00830039",
      "metarObsTime": 1774617660
    },
    "KMUI": {
      "status": "OK",
      "delay": "—",
      "metarCat": "MVFR",
      "metarRaw": "METAR KMUI 271258Z 02008G17KT 340V050 10SM FEW008 OVC017 08/06 A2996 RMK AO2A SLP148 T00840059",
      "metarObsTime": 1774616280
    },
    "KUNV": {
      "status": "OK",
      "delay": "—",
      "metarCat": "MVFR",
      "metarRaw": "METAR KUNV 271253Z 01009KT 10SM OVC018 06/02 A3001 RMK LTG DSNT SW AND W",
      "metarObsTime": 1774615980
    },
    "KAOO": {
      "status": "OK",
      "delay": "—",
      "metarCat": "MVFR",
      "metarRaw": "METAR KAOO 271253Z AUTO 35011G19KT 10SM BKN013 OVC018 07/04 A3000 RMK AO2 SLP157 T00670039",
      "metarObsTime": 1774615980
    },
    "KLNS": {
      "status": "OK",
      "delay": "—",
      "metarCat": "MVFR",
      "metarRaw": "METAR KLNS 271253Z 36013G22KT 10SM FEW016 OVC026 09/06 A2994 RMK AO2 PK WND 35028/1220 RAE14 SLP139 P0000 T00940061",
      "metarObsTime": 1774615980
    },
    "KIPT": {
      "status": "OK",
      "delay": "—",
      "metarCat": "MVFR",
      "metarRaw": "SPECI KIPT 271321Z 34010G20KT 10SM OVC030 04/M02 A3006 RMK AO2 T00391022",
      "metarObsTime": 1774617660
    },
    "KPHL": {
      "status": "OK",
      "delay": "—",
      "metarCat": "MVFR",
      "metarRaw": "METAR KPHL 271254Z 35015G19KT 10SM -RA BKN021 OVC046 14/11 A2990 RMK AO2 SLP125 P0003 T01390111",
      "metarObsTime": 1774616040
    },
    "KABE": {
      "status": "OK",
      "delay": "—",
      "metarCat": "MVFR",
      "metarRaw": "METAR KABE 271251Z 36009G23KT 10SM BKN026 OVC045 08/03 A2996 RMK AO2 SLP143 T00780028 $",
      "metarObsTime": 1774615860
    },
    "KAVP": {
      "status": "OK",
      "delay": "—",
      "metarCat": "MVFR",
      "metarRaw": "METAR KAVP 271254Z AUTO 33016G26KT 10SM BKN019 OVC028 03/M01 A3002 RMK AO2 PK WND 33030/1231 SLP166 T00281011",
      "metarObsTime": 1774616040
    },
    "KHZL": {
      "status": "OK",
      "delay": "—",
      "metarCat": "MVFR",
      "metarRaw": "METAR KHZL 271315Z AUTO 33010G18KT 10SM OVC016 02/M01 A3002 RMK AO2",
      "metarObsTime": 1774617300
    }
  }
}