{
  "generatedAt": "2026-03-29T12:40:30.250Z",
  "airports": {
    "KPIT": {
      "status": "OK",
      "delay": "—",
      "metarCat": "VFR",
      "metarRaw": "METAR KPIT 291151Z 16004KT 10SM BKN110 OVC220 01/M07 A3042 RMK AO2 SLP319 T00111067 10011 21006 53000",
      "metarObsTime": 1774785060
    },
    "KAGC": {
      "status": "OK",
      "delay": "—",
      "metarCat": "VFR",
      "metarRaw": "METAR KAGC 291153Z 18008KT 10SM BKN110 01/M07 A3042 RMK AO2 SLP318 T00111067 10011 21011 55000",
      "metarObsTime": 1774785180
    },
    "KLBE": {
      "status": "OK",
      "delay": "—",
      "metarCat": "VFR",
      "metarRaw": "METAR KLBE 291155Z 00000KT 10SM BKN120 M00/M04 A3045",
      "metarObsTime": 1774785300
    },
    "KJST": {
      "status": "OK",
      "delay": "—",
      "metarCat": "VFR",
      "metarRaw": "METAR KJST 291154Z AUTO 22006KT 10SM OVC110 01/M09 A3040 RMK AO2 SLP319 T00061094 10006 21022 53002",
      "metarObsTime": 1774785240
    },
    "KERI": {
      "status": "OK",
      "delay": "—",
      "metarCat": "VFR",
      "metarRaw": "METAR KERI 291151Z 16004KT 10SM CLR 03/M07 A3041 RMK AO2 SLP305 T00281072 10028 21011 53003 $",
      "metarObsTime": 1774785060
    },
    "KDUJ": {
      "status": "OK",
      "delay": "—",
      "metarCat": "VFR",
      "metarRaw": "METAR KDUJ 291153Z AUTO 17003KT 10SM OVC120 M01/M09 A3040 RMK AO2 SLP315 T10061094 11006 21044 53002",
      "metarObsTime": 1774785180
    },
    "KBFD": {
      "status": "OK",
      "delay": "—",
      "metarCat": "VFR",
      "metarRaw": "METAR KBFD 291153Z AUTO VRB03KT 10SM BKN120 M02/M09 A3039 RMK AO2 SLP313 T10221094 11022 21078 53006",
      "metarObsTime": 1774785180
    },
    "KBTP": {
      "status": "OK",
      "delay": "—",
      "metarCat": "VFR",
      "metarRaw": "METAR KBTP 291156Z AUTO 17004KT 10SM OVC110 01/M06 A3042 RMK AO2 SLP319 70002 T00111061 10011 21017 57003 FZRANO $",
      "metarObsTime": 1774785360
    },
    "KFKL": {
      "status": "OK",
      "delay": "—",
      "metarCat": "VFR",
      "metarRaw": "METAR KFKL 291156Z AUTO 15003KT 10SM OVC110 00/M07 A3041 RMK AO2 SLP317 T00001067 10000 21033 53003 FZRANO",
      "metarObsTime": 1774785360
    },
    "KIDI": {
      "status": "OK",
      "delay": "—",
      "metarCat": "VFR",
      "metarRaw": "METAR KIDI 291235Z AUTO 16004KT 10SM OVC110 02/M06 A3043 RMK A01",
      "metarObsTime": 1774787700
    },
    "KMDT": {
      "status": "OK",
      "delay": "—",
      "metarCat": "VFR",
      "metarRaw": "METAR KMDT 291156Z 17006KT 10SM FEW140 BKN250 03/M06 A3055 RMK AO2 SLP349 T00281061 10033 21011 51012",
      "metarObsTime": 1774785360
    },
    "KCXY": {
      "status": "OK",
      "delay": "—",
      "metarCat": "VFR",
      "metarRaw": "METAR KCXY 291156Z 00000KT 10SM CLR 01/M05 A3055 RMK AO2 SLP351 T00061050 10006 21022 51010",
      "metarObsTime": 1774785360
    },
    "KMUI": {
      "status": "OK",
      "delay": "—",
      "metarCat": "—",
      "metarRaw": "—",
      "metarObsTime": null
    },
    "KUNV": {
      "status": "OK",
      "delay": "—",
      "metarCat": "VFR",
      "metarRaw": "METAR KUNV 291153Z 00000KT 10SM CLR M01/M07 A3047",
      "metarObsTime": 1774785180
    },
    "KAOO": {
      "status": "OK",
      "delay": "—",
      "metarCat": "VFR",
      "metarRaw": "METAR KAOO 291153Z AUTO 00000KT 10SM OVC120 00/M07 A3046 RMK AO2 SLP330 T00001072 10006 21039 51003 $",
      "metarObsTime": 1774785180
    },
    "KLNS": {
      "status": "OK",
      "delay": "—",
      "metarCat": "VFR",
      "metarRaw": "METAR KLNS 291153Z 08004KT 10SM CLR M02/M05 A3057 RMK AO2 SLP355 T10171050 10006 21033 51017",
      "metarObsTime": 1774785180
    },
    "KIPT": {
      "status": "OK",
      "delay": "—",
      "metarCat": "VFR",
      "metarRaw": "METAR KIPT 291154Z 07003KT 10SM CLR M02/M07 A3052 RMK AO2 SLP343 T10221067 11022 21033 53009 $",
      "metarObsTime": 1774785240
    },
    "KPHL": {
      "status": "OK",
      "delay": "—",
      "metarCat": "VFR",
      "metarRaw": "METAR KPHL 291154Z 16003KT 10SM FEW080 SCT140 SCT250 02/M03 A3060 RMK AO2 SLP362 T00221028 10039 21006 51016 $",
      "metarObsTime": 1774785240
    },
    "KABE": {
      "status": "OK",
      "delay": "—",
      "metarCat": "VFR",
      "metarRaw": "METAR KABE 291151Z 34003KT 10SM CLR M03/M07 A3057 RMK AO2 SLP357 T10331067 11022 21050 53014 $",
      "metarObsTime": 1774785060
    },
    "KAVP": {
      "status": "OK",
      "delay": "—",
      "metarCat": "VFR",
      "metarRaw": "METAR KAVP 291154Z AUTO 00000KT 10SM BKN120 M03/M09 A3051 RMK AO2 SLP341 T10281089 11028 21050 53009",
      "metarObsTime": 1774785240
    },
    "KHZL": {
      "status": "OK",
      "delay": "—",
      "metarCat": "VFR",
      "metarRaw": "METAR KHZL 291235Z AUTO 00000KT 10SM CLR 01/M10 A3052 RMK AO2",
      "metarObsTime": 1774787700
    }
  }
}