{
  "generatedAt": "2026-03-22T06:20:17.724Z",
  "airports": {
    "KPIT": {
      "status": "OK",
      "delay": "—",
      "metarCat": "VFR",
      "metarRaw": "METAR KPIT 220551Z 20006KT 10SM SCT120 15/02 A2976 RMK AO2 SLP084 T01500022 10150 20094 58019 $",
      "metarObsTime": 1774158660
    },
    "KAGC": {
      "status": "OK",
      "delay": "—",
      "metarCat": "VFR",
      "metarRaw": "METAR KAGC 220553Z 19010KT 10SM CLR 12/02 A2977 RMK AO2 SLP087 T01220022 10150 20122 56020",
      "metarObsTime": 1774158780
    },
    "KLBE": {
      "status": "OK",
      "delay": "—",
      "metarCat": "VFR",
      "metarRaw": "METAR KLBE 220615Z AUTO 21009KT 10SM CLR 11/05 A2980 RMK AO2",
      "metarObsTime": 1774160100
    },
    "KJST": {
      "status": "OK",
      "delay": "—",
      "metarCat": "VFR",
      "metarRaw": "METAR KJST 220554Z AUTO 20009KT 10SM CLR 13/03 A2981 RMK AO2 SLP095 T01280033 10139 20117 58013",
      "metarObsTime": 1774158840
    },
    "KERI": {
      "status": "OK",
      "delay": "—",
      "metarCat": "VFR",
      "metarRaw": "METAR KERI 220551Z AUTO 21013G20KT 10SM CLR 14/03 A2969 RMK AO2 SLP056 T01440028 10144 20017 58014",
      "metarObsTime": 1774158660
    },
    "KDUJ": {
      "status": "OK",
      "delay": "—",
      "metarCat": "VFR",
      "metarRaw": "METAR KDUJ 220553Z AUTO 19005KT 10SM FEW110 11/02 A2977 RMK AO2 SLP082 T01060017 10111 20089 56013",
      "metarObsTime": 1774158780
    },
    "KBFD": {
      "status": "OK",
      "delay": "—",
      "metarCat": "VFR",
      "metarRaw": "METAR KBFD 220553Z AUTO 17005KT 10SM BKN110 08/01 A2977 RMK AO2 SLP087 60000 T00780011 10083 20067 56005",
      "metarObsTime": 1774158780
    },
    "KBTP": {
      "status": "OK",
      "delay": "—",
      "metarCat": "VFR",
      "metarRaw": "METAR KBTP 220556Z AUTO 20007KT 10SM CLR 13/03 A2977 RMK AO2 SLP088 T01280028 10133 20111 56018 $",
      "metarObsTime": 1774158960
    },
    "KFKL": {
      "status": "OK",
      "delay": "—",
      "metarCat": "VFR",
      "metarRaw": "METAR KFKL 220556Z AUTO 22010G14KT 10SM FEW120 13/03 A2975 RMK AO2 SLP078 T01280028 10128 20094 58009",
      "metarObsTime": 1774158960
    },
    "KIDI": {
      "status": "OK",
      "delay": "—",
      "metarCat": "VFR",
      "metarRaw": "METAR KIDI 220615Z AUTO 23004KT 10SM SCT046 BKN120 12/06 A2979 RMK A01",
      "metarObsTime": 1774160100
    },
    "KMDT": {
      "status": "OK",
      "delay": "—",
      "metarCat": "VFR",
      "metarRaw": "METAR KMDT 220556Z 08004KT 10SM OVC032 08/03 A2990 RMK AO2 SLP126 T00830033 10117 20078 58010",
      "metarObsTime": 1774158960
    },
    "KCXY": {
      "status": "OK",
      "delay": "—",
      "metarCat": "MVFR",
      "metarRaw": "SPECI KCXY 220607Z AUTO 13004KT 10SM OVC029 09/03 A2990 RMK AO2 T00940028",
      "metarObsTime": 1774159620
    },
    "KMUI": {
      "status": "OK",
      "delay": "—",
      "metarCat": "VFR",
      "metarRaw": "METAR KMUI 220555Z AUTO 00000KT 10SM BKN035 OVC150 07/03 A2990 RMK AO2 RAB0455E44 SLP130 P0000 60000 T00690028 10123 20055 58006",
      "metarObsTime": 1774158900
    },
    "KUNV": {
      "status": "OK",
      "delay": "—",
      "metarCat": "VFR",
      "metarRaw": "METAR KUNV 220555Z AUTO 00000KT 10SM CLR 07/01 A2985 RMK AO2 T00650010 10090 20050",
      "metarObsTime": 1774158900
    },
    "KAOO": {
      "status": "OK",
      "delay": "—",
      "metarCat": "VFR",
      "metarRaw": "METAR KAOO 220553Z AUTO 19009KT 10SM CLR 12/04 A2984 RMK AO2 SLP104 T01170039 10139 20089 56014",
      "metarObsTime": 1774158780
    },
    "KLNS": {
      "status": "OK",
      "delay": "—",
      "metarCat": "VFR",
      "metarRaw": "METAR KLNS 220553Z AUTO 16008KT 10SM CLR 08/05 A2991 RMK AO2 SLP129 T00830050 10100 20072 56007",
      "metarObsTime": 1774158780
    },
    "KIPT": {
      "status": "OK",
      "delay": "—",
      "metarCat": "VFR",
      "metarRaw": "METAR KIPT 220554Z AUTO 04005KT 10SM FEW110 04/00 A2988 RMK AO2 RAB41E50 SLP122 P0000 60000 T00440000 10067 20044 56010 $",
      "metarObsTime": 1774158840
    },
    "KPHL": {
      "status": "OK",
      "delay": "—",
      "metarCat": "VFR",
      "metarRaw": "METAR KPHL 220554Z 21004KT 10SM FEW047 BKN140 08/04 A2997 RMK AO2 SLP148 T00830039 10133 20083 51002 $",
      "metarObsTime": 1774158840
    },
    "KABE": {
      "status": "OK",
      "delay": "—",
      "metarCat": "VFR",
      "metarRaw": "METAR KABE 220551Z 11004KT 10SM FEW036 BKN110 08/02 A2995 RMK AO2 RAB23E38 SLP142 P0000 60000 T00780017 10083 20061 55004 $",
      "metarObsTime": 1774158660
    },
    "KAVP": {
      "status": "OK",
      "delay": "—",
      "metarCat": "VFR",
      "metarRaw": "METAR KAVP 220554Z AUTO 00000KT 10SM -RA OVC085 06/00 A2989 RMK AO2 SLP124 P0000 60000 T00560000 10056 20033 58000",
      "metarObsTime": 1774158840
    },
    "KHZL": {
      "status": "OK",
      "delay": "—",
      "metarCat": "VFR",
      "metarRaw": "METAR KHZL 220555Z AUTO 13006KT 10SM -RA SCT075 OVC100 04/00 A2992 RMK AO2",
      "metarObsTime": 1774158900
    }
  }
}