{
  "generatedAt": "2026-04-14T22:40:51.592Z",
  "airports": {
    "KPIT": {
      "status": "OK",
      "delay": "—",
      "metarCat": "VFR",
      "metarRaw": "METAR KPIT 142151Z 34004KT 10SM SCT047 BKN065 BKN110 19/16 A2994 RMK AO2 RAE50 TSE50 SLP142 OCNL LTG DSNT W P0027 T01940161 $",
      "metarObsTime": 1776203460
    },
    "KAGC": {
      "status": "OK",
      "delay": "—",
      "metarCat": "VFR",
      "metarRaw": "SPECI KAGC 142222Z 31004KT 7SM -RA FEW036 SCT050 BKN075 18/17 A2995 RMK AO2 LTG DSNT ALQDS RAE2157B05 TSE01 P0001 T01830172",
      "metarObsTime": 1776205320
    },
    "KLBE": {
      "status": "OK",
      "delay": "—",
      "metarCat": "VFR",
      "metarRaw": "METAR KLBE 142150Z 27007KT 10SM VCTS BKN060 OVC085 22/16 A2994 RMK LTG DSNT W-NE",
      "metarObsTime": 1776203400
    },
    "KJST": {
      "status": "OK",
      "delay": "—",
      "metarCat": "IFR",
      "metarRaw": "SPECI KJST 142231Z AUTO 32018G28KT 1 3/4SM +TSRA BR FEW014 BKN042 OVC085 17/15 A3001 RMK AO2 PK WND 32028/2225 LTG DSNT SW AND W RAB10 TSB29 P0017 T01670150",
      "metarObsTime": 1776205860
    },
    "KERI": {
      "status": "OK",
      "delay": "—",
      "metarCat": "VFR",
      "metarRaw": "METAR KERI 142151Z 27011G26KT 10SM FEW045 SCT095 19/15 A2989 RMK AO2 PK WND 28026/2143 SLP118 T01940150 $",
      "metarObsTime": 1776203460
    },
    "KDUJ": {
      "status": "OK",
      "delay": "—",
      "metarCat": "VFR",
      "metarRaw": "METAR KDUJ 142153Z AUTO 23016G31KT 10SM FEW037 BKN110 21/14 A2992 RMK AO2 PK WND 24031/2146 LTG DSNT NW-NE SLP122 T02110144",
      "metarObsTime": 1776203580
    },
    "KBFD": {
      "status": "OK",
      "delay": "—",
      "metarCat": "VFR",
      "metarRaw": "SPECI KBFD 142237Z AUTO 28004KT 10SM -RA FEW022 SCT048 BKN080 16/15 A2995 RMK AO2 LTG DSNT SE-SW TSB16E31 P0000 T01610150",
      "metarObsTime": 1776206220
    },
    "KBTP": {
      "status": "OK",
      "delay": "—",
      "metarCat": "VFR",
      "metarRaw": "METAR KBTP 142156Z AUTO VRB03KT 10SM FEW120 19/19 A2995 RMK AO2 LTG DSNT SE AND S TSE26RAE38 SLP143 T01890189 PNO $",
      "metarObsTime": 1776203760
    },
    "KFKL": {
      "status": "OK",
      "delay": "—",
      "metarCat": "VFR",
      "metarRaw": "SPECI KFKL 142207Z AUTO 26007KT 10SM BKN100 20/14 A2994 RMK AO2 TSE01",
      "metarObsTime": 1776204420
    },
    "KIDI": {
      "status": "OK",
      "delay": "—",
      "metarCat": "VFR",
      "metarRaw": "METAR KIDI 142235Z AUTO 21008KT 10SM FEW070 SCT090 18/17 A2996 RMK A01",
      "metarObsTime": 1776206100
    },
    "KMDT": {
      "status": "OK",
      "delay": "—",
      "metarCat": "VFR",
      "metarRaw": "METAR KMDT 142156Z 22011G20KT 10SM -RA SCT040 SCT100 28/13 A2986 RMK AO2 WSHFT 2136 RAB53 SLP110 P0000 T02830133",
      "metarObsTime": 1776203760
    },
    "KCXY": {
      "status": "OK",
      "delay": "—",
      "metarCat": "VFR",
      "metarRaw": "METAR KCXY 142156Z 23010G18KT 10SM FEW080 28/14 A2986 RMK AO2 PK WND 23027/2106 LTG DSNT W SLP112 T02830139",
      "metarObsTime": 1776203760
    },
    "KMUI": {
      "status": "OK",
      "delay": "—",
      "metarCat": "—",
      "metarRaw": "—",
      "metarObsTime": null
    },
    "KUNV": {
      "status": "OK",
      "delay": "—",
      "metarCat": "VFR",
      "metarRaw": "METAR KUNV 142153Z 25005KT 10SM SCT050 23/15 A2991 RMK LTG DSNT NW",
      "metarObsTime": 1776203580
    },
    "KAOO": {
      "status": "OK",
      "delay": "—",
      "metarCat": "VFR",
      "metarRaw": "METAR KAOO 142153Z AUTO 23010KT 10SM CLR 24/12 A2993 RMK AO2 SLP126 T02390117",
      "metarObsTime": 1776203580
    },
    "KLNS": {
      "status": "OK",
      "delay": "—",
      "metarCat": "VFR",
      "metarRaw": "METAR KLNS 142153Z 24017G22KT 10SM CLR 29/13 A2986 RMK AO2 SLP110 T02890133",
      "metarObsTime": 1776203580
    },
    "KIPT": {
      "status": "OK",
      "delay": "—",
      "metarCat": "VFR",
      "metarRaw": "METAR KIPT 142154Z 25010G16KT 10SM FEW070 28/14 A2983 RMK AO2 PK WND 23030/2101 SLP097 T02780144 $",
      "metarObsTime": 1776203640
    },
    "KPHL": {
      "status": "OK",
      "delay": "—",
      "metarCat": "VFR",
      "metarRaw": "METAR KPHL 142154Z 22014KT 10SM FEW065 FEW100 SCT240 SCT330 30/12 A2987 RMK AO2 PK WND 24026/2138 SLP114 T03000122 $",
      "metarObsTime": 1776203640
    },
    "KABE": {
      "status": "OK",
      "delay": "—",
      "metarCat": "VFR",
      "metarRaw": "METAR KABE 142151Z 25013G21KT 10SM SCT075 28/14 A2985 RMK AO2 PK WND 24028/2115 SLP105 T02830139 $",
      "metarObsTime": 1776203460
    },
    "KAVP": {
      "status": "OK",
      "delay": "—",
      "metarCat": "VFR",
      "metarRaw": "METAR KAVP 142154Z 25015G27KT 10SM FEW060 28/13 A2984 RMK AO2 PK WND 24031/2057 SLP096 T02780133",
      "metarObsTime": 1776203640
    },
    "KHZL": {
      "status": "OK",
      "delay": "—",
      "metarCat": "MVFR",
      "metarRaw": "METAR KHZL 142235Z AUTO 22006G22KT 180V290 4SM -VCTSRA SCT026 SCT060 BKN070 21/15 A2994 RMK AO2 LTG DSNT ALQDS P0008",
      "metarObsTime": 1776206100
    }
  }
}