{
  "generatedAt": "2026-03-18T17:10:17.775Z",
  "airports": {
    "KPIT": {
      "status": "OK",
      "delay": "—",
      "metarCat": "VFR",
      "metarRaw": "METAR KPIT 181651Z 18009KT 10SM BKN180 BKN250 M02/M12 A3027 RMK AO2 SLP275 T10221122",
      "metarObsTime": 1773852660
    },
    "KAGC": {
      "status": "OK",
      "delay": "—",
      "metarCat": "VFR",
      "metarRaw": "METAR KAGC 181653Z 21008KT 10SM CLR M03/M12 A3026 RMK AO2 SLP272 T10281117",
      "metarObsTime": 1773852780
    },
    "KLBE": {
      "status": "OK",
      "delay": "—",
      "metarCat": "VFR",
      "metarRaw": "METAR KLBE 181647Z 21012KT 10SM SCT150 M01/M12 A3030",
      "metarObsTime": 1773852420
    },
    "KJST": {
      "status": "OK",
      "delay": "—",
      "metarCat": "VFR",
      "metarRaw": "METAR KJST 181654Z AUTO 15004G14KT 10SM CLR M05/M15 A3020 RMK AO2 SLP268 T10501150",
      "metarObsTime": 1773852840
    },
    "KERI": {
      "status": "OK",
      "delay": "—",
      "metarCat": "VFR",
      "metarRaw": "METAR KERI 181651Z 18008KT 10SM CLR M02/M12 A3026 RMK AO2 SLP258 T10171122",
      "metarObsTime": 1773852660
    },
    "KDUJ": {
      "status": "OK",
      "delay": "—",
      "metarCat": "VFR",
      "metarRaw": "METAR KDUJ 181653Z AUTO VRB06KT 10SM CLR M04/M14 A3023 RMK AO2 SLP266 T10441139",
      "metarObsTime": 1773852780
    },
    "KBFD": {
      "status": "OK",
      "delay": "—",
      "metarCat": "VFR",
      "metarRaw": "METAR KBFD 181653Z AUTO 15007KT 10SM CLR M05/M14 A3020 RMK AO2 SLP259 T10501139",
      "metarObsTime": 1773852780
    },
    "KBTP": {
      "status": "OK",
      "delay": "—",
      "metarCat": "VFR",
      "metarRaw": "METAR KBTP 181656Z AUTO 16010G16KT 10SM CLR M01/M10 A3027 RMK AO2 SLP277 P0001 T10111100 FZRANO $",
      "metarObsTime": 1773852960
    },
    "KFKL": {
      "status": "OK",
      "delay": "—",
      "metarCat": "VFR",
      "metarRaw": "METAR KFKL 181656Z AUTO 20011KT 10SM CLR M03/M11 A3024 RMK AO2 SLP265 T10331106 FZRANO",
      "metarObsTime": 1773852960
    },
    "KIDI": {
      "status": "OK",
      "delay": "—",
      "metarCat": "VFR",
      "metarRaw": "METAR KIDI 181655Z AUTO 00000G10KT 10SM CLR M02/M12 A3027 RMK A01",
      "metarObsTime": 1773852900
    },
    "KMDT": {
      "status": "OK",
      "delay": "—",
      "metarCat": "VFR",
      "metarRaw": "METAR KMDT 181656Z 17004KT 10SM FEW040 SCT180 BKN250 00/M11 A3040 RMK AO2 SLP298 T00001111",
      "metarObsTime": 1773852960
    },
    "KCXY": {
      "status": "OK",
      "delay": "—",
      "metarCat": "VFR",
      "metarRaw": "METAR KCXY 181656Z 08008KT 10SM CLR 01/M12 A3040 RMK AO2 SLP300 T00061122",
      "metarObsTime": 1773852960
    },
    "KMUI": {
      "status": "OK",
      "delay": "—",
      "metarCat": "VFR",
      "metarRaw": "METAR KMUI 181655Z 16007KT 10SM SCT043 BKN140 BKN210 01/M10 A3037 RMK AO2A SLP293 T00061103",
      "metarObsTime": 1773852900
    },
    "KUNV": {
      "status": "OK",
      "delay": "—",
      "metarCat": "VFR",
      "metarRaw": "METAR KUNV 181653Z 20004KT 10SM SCT040 M02/M11 A3031",
      "metarObsTime": 1773852780
    },
    "KAOO": {
      "status": "OK",
      "delay": "—",
      "metarCat": "VFR",
      "metarRaw": "METAR KAOO 181653Z AUTO 23008KT 10SM CLR M03/M12 A3029 RMK AO2 SLP280 T10281117",
      "metarObsTime": 1773852780
    },
    "KLNS": {
      "status": "OK",
      "delay": "—",
      "metarCat": "VFR",
      "metarRaw": "METAR KLNS 181653Z 10SM CLR 00/M11 A3041 RMK AO2 SLP301 T00001106",
      "metarObsTime": 1773852780
    },
    "KIPT": {
      "status": "OK",
      "delay": "—",
      "metarCat": "VFR",
      "metarRaw": "METAR KIPT 181654Z 00000KT 10SM BKN038 M02/M10 A3036 RMK AO2 SLP288 T10221100 $",
      "metarObsTime": 1773852840
    },
    "KPHL": {
      "status": "OK",
      "delay": "—",
      "metarCat": "VFR",
      "metarRaw": "METAR KPHL 181654Z 02005KT 10SM FEW055 FEW095 BKN150 BKN200 BKN300 02/M13 A3045 RMK AO2 SLP309 T00171128",
      "metarObsTime": 1773852840
    },
    "KABE": {
      "status": "OK",
      "delay": "—",
      "metarCat": "VFR",
      "metarRaw": "METAR KABE 181651Z 00000KT 10SM CLR M01/M13 A3040 RMK AO2 SLP299 T10111128",
      "metarObsTime": 1773852660
    },
    "KAVP": {
      "status": "OK",
      "delay": "—",
      "metarCat": "VFR",
      "metarRaw": "METAR KAVP 181654Z 25004KT 10SM CLR M03/M13 A3034 RMK AO2 SLP286 T10331133",
      "metarObsTime": 1773852840
    },
    "KHZL": {
      "status": "OK",
      "delay": "—",
      "metarCat": "VFR",
      "metarRaw": "METAR KHZL 181655Z AUTO 00000KT 10SM SCT027 M03/M12 RMK AO2",
      "metarObsTime": 1773852900
    }
  }
}