{
  "generatedAt": "2026-04-04T08:20:35.770Z",
  "airports": {
    "KPIT": {
      "status": "OK",
      "delay": "—",
      "metarCat": "MVFR",
      "metarRaw": "SPECI KPIT 040812Z 24005KT 4SM -RA BR FEW009 BKN040 OVC110 16/16 A3015 RMK AO2 RAB09 P0000 T01610156 $",
      "metarObsTime": 1775290320
    },
    "KAGC": {
      "status": "OK",
      "delay": "—",
      "metarCat": "VFR",
      "metarRaw": "METAR KAGC 040753Z 15004KT 6SM -RA BR SCT060 BKN075 OVC100 16/15 A3014 RMK AO2 RAB03E19B46 SLP204 P0003 T01610150",
      "metarObsTime": 1775289180
    },
    "KLBE": {
      "status": "OK",
      "delay": "—",
      "metarCat": "VFR",
      "metarRaw": "METAR KLBE 040815Z AUTO 00000KT 10SM BKN100 BKN110 17/16 A3017 RMK AO2",
      "metarObsTime": 1775290500
    },
    "KJST": {
      "status": "OK",
      "delay": "—",
      "metarCat": "VFR",
      "metarRaw": "METAR KJST 040754Z AUTO 24006KT 10SM FEW048 OVC090 16/13 A3018 RMK AO2 RAE35 SLP211 P0003 T01560133",
      "metarObsTime": 1775289240
    },
    "KERI": {
      "status": "OK",
      "delay": "—",
      "metarCat": "MVFR",
      "metarRaw": "METAR KERI 040751Z AUTO 05014G20KT 10SM OVC011 06/02 A3017 RMK AO2 SLP218 T00560022",
      "metarObsTime": 1775289060
    },
    "KDUJ": {
      "status": "OK",
      "delay": "—",
      "metarCat": "MVFR",
      "metarRaw": "SPECI KDUJ 040812Z AUTO 22004KT 3SM BR SCT009 BKN023 15/15 A3014 RMK AO2 T01500150",
      "metarObsTime": 1775290320
    },
    "KBFD": {
      "status": "OK",
      "delay": "—",
      "metarCat": "LIFR",
      "metarRaw": "METAR KBFD 040753Z AUTO 00000KT 5SM BR OVC003 11/10 A3016 RMK AO2 SLP206 T01060100",
      "metarObsTime": 1775289180
    },
    "KBTP": {
      "status": "OK",
      "delay": "—",
      "metarCat": "IFR",
      "metarRaw": "SPECI KBTP 040808Z AUTO 00000KT 1 3/4SM -RA FEW075 OVC095 16/ A3014 RMK AO2 VIS 1/2V5 RAB02 P0000 $",
      "metarObsTime": 1775290080
    },
    "KFKL": {
      "status": "OK",
      "delay": "—",
      "metarCat": "MVFR",
      "metarRaw": "METAR KFKL 040756Z AUTO 03005KT 10SM BKN025 12/11 A3015 RMK AO2 SLP208 T01170106",
      "metarObsTime": 1775289360
    },
    "KIDI": {
      "status": "OK",
      "delay": "—",
      "metarCat": "VFR",
      "metarRaw": "METAR KIDI 040815Z AUTO 00000KT 7SM SCT080 BKN095 BKN120 15/15 A3016 RMK A01",
      "metarObsTime": 1775290500
    },
    "KMDT": {
      "status": "OK",
      "delay": "—",
      "metarCat": "MVFR",
      "metarRaw": "METAR KMDT 040756Z 32003KT 3SM BR SCT130 BKN250 10/10 A3012 RMK AO2 SLP202 T01000100 $",
      "metarObsTime": 1775289360
    },
    "KCXY": {
      "status": "OK",
      "delay": "—",
      "metarCat": "MVFR",
      "metarRaw": "METAR KCXY 040756Z AUTO 00000KT 4SM BR CLR 11/11 A3013 RMK AO2 SLP205 T01110106",
      "metarObsTime": 1775289360
    },
    "KMUI": {
      "status": "OK",
      "delay": "—",
      "metarCat": "IFR",
      "metarRaw": "SPECI KMUI 040810Z AUTO 00000KT 1 1/2SM BR FEW000 SCT100 BKN140 11/10 A3011 RMK AO2 SLP199",
      "metarObsTime": 1775290200
    },
    "KUNV": {
      "status": "OK",
      "delay": "—",
      "metarCat": "VFR",
      "metarRaw": "METAR KUNV 040815Z AUTO 23003KT 10SM BKN110 15/15 A3015 RMK AO2 T01530152",
      "metarObsTime": 1775290500
    },
    "KAOO": {
      "status": "OK",
      "delay": "—",
      "metarCat": "VFR",
      "metarRaw": "METAR KAOO 040753Z AUTO 00000KT 10SM BKN080 OVC100 15/13 A3017 RMK AO2 SLP209 T01500133",
      "metarObsTime": 1775289180
    },
    "KLNS": {
      "status": "OK",
      "delay": "—",
      "metarCat": "LIFR",
      "metarRaw": "SPECI KLNS 040803Z AUTO 00000KT 3/4SM BR VV006 10/10 A3014 RMK AO2 T01000100",
      "metarObsTime": 1775289780
    },
    "KIPT": {
      "status": "OK",
      "delay": "—",
      "metarCat": "MVFR",
      "metarRaw": "METAR KIPT 040752Z AUTO 33003KT 4SM BR CLR 11/11 A3013 RMK AO2 SLP205 T01110111",
      "metarObsTime": 1775289120
    },
    "KPHL": {
      "status": "OK",
      "delay": "—",
      "metarCat": "VFR",
      "metarRaw": "METAR KPHL 040754Z 23005KT 10SM FEW120 SCT270 15/13 A3013 RMK AO2 SLP201 T01500133 $",
      "metarObsTime": 1775289240
    },
    "KABE": {
      "status": "OK",
      "delay": "—",
      "metarCat": "VFR",
      "metarRaw": "METAR KABE 040751Z 30004KT 6SM BR FEW110 09/09 A3012 RMK AO2 SLP201 T00940089 $",
      "metarObsTime": 1775289060
    },
    "KAVP": {
      "status": "OK",
      "delay": "—",
      "metarCat": "MVFR",
      "metarRaw": "METAR KAVP 040754Z AUTO 34009KT 10SM OVC012 14/13 A3016 RMK AO2 SLP207 T01440128",
      "metarObsTime": 1775289240
    },
    "KHZL": {
      "status": "OK",
      "delay": "—",
      "metarCat": "MVFR",
      "metarRaw": "METAR KHZL 040815Z AUTO 00000KT 5SM BR SCT120 12/11 A3017 RMK AO2",
      "metarObsTime": 1775290500
    }
  }
}