{
  "generatedAt": "2026-03-05T15:45:12.695Z",
  "airports": {
    "KPIT": {
      "status": "OK",
      "delay": "—",
      "metarCat": "IFR",
      "metarRaw": "METAR KPIT 051451Z 20003KT 6SM -RA BR BKN007 OVC070 14/13 A3008 RMK AO2 SLP193 P0004 60016 T01390133 50009",
      "metarObsTime": 1772722260
    },
    "KAGC": {
      "status": "OK",
      "delay": "—",
      "metarCat": "IFR",
      "metarRaw": "SPECI KAGC 051501Z 18007KT 2 1/2SM -RA BR BKN008 OVC090 13/13 A3008 RMK AO2 P0000 T01330133",
      "metarObsTime": 1772722860
    },
    "KLBE": {
      "status": "OK",
      "delay": "—",
      "metarCat": "MVFR",
      "metarRaw": "METAR KLBE 051447Z VRB04KT 3SM -RA BR BKN015 OVC035 14/14 A3010",
      "metarObsTime": 1772722020
    },
    "KJST": {
      "status": "OK",
      "delay": "—",
      "metarCat": "IFR",
      "metarRaw": "SPECI KJST 051525Z AUTO 20004KT 5SM -RA BR SCT004 BKN008 OVC070 13/12 A3009 RMK AO2 P0004 T01280122",
      "metarObsTime": 1772724300
    },
    "KERI": {
      "status": "OK",
      "delay": "—",
      "metarCat": "LIFR",
      "metarRaw": "SPECI KERI 051540Z 05008KT 3/4SM R06/5000V6000FT BR BKN003 OVC011 02/02 A3009 RMK AO2 RAB16E26UPB26E28 P0000 T00220017",
      "metarObsTime": 1772725200
    },
    "KDUJ": {
      "status": "OK",
      "delay": "—",
      "metarCat": "LIFR",
      "metarRaw": "SPECI KDUJ 051537Z AUTO 12004KT 2 1/2SM -RA BR OVC002 07/07 A3010 RMK AO2 RAB33 P0000 T00720067",
      "metarObsTime": 1772725020
    },
    "KBFD": {
      "status": "OK",
      "delay": "—",
      "metarCat": "LIFR",
      "metarRaw": "SPECI KBFD 051515Z AUTO 10005KT 1 1/2SM BR OVC002 06/06 A3011 RMK AO2 RAB1459E09 P0000 T00560056",
      "metarObsTime": 1772723700
    },
    "KBTP": {
      "status": "OK",
      "delay": "—",
      "metarCat": "IFR",
      "metarRaw": "METAR KBTP 051456Z AUTO 20004KT 5SM RA BR OVC005 13/13 A3009 RMK AO2 SLP198 P0012 60014 T01280128 51013 $",
      "metarObsTime": 1772722560
    },
    "KFKL": {
      "status": "OK",
      "delay": "—",
      "metarCat": "LIFR",
      "metarRaw": "METAR KFKL 051456Z AUTO 11003KT M1/4SM FG OVC003 08/08 A3009 RMK AO2 RAE09 SLP197 P0000 60002 T00830083 51010",
      "metarObsTime": 1772722560
    },
    "KIDI": {
      "status": "OK",
      "delay": "—",
      "metarCat": "LIFR",
      "metarRaw": "METAR KIDI 051535Z AUTO 22004KT 1 1/2SM BR OVC003 13/13 A3010 RMK A01",
      "metarObsTime": 1772724900
    },
    "KMDT": {
      "status": "OK",
      "delay": "—",
      "metarCat": "LIFR",
      "metarRaw": "SPECI KMDT 051507Z 00000KT 1 3/4SM BR OVC004 06/06 A3019 RMK AO2 TWR VIS 2 1/2 T00610061",
      "metarObsTime": 1772723220
    },
    "KCXY": {
      "status": "OK",
      "delay": "—",
      "metarCat": "LIFR",
      "metarRaw": "METAR KCXY 051456Z 11005KT 3/4SM R08/P6000FT BR OVC004 07/06 A3020 RMK AO2 SLP231 60000 T00670061 51012",
      "metarObsTime": 1772722560
    },
    "KMUI": {
      "status": "OK",
      "delay": "—",
      "metarCat": "LIFR",
      "metarRaw": "METAR KMUI 051455Z 00000KT 3/4SM BR OVC003 07/07 A3018 RMK AO2A SLP226 60002 T00710068 51012",
      "metarObsTime": 1772722500
    },
    "KUNV": {
      "status": "OK",
      "delay": "—",
      "metarCat": "IFR",
      "metarRaw": "METAR KUNV 051453Z 00000KT 3SM BR SCT003 BKN006 OVC009 05/05 A3017",
      "metarObsTime": 1772722380
    },
    "KAOO": {
      "status": "OK",
      "delay": "—",
      "metarCat": "MVFR",
      "metarRaw": "SPECI KAOO 051511Z AUTO 00000KT 10SM -RA FEW007 SCT010 OVC021 07/06 A3015 RMK AO2 P0000 T00670061",
      "metarObsTime": 1772723460
    },
    "KLNS": {
      "status": "OK",
      "delay": "—",
      "metarCat": "LIFR",
      "metarRaw": "SPECI KLNS 051508Z 09004KT 2 1/2SM BR OVC004 07/07 A3020 RMK AO2 T00670067",
      "metarObsTime": 1772723280
    },
    "KIPT": {
      "status": "OK",
      "delay": "—",
      "metarCat": "IFR",
      "metarRaw": "SPECI KIPT 051542Z 13004KT 2 1/2SM BR FEW005 OVC009 06/06 A3018 RMK AO2 T00560056 $",
      "metarObsTime": 1772725320
    },
    "KPHL": {
      "status": "OK",
      "delay": "—",
      "metarCat": "IFR",
      "metarRaw": "SPECI KPHL 051511Z 08005KT 7SM OVC009 08/06 A3021 RMK AO2 T00780061 $",
      "metarObsTime": 1772723460
    },
    "KABE": {
      "status": "OK",
      "delay": "—",
      "metarCat": "IFR",
      "metarRaw": "METAR KABE 051451Z 07004KT 2 1/2SM -RA BR BKN005 OVC012 06/06 A3021 RMK AO2 SFC VIS 5 SLP233 P0007 60036 T00610056 53005",
      "metarObsTime": 1772722260
    },
    "KAVP": {
      "status": "OK",
      "delay": "—",
      "metarCat": "IFR",
      "metarRaw": "SPECI KAVP 051540Z 00000KT 1 1/2SM R04/6000VP6000FT -RA BR FEW003 OVC009 07/06 A3019 RMK AO2 P0001 T00670061",
      "metarObsTime": 1772725200
    },
    "KHZL": {
      "status": "OK",
      "delay": "—",
      "metarCat": "LIFR",
      "metarRaw": "METAR KHZL 051535Z AUTO 16003KT 10SM OVC004 06/05 A3021 RMK AO2",
      "metarObsTime": 1772724900
    }
  }
}