{
  "generatedAt": "2026-05-31T01:58:02.764Z",
  "faaFlow": {
    "updatedAt": "2026-05-31T01:58:02.703Z",
    "source": "https://www.fly.faa.gov/adv/adv_spt",
    "terminal": [
      {
        "time": "—",
        "text": "AFTER",
        "code": "FLOW",
        "label": "FAA flow impact",
        "level": "yellow",
        "section": "Terminal Planned",
        "airports": []
      },
      {
        "time": "1430",
        "text": "SFO GROUND STOP/DELAY PROGRAM POSSIBLE",
        "code": "GS",
        "label": "Ground stop possible",
        "level": "yellow",
        "section": "Terminal Planned",
        "airports": []
      },
      {
        "time": "—",
        "text": "AFTER",
        "code": "FLOW",
        "label": "FAA flow impact",
        "level": "yellow",
        "section": "Terminal Planned",
        "airports": []
      },
      {
        "time": "1600",
        "text": "MCO/TPA GROUND STOP POSSIBLE",
        "code": "GS",
        "label": "Ground stop possible",
        "level": "yellow",
        "section": "Terminal Planned",
        "airports": []
      },
      {
        "time": "—",
        "text": "AFTER",
        "code": "FLOW",
        "label": "FAA flow impact",
        "level": "yellow",
        "section": "Terminal Planned",
        "airports": []
      },
      {
        "time": "1800",
        "text": "ATL GROUND STOP/DELAY PROGRAM POSSIBLE",
        "code": "GS",
        "label": "Ground stop possible",
        "level": "yellow",
        "section": "Terminal Planned",
        "airports": []
      }
    ],
    "enroute": [
      {
        "time": "—",
        "text": "AFTER",
        "code": "FLOW",
        "label": "FAA flow impact",
        "level": "yellow",
        "section": "En Route Planned",
        "airports": []
      },
      {
        "time": "1200",
        "text": "AR & ATLANTIC Y-ROUTE CLOSURES POSSIBLE",
        "code": "CLOSURE",
        "label": "Closure possible",
        "level": "yellow",
        "section": "En Route Planned",
        "airports": []
      },
      {
        "time": "—",
        "text": "AFTER",
        "code": "FLOW",
        "label": "FAA flow impact",
        "level": "yellow",
        "section": "En Route Planned",
        "airports": []
      },
      {
        "time": "1300",
        "text": "LAKE ERIE WEST PARTIAL POSSIBLE",
        "code": "FLOW",
        "label": "FAA flow impact",
        "level": "yellow",
        "section": "En Route Planned",
        "airports": []
      },
      {
        "time": "—",
        "text": "AFTER",
        "code": "FLOW",
        "label": "FAA flow impact",
        "level": "yellow",
        "section": "En Route Planned",
        "airports": []
      },
      {
        "time": "1300",
        "text": "TRANSCON ROUTES POSSBILE",
        "code": "ROUTE",
        "label": "Route impact possible",
        "level": "blue",
        "section": "En Route Planned",
        "airports": []
      },
      {
        "time": "—",
        "text": "AFTER",
        "code": "FLOW",
        "label": "FAA flow impact",
        "level": "yellow",
        "section": "En Route Planned",
        "airports": []
      },
      {
        "time": "1400",
        "text": "GULF ROUTES CLOSURES POSSIBLE",
        "code": "CLOSURE",
        "label": "Closure possible",
        "level": "yellow",
        "section": "En Route Planned",
        "airports": []
      },
      {
        "time": "—",
        "text": "AFTER",
        "code": "FLOW",
        "label": "FAA flow impact",
        "level": "yellow",
        "section": "En Route Planned",
        "airports": []
      },
      {
        "time": "1400",
        "text": "NY SATS TO FLORIDA ROUTES POSSIBLE",
        "code": "ROUTE",
        "label": "Route impact possible",
        "level": "blue",
        "section": "En Route Planned",
        "airports": []
      },
      {
        "time": "—",
        "text": "AFTER",
        "code": "FLOW",
        "label": "FAA flow impact",
        "level": "yellow",
        "section": "En Route Planned",
        "airports": []
      },
      {
        "time": "1700",
        "text": "ATL CDRS/SWAP/ARRIVAL ROUTES POSSIBLE",
        "code": "ROUTE",
        "label": "Route impact possible",
        "level": "blue",
        "section": "En Route Planned",
        "airports": []
      },
      {
        "time": "—",
        "text": "AFTER",
        "code": "FLOW",
        "label": "FAA flow impact",
        "level": "yellow",
        "section": "En Route Planned",
        "airports": []
      },
      {
        "time": "1700",
        "text": "ZJX CAPPING/TUNNELING/REGIONAL ROUTES POSSIBLE",
        "code": "ROUTE",
        "label": "Route impact possible",
        "level": "blue",
        "section": "En Route Planned",
        "airports": []
      },
      {
        "time": "—",
        "text": "AFTER",
        "code": "FLOW",
        "label": "FAA flow impact",
        "level": "yellow",
        "section": "En Route Planned",
        "airports": []
      },
      {
        "time": "1700",
        "text": "MCO/TPA CDRS/SWAP/ESCAPE ROUTES POSSIBLE",
        "code": "ROUTE",
        "label": "Route impact possible",
        "level": "blue",
        "section": "En Route Planned",
        "airports": []
      },
      {
        "time": "—",
        "text": "AFTER",
        "code": "FLOW",
        "label": "FAA flow impact",
        "level": "yellow",
        "section": "En Route Planned",
        "airports": []
      },
      {
        "time": "1900",
        "text": "NO Q34 PARTIAL POSSIBLE",
        "code": "FLOW",
        "label": "FAA flow impact",
        "level": "yellow",
        "section": "En Route Planned",
        "airports": []
      },
      {
        "time": "—",
        "text": "AFTER",
        "code": "FLOW",
        "label": "FAA flow impact",
        "level": "yellow",
        "section": "En Route Planned",
        "airports": []
      },
      {
        "time": "2000",
        "text": "DFW/DAL ARRIVAL ROUTES POSSIBLE",
        "code": "ROUTE",
        "label": "Route impact possible",
        "level": "blue",
        "section": "En Route Planned",
        "airports": []
      },
      {
        "time": "—",
        "text": "AFTER",
        "code": "FLOW",
        "label": "FAA flow impact",
        "level": "yellow",
        "section": "En Route Planned",
        "airports": []
      },
      {
        "time": "2000",
        "text": "IAH/HOU ARRIVAL ROUTES POSSIBLE",
        "code": "ROUTE",
        "label": "Route impact possible",
        "level": "blue",
        "section": "En Route Planned",
        "airports": []
      },
      {
        "time": "—",
        "text": "AFTER",
        "code": "FLOW",
        "label": "FAA flow impact",
        "level": "yellow",
        "section": "En Route Planned",
        "airports": []
      },
      {
        "time": "0400",
        "text": "MCO_NO_GRNCH_PRICY EXPECTED CDRS/SWAP/CAPPING/TUNNELING/HOTLINE/DIVERSION RECOVERY:",
        "code": "ROUTE",
        "label": "Route impact possible",
        "level": "orange",
        "section": "En Route Planned",
        "airports": []
      },
      {
        "time": "—",
        "text": "UNTIL",
        "code": "FLOW",
        "label": "FAA flow impact",
        "level": "yellow",
        "section": "En Route Planned",
        "airports": []
      },
      {
        "time": "0200",
        "text": "ZDC SWAP STATEMENT",
        "code": "ROUTE",
        "label": "Route impact possible",
        "level": "blue",
        "section": "En Route Planned",
        "airports": []
      },
      {
        "time": "—",
        "text": "UNTIL",
        "code": "FLOW",
        "label": "FAA flow impact",
        "level": "yellow",
        "section": "En Route Planned",
        "airports": []
      },
      {
        "time": "0200",
        "text": "ZDV SWAP STATEMENT RUNWAY/EQUIPMENT/POSSIBLE SYSTEM IMPACT REPORTS(SIRs): MSP - RWY 12L/30R CLOSED",
        "code": "CLOSURE",
        "label": "Closure possible",
        "level": "yellow",
        "section": "En Route Planned",
        "airports": []
      }
    ],
    "airports": {
      "KPIT": null,
      "KAGC": null,
      "KLBE": null,
      "KJST": null,
      "KERI": null,
      "KDUJ": null,
      "KBFD": null,
      "KBTP": null,
      "KFKL": null,
      "KIDI": null,
      "KMDT": null,
      "KCXY": null,
      "KMUI": null,
      "KUNV": null,
      "KAOO": null,
      "KLNS": null,
      "KIPT": null,
      "KPHL": null,
      "KABE": null,
      "KAVP": null,
      "KHZL": null
    }
  },
  "airports": {
    "KPIT": {
      "status": "OK",
      "delay": "—",
      "metarCat": "VFR",
      "metarRaw": "METAR KPIT 310151Z 36007KT 10SM FEW250 17/07 A3012 RMK AO2 SLP207 T01670072 $",
      "metarObsTime": 1780192260,
      "faaFlow": null
    },
    "KAGC": {
      "status": "OK",
      "delay": "—",
      "metarCat": "VFR",
      "metarRaw": "METAR KAGC 310153Z 06005KT 10SM CLR 17/03 A3012 RMK AO2 SLP201 T01670033",
      "metarObsTime": 1780192380,
      "faaFlow": null
    },
    "KLBE": {
      "status": "OK",
      "delay": "—",
      "metarCat": "VFR",
      "metarRaw": "METAR KLBE 310147Z 06007KT 10SM CLR 15/05 A3014",
      "metarObsTime": 1780192020,
      "faaFlow": null
    },
    "KJST": {
      "status": "OK",
      "delay": "—",
      "metarCat": "VFR",
      "metarRaw": "METAR KJST 310154Z AUTO 03009KT 10SM CLR 13/01 A3014 RMK AO2 SLP209 T01280011",
      "metarObsTime": 1780192440,
      "faaFlow": null
    },
    "KERI": {
      "status": "OK",
      "delay": "—",
      "metarCat": "VFR",
      "metarRaw": "METAR KERI 310151Z 18003KT 10SM CLR 12/06 A3018 RMK AO2 SLP221 T01170061 $",
      "metarObsTime": 1780192260,
      "faaFlow": null
    },
    "KDUJ": {
      "status": "OK",
      "delay": "—",
      "metarCat": "VFR",
      "metarRaw": "METAR KDUJ 310153Z AUTO 05004KT 10SM CLR 11/02 A3017 RMK AO2 SLP217 T01110017",
      "metarObsTime": 1780192380,
      "faaFlow": null
    },
    "KBFD": {
      "status": "OK",
      "delay": "—",
      "metarCat": "VFR",
      "metarRaw": "METAR KBFD 310153Z AUTO 00000KT 10SM CLR 10/02 A3017 RMK AO2 SLP221 T01000022",
      "metarObsTime": 1780192380,
      "faaFlow": null
    },
    "KBTP": {
      "status": "OK",
      "delay": "—",
      "metarCat": "VFR",
      "metarRaw": "METAR KBTP 310156Z AUTO 05007KT 10SM CLR 15/04 A3016 RMK AO2 SLP217 T01500039 $",
      "metarObsTime": 1780192560,
      "faaFlow": null
    },
    "KFKL": {
      "status": "OK",
      "delay": "—",
      "metarCat": "VFR",
      "metarRaw": "METAR KFKL 310156Z AUTO 04006KT 10SM CLR 13/03 A3018 RMK AO2 SLP224 T01280033",
      "metarObsTime": 1780192560,
      "faaFlow": null
    },
    "KIDI": {
      "status": "OK",
      "delay": "—",
      "metarCat": "VFR",
      "metarRaw": "METAR KIDI 310155Z AUTO 05007KT 10SM CLR 14/03 A3016 RMK A01",
      "metarObsTime": 1780192500,
      "faaFlow": null
    },
    "KMDT": {
      "status": "OK",
      "delay": "—",
      "metarCat": "VFR",
      "metarRaw": "METAR KMDT 310056Z 35006KT 10SM FEW060 17/04 A3008 RMK AO2 SLP185 T01720039 $",
      "metarObsTime": 1780188960,
      "faaFlow": null
    },
    "KCXY": {
      "status": "OK",
      "delay": "—",
      "metarCat": "VFR",
      "metarRaw": "METAR KCXY 310056Z 01006KT 10SM CLR 18/04 A3008 RMK AO2 SLP187 T01830039",
      "metarObsTime": 1780188960,
      "faaFlow": null
    },
    "KMUI": {
      "status": "OK",
      "delay": "—",
      "metarCat": "VFR",
      "metarRaw": "METAR KMUI 310055Z AUTO 35007KT 10SM CLR 21/08 A3007 RMK AO2 SLP184 T02090075",
      "metarObsTime": 1780188900,
      "faaFlow": null
    },
    "KUNV": {
      "status": "OK",
      "delay": "—",
      "metarCat": "VFR",
      "metarRaw": "METAR KUNV 310153Z 00000KT 10SM CLR 12/02 A3015",
      "metarObsTime": 1780192380,
      "faaFlow": null
    },
    "KAOO": {
      "status": "OK",
      "delay": "—",
      "metarCat": "VFR",
      "metarRaw": "METAR KAOO 310153Z AUTO 03010KT 10SM CLR 14/02 A3015 RMK AO2 SLP209 T01390022",
      "metarObsTime": 1780192380,
      "faaFlow": null
    },
    "KLNS": {
      "status": "OK",
      "delay": "—",
      "metarCat": "VFR",
      "metarRaw": "METAR KLNS 310153Z 34007KT 10SM FEW070 14/06 A3010 RMK AO2 SLP192 T01440061",
      "metarObsTime": 1780192380,
      "faaFlow": null
    },
    "KIPT": {
      "status": "OK",
      "delay": "—",
      "metarCat": "VFR",
      "metarRaw": "METAR KIPT 310154Z 25005KT 10SM CLR 11/05 A3013 RMK AO2 SLP203 T01110050 $",
      "metarObsTime": 1780192440,
      "faaFlow": null
    },
    "KPHL": {
      "status": "OK",
      "delay": "—",
      "metarCat": "VFR",
      "metarRaw": "METAR KPHL 310154Z 11005KT 10SM BKN075 16/07 A3009 RMK AO2 SLP188 T01610067 $",
      "metarObsTime": 1780192440,
      "faaFlow": null
    },
    "KABE": {
      "status": "OK",
      "delay": "—",
      "metarCat": "VFR",
      "metarRaw": "METAR KABE 310151Z 33005KT 10SM CLR 13/04 A3008 RMK AO2 SLP186 T01330039",
      "metarObsTime": 1780192260,
      "faaFlow": null
    },
    "KAVP": {
      "status": "OK",
      "delay": "—",
      "metarCat": "VFR",
      "metarRaw": "METAR KAVP 310154Z AUTO 00000KT 10SM CLR 11/04 A3012 RMK AO2 SLP198 T01110039 $",
      "metarObsTime": 1780192440,
      "faaFlow": null
    },
    "KHZL": {
      "status": "OK",
      "delay": "—",
      "metarCat": "VFR",
      "metarRaw": "METAR KHZL 310155Z AUTO 00000KT 10SM CLR 12/03 A3015 RMK AO2",
      "metarObsTime": 1780192500,
      "faaFlow": null
    }
  }
}