{
  "generatedAt": "2026-03-30T09:20:32.872Z",
  "airports": {
    "KPIT": {
      "status": "OK",
      "delay": "—",
      "metarCat": "VFR",
      "metarRaw": "METAR KPIT 300851Z 21007G18KT 10SM BKN060 OVC120 14/M02 A3013 RMK AO2 SLP209 T01441017 56010",
      "metarObsTime": 1774860660
    },
    "KAGC": {
      "status": "OK",
      "delay": "—",
      "metarCat": "VFR",
      "metarRaw": "METAR KAGC 300853Z 19008KT 10SM OVC065 13/M03 A3014 RMK AO2 SLP211 T01281028 56009",
      "metarObsTime": 1774860780
    },
    "KLBE": {
      "status": "OK",
      "delay": "—",
      "metarCat": "VFR",
      "metarRaw": "METAR KLBE 300915Z AUTO 20010KT 10SM OVC065 14/M03 A3018 RMK AO2",
      "metarObsTime": 1774862100
    },
    "KJST": {
      "status": "OK",
      "delay": "—",
      "metarCat": "VFR",
      "metarRaw": "METAR KJST 300854Z AUTO 25013KT 10SM OVC065 11/M04 A3015 RMK AO2 SLP212 T01111039 56008",
      "metarObsTime": 1774860840
    },
    "KERI": {
      "status": "OK",
      "delay": "—",
      "metarCat": "VFR",
      "metarRaw": "METAR KERI 300851Z AUTO 21008KT 10SM OVC070 13/M01 A3006 RMK AO2 SLP180 T01331006 56014 $",
      "metarObsTime": 1774860660
    },
    "KDUJ": {
      "status": "OK",
      "delay": "—",
      "metarCat": "VFR",
      "metarRaw": "METAR KDUJ 300853Z AUTO 23006KT 10SM OVC070 11/M04 A3011 RMK AO2 SLP197 T01061039 56009",
      "metarObsTime": 1774860780
    },
    "KBFD": {
      "status": "OK",
      "delay": "—",
      "metarCat": "VFR",
      "metarRaw": "METAR KBFD 300853Z AUTO VRB04KT 10SM BKN085 08/M06 A3009 RMK AO2 SLP192 T00831061 56015",
      "metarObsTime": 1774860780
    },
    "KBTP": {
      "status": "OK",
      "delay": "—",
      "metarCat": "VFR",
      "metarRaw": "METAR KBTP 300856Z AUTO 20008KT 10SM OVC060 13/00 A3013 RMK AO2 SLP209 T01330000 56009 $",
      "metarObsTime": 1774860960
    },
    "KFKL": {
      "status": "OK",
      "delay": "—",
      "metarCat": "VFR",
      "metarRaw": "METAR KFKL 300856Z AUTO 22007KT 10SM OVC060 12/M01 A3011 RMK AO2 SLP199 T01171011 56010",
      "metarObsTime": 1774860960
    },
    "KIDI": {
      "status": "OK",
      "delay": "—",
      "metarCat": "VFR",
      "metarRaw": "METAR KIDI 300915Z AUTO 22008KT 10SM BKN060 OVC070 11/M02 A3015 RMK A01",
      "metarObsTime": 1774862100
    },
    "KMDT": {
      "status": "OK",
      "delay": "—",
      "metarCat": "VFR",
      "metarRaw": "METAR KMDT 300856Z 00000KT 10SM BKN130 07/01 A3022 RMK AO2 SLP233 T00670011 56016",
      "metarObsTime": 1774860960
    },
    "KCXY": {
      "status": "OK",
      "delay": "—",
      "metarCat": "VFR",
      "metarRaw": "METAR KCXY 300856Z AUTO 00000KT 10SM CLR 06/01 A3022 RMK AO2 SLP236 T00560011 56015",
      "metarObsTime": 1774860960
    },
    "KMUI": {
      "status": "OK",
      "delay": "—",
      "metarCat": "—",
      "metarRaw": "—",
      "metarObsTime": null
    },
    "KUNV": {
      "status": "OK",
      "delay": "—",
      "metarCat": "VFR",
      "metarRaw": "METAR KUNV 300915Z AUTO 27005KT 10SM OVC075 08/M02 A3015 RMK AO2 LTG DSNT SW T00831020",
      "metarObsTime": 1774862100
    },
    "KAOO": {
      "status": "OK",
      "delay": "—",
      "metarCat": "VFR",
      "metarRaw": "METAR KAOO 300853Z AUTO 22006KT 10SM BKN080 OVC100 08/M03 A3016 RMK AO2 SLP217 T00831028 56012 $",
      "metarObsTime": 1774860780
    },
    "KLNS": {
      "status": "OK",
      "delay": "—",
      "metarCat": "VFR",
      "metarRaw": "METAR KLNS 300853Z AUTO 00000KT 10SM CLR 06/02 A3023 RMK AO2 SLP237 T00560022 56020",
      "metarObsTime": 1774860780
    },
    "KIPT": {
      "status": "OK",
      "delay": "—",
      "metarCat": "VFR",
      "metarRaw": "METAR KIPT 300854Z AUTO VRB03KT 10SM SCT080 OVC095 06/M01 A3016 RMK AO2 SLP216 T00561006 56016 $",
      "metarObsTime": 1774860840
    },
    "KPHL": {
      "status": "OK",
      "delay": "—",
      "metarCat": "VFR",
      "metarRaw": "METAR KPHL 300854Z 19007KT 10SM SCT120 OVC150 09/05 A3027 RMK AO2 SLP249 T00940050 56028 $",
      "metarObsTime": 1774860840
    },
    "KABE": {
      "status": "OK",
      "delay": "—",
      "metarCat": "VFR",
      "metarRaw": "METAR KABE 300851Z 00000KT 10SM CLR 03/M02 A3023 RMK AO2 SLP238 T00331017 56023 $",
      "metarObsTime": 1774860660
    },
    "KAVP": {
      "status": "OK",
      "delay": "—",
      "metarCat": "VFR",
      "metarRaw": "METAR KAVP 300854Z AUTO 21007G16KT 10SM BKN090 OVC120 08/M03 A3016 RMK AO2 SLP215 T00831028 56024",
      "metarObsTime": 1774860840
    },
    "KHZL": {
      "status": "OK",
      "delay": "—",
      "metarCat": "VFR",
      "metarRaw": "METAR KHZL 300915Z AUTO 00000KT 10SM OVC110 05/M02 A3021 RMK AO2",
      "metarObsTime": 1774862100
    }
  }
}