{
  "generatedAt": "2026-04-19T14:50:57.313Z",
  "airports": {
    "KPIT": {
      "status": "OK",
      "delay": "—",
      "metarCat": "VFR",
      "metarRaw": "METAR KPIT 191351Z 30015G25KT 10SM SCT032 SCT060 07/M02 A3003 RMK AO2 PK WND 28027/1336 SLP179 T00671017 $",
      "metarObsTime": 1776606660
    },
    "KAGC": {
      "status": "OK",
      "delay": "—",
      "metarCat": "VFR",
      "metarRaw": "METAR KAGC 191353Z 30009G19KT 10SM BKN046 06/02 A3002 RMK AO2 SLP174 T00560017",
      "metarObsTime": 1776606780
    },
    "KLBE": {
      "status": "OK",
      "delay": "—",
      "metarCat": "VFR",
      "metarRaw": "METAR KLBE 191352Z 26008G21KT 9SM OVC038 06/04 A3005",
      "metarObsTime": 1776606720
    },
    "KJST": {
      "status": "OK",
      "delay": "—",
      "metarCat": "MVFR",
      "metarRaw": "SPECI KJST 191443Z AUTO 29014G22KT 10SM FEW009 BKN018 OVC031 03/01 A2997 RMK AO2 RAB23E40 P0001 T00280006",
      "metarObsTime": 1776609780
    },
    "KERI": {
      "status": "OK",
      "delay": "—",
      "metarCat": "VFR",
      "metarRaw": "METAR KERI 191351Z 28013G21KT 10SM OVC055 06/M02 A3003 RMK AO2 SLP173 T00611017 $",
      "metarObsTime": 1776606660
    },
    "KDUJ": {
      "status": "OK",
      "delay": "—",
      "metarCat": "MVFR",
      "metarRaw": "SPECI KDUJ 191428Z AUTO 29005KT 8SM -RA SCT013 BKN019 OVC033 03/01 A2996 RMK AO2 RAB18 P0000 T00330011",
      "metarObsTime": 1776608880
    },
    "KBFD": {
      "status": "OK",
      "delay": "—",
      "metarCat": "MVFR",
      "metarRaw": "SPECI KBFD 191434Z AUTO 28007KT 10SM FEW021 BKN025 OVC034 03/M01 A2994 RMK AO2 T00331006",
      "metarObsTime": 1776609240
    },
    "KBTP": {
      "status": "OK",
      "delay": "—",
      "metarCat": "VFR",
      "metarRaw": "METAR KBTP 191356Z AUTO 28016G22KT 10SM BKN032 BKN075 07/01 A3003 RMK AO2 SLP177 P0001 T00670006 $",
      "metarObsTime": 1776606960
    },
    "KFKL": {
      "status": "OK",
      "delay": "—",
      "metarCat": "—",
      "metarRaw": "—",
      "metarObsTime": null
    },
    "KIDI": {
      "status": "OK",
      "delay": "—",
      "metarCat": "MVFR",
      "metarRaw": "METAR KIDI 191435Z AUTO 28008KT 10SM FEW020 OVC028 06/03 A3001 RMK A01",
      "metarObsTime": 1776609300
    },
    "KMDT": {
      "status": "OK",
      "delay": "—",
      "metarCat": "VFR",
      "metarRaw": "METAR KMDT 191356Z 33010G23KT 6SM -RA FEW025 BKN032 OVC039 08/05 A2996 RMK AO2 SLP146 P0006 T00780050",
      "metarObsTime": 1776606960
    },
    "KCXY": {
      "status": "OK",
      "delay": "—",
      "metarCat": "MVFR",
      "metarRaw": "METAR KCXY 191356Z 28007KT 3SM -RA BKN023 OVC060 08/04 A2997 RMK AO2 SLP150 P0006 T00780044 $",
      "metarObsTime": 1776606960
    },
    "KMUI": {
      "status": "OK",
      "delay": "—",
      "metarCat": "VFR",
      "metarRaw": "SPECI KMUI 191431Z AUTO 21003KT 10SM FEW021 BKN045 OVC060 08/05 A2991 RMK AO2 RAE31 SLP132",
      "metarObsTime": 1776609060
    },
    "KUNV": {
      "status": "OK",
      "delay": "—",
      "metarCat": "VFR",
      "metarRaw": "METAR KUNV 191353Z 32010G17KT 10SM SCT060 OVC100 06/M01 A2997",
      "metarObsTime": 1776606780
    },
    "KAOO": {
      "status": "OK",
      "delay": "—",
      "metarCat": "VFR",
      "metarRaw": "METAR KAOO 191353Z AUTO 31011KT 10SM SCT034 OVC046 06/M01 A2997 RMK AO2 SLP153 T00561006",
      "metarObsTime": 1776606780
    },
    "KLNS": {
      "status": "OK",
      "delay": "—",
      "metarCat": "VFR",
      "metarRaw": "METAR KLNS 191353Z 32012G22KT 6SM -RA FEW032 BKN070 OVC080 08/06 A2994 RMK AO2 SLP139 P0012 T00830056",
      "metarObsTime": 1776606780
    },
    "KIPT": {
      "status": "OK",
      "delay": "—",
      "metarCat": "VFR",
      "metarRaw": "SPECI KIPT 191408Z 28003KT 10SM -RA SCT026 BKN037 OVC095 07/05 A2994 RMK AO2 RAB03 P0000 T00720050 $",
      "metarObsTime": 1776607680
    },
    "KPHL": {
      "status": "OK",
      "delay": "—",
      "metarCat": "VFR",
      "metarRaw": "SPECI KPHL 191428Z 33017G29KT 10SM FEW020 BKN046 OVC055 12/06 A2989 RMK AO2 PK WND 30029/1402 RAB18E28 P0000 T01170061 $",
      "metarObsTime": 1776608880
    },
    "KABE": {
      "status": "OK",
      "delay": "—",
      "metarCat": "VFR",
      "metarRaw": "SPECI KABE 191358Z 29007KT 8SM RA SCT022 BKN048 OVC060 09/07 A2990 RMK AO2 PRESRR P0000 T00890067 $",
      "metarObsTime": 1776607080
    },
    "KAVP": {
      "status": "OK",
      "delay": "—",
      "metarCat": "MVFR",
      "metarRaw": "METAR KAVP 191354Z 34010KT 9SM -RA OVC026 04/02 A2994 RMK AO2 SLP136 P0005 T00390017",
      "metarObsTime": 1776606840
    },
    "KHZL": {
      "status": "OK",
      "delay": "—",
      "metarCat": "IFR",
      "metarRaw": "METAR KHZL 191435Z AUTO 34008KT 320V020 4SM RA BKN005 OVC009 03/02 A2994 RMK AO2 P0003",
      "metarObsTime": 1776609300
    }
  }
}