{
  "generatedAt": "2026-03-20T20:50:17.291Z",
  "airports": {
    "KPIT": {
      "status": "OK",
      "delay": "—",
      "metarCat": "VFR",
      "metarRaw": "METAR KPIT 201951Z 23013G20KT 7SM -RA FEW048 BKN075 OVC095 16/06 A2976 RMK AO2 SLP087 P0000 T01610061",
      "metarObsTime": 1774036260
    },
    "KAGC": {
      "status": "OK",
      "delay": "—",
      "metarCat": "VFR",
      "metarRaw": "METAR KAGC 201953Z 22009KT 10SM SCT075 BKN090 OVC110 15/07 A2977 RMK AO2 RAE20 SLP087 P0000 T01500072",
      "metarObsTime": 1774036380
    },
    "KLBE": {
      "status": "OK",
      "delay": "—",
      "metarCat": "VFR",
      "metarRaw": "METAR KLBE 201947Z 22012G20KT 7SM -RA FEW022 SCT037 OVC050 14/10 A2980",
      "metarObsTime": 1774036020
    },
    "KJST": {
      "status": "OK",
      "delay": "—",
      "metarCat": "MVFR",
      "metarRaw": "METAR KJST 201954Z AUTO 25011G20KT 4SM RA FEW033 BKN047 OVC055 12/07 A2979 RMK AO2 PK WND 25030/1859 PRESRR SLP094 P0003 T01170067",
      "metarObsTime": 1774036440
    },
    "KERI": {
      "status": "OK",
      "delay": "—",
      "metarCat": "VFR",
      "metarRaw": "METAR KERI 201951Z 21011KT 10SM OVC080 12/08 A2969 RMK AO2 RAB10E40 SLP057 P0003 T01220083",
      "metarObsTime": 1774036260
    },
    "KDUJ": {
      "status": "OK",
      "delay": "—",
      "metarCat": "VFR",
      "metarRaw": "METAR KDUJ 201953Z AUTO 22009KT 9SM -RA FEW031 BKN045 OVC065 09/08 A2973 RMK AO2 SLP077 P0004 T00940078",
      "metarObsTime": 1774036380
    },
    "KBFD": {
      "status": "OK",
      "delay": "—",
      "metarCat": "MVFR",
      "metarRaw": "SPECI KBFD 202028Z AUTO 23008KT 3SM -RA BR BKN010 BKN015 OVC041 08/07 A2970 RMK AO2 P0008 T00780072",
      "metarObsTime": 1774038480
    },
    "KBTP": {
      "status": "OK",
      "delay": "—",
      "metarCat": "VFR",
      "metarRaw": "METAR KBTP 201956Z AUTO 20011KT 10SM -RA FEW027 SCT070 OVC090 13/08 A2974 RMK AO2 SLP081 P0000 T01280083 $",
      "metarObsTime": 1774036560
    },
    "KFKL": {
      "status": "OK",
      "delay": "—",
      "metarCat": "VFR",
      "metarRaw": "METAR KFKL 201956Z AUTO 24006KT 10SM RA OVC050 10/08 A2974 RMK AO2 SLP079 P0002 T01000083",
      "metarObsTime": 1774036560
    },
    "KIDI": {
      "status": "OK",
      "delay": "—",
      "metarCat": "MVFR",
      "metarRaw": "METAR KIDI 202035Z AUTO 20007G13KT 3SM BR FEW036 SCT046 BKN070 11/10 A2976 RMK A01",
      "metarObsTime": 1774038900
    },
    "KMDT": {
      "status": "OK",
      "delay": "—",
      "metarCat": "VFR",
      "metarRaw": "METAR KMDT 201956Z 22008G18KT 190V270 10SM -RA FEW055 BKN080 OVC095 18/03 A2978 RMK AO2 RAB28 SLP086 P0000 T01830033",
      "metarObsTime": 1774036560
    },
    "KCXY": {
      "status": "OK",
      "delay": "—",
      "metarCat": "VFR",
      "metarRaw": "METAR KCXY 201956Z 22010KT 10SM FEW055 BKN080 OVC095 19/04 A2978 RMK AO2 RAB24E33 SLP086 P0000 T01890039",
      "metarObsTime": 1774036560
    },
    "KMUI": {
      "status": "OK",
      "delay": "—",
      "metarCat": "VFR",
      "metarRaw": "SPECI KMUI 202016Z 21010G19KT 10SM -RA SCT043 BKN070 OVC085 19/05 A2974 RMK AO2A RAE09RAB16 SLP075",
      "metarObsTime": 1774037760
    },
    "KUNV": {
      "status": "OK",
      "delay": "—",
      "metarCat": "MVFR",
      "metarRaw": "METAR KUNV 201953Z 26014G24KT 5SM RA BR OVC055 13/08 A2976",
      "metarObsTime": 1774036380
    },
    "KAOO": {
      "status": "OK",
      "delay": "—",
      "metarCat": "VFR",
      "metarRaw": "METAR KAOO 201953Z AUTO 23018G26KT 10SM -RA SCT060 OVC075 15/06 A2976 RMK AO2 PK WND 24032/1858 SLP082 P0000 T01500056",
      "metarObsTime": 1774036380
    },
    "KLNS": {
      "status": "OK",
      "delay": "—",
      "metarCat": "VFR",
      "metarRaw": "METAR KLNS 201953Z 20015G23KT 10SM FEW080 FEW090 17/03 A2980 RMK AO2 SLP092 T01670033",
      "metarObsTime": 1774036380
    },
    "KIPT": {
      "status": "OK",
      "delay": "—",
      "metarCat": "VFR",
      "metarRaw": "METAR KIPT 201954Z 34003KT 6SM -RA OVC060 08/05 A2974 RMK AO2 RAB19 SLP074 P0000 T00830050 $",
      "metarObsTime": 1774036440
    },
    "KPHL": {
      "status": "OK",
      "delay": "—",
      "metarCat": "VFR",
      "metarRaw": "METAR KPHL 201954Z 19014G22KT 10SM SCT100 BKN260 19/04 A2983 RMK AO2 SLP100 T01890044 $",
      "metarObsTime": 1774036440
    },
    "KABE": {
      "status": "OK",
      "delay": "—",
      "metarCat": "VFR",
      "metarRaw": "METAR KABE 201951Z 20015G26KT 10SM FEW100 18/02 A2978 RMK AO2 PK WND 23028/1930 SLP085 T01780022 $",
      "metarObsTime": 1774036260
    },
    "KAVP": {
      "status": "OK",
      "delay": "—",
      "metarCat": "VFR",
      "metarRaw": "METAR KAVP 201954Z 20006KT 10SM -RA BKN070 OVC080 13/04 A2974 RMK AO2 SLP073 P0001 T01330044",
      "metarObsTime": 1774036440
    },
    "KHZL": {
      "status": "OK",
      "delay": "—",
      "metarCat": "VFR",
      "metarRaw": "METAR KHZL 202035Z AUTO 16006KT 10SM -RA OVC055 13/05 A2977 RMK AO2",
      "metarObsTime": 1774038900
    }
  }
}