{
  "generatedAt": "2026-05-07T17:13:06.134Z",
  "faaFlow": {
    "updatedAt": "2026-05-07T17:13:05.270Z",
    "source": "https://www.fly.faa.gov/adv/adv_spt",
    "terminal": [
      {
        "time": "—",
        "text": "AFTER",
        "code": "FLOW",
        "label": "FAA flow impact",
        "level": "yellow",
        "section": "Terminal Planned",
        "airports": []
      },
      {
        "time": "2000",
        "text": "CLT GROUND STOP/DELAY PROGRAM POSSIBLE",
        "code": "GS",
        "label": "Ground stop possible",
        "level": "yellow",
        "section": "Terminal Planned",
        "airports": []
      }
    ],
    "enroute": [
      {
        "time": "—",
        "text": "UNTIL",
        "code": "FLOW",
        "label": "FAA flow impact",
        "level": "yellow",
        "section": "En Route Planned",
        "airports": []
      },
      {
        "time": "1900",
        "text": "PCT CDRS/SWAP/ESCAPE ROUTES POSSIBLE",
        "code": "ROUTE",
        "label": "Route impact possible",
        "level": "blue",
        "section": "En Route Planned",
        "airports": []
      },
      {
        "time": "—",
        "text": "UNTIL",
        "code": "FLOW",
        "label": "FAA flow impact",
        "level": "yellow",
        "section": "En Route Planned",
        "airports": []
      },
      {
        "time": "0000",
        "text": "AR/ATLANTIC Y ROUTE CLOSURES POSSIBLE CDRS/SWAP/CAPPING/TUNNELING/HOTLINE/DIVERSION RECOVERY:",
        "code": "CLOSURE",
        "label": "Closure possible",
        "level": "yellow",
        "section": "En Route Planned",
        "airports": []
      },
      {
        "time": "—",
        "text": "UNTIL",
        "code": "FLOW",
        "label": "FAA flow impact",
        "level": "yellow",
        "section": "En Route Planned",
        "airports": []
      },
      {
        "time": "1630",
        "text": "ATL/CLT CDRS",
        "code": "ROUTE",
        "label": "Route impact possible",
        "level": "blue",
        "section": "En Route Planned",
        "airports": []
      },
      {
        "time": "—",
        "text": "1900",
        "code": "FLOW",
        "label": "FAA flow impact",
        "level": "yellow",
        "section": "En Route Planned",
        "airports": []
      },
      {
        "time": "0200",
        "text": "ZNY SWAP",
        "code": "ROUTE",
        "label": "Route impact possible",
        "level": "blue",
        "section": "En Route Planned",
        "airports": []
      },
      {
        "time": "—",
        "text": "UNTIL",
        "code": "FLOW",
        "label": "FAA flow impact",
        "level": "yellow",
        "section": "En Route Planned",
        "airports": []
      },
      {
        "time": "0400",
        "text": "ZDC SWAP RUNWAY/EQUIPMENT/POSSIBLE SYSTEM IMPACT REPORTS(SIRs): SEA - RWY 16C/34C CLOSED UNTIL 05/13/",
        "code": "CLOSURE",
        "label": "Closure possible",
        "level": "yellow",
        "section": "En Route Planned",
        "airports": []
      },
      {
        "time": "2026",
        "text": "SAN - CONSTRUCTION PHASE 5.2 UNTIL 05/26/26",
        "code": "FLOW",
        "label": "FAA flow impact",
        "level": "yellow",
        "section": "En Route Planned",
        "airports": []
      },
      {
        "time": "—",
        "text": "UNTIL",
        "code": "FLOW",
        "label": "FAA flow impact",
        "level": "yellow",
        "section": "En Route Planned",
        "airports": []
      },
      {
        "time": "2059",
        "text": "FCAJX1 AIRSPACE FLOW PROGRAM(S) PLANNED: NONE PLANNED LAUNCH/REENTRY: SPACEX STARLINK 17-37, VANDENBERG SFB, CA PRIMARY: 05/10/26",
        "code": "FLOW",
        "label": "FAA flow impact",
        "level": "yellow",
        "section": "En Route Planned",
        "airports": []
      },
      {
        "time": "—",
        "text": "AFTER",
        "code": "FLOW",
        "label": "FAA flow impact",
        "level": "yellow",
        "section": "En Route Planned",
        "airports": []
      },
      {
        "time": "2100",
        "text": "LAX VIP MOVEMENT(S): NONE NEXT PLANNING WEBINAR:",
        "code": "FLOW",
        "label": "FAA flow impact",
        "level": "yellow",
        "section": "En Route Planned",
        "airports": []
      }
    ],
    "airports": {
      "KPIT": null,
      "KAGC": null,
      "KLBE": null,
      "KJST": null,
      "KERI": null,
      "KDUJ": null,
      "KBFD": null,
      "KBTP": null,
      "KFKL": null,
      "KIDI": null,
      "KMDT": null,
      "KCXY": null,
      "KMUI": null,
      "KUNV": null,
      "KAOO": null,
      "KLNS": null,
      "KIPT": null,
      "KPHL": null,
      "KABE": null,
      "KAVP": null,
      "KHZL": null
    }
  },
  "airports": {
    "KPIT": {
      "status": "OK",
      "delay": "—",
      "metarCat": "VFR",
      "metarRaw": "METAR KPIT 071651Z 26010KT 10SM BKN055 BKN250 13/M01 A2986 RMK AO2 SLP121 T01331006 $",
      "metarObsTime": 1778172660,
      "faaFlow": null
    },
    "KAGC": {
      "status": "OK",
      "delay": "—",
      "metarCat": "VFR",
      "metarRaw": "METAR KAGC 071653Z VRB03G16KT 10SM BKN060 13/00 A2986 RMK AO2 SLP119 T01280000",
      "metarObsTime": 1778172780,
      "faaFlow": null
    },
    "KLBE": {
      "status": "OK",
      "delay": "—",
      "metarCat": "VFR",
      "metarRaw": "METAR KLBE 071647Z 22009KT 10SM SCT038 BKN055 BKN095 14/02 A2989",
      "metarObsTime": 1778172420,
      "faaFlow": null
    },
    "KJST": {
      "status": "OK",
      "delay": "—",
      "metarCat": "VFR",
      "metarRaw": "METAR KJST 071654Z AUTO 27008G15KT 10SM FEW055 11/M02 A2985 RMK AO2 SLP114 T01061017",
      "metarObsTime": 1778172840,
      "faaFlow": null
    },
    "KERI": {
      "status": "OK",
      "delay": "—",
      "metarCat": "VFR",
      "metarRaw": "METAR KERI 071651Z 30010KT 10SM CLR 11/04 A2988 RMK AO2 SLP121 T01060044",
      "metarObsTime": 1778172660,
      "faaFlow": null
    },
    "KDUJ": {
      "status": "OK",
      "delay": "—",
      "metarCat": "VFR",
      "metarRaw": "METAR KDUJ 071653Z AUTO 26008G18KT 10SM FEW065 13/M01 A2984 RMK AO2 SLP107 T01281006",
      "metarObsTime": 1778172780,
      "faaFlow": null
    },
    "KBFD": {
      "status": "OK",
      "delay": "—",
      "metarCat": "VFR",
      "metarRaw": "METAR KBFD 071653Z AUTO 27009G17KT 10SM OVC060 09/M03 A2984 RMK AO2 SLP111 T00941028",
      "metarObsTime": 1778172780,
      "faaFlow": null
    },
    "KBTP": {
      "status": "OK",
      "delay": "—",
      "metarCat": "VFR",
      "metarRaw": "METAR KBTP 071656Z AUTO 22011G17KT 10SM BKN060 BKN070 15/02 A2987 RMK AO2 SLP123 T01500022 $",
      "metarObsTime": 1778172960,
      "faaFlow": null
    },
    "KFKL": {
      "status": "OK",
      "delay": "—",
      "metarCat": "—",
      "metarRaw": "METAR KFKL 071656Z AUTO 26007G16KT 10SM 11/M01 A2987 RMK AO2 SLP119 T01111006",
      "metarObsTime": 1778172960,
      "faaFlow": null
    },
    "KIDI": {
      "status": "OK",
      "delay": "—",
      "metarCat": "VFR",
      "metarRaw": "METAR KIDI 071655Z AUTO 31011KT 10SM OVC060 12/01 A2987 RMK A01",
      "metarObsTime": 1778172900,
      "faaFlow": null
    },
    "KMDT": {
      "status": "OK",
      "delay": "—",
      "metarCat": "VFR",
      "metarRaw": "METAR KMDT 071656Z COR 26005KT 10SM FEW060 FEW080 16/01 A2984 RMK AO2 SLP106 T01560011",
      "metarObsTime": 1778172960,
      "faaFlow": null
    },
    "KCXY": {
      "status": "OK",
      "delay": "—",
      "metarCat": "VFR",
      "metarRaw": "METAR KCXY 071656Z 32003KT 10SM CLR 16/M01 A2984 RMK AO2 SLP107 T01561006",
      "metarObsTime": 1778172960,
      "faaFlow": null
    },
    "KMUI": {
      "status": "OK",
      "delay": "—",
      "metarCat": "VFR",
      "metarRaw": "METAR KMUI 071655Z 29009KT 250V050 10SM FEW065 FEW250 19/03 A2982 RMK AO2A SLP100 T01870025",
      "metarObsTime": 1778172900,
      "faaFlow": null
    },
    "KUNV": {
      "status": "OK",
      "delay": "—",
      "metarCat": "VFR",
      "metarRaw": "METAR KUNV 071653Z 27013G18KT 10SM SCT070 15/00 A2985",
      "metarObsTime": 1778172780,
      "faaFlow": null
    },
    "KAOO": {
      "status": "OK",
      "delay": "—",
      "metarCat": "VFR",
      "metarRaw": "METAR KAOO 071653Z AUTO 27008G16KT 10SM FEW065 14/M02 A2985 RMK AO2 SLP108 T01441022",
      "metarObsTime": 1778172780,
      "faaFlow": null
    },
    "KLNS": {
      "status": "OK",
      "delay": "—",
      "metarCat": "VFR",
      "metarRaw": "METAR KLNS 071653Z 03007KT 360V060 10SM FEW055 15/02 A2984 RMK AO2 SLP106 T01500017",
      "metarObsTime": 1778172780,
      "faaFlow": null
    },
    "KIPT": {
      "status": "OK",
      "delay": "—",
      "metarCat": "VFR",
      "metarRaw": "METAR KIPT 071654Z 24007KT 10SM SCT070 15/00 A2982 RMK AO2 SLP100 T01500000",
      "metarObsTime": 1778172840,
      "faaFlow": null
    },
    "KPHL": {
      "status": "OK",
      "delay": "—",
      "metarCat": "VFR",
      "metarRaw": "METAR KPHL 071654Z COR 01011G20KT 10SM FEW040 SCT085 BKN140 17/02 A2984 RMK AO2 SLP102 T01720022 $",
      "metarObsTime": 1778172840,
      "faaFlow": null
    },
    "KABE": {
      "status": "OK",
      "delay": "—",
      "metarCat": "VFR",
      "metarRaw": "METAR KABE 071651Z VRB06G16KT 10SM CLR 15/M01 A2984 RMK AO2 SLP103 T01501006",
      "metarObsTime": 1778172660,
      "faaFlow": null
    },
    "KAVP": {
      "status": "OK",
      "delay": "—",
      "metarCat": "VFR",
      "metarRaw": "METAR KAVP 071654Z 35013G22KT 320V030 10SM FEW060 13/M01 A2984 RMK AO2 PK WND 32026/1627 SLP103 T01331006",
      "metarObsTime": 1778172840,
      "faaFlow": null
    },
    "KHZL": {
      "status": "OK",
      "delay": "—",
      "metarCat": "VFR",
      "metarRaw": "METAR KHZL 071655Z AUTO 32007KT 280V340 10SM SCT050 13/M01 A2986 RMK AO2",
      "metarObsTime": 1778172900,
      "faaFlow": null
    }
  }
}