{
  "generatedAt": "2026-04-05T08:50:45.816Z",
  "airports": {
    "KPIT": {
      "status": "OK",
      "delay": "—",
      "metarCat": "MVFR",
      "metarRaw": "SPECI KPIT 050835Z 27008KT 7SM -RA FEW007 BKN013 OVC032 10/09 A2988 RMK AO2 P0003 T01000089 $",
      "metarObsTime": 1775378100
    },
    "KAGC": {
      "status": "OK",
      "delay": "—",
      "metarCat": "VFR",
      "metarRaw": "SPECI KAGC 050835Z 29007G17KT 9SM -RA SCT011 BKN037 OVC045 11/09 A2987 RMK AO2 P0003 T01060094",
      "metarObsTime": 1775378100
    },
    "KLBE": {
      "status": "OK",
      "delay": "—",
      "metarCat": "MVFR",
      "metarRaw": "METAR KLBE 050835Z AUTO 27010G20KT 3SM RA BR SCT010 BKN022 OVC044 12/11 A2989 RMK AO2",
      "metarObsTime": 1775378100
    },
    "KJST": {
      "status": "OK",
      "delay": "—",
      "metarCat": "MVFR",
      "metarRaw": "SPECI KJST 050803Z AUTO 23012G24KT 10SM -RA BKN018 OVC070 16/14 A2984 RMK AO2 P0000 T01610139",
      "metarObsTime": 1775376180
    },
    "KERI": {
      "status": "OK",
      "delay": "—",
      "metarCat": "MVFR",
      "metarRaw": "METAR KERI 050751Z AUTO 25014G22KT 10SM -RA OVC023 08/06 A2985 RMK AO2 SLP107 P0004 T00780061",
      "metarObsTime": 1775375460
    },
    "KDUJ": {
      "status": "OK",
      "delay": "—",
      "metarCat": "IFR",
      "metarRaw": "SPECI KDUJ 050826Z AUTO 29010G16KT 7SM -RA BKN008 OVC012 12/11 A2983 RMK AO2 PK WND 27028/0759 P0006 T01170106",
      "metarObsTime": 1775377560
    },
    "KBFD": {
      "status": "OK",
      "delay": "—",
      "metarCat": "IFR",
      "metarRaw": "SPECI KBFD 050819Z AUTO 25009G15KT 6SM RA BR BKN008 OVC013 11/10 A2980 RMK AO2 P0004 T01060100",
      "metarObsTime": 1775377140
    },
    "KBTP": {
      "status": "OK",
      "delay": "—",
      "metarCat": "MVFR",
      "metarRaw": "SPECI KBTP 050809Z AUTO 26012KT 8SM -RA SCT009 BKN012 OVC038 10/ A2989 RMK AO2 P0001 $",
      "metarObsTime": 1775376540
    },
    "KFKL": {
      "status": "OK",
      "delay": "—",
      "metarCat": "MVFR",
      "metarRaw": "SPECI KFKL 050840Z AUTO 26009KT 10SM -RA BKN011 BKN048 OVC055 09/08 A2986 RMK AO2 P0002",
      "metarObsTime": 1775378400
    },
    "KIDI": {
      "status": "OK",
      "delay": "—",
      "metarCat": "MVFR",
      "metarRaw": "METAR KIDI 050835Z AUTO 29016G29KT 3SM BR SCT011 BKN017 OVC028 12/11 A2987 RMK A01",
      "metarObsTime": 1775378100
    },
    "KMDT": {
      "status": "OK",
      "delay": "—",
      "metarCat": "LIFR",
      "metarRaw": "METAR KMDT 050756Z 12010KT 3SM BR OVC003 09/09 A2990 RMK AO2 SLP126 T00940089 $",
      "metarObsTime": 1775375760
    },
    "KCXY": {
      "status": "OK",
      "delay": "—",
      "metarCat": "LIFR",
      "metarRaw": "METAR KCXY 050756Z AUTO 11007KT 2SM BR OVC003 09/09 A2991 RMK AO2 SLP127 T00940089 $",
      "metarObsTime": 1775375760
    },
    "KMUI": {
      "status": "OK",
      "delay": "—",
      "metarCat": "—",
      "metarRaw": "—",
      "metarObsTime": null
    },
    "KUNV": {
      "status": "OK",
      "delay": "—",
      "metarCat": "—",
      "metarRaw": "—",
      "metarObsTime": null
    },
    "KAOO": {
      "status": "OK",
      "delay": "—",
      "metarCat": "VFR",
      "metarRaw": "METAR KAOO 050753Z AUTO 24012G22KT 10SM BKN050 BKN065 OVC100 20/13 A2983 RMK AO2 SLP091 T02000128",
      "metarObsTime": 1775375580
    },
    "KLNS": {
      "status": "OK",
      "delay": "—",
      "metarCat": "LIFR",
      "metarRaw": "SPECI KLNS 050811Z AUTO 09008KT 2 1/2SM BR OVC002 08/08 A2991 RMK AO2 T00830078",
      "metarObsTime": 1775376660
    },
    "KIPT": {
      "status": "OK",
      "delay": "—",
      "metarCat": "MVFR",
      "metarRaw": "METAR KIPT 050754Z AUTO 07008G19KT 10SM OVC011 11/09 A2985 RMK AO2 SLP107 T01110089",
      "metarObsTime": 1775375640
    },
    "KPHL": {
      "status": "OK",
      "delay": "—",
      "metarCat": "LIFR",
      "metarRaw": "SPECI KPHL 050826Z 06006KT 3/4SM BR OVC003 09/09 A2994 RMK AO2 T00940089 RVRNO $",
      "metarObsTime": 1775377560
    },
    "KABE": {
      "status": "OK",
      "delay": "—",
      "metarCat": "LIFR",
      "metarRaw": "METAR KABE 050751Z 08008KT 4SM BR OVC004 06/05 A2997 RMK AO2 SLP149 T00560050 $",
      "metarObsTime": 1775375460
    },
    "KAVP": {
      "status": "OK",
      "delay": "—",
      "metarCat": "MVFR",
      "metarRaw": "METAR KAVP 050754Z AUTO 09005KT 10SM OVC011 08/06 A2990 RMK AO2 SLP121 T00830061",
      "metarObsTime": 1775375640
    },
    "KHZL": {
      "status": "OK",
      "delay": "—",
      "metarCat": "—",
      "metarRaw": "—",
      "metarObsTime": null
    }
  }
}