{
  "generatedAt": "2026-03-27T01:50:27.327Z",
  "airports": {
    "KPIT": {
      "status": "OK",
      "delay": "—",
      "metarCat": "IFR",
      "metarRaw": "SPECI KPIT 270137Z 34022G29KT 1 1/2SM R28R/3000VP6000FT +TSRA BR FEW004 BKN018 OVC040CB 16/16 A2973 RMK AO2 PK WND 36041/0113 WSHFT 0104 RAB0058 TSB0053 PRESRR FRQ LTGICCG ALQDS TS ALQDS MOV E P0060 T01610156",
      "metarObsTime": 1774575420
    },
    "KAGC": {
      "status": "OK",
      "delay": "—",
      "metarCat": "IFR",
      "metarRaw": "SPECI KAGC 270143Z 36009G32KT 1SM R28/4000VP6000FT +TSRA BR FEW014 BKN025 OVC055 17/16 A2970 RMK AO2 PK WND 31032/0136 LTG DSNT ALQDS RAB20 TSB41 P0018 T01720161",
      "metarObsTime": 1774575780
    },
    "KLBE": {
      "status": "OK",
      "delay": "—",
      "metarCat": "VFR",
      "metarRaw": "METAR KLBE 270145Z 22008KT 10SM BKN055 21/14 A2967",
      "metarObsTime": 1774575900
    },
    "KJST": {
      "status": "OK",
      "delay": "—",
      "metarCat": "VFR",
      "metarRaw": "METAR KJST 270054Z AUTO 21008KT 10SM CLR 19/11 A2967 RMK AO2 SLP037 T01890111",
      "metarObsTime": 1774572840
    },
    "KERI": {
      "status": "OK",
      "delay": "—",
      "metarCat": "IFR",
      "metarRaw": "SPECI KERI 270145Z 10004KT 1 3/4SM RA BR SCT014 SCT025 OVC090 07/07 A2981 RMK AO2 P0013",
      "metarObsTime": 1774575900
    },
    "KDUJ": {
      "status": "OK",
      "delay": "—",
      "metarCat": "VFR",
      "metarRaw": "SPECI KDUJ 270133Z AUTO 36014G25KT 10SM -RA FEW011 BKN090 OVC100 12/11 A2972 RMK AO2 PK WND 32032/0112 LTG DSNT S P0008 T01220106",
      "metarObsTime": 1774575180
    },
    "KBFD": {
      "status": "OK",
      "delay": "—",
      "metarCat": "VFR",
      "metarRaw": "SPECI KBFD 270142Z AUTO 36005KT 10SM FEW009 SCT036 OVC085 09/08 A2975 RMK AO2 RAE25 P0003 T00890083",
      "metarObsTime": 1774575720
    },
    "KBTP": {
      "status": "OK",
      "delay": "—",
      "metarCat": "IFR",
      "metarRaw": "SPECI KBTP 270148Z AUTO 01011G17KT 10SM VCTS RA BKN009 BKN035 OVC050 13/13 A2976 RMK AO2 LTG DSNT ALQDS TSE27B42 P0004 $",
      "metarObsTime": 1774576080
    },
    "KFKL": {
      "status": "OK",
      "delay": "—",
      "metarCat": "MVFR",
      "metarRaw": "SPECI KFKL 270137Z AUTO 01006KT 10SM RA SCT009 BKN029 OVC045 09/09 A2982 RMK AO2 TSB22E37 PRESRR P0001",
      "metarObsTime": 1774575420
    },
    "KIDI": {
      "status": "OK",
      "delay": "—",
      "metarCat": "IFR",
      "metarRaw": "METAR KIDI 270135Z AUTO 31010G32KT 1SM BR SCT004 BKN017 OVC049 17/16 A2973 RMK A01",
      "metarObsTime": 1774575300
    },
    "KMDT": {
      "status": "OK",
      "delay": "—",
      "metarCat": "VFR",
      "metarRaw": "METAR KMDT 270056Z VRB05G16KT 10SM BKN075 OVC150 23/11 A2965 RMK AO2 SLP038 T02280106",
      "metarObsTime": 1774572960
    },
    "KCXY": {
      "status": "OK",
      "delay": "—",
      "metarCat": "VFR",
      "metarRaw": "METAR KCXY 270056Z 21013G21KT 10SM BKN080 BKN090 23/11 A2965 RMK AO2 SLP040 T02330111",
      "metarObsTime": 1774572960
    },
    "KMUI": {
      "status": "OK",
      "delay": "—",
      "metarCat": "VFR",
      "metarRaw": "SPECI KMUI 270029Z 23009KT 10SM BKN065 BKN080 23/12 A2963 RMK AO2A LTG DSNT NW RAB16E29 SLP035",
      "metarObsTime": 1774571340
    },
    "KUNV": {
      "status": "OK",
      "delay": "—",
      "metarCat": "VFR",
      "metarRaw": "METAR KUNV 270053Z 23013G19KT 10SM VCTS BKN050 BKN080 22/12 A2964 RMK LTG DSNT NE",
      "metarObsTime": 1774572780
    },
    "KAOO": {
      "status": "OK",
      "delay": "—",
      "metarCat": "VFR",
      "metarRaw": "METAR KAOO 270053Z AUTO 21009KT 10SM FEW060 20/12 A2965 RMK AO2 SLP035 T02000117",
      "metarObsTime": 1774572780
    },
    "KLNS": {
      "status": "OK",
      "delay": "—",
      "metarCat": "VFR",
      "metarRaw": "METAR KLNS 270053Z 18008KT 10SM BKN075 21/10 A2966 RMK AO2 SLP042 T02060100",
      "metarObsTime": 1774572780
    },
    "KIPT": {
      "status": "OK",
      "delay": "—",
      "metarCat": "MVFR",
      "metarRaw": "SPECI KIPT 270126Z 35006KT 3SM +RA BR BKN055 OVC075 17/16 A2965 RMK AO2 LTG DSNT SE AND S P0005 T01670156 $",
      "metarObsTime": 1774574760
    },
    "KPHL": {
      "status": "OK",
      "delay": "—",
      "metarCat": "VFR",
      "metarRaw": "METAR KPHL 270054Z 20015G23KT 10SM SCT080 BKN260 22/11 A2969 RMK AO2 SLP053 T02170106",
      "metarObsTime": 1774572840
    },
    "KABE": {
      "status": "OK",
      "delay": "—",
      "metarCat": "VFR",
      "metarRaw": "METAR KABE 270051Z 20015G21KT 10SM FEW090 21/09 A2963 RMK AO2 SLP034 T02110089 $",
      "metarObsTime": 1774572660
    },
    "KAVP": {
      "status": "OK",
      "delay": "—",
      "metarCat": "VFR",
      "metarRaw": "METAR KAVP 270054Z 22007G18KT 9SM -RA OVC055 21/09 A2961 RMK AO2 RAB50 SLP021 P0000 T02060094",
      "metarObsTime": 1774572840
    },
    "KHZL": {
      "status": "OK",
      "delay": "—",
      "metarCat": "MVFR",
      "metarRaw": "METAR KHZL 270135Z AUTO 21003KT 4SM VCTSRA BKN048 BKN050 OVC070 16/13 A2973 RMK AO2 LTG DSNT W P0013",
      "metarObsTime": 1774575300
    }
  }
}