{
  "generatedAt": "2026-03-16T16:00:19.256Z",
  "airports": {
    "KPIT": {
      "status": "OK",
      "delay": "—",
      "metarCat": "IFR",
      "metarRaw": "METAR KPIT 161551Z 28020G33KT 2SM -RA BKN010 BKN022 OVC034 09/06 A2942 RMK AO2 RAB20 PRESRR SLP969 T00890061 PNO VISNO SE $",
      "metarObsTime": 1773676260
    },
    "KAGC": {
      "status": "OK",
      "delay": "—",
      "metarCat": "MVFR",
      "metarRaw": "METAR KAGC 161553Z 21013G23KT 10SM BKN020 OVC027 14/11 A2938 RMK AO2 SLP951 T01390111",
      "metarObsTime": 1773676380
    },
    "KLBE": {
      "status": "OK",
      "delay": "—",
      "metarCat": "VFR",
      "metarRaw": "METAR KLBE 161547Z 18010KT 10SM SCT100 16/11 A2941",
      "metarObsTime": 1773676020
    },
    "KJST": {
      "status": "OK",
      "delay": "—",
      "metarCat": "VFR",
      "metarRaw": "METAR KJST 161554Z AUTO 15009KT 10SM BKN080 OVC090 12/10 A2941 RMK AO2 RAB14E47 PRESFR SLP961 P0000 T01220100",
      "metarObsTime": 1773676440
    },
    "KERI": {
      "status": "OK",
      "delay": "—",
      "metarCat": "LIFR",
      "metarRaw": "METAR KERI 161551Z 26010G25KT 2 1/2SM -RA BR OVC004 03/03 A2940 RMK AO2 PK WND 29028/1502 RAB02 SLP954 P0004 T00330028 $",
      "metarObsTime": 1773676260
    },
    "KDUJ": {
      "status": "OK",
      "delay": "—",
      "metarCat": "VFR",
      "metarRaw": "METAR KDUJ 161553Z AUTO 21008G19KT 10SM FEW065 BKN080 OVC095 12/10 A2940 RMK AO2 RAB17E48 SLP954 P0001 T01220100",
      "metarObsTime": 1773676380
    },
    "KBFD": {
      "status": "OK",
      "delay": "—",
      "metarCat": "MVFR",
      "metarRaw": "METAR KBFD 161553Z AUTO 17008G25KT 5SM -RA OVC075 12/09 A2937 RMK AO2 RAB23 SLP945 P0002 T01220089",
      "metarObsTime": 1773676380
    },
    "KBTP": {
      "status": "OK",
      "delay": "—",
      "metarCat": "—",
      "metarRaw": "—",
      "metarObsTime": null
    },
    "KFKL": {
      "status": "OK",
      "delay": "—",
      "metarCat": "MVFR",
      "metarRaw": "METAR KFKL 161556Z AUTO 19022G28KT 10SM OVC017 13/10 A2936 RMK AO2 PK WND 20028/1555 SLP941 T01280100",
      "metarObsTime": 1773676560
    },
    "KIDI": {
      "status": "OK",
      "delay": "—",
      "metarCat": "VFR",
      "metarRaw": "METAR KIDI 161555Z AUTO 18008G15KT 10SM BKN100 14/11 A2940 RMK A01",
      "metarObsTime": 1773676500
    },
    "KMDT": {
      "status": "OK",
      "delay": "—",
      "metarCat": "MVFR",
      "metarRaw": "METAR KMDT 161556Z 17011G20KT 10SM BKN019 OVC025 18/15 A2951 RMK AO2 SLP992 T01780150",
      "metarObsTime": 1773676560
    },
    "KCXY": {
      "status": "OK",
      "delay": "—",
      "metarCat": "MVFR",
      "metarRaw": "METAR KCXY 161556Z 16012G19KT 10SM BKN023 BKN032 19/16 A2950 RMK AO2 SLP991 T01940156",
      "metarObsTime": 1773676560
    },
    "KMUI": {
      "status": "OK",
      "delay": "—",
      "metarCat": "MVFR",
      "metarRaw": "METAR KMUI 161555Z 18011G18KT 150V210 10SM BKN013 OVC025 19/18 A2951 RMK AO2A SLP996 T01920182",
      "metarObsTime": 1773676500
    },
    "KUNV": {
      "status": "OK",
      "delay": "—",
      "metarCat": "MVFR",
      "metarRaw": "METAR KUNV 161553Z 24012KT 7SM -RA SCT020 BKN030 OVC060 14/13 A2945",
      "metarObsTime": 1773676380
    },
    "KAOO": {
      "status": "OK",
      "delay": "—",
      "metarCat": "VFR",
      "metarRaw": "METAR KAOO 161553Z AUTO 19007KT 10SM -RA BKN060 OVC080 14/12 A2945 RMK AO2 RAB1457E18B43 PRESFR SLP974 P0000 T01440122",
      "metarObsTime": 1773676380
    },
    "KLNS": {
      "status": "OK",
      "delay": "—",
      "metarCat": "MVFR",
      "metarRaw": "METAR KLNS 161553Z 18021G28KT 10SM OVC017 18/16 A2955 RMK AO2 PK WND 20034/1542 SLP006 T01830156",
      "metarObsTime": 1773676380
    },
    "KIPT": {
      "status": "OK",
      "delay": "—",
      "metarCat": "MVFR",
      "metarRaw": "METAR KIPT 161554Z 08010G16KT 10SM OVC016 17/14 A2945 RMK AO2 SLP974 T01720144",
      "metarObsTime": 1773676440
    },
    "KPHL": {
      "status": "OK",
      "delay": "—",
      "metarCat": "MVFR",
      "metarRaw": "METAR KPHL 161554Z 18014G25KT 10SM -RA BKN013 BKN065 BKN100 19/16 A2962 RMK AO2 PK WND 19027/1518 SLP031 CIG 011V016 P0002 T01890161 $",
      "metarObsTime": 1773676440
    },
    "KABE": {
      "status": "OK",
      "delay": "—",
      "metarCat": "—",
      "metarRaw": "METAR KABE 161551Z 18013G20KT 10SM 19/16 A2958 RMK AO2 SLP018 T01890161 $",
      "metarObsTime": 1773676260
    },
    "KAVP": {
      "status": "OK",
      "delay": "—",
      "metarCat": "MVFR",
      "metarRaw": "METAR KAVP 161554Z 20013G25KT 10SM BKN018 OVC026 19/14 A2953 RMK AO2 PK WND 21028/1533 SLP996 T01890144",
      "metarObsTime": 1773676440
    },
    "KHZL": {
      "status": "OK",
      "delay": "—",
      "metarCat": "IFR",
      "metarRaw": "METAR KHZL 161535Z AUTO 16008G14KT 10SM OVC005 16/15 A2959 RMK AO2",
      "metarObsTime": 1773675300
    }
  }
}