{
  "generatedAt": "2026-04-02T11:20:31.490Z",
  "airports": {
    "KPIT": {
      "status": "OK",
      "delay": "—",
      "metarCat": "LIFR",
      "metarRaw": "METAR KPIT 021051Z 00000KT 1/2SM R28R/P6000FT BR OVC002 09/09 A3015 RMK AO2 SFC VIS 1 RAE41 SLP221 P0000 T00940089 $",
      "metarObsTime": 1775127060
    },
    "KAGC": {
      "status": "OK",
      "delay": "—",
      "metarCat": "LIFR",
      "metarRaw": "SPECI KAGC 021114Z 11004KT 1/4SM R28/1800V2600FT FG VV002 11/11 A3015 RMK AO2 T01110111",
      "metarObsTime": 1775128440
    },
    "KLBE": {
      "status": "OK",
      "delay": "—",
      "metarCat": "MVFR",
      "metarRaw": "METAR KLBE 021047Z 00000KT 5SM -RA BR SCT030 BKN060 12/12 A3017",
      "metarObsTime": 1775126820
    },
    "KJST": {
      "status": "OK",
      "delay": "—",
      "metarCat": "IFR",
      "metarRaw": "METAR KJST 021054Z AUTO 16005KT 7SM BKN005 OVC075 09/09 A3020 RMK AO2 SLP223 T00940089",
      "metarObsTime": 1775127240
    },
    "KERI": {
      "status": "OK",
      "delay": "—",
      "metarCat": "IFR",
      "metarRaw": "METAR KERI 021051Z 04009KT 9SM OVC005 02/02 A3020 RMK AO2 SLP233 T00220017 $",
      "metarObsTime": 1775127060
    },
    "KDUJ": {
      "status": "OK",
      "delay": "—",
      "metarCat": "IFR",
      "metarRaw": "METAR KDUJ 021053Z AUTO 10009KT 10SM OVC005 06/05 A3018 RMK AO2 SLP227 T00560050",
      "metarObsTime": 1775127180
    },
    "KBFD": {
      "status": "OK",
      "delay": "—",
      "metarCat": "LIFR",
      "metarRaw": "METAR KBFD 021053Z AUTO 10006KT 3SM BR OVC004 03/03 A3020 RMK AO2 RAE27 SLP240 P0000 T00280028",
      "metarObsTime": 1775127180
    },
    "KBTP": {
      "status": "OK",
      "delay": "—",
      "metarCat": "IFR",
      "metarRaw": "METAR KBTP 021056Z AUTO 09006KT 10SM -RA OVC006 09/ A3017 RMK AO2 RAB20 SLP225 P0000 T0094 $",
      "metarObsTime": 1775127360
    },
    "KFKL": {
      "status": "OK",
      "delay": "—",
      "metarCat": "LIFR",
      "metarRaw": "SPECI KFKL 021116Z AUTO 09006KT 3/4SM BR OVC003 07/06 A3018 RMK AO2",
      "metarObsTime": 1775128560
    },
    "KIDI": {
      "status": "OK",
      "delay": "—",
      "metarCat": "VFR",
      "metarRaw": "METAR KIDI 021115Z AUTO 09008KT 10SM FEW027 SCT055 OVC110 10/09 A3018 RMK A01",
      "metarObsTime": 1775128500
    },
    "KMDT": {
      "status": "OK",
      "delay": "—",
      "metarCat": "IFR",
      "metarRaw": "SPECI KMDT 021109Z 11010KT 7SM BKN009 OVC013 11/09 A3027 RMK AO2 CIG 006V011 T01060094 $",
      "metarObsTime": 1775128140
    },
    "KCXY": {
      "status": "OK",
      "delay": "—",
      "metarCat": "MVFR",
      "metarRaw": "METAR KCXY 021056Z 10009KT 3SM BR OVC010 11/09 A3026 RMK AO2 RAB08E18 CIG 007V013 SLP248 P0001 T01060094",
      "metarObsTime": 1775127360
    },
    "KMUI": {
      "status": "OK",
      "delay": "—",
      "metarCat": "LIFR",
      "metarRaw": "METAR KMUI 021055Z 06007KT 2SM -DZ BR OVC004 10/09 A3026 RMK AO2A DZB43 SLP249 T00970094",
      "metarObsTime": 1775127300
    },
    "KUNV": {
      "status": "OK",
      "delay": "—",
      "metarCat": "LIFR",
      "metarRaw": "METAR KUNV 021053Z 03004KT 2 1/2SM -RA BR OVC004 06/06 A3024",
      "metarObsTime": 1775127180
    },
    "KAOO": {
      "status": "OK",
      "delay": "—",
      "metarCat": "IFR",
      "metarRaw": "METAR KAOO 021053Z AUTO 04004KT 10SM OVC006 08/07 A3024 RMK AO2 SLP238 T00780067",
      "metarObsTime": 1775127180
    },
    "KLNS": {
      "status": "OK",
      "delay": "—",
      "metarCat": "IFR",
      "metarRaw": "METAR KLNS 021053Z 09016G25KT 10SM OVC008 09/07 A3027 RMK AO2 CIG 006V011 SLP248 T00890072",
      "metarObsTime": 1775127180
    },
    "KIPT": {
      "status": "OK",
      "delay": "—",
      "metarCat": "MVFR",
      "metarRaw": "SPECI KIPT 021103Z 00000KT 10SM OVC015 07/06 A3027 RMK AO2 T00670061 $",
      "metarObsTime": 1775127780
    },
    "KPHL": {
      "status": "OK",
      "delay": "—",
      "metarCat": "IFR",
      "metarRaw": "METAR KPHL 021054Z 08015G21KT 10SM OVC009 09/07 A3031 RMK AO2 SLP264 T00890067 $",
      "metarObsTime": 1775127240
    },
    "KABE": {
      "status": "OK",
      "delay": "—",
      "metarCat": "IFR",
      "metarRaw": "SPECI KABE 021115Z 08013G18KT 4SM BR OVC009 08/07 A3033 RMK AO2 T00780067 $",
      "metarObsTime": 1775128500
    },
    "KAVP": {
      "status": "OK",
      "delay": "—",
      "metarCat": "MVFR",
      "metarRaw": "METAR KAVP 021054Z 00000KT 10SM OVC013 07/05 A3029 RMK AO2 SLP258 T00720050",
      "metarObsTime": 1775127240
    },
    "KHZL": {
      "status": "OK",
      "delay": "—",
      "metarCat": "LIFR",
      "metarRaw": "METAR KHZL 021115Z AUTO 11005KT 7SM OVC004 06/05 A3030 RMK AO2",
      "metarObsTime": 1775128500
    }
  }
}