{
  "generatedAt": "2026-03-27T05:00:22.378Z",
  "airports": {
    "KPIT": {
      "status": "OK",
      "delay": "—",
      "metarCat": "MVFR",
      "metarRaw": "METAR KPIT 270451Z 02006KT 3SM -RA BR SCT007 BKN019 OVC043 12/11 A2984 RMK AO2 SLP106 P0019 T01170106 402440117 $",
      "metarObsTime": 1774587060
    },
    "KAGC": {
      "status": "OK",
      "delay": "—",
      "metarCat": "IFR",
      "metarRaw": "SPECI KAGC 270457Z 01006KT 1 3/4SM +RA BR SCT005 SCT009 OVC034 11/11 A2982 RMK AO2 P0003 T01110106",
      "metarObsTime": 1774587420
    },
    "KLBE": {
      "status": "OK",
      "delay": "—",
      "metarCat": "MVFR",
      "metarRaw": "METAR KLBE 270455Z AUTO 35004KT 3SM RA BR FEW005 SCT022 BKN041 12/12 A2982 RMK AO2 P0014",
      "metarObsTime": 1774587300
    },
    "KJST": {
      "status": "OK",
      "delay": "—",
      "metarCat": "VFR",
      "metarRaw": "METAR KJST 270454Z AUTO 04006KT 6SM RA BR FEW039 FEW060 OVC080 12/11 A2980 RMK AO2 SLP085 P0014 T01170111 402060106",
      "metarObsTime": 1774587240
    },
    "KERI": {
      "status": "OK",
      "delay": "—",
      "metarCat": "LIFR",
      "metarRaw": "SPECI KERI 270455Z AUTO 29009G17KT 1SM R06/4000VP6000FT -RA BR VV002 04/04 A2990 RMK AO2 P0001 T00440044",
      "metarObsTime": 1774587300
    },
    "KDUJ": {
      "status": "OK",
      "delay": "—",
      "metarCat": "MVFR",
      "metarRaw": "METAR KDUJ 270453Z AUTO 25005KT 5SM -RA BR OVC075 10/09 A2982 RMK AO2 RAE09B32 SLP093 P0004 T01000089 402390094",
      "metarObsTime": 1774587180
    },
    "KBFD": {
      "status": "OK",
      "delay": "—",
      "metarCat": "VFR",
      "metarRaw": "METAR KBFD 270453Z AUTO 30006KT 10SM -RA SCT008 BKN047 OVC100 08/07 A2981 RMK AO2 RAE03B18 SLP087 P0000 T00830072 402110067",
      "metarObsTime": 1774587180
    },
    "KBTP": {
      "status": "OK",
      "delay": "—",
      "metarCat": "VFR",
      "metarRaw": "METAR KBTP 270456Z AUTO 00000KT 6SM RA FEW011 BKN070 OVC095 11/ A2983 RMK AO2 SLP105 T0106 $",
      "metarObsTime": 1774587360
    },
    "KFKL": {
      "status": "OK",
      "delay": "—",
      "metarCat": "LIFR",
      "metarRaw": "METAR KFKL 270456Z AUTO 34005KT 10SM -RA BKN003 OVC009 09/09 A2985 RMK AO2 SLP108 P0006 T00890089 402390089",
      "metarObsTime": 1774587360
    },
    "KIDI": {
      "status": "OK",
      "delay": "—",
      "metarCat": "MVFR",
      "metarRaw": "METAR KIDI 270455Z AUTO 33004KT 3SM BR FEW034 SCT049 BKN060 11/11 A2983 RMK A01 P0010",
      "metarObsTime": 1774587300
    },
    "KMDT": {
      "status": "OK",
      "delay": "—",
      "metarCat": "MVFR",
      "metarRaw": "METAR KMDT 270456Z 27008KT 5SM RA BR BKN095 OVC110 17/14 A2972 RMK AO2 TSE0359 SLP063 P0016 T01670144 402500089 $",
      "metarObsTime": 1774587360
    },
    "KCXY": {
      "status": "OK",
      "delay": "—",
      "metarCat": "VFR",
      "metarRaw": "METAR KCXY 270456Z AUTO 28007KT 6SM -RA BR SCT075 OVC100 17/16 A2973 RMK AO2 SLP066 P0012 T01670156 402610089",
      "metarObsTime": 1774587360
    },
    "KMUI": {
      "status": "OK",
      "delay": "—",
      "metarCat": "VFR",
      "metarRaw": "SPECI KMUI 270447Z AUTO 25007KT 6SM RA BR FEW004 FEW070 OVC090 17/17 A2969 RMK AO2 SLP055",
      "metarObsTime": 1774586820
    },
    "KUNV": {
      "status": "OK",
      "delay": "—",
      "metarCat": "VFR",
      "metarRaw": "METAR KUNV 270455Z AUTO 09003KT 10SM BKN090 OVC110 11/11 A2976 RMK AO2 P0007 T01140113",
      "metarObsTime": 1774587300
    },
    "KAOO": {
      "status": "OK",
      "delay": "—",
      "metarCat": "MVFR",
      "metarRaw": "METAR KAOO 270453Z AUTO 04005KT 5SM RA BR SCT014 BKN070 OVC095 14/13 A2978 RMK AO2 PRESFR SLP076 P0018 T01440128 402440078",
      "metarObsTime": 1774587180
    },
    "KLNS": {
      "status": "OK",
      "delay": "—",
      "metarCat": "VFR",
      "metarRaw": "METAR KLNS 270453Z AUTO 26009KT 7SM -RA OVC100 17/15 A2972 RMK AO2 SLP061 P0014 T01670150 402500072",
      "metarObsTime": 1774587180
    },
    "KIPT": {
      "status": "OK",
      "delay": "—",
      "metarCat": "MVFR",
      "metarRaw": "METAR KIPT 270454Z AUTO 00000KT 5SM -RA BR BKN080 OVC095 12/11 A2974 RMK AO2 PRESFR SLP069 P0008 T01170111 402500039 $",
      "metarObsTime": 1774587240
    },
    "KPHL": {
      "status": "OK",
      "delay": "—",
      "metarCat": "VFR",
      "metarRaw": "METAR KPHL 270454Z 25008KT 10SM BKN075 BKN110 OVC140 21/12 A2971 RMK AO2 WSHFT 0426 SLP058 T02110117 402560094",
      "metarObsTime": 1774587240
    },
    "KABE": {
      "status": "OK",
      "delay": "—",
      "metarCat": "VFR",
      "metarRaw": "METAR KABE 270451Z 23005KT 8SM CLR 15/14 A2968 RMK AO2 RAE31 SLP049 P0002 T01500139 402440072 $",
      "metarObsTime": 1774587060
    },
    "KAVP": {
      "status": "OK",
      "delay": "—",
      "metarCat": "MVFR",
      "metarRaw": "METAR KAVP 270454Z 29009KT 3SM RA BR FEW012 OVC060 11/11 A2977 RMK AO2 PRESRR SLP077 P0006 T01110106 402220078",
      "metarObsTime": 1774587240
    },
    "KHZL": {
      "status": "OK",
      "delay": "—",
      "metarCat": "IFR",
      "metarRaw": "METAR KHZL 270455Z AUTO 33010G16KT 7SM RA SCT003 BKN009 OVC035 12/10 A2980 RMK AO2 P0012",
      "metarObsTime": 1774587300
    }
  }
}