{
  "generatedAt": "2026-03-23T20:20:19.009Z",
  "airports": {
    "KPIT": {
      "status": "OK",
      "delay": "—",
      "metarCat": "MVFR",
      "metarRaw": "SPECI KPIT 232011Z 31016G23KT 7SM -SN BKN018 OVC032 02/M03 A3019 RMK AO2 SNB10 P0000 T00171028",
      "metarObsTime": 1774296660
    },
    "KAGC": {
      "status": "OK",
      "delay": "—",
      "metarCat": "MVFR",
      "metarRaw": "SPECI KAGC 232017Z 33015G24KT 10SM BKN028 OVC034 02/M03 A3018 RMK AO2 PK WND 32027/1955 T00171033",
      "metarObsTime": 1774297020
    },
    "KLBE": {
      "status": "OK",
      "delay": "—",
      "metarCat": "MVFR",
      "metarRaw": "METAR KLBE 231947Z 27011G28KT 8SM BKN021 BKN040 OVC049 04/02 A3015",
      "metarObsTime": 1774295220
    },
    "KJST": {
      "status": "OK",
      "delay": "—",
      "metarCat": "MVFR",
      "metarRaw": "METAR KJST 231954Z AUTO 30012G21KT 10SM BKN026 OVC034 01/M03 A3005 RMK AO2 PK WND 32027/1856 UPB18E27 SLP188 P0000 T00111033",
      "metarObsTime": 1774295640
    },
    "KERI": {
      "status": "OK",
      "delay": "—",
      "metarCat": "IFR",
      "metarRaw": "METAR KERI 231951Z 30012G23KT 2SM -SN BKN021 OVC029 01/M04 A3022 RMK AO2 SNB1853 SLP243 P0000 T00061039",
      "metarObsTime": 1774295460
    },
    "KDUJ": {
      "status": "OK",
      "delay": "—",
      "metarCat": "VFR",
      "metarRaw": "METAR KDUJ 231953Z AUTO 32013G19KT 10SM SCT026 BKN035 OVC046 02/M03 A3007 RMK AO2 SLP193 T00171033",
      "metarObsTime": 1774295580
    },
    "KBFD": {
      "status": "OK",
      "delay": "—",
      "metarCat": "MVFR",
      "metarRaw": "METAR KBFD 231953Z AUTO 31011KT 10SM BKN026 OVC037 00/M04 A3006 RMK AO2 SNB1859E17 SLP198 P0000 T00001044",
      "metarObsTime": 1774295580
    },
    "KBTP": {
      "status": "OK",
      "delay": "—",
      "metarCat": "MVFR",
      "metarRaw": "METAR KBTP 231956Z AUTO 29018G23KT 10SM SCT014 BKN019 OVC025 02/M02 A3019 RMK AO2 RAE18B45E51SNB18E45 SLP238 P0000 T00171017 FZRANO $",
      "metarObsTime": 1774295760
    },
    "KFKL": {
      "status": "OK",
      "delay": "—",
      "metarCat": "MVFR",
      "metarRaw": "METAR KFKL 231956Z AUTO 30009G19KT 10SM UP OVC013 M01/M03 A3017 RMK AO2 RAE06B24E43UPB43SNB06E24 SLP232 P0000 T10061028 FZRANO",
      "metarObsTime": 1774295760
    },
    "KIDI": {
      "status": "OK",
      "delay": "—",
      "metarCat": "VFR",
      "metarRaw": "METAR KIDI 232015Z AUTO 28014G20KT 10SM BKN031 BKN038 OVC055 04/M01 A3012 RMK A01",
      "metarObsTime": 1774296900
    },
    "KMDT": {
      "status": "OK",
      "delay": "—",
      "metarCat": "VFR",
      "metarRaw": "METAR KMDT 231956Z 34017G28KT 10SM SCT042 BKN050 08/M01 A3003 RMK AO2 PK WND 33031/1938 SLP171 BINOVC T00781011",
      "metarObsTime": 1774295760
    },
    "KCXY": {
      "status": "OK",
      "delay": "—",
      "metarCat": "VFR",
      "metarRaw": "METAR KCXY 231956Z 33013G26KT 10SM BKN045 OVC050 07/M02 A3004 RMK AO2 PK WND 34026/1950 SLP176 T00671022",
      "metarObsTime": 1774295760
    },
    "KMUI": {
      "status": "OK",
      "delay": "—",
      "metarCat": "MVFR",
      "metarRaw": "METAR KMUI 231855Z 34010G20KT 10SM BKN023 05/M02 A2999 RMK SLPNO WND DATA ESTMD ALSTG ESTMD",
      "metarObsTime": 1774292100
    },
    "KUNV": {
      "status": "OK",
      "delay": "—",
      "metarCat": "VFR",
      "metarRaw": "METAR KUNV 231953Z 33008KT 10SM BKN035 OVC043 03/M03 A3007",
      "metarObsTime": 1774295580
    },
    "KAOO": {
      "status": "OK",
      "delay": "—",
      "metarCat": "VFR",
      "metarRaw": "METAR KAOO 231953Z AUTO 32019G28KT 10SM OVC041 04/M04 A3005 RMK AO2 PK WND 32028/1953 SLP184 T00391039",
      "metarObsTime": 1774295580
    },
    "KLNS": {
      "status": "OK",
      "delay": "—",
      "metarCat": "MVFR",
      "metarRaw": "METAR KLNS 231953Z 34019G28KT 10SM BKN030 OVC038 06/00 A3002 RMK AO2 PK WND 33029/1942 SLP165 T00560000",
      "metarObsTime": 1774295580
    },
    "KIPT": {
      "status": "OK",
      "delay": "—",
      "metarCat": "VFR",
      "metarRaw": "METAR KIPT 231954Z 31012G19KT 10SM OVC034 02/M04 A3009 RMK AO2 SLP192 T00221044",
      "metarObsTime": 1774295640
    },
    "KPHL": {
      "status": "OK",
      "delay": "—",
      "metarCat": "MVFR",
      "metarRaw": "METAR KPHL 231954Z 32018G26KT 10SM BKN020 OVC028 08/03 A2997 RMK AO2 PK WND 34026/1921 RAE1859 SLP149 P0000 T00780028",
      "metarObsTime": 1774295640
    },
    "KABE": {
      "status": "OK",
      "delay": "—",
      "metarCat": "MVFR",
      "metarRaw": "METAR KABE 231951Z 33017G23KT 10SM BKN027 OVC031 03/M02 A3000 RMK AO2 SLP161 T00331017 $",
      "metarObsTime": 1774295460
    },
    "KAVP": {
      "status": "OK",
      "delay": "—",
      "metarCat": "MVFR",
      "metarRaw": "METAR KAVP 231954Z 31011G22KT 10SM BKN025 OVC030 01/M04 A3002 RMK AO2 PK WND 32029/1943 SLP172 T00061044",
      "metarObsTime": 1774295640
    },
    "KHZL": {
      "status": "OK",
      "delay": "—",
      "metarCat": "MVFR",
      "metarRaw": "METAR KHZL 232015Z AUTO 32008G19KT 10SM OVC021 00/M04 A3003 RMK AO2",
      "metarObsTime": 1774296900
    }
  }
}