{
  "generatedAt": "2026-03-12T02:50:16.861Z",
  "airports": {
    "KPIT": {
      "status": "OK",
      "delay": "—",
      "metarCat": "MVFR",
      "metarRaw": "SPECI KPIT 120238Z 30020G28KT 5SM -RA BR FEW007 BKN022 OVC044 14/13 A2968 RMK AO2 PK WND 29028/0237 PRESRR P0004 T01440133 $",
      "metarObsTime": 1773283080
    },
    "KAGC": {
      "status": "OK",
      "delay": "—",
      "metarCat": "VFR",
      "metarRaw": "METAR KAGC 120153Z 24012G20KT 10SM -RA BKN045 OVC100 16/14 A2966 RMK AO2 SLP042 P0004 T01560139",
      "metarObsTime": 1773280380
    },
    "KLBE": {
      "status": "OK",
      "delay": "—",
      "metarCat": "MVFR",
      "metarRaw": "METAR KLBE 120235Z AUTO 20009KT 4SM -RA BR SCT009 BKN012 OVC034 16/16 A2970 RMK AO2",
      "metarObsTime": 1773282900
    },
    "KJST": {
      "status": "OK",
      "delay": "—",
      "metarCat": "MVFR",
      "metarRaw": "SPECI KJST 120205Z AUTO 26010G20KT 10SM -RA OVC013 14/13 A2970 RMK AO2 LTG DSNT E P0000 T01440133",
      "metarObsTime": 1773281100
    },
    "KERI": {
      "status": "OK",
      "delay": "—",
      "metarCat": "IFR",
      "metarRaw": "SPECI KERI 120216Z 28010G18KT 4SM -RA BR BKN006 OVC012 02/02 A2976 RMK AO2 P0000 T00220017",
      "metarObsTime": 1773281760
    },
    "KDUJ": {
      "status": "OK",
      "delay": "—",
      "metarCat": "MVFR",
      "metarRaw": "SPECI KDUJ 120246Z AUTO 22014KT 10SM -RA BKN012 BKN020 OVC080 14/13 A2961 RMK AO2 P0002 T01440133",
      "metarObsTime": 1773283560
    },
    "KBFD": {
      "status": "OK",
      "delay": "—",
      "metarCat": "IFR",
      "metarRaw": "SPECI KBFD 120242Z AUTO 29011G21KT 2 1/2SM +RA BR BKN007 OVC012 13/13 A2958 RMK AO2 RAB04 P0008 T01330128",
      "metarObsTime": 1773283320
    },
    "KBTP": {
      "status": "OK",
      "delay": "—",
      "metarCat": "MVFR",
      "metarRaw": "SPECI KBTP 120236Z AUTO 29014G25KT 5SM -RA SCT008 OVC012 13/ A2968 RMK AO2 WSHFT 0222 PRESRR P0012 $",
      "metarObsTime": 1773282960
    },
    "KFKL": {
      "status": "OK",
      "delay": "—",
      "metarCat": "IFR",
      "metarRaw": "METAR KFKL 120156Z AUTO 29016KT 10SM -RA BKN008 OVC014 A2966 RMK AO2 WSHFT 0114 RAB06 SLPNO P0002 FZRANO $",
      "metarObsTime": 1773280560
    },
    "KIDI": {
      "status": "OK",
      "delay": "—",
      "metarCat": "—",
      "metarRaw": "—",
      "metarObsTime": null
    },
    "KMDT": {
      "status": "OK",
      "delay": "—",
      "metarCat": "MVFR",
      "metarRaw": "SPECI KMDT 120241Z 31006KT 3SM TSRA BR BKN070CB OVC110 16/16 A2966 RMK AO2 TSB18 OCNL LTGIC SE-S TS SE-S MOV E P0002 T01610161",
      "metarObsTime": 1773283260
    },
    "KCXY": {
      "status": "OK",
      "delay": "—",
      "metarCat": "VFR",
      "metarRaw": "SPECI KCXY 120235Z AUTO 17003KT 6SM RA BR FEW046 BKN070 OVC100 17/16 A2967 RMK AO2 LTG DSNT E TSB15E30 P0010 T01670161",
      "metarObsTime": 1773282900
    },
    "KMUI": {
      "status": "OK",
      "delay": "—",
      "metarCat": "VFR",
      "metarRaw": "SPECI KMUI 120243Z AUTO 35004KT 10SM FEW055 SCT070 BKN090 OVC150 16/16 A2963 RMK AO2 LTG DSNT SE-SW RAE03RAB20E43 SLP035",
      "metarObsTime": 1773283380
    },
    "KUNV": {
      "status": "OK",
      "delay": "—",
      "metarCat": "VFR",
      "metarRaw": "METAR KUNV 120235Z AUTO 20006KT 10SM RA SCT060 SCT080 OVC095 16/16 A2966 RMK AO2 P0004 T01600160",
      "metarObsTime": 1773282900
    },
    "KAOO": {
      "status": "OK",
      "delay": "—",
      "metarCat": "MVFR",
      "metarRaw": "SPECI KAOO 120240Z AUTO 20003KT 10SM BKN026 OVC036 16/14 A2969 RMK AO2 RAE18B28E39 P0004 T01560144",
      "metarObsTime": 1773283200
    },
    "KLNS": {
      "status": "OK",
      "delay": "—",
      "metarCat": "VFR",
      "metarRaw": "SPECI KLNS 120246Z 14003KT 9SM -RA FEW048 BKN070 OVC090 18/17 A2965 RMK AO2 LTG DSNT N LTG DSNT NW MOV E P0010 T01780167",
      "metarObsTime": 1773283560
    },
    "KIPT": {
      "status": "OK",
      "delay": "—",
      "metarCat": "VFR",
      "metarRaw": "METAR KIPT 120154Z 25006KT 10SM FEW065 OVC085 18/15 A2963 RMK AO2 RAE43 SLP033 P0002 T01780150 $",
      "metarObsTime": 1773280440
    },
    "KPHL": {
      "status": "OK",
      "delay": "—",
      "metarCat": "VFR",
      "metarRaw": "METAR KPHL 120154Z 19007KT 10SM FEW035 BKN090 OVC110 19/16 A2971 RMK AO2 PK WND 21039/0058 RAE43 TSE43 SLP059 P0001 T01890156 $",
      "metarObsTime": 1773280440
    },
    "KABE": {
      "status": "OK",
      "delay": "—",
      "metarCat": "VFR",
      "metarRaw": "METAR KABE 120151Z 18003KT 10SM CLR 18/16 A2965 RMK AO2 RAE0058 SLP040 P0000 T01780161 $",
      "metarObsTime": 1773280260
    },
    "KAVP": {
      "status": "OK",
      "delay": "—",
      "metarCat": "VFR",
      "metarRaw": "METAR KAVP 120154Z 21009G19KT 180V240 8SM -RA FEW045 OVC080 16/14 A2969 RMK AO2 PK WND 26028/0125 RAB21 SLP048 P0030 T01610144",
      "metarObsTime": 1773280440
    },
    "KHZL": {
      "status": "OK",
      "delay": "—",
      "metarCat": "VFR",
      "metarRaw": "METAR KHZL 120235Z AUTO 00000KT 10SM SCT017 BKN070 OVC100 16/14 A2969 RMK AO2 LTG DSNT S P0008",
      "metarObsTime": 1773282900
    }
  }
}