{
  "generatedAt": "2026-04-04T13:40:35.929Z",
  "airports": {
    "KPIT": {
      "status": "OK",
      "delay": "—",
      "metarCat": "VFR",
      "metarRaw": "METAR KPIT 041251Z 15005KT 10SM SCT050 BKN100 BKN250 17/16 A3012 RMK AO2 SLP201 T01720156 $",
      "metarObsTime": 1775307060
    },
    "KAGC": {
      "status": "OK",
      "delay": "—",
      "metarCat": "VFR",
      "metarRaw": "METAR KAGC 041253Z 16005KT 6SM BR CLR 17/16 A3013 RMK AO2 SLP201 T01720161",
      "metarObsTime": 1775307180
    },
    "KLBE": {
      "status": "OK",
      "delay": "—",
      "metarCat": "VFR",
      "metarRaw": "METAR KLBE 041250Z 00000KT 10SM SCT120 18/17 A3016",
      "metarObsTime": 1775307000
    },
    "KJST": {
      "status": "OK",
      "delay": "—",
      "metarCat": "VFR",
      "metarRaw": "METAR KJST 041254Z AUTO 17004KT 10SM CLR 17/15 A3018 RMK AO2 SLP213 T01670150",
      "metarObsTime": 1775307240
    },
    "KERI": {
      "status": "OK",
      "delay": "—",
      "metarCat": "VFR",
      "metarRaw": "METAR KERI 041251Z 06008KT 10SM FEW060 SCT100 07/04 A3007 RMK AO2 SLP186 T00720044",
      "metarObsTime": 1775307060
    },
    "KDUJ": {
      "status": "OK",
      "delay": "—",
      "metarCat": "LIFR",
      "metarRaw": "METAR KDUJ 041253Z AUTO VRB03KT 4SM BR OVC002 15/15 A3014 RMK AO2 RAE08 SLP200 P0000 T01500150",
      "metarObsTime": 1775307180
    },
    "KBFD": {
      "status": "OK",
      "delay": "—",
      "metarCat": "LIFR",
      "metarRaw": "SPECI KBFD 041332Z AUTO 13004KT 2 1/2SM BR OVC002 13/12 A3014 RMK AO2 T01280122",
      "metarObsTime": 1775309520
    },
    "KBTP": {
      "status": "OK",
      "delay": "—",
      "metarCat": "VFR",
      "metarRaw": "METAR KBTP 041256Z AUTO 15008KT 10SM SCT070 17/ A3013 RMK AO2 SLP204 T0167 $",
      "metarObsTime": 1775307360
    },
    "KFKL": {
      "status": "OK",
      "delay": "—",
      "metarCat": "VFR",
      "metarRaw": "SPECI KFKL 041321Z AUTO 17010KT 10SM SCT003 OVC100 16/15 A3010 RMK AO2",
      "metarObsTime": 1775308860
    },
    "KIDI": {
      "status": "OK",
      "delay": "—",
      "metarCat": "VFR",
      "metarRaw": "METAR KIDI 041335Z AUTO 18005KT 10SM BKN120 18/17 A3014 RMK A01",
      "metarObsTime": 1775309700
    },
    "KMDT": {
      "status": "OK",
      "delay": "—",
      "metarCat": "MVFR",
      "metarRaw": "METAR KMDT 041256Z 00000KT 3SM BR BKN095 BKN250 12/11 A3016 RMK AO2 SLP213 T01220111 $",
      "metarObsTime": 1775307360
    },
    "KCXY": {
      "status": "OK",
      "delay": "—",
      "metarCat": "VFR",
      "metarRaw": "METAR KCXY 041256Z 00000KT 6SM BR BKN095 14/12 A3016 RMK AO2 SLP215 T01390117",
      "metarObsTime": 1775307360
    },
    "KMUI": {
      "status": "OK",
      "delay": "—",
      "metarCat": "—",
      "metarRaw": "—",
      "metarObsTime": null
    },
    "KUNV": {
      "status": "OK",
      "delay": "—",
      "metarCat": "LIFR",
      "metarRaw": "METAR KUNV 041253Z 06005KT 3SM -DZ BKN003 14/14 A3018",
      "metarObsTime": 1775307180
    },
    "KAOO": {
      "status": "OK",
      "delay": "—",
      "metarCat": "VFR",
      "metarRaw": "METAR KAOO 041253Z AUTO 08003KT 10SM BKN065 BKN080 OVC090 17/16 A3018 RMK AO2 RAE09 SLP213 P0000 T01720156",
      "metarObsTime": 1775307180
    },
    "KLNS": {
      "status": "OK",
      "delay": "—",
      "metarCat": "MVFR",
      "metarRaw": "METAR KLNS 041253Z 10003KT 3SM BR FEW070 14/14 A3017 RMK AO2 SLP214 T01440139",
      "metarObsTime": 1775307180
    },
    "KIPT": {
      "status": "OK",
      "delay": "—",
      "metarCat": "MVFR",
      "metarRaw": "METAR KIPT 041254Z 32005KT 10SM OVC011 11/08 A3020 RMK AO2 SLP229 T01060083",
      "metarObsTime": 1775307240
    },
    "KPHL": {
      "status": "OK",
      "delay": "—",
      "metarCat": "VFR",
      "metarRaw": "METAR KPHL 041254Z 17004KT 10SM FEW100 SCT140 SCT270 BKN350 19/14 A3016 RMK AO2 SLP214 T01890144 $",
      "metarObsTime": 1775307240
    },
    "KABE": {
      "status": "OK",
      "delay": "—",
      "metarCat": "VFR",
      "metarRaw": "METAR KABE 041251Z 00000KT 10SM CLR 15/12 A3018 RMK AO2 SLP218 T01500122 $",
      "metarObsTime": 1775307060
    },
    "KAVP": {
      "status": "OK",
      "delay": "—",
      "metarCat": "MVFR",
      "metarRaw": "METAR KAVP 041254Z 35004KT 10SM OVC012 10/07 A3022 RMK AO2 SLP231 T01000072",
      "metarObsTime": 1775307240
    },
    "KHZL": {
      "status": "OK",
      "delay": "—",
      "metarCat": "IFR",
      "metarRaw": "METAR KHZL 041335Z AUTO 33004KT 10SM OVC006 11/08 A3023 RMK AO2",
      "metarObsTime": 1775309700
    }
  }
}