{
  "generatedAt": "2026-04-12T01:50:43.404Z",
  "airports": {
    "KPIT": {
      "status": "OK",
      "delay": "—",
      "metarCat": "VFR",
      "metarRaw": "METAR KPIT 120051Z 34005KT 10SM FEW150 SCT250 12/M01 A3038 RMK AO2 SLP298 T01171006 $",
      "metarObsTime": 1775955060
    },
    "KAGC": {
      "status": "OK",
      "delay": "—",
      "metarCat": "VFR",
      "metarRaw": "METAR KAGC 120053Z 33005KT 10SM CLR 11/M01 A3036 RMK AO2 SLP292 T01111006",
      "metarObsTime": 1775955180
    },
    "KLBE": {
      "status": "OK",
      "delay": "—",
      "metarCat": "VFR",
      "metarRaw": "METAR KLBE 120147Z 00000KT 10SM CLR 08/02 A3040",
      "metarObsTime": 1775958420
    },
    "KJST": {
      "status": "OK",
      "delay": "—",
      "metarCat": "VFR",
      "metarRaw": "METAR KJST 120054Z AUTO 30005KT 10SM CLR 09/M02 A3035 RMK AO2 SLP289 T00891022",
      "metarObsTime": 1775955240
    },
    "KERI": {
      "status": "OK",
      "delay": "—",
      "metarCat": "VFR",
      "metarRaw": "METAR KERI 120051Z 00000KT 10SM CLR 03/M01 A3043 RMK AO2 SLP311 T00331006 $",
      "metarObsTime": 1775955060
    },
    "KDUJ": {
      "status": "OK",
      "delay": "—",
      "metarCat": "VFR",
      "metarRaw": "METAR KDUJ 120053Z AUTO 31004KT 10SM CLR 09/M05 A3036 RMK AO2 SLP288 T00891050",
      "metarObsTime": 1775955180
    },
    "KBFD": {
      "status": "OK",
      "delay": "—",
      "metarCat": "VFR",
      "metarRaw": "METAR KBFD 120053Z AUTO 35004KT 10SM CLR 04/M06 A3037 RMK AO2 SLP298 T00441056",
      "metarObsTime": 1775955180
    },
    "KBTP": {
      "status": "OK",
      "delay": "—",
      "metarCat": "VFR",
      "metarRaw": "METAR KBTP 120056Z AUTO 32003KT 10SM CLR 09/M02 A3039 RMK AO2 SLP304 T00891017 $",
      "metarObsTime": 1775955360
    },
    "KFKL": {
      "status": "OK",
      "delay": "—",
      "metarCat": "VFR",
      "metarRaw": "METAR KFKL 120056Z AUTO 00000KT 10SM CLR 07/M04 A3039 RMK AO2 SLP304 T00721044",
      "metarObsTime": 1775955360
    },
    "KIDI": {
      "status": "OK",
      "delay": "—",
      "metarCat": "VFR",
      "metarRaw": "METAR KIDI 120135Z AUTO 00000KT 10SM CLR 08/01 A3038 RMK A01",
      "metarObsTime": 1775957700
    },
    "KMDT": {
      "status": "OK",
      "delay": "—",
      "metarCat": "VFR",
      "metarRaw": "METAR KMDT 120056Z 00000KT 10SM CLR 12/01 A3032 RMK AO2 SLP267 T01220011",
      "metarObsTime": 1775955360
    },
    "KCXY": {
      "status": "OK",
      "delay": "—",
      "metarCat": "VFR",
      "metarRaw": "METAR KCXY 120056Z 25003KT 10SM CLR 12/01 A3033 RMK AO2 SLP270 T01220006 $",
      "metarObsTime": 1775955360
    },
    "KMUI": {
      "status": "OK",
      "delay": "—",
      "metarCat": "VFR",
      "metarRaw": "METAR KMUI 120055Z AUTO 00000KT 10SM CLR 12/M01 A3030 RMK AO2 SLP264 T01151010",
      "metarObsTime": 1775955300
    },
    "KUNV": {
      "status": "OK",
      "delay": "—",
      "metarCat": "VFR",
      "metarRaw": "METAR KUNV 120053Z 31004KT 10SM CLR 13/M04 A3035",
      "metarObsTime": 1775955180
    },
    "KAOO": {
      "status": "OK",
      "delay": "—",
      "metarCat": "VFR",
      "metarRaw": "METAR KAOO 120053Z AUTO 34004KT 10SM CLR 12/M04 A3035 RMK AO2 SLP283 T01171039",
      "metarObsTime": 1775955180
    },
    "KLNS": {
      "status": "OK",
      "delay": "—",
      "metarCat": "VFR",
      "metarRaw": "METAR KLNS 120053Z 15003KT 10SM CLR 13/01 A3032 RMK AO2 SLP268 T01280011",
      "metarObsTime": 1775955180
    },
    "KIPT": {
      "status": "OK",
      "delay": "—",
      "metarCat": "VFR",
      "metarRaw": "METAR KIPT 120054Z 00000KT 10SM CLR 11/M01 A3035 RMK AO2 SLP279 T01111011 $",
      "metarObsTime": 1775955240
    },
    "KPHL": {
      "status": "OK",
      "delay": "—",
      "metarCat": "VFR",
      "metarRaw": "METAR KPHL 120054Z 33004KT 10SM CLR 17/M02 A3033 RMK AO2 SLP270 T01671017 $",
      "metarObsTime": 1775955240
    },
    "KABE": {
      "status": "OK",
      "delay": "—",
      "metarCat": "VFR",
      "metarRaw": "METAR KABE 120051Z 02005KT 10SM CLR 11/M02 A3034 RMK AO2 SLP275 T01111022 $",
      "metarObsTime": 1775955060
    },
    "KAVP": {
      "status": "OK",
      "delay": "—",
      "metarCat": "VFR",
      "metarRaw": "METAR KAVP 120054Z 01008KT 10SM CLR 09/M02 A3036 RMK AO2 SLP283 T00891022",
      "metarObsTime": 1775955240
    },
    "KHZL": {
      "status": "OK",
      "delay": "—",
      "metarCat": "VFR",
      "metarRaw": "METAR KHZL 120135Z AUTO 35003KT 10SM CLR 09/M03 A3039 RMK AO2",
      "metarObsTime": 1775957700
    }
  }
}