{
  "generatedAt": "2026-04-17T01:00:58.027Z",
  "airports": {
    "KPIT": {
      "status": "OK",
      "delay": "—",
      "metarCat": "VFR",
      "metarRaw": "METAR KPIT 170051Z 22004KT 10SM SCT034 BKN090 19/17 A2988 RMK AO2 SLP117 T01890167",
      "metarObsTime": 1776387060
    },
    "KAGC": {
      "status": "OK",
      "delay": "—",
      "metarCat": "VFR",
      "metarRaw": "METAR KAGC 170053Z 21006KT 10SM FEW039 OVC085 19/16 A2988 RMK AO2 SLP116 T01890161",
      "metarObsTime": 1776387180
    },
    "KLBE": {
      "status": "OK",
      "delay": "—",
      "metarCat": "VFR",
      "metarRaw": "METAR KLBE 162347Z 25008G23KT 10SM -DZ FEW042 SCT050 OVC060 20/17 A2989",
      "metarObsTime": 1776383220
    },
    "KJST": {
      "status": "OK",
      "delay": "—",
      "metarCat": "IFR",
      "metarRaw": "SPECI KJST 170057Z AUTO 24006KT 4SM VCTS -RA BR BKN008 OVC015 16/16 A2992 RMK AO2 LTG DSNT SW CIG 005V011 P0001 T01610156",
      "metarObsTime": 1776387420
    },
    "KERI": {
      "status": "OK",
      "delay": "—",
      "metarCat": "VFR",
      "metarRaw": "METAR KERI 170051Z 20003KT 10SM CLR 16/14 A2984 RMK AO2 SLP102 T01560139 $",
      "metarObsTime": 1776387060
    },
    "KDUJ": {
      "status": "OK",
      "delay": "—",
      "metarCat": "VFR",
      "metarRaw": "METAR KDUJ 170053Z AUTO 34003KT 10SM BKN044 OVC055 16/14 A2988 RMK AO2 RAE2358 SLP112 P0000 T01560144",
      "metarObsTime": 1776387180
    },
    "KBFD": {
      "status": "OK",
      "delay": "—",
      "metarCat": "VFR",
      "metarRaw": "METAR KBFD 170053Z AUTO 26003KT 10SM -RA BKN060 OVC085 14/13 A2989 RMK AO2 SLP112 P0003 T01440133",
      "metarObsTime": 1776387180
    },
    "KBTP": {
      "status": "OK",
      "delay": "—",
      "metarCat": "VFR",
      "metarRaw": "METAR KBTP 170056Z AUTO 00000KT 10SM FEW043 BKN065 OVC090 17/ A2989 RMK AO2 RAB04E24 SLP123 T0172 PNO $",
      "metarObsTime": 1776387360
    },
    "KFKL": {
      "status": "OK",
      "delay": "—",
      "metarCat": "—",
      "metarRaw": "—",
      "metarObsTime": null
    },
    "KIDI": {
      "status": "OK",
      "delay": "—",
      "metarCat": "MVFR",
      "metarRaw": "METAR KIDI 170055Z AUTO 00000KT 10SM FEW016 BKN026 OVC065 17/17 A2991 RMK A01",
      "metarObsTime": 1776387300
    },
    "KMDT": {
      "status": "OK",
      "delay": "—",
      "metarCat": "VFR",
      "metarRaw": "METAR KMDT 170056Z 19005KT 10SM FEW070 BKN110 25/15 A2972 RMK AO2 SLP063 T02500150",
      "metarObsTime": 1776387360
    },
    "KCXY": {
      "status": "OK",
      "delay": "—",
      "metarCat": "VFR",
      "metarRaw": "METAR KCXY 170056Z 19005KT 10SM BKN100 BKN120 27/13 A2972 RMK AO2 SLP063 T02720133 $",
      "metarObsTime": 1776387360
    },
    "KMUI": {
      "status": "OK",
      "delay": "—",
      "metarCat": "VFR",
      "metarRaw": "SPECI KMUI 170049Z 00000KT 10SM VCSH SCT065 BKN140 25/15 A2971 RMK AO2A LTG DSNT N SLP060",
      "metarObsTime": 1776386940
    },
    "KUNV": {
      "status": "OK",
      "delay": "—",
      "metarCat": "VFR",
      "metarRaw": "METAR KUNV 170053Z 30015G20KT 10SM -RA OVC090 20/14 A2984",
      "metarObsTime": 1776387180
    },
    "KAOO": {
      "status": "OK",
      "delay": "—",
      "metarCat": "VFR",
      "metarRaw": "METAR KAOO 170053Z AUTO 30011G23KT 10SM OVC085 21/14 A2987 RMK AO2 PK WND 28029/2354 LTG DSNT W SLP105 T02060139",
      "metarObsTime": 1776387180
    },
    "KLNS": {
      "status": "OK",
      "delay": "—",
      "metarCat": "VFR",
      "metarRaw": "METAR KLNS 170053Z 19008KT 10SM SCT110 26/13 A2974 RMK AO2 SLP067 T02560133 $",
      "metarObsTime": 1776387180
    },
    "KIPT": {
      "status": "OK",
      "delay": "—",
      "metarCat": "VFR",
      "metarRaw": "METAR KIPT 170054Z 29008G16KT 10SM SCT100 BKN120 25/11 A2976 RMK AO2 PK WND 29027/0035 SLP073 T02500111 $",
      "metarObsTime": 1776387240
    },
    "KPHL": {
      "status": "OK",
      "delay": "—",
      "metarCat": "VFR",
      "metarRaw": "METAR KPHL 170054Z 21011G17KT 10SM SCT170 BKN280 27/13 A2975 RMK AO2 SLP074 T02720133 $",
      "metarObsTime": 1776387240
    },
    "KABE": {
      "status": "OK",
      "delay": "—",
      "metarCat": "VFR",
      "metarRaw": "METAR KABE 170051Z 21008KT 10SM CLR 27/13 A2973 RMK AO2 SLP066 T02670133",
      "metarObsTime": 1776387060
    },
    "KAVP": {
      "status": "OK",
      "delay": "—",
      "metarCat": "VFR",
      "metarRaw": "METAR KAVP 170054Z 25005KT 10SM SCT100 BKN120 26/12 A2974 RMK AO2 SLP061 T02610122",
      "metarObsTime": 1776387240
    },
    "KHZL": {
      "status": "OK",
      "delay": "—",
      "metarCat": "VFR",
      "metarRaw": "METAR KHZL 170055Z AUTO 17003KT 10SM SCT090 BKN120 25/12 A2982 RMK AO2",
      "metarObsTime": 1776387300
    }
  }
}