{
  "generatedAt": "2026-03-17T23:00:17.344Z",
  "airports": {
    "KPIT": {
      "status": "OK",
      "delay": "—",
      "metarCat": "VFR",
      "metarRaw": "METAR KPIT 172251Z 27010G19KT 10SM FEW007 SCT025 SCT075 M05/M12 A3012 RMK AO2 PK WND 30029/2210 SNE27 SLP225 P0000 T10501117",
      "metarObsTime": 1773787860
    },
    "KAGC": {
      "status": "OK",
      "delay": "—",
      "metarCat": "VFR",
      "metarRaw": "METAR KAGC 172253Z 27007G16KT 10SM FEW034 M06/M11 A3011 RMK AO2 SNB04E14 SLP220 P0000 T10561111",
      "metarObsTime": 1773787980
    },
    "KLBE": {
      "status": "OK",
      "delay": "—",
      "metarCat": "VFR",
      "metarRaw": "METAR KLBE 172247Z 24014G26KT 6SM -SN BR SCT013 BKN032 BKN045 M05/M08 A3013",
      "metarObsTime": 1773787620
    },
    "KJST": {
      "status": "OK",
      "delay": "—",
      "metarCat": "LIFR",
      "metarRaw": "SPECI KJST 172242Z AUTO 27019G29KT 1/4SM SN FZFG FEW013 BKN019 OVC044 M08/M11 A2999 RMK AO2 PK WND 29029/2241 P0000 T10831106",
      "metarObsTime": 1773787320
    },
    "KERI": {
      "status": "OK",
      "delay": "—",
      "metarCat": "LIFR",
      "metarRaw": "METAR KERI 172251Z 26006G14KT 3/4SM R06/P6000FT -SN BR FEW011 OVC017 M06/M08 A3013 RMK AO2 PK WND 27026/2157 SNB10 SLP215 P0001 T10611083",
      "metarObsTime": 1773787860
    },
    "KDUJ": {
      "status": "OK",
      "delay": "—",
      "metarCat": "MVFR",
      "metarRaw": "METAR KDUJ 172253Z AUTO 28008KT 5SM -SN BKN019 BKN060 M08/M11 A3002 RMK AO2 PK WND 28028/2209 SNB09 SLP194 P0000 T10781111",
      "metarObsTime": 1773787980
    },
    "KBFD": {
      "status": "OK",
      "delay": "—",
      "metarCat": "VFR",
      "metarRaw": "METAR KBFD 172253Z AUTO 29008KT 9SM FEW029 BKN036 OVC060 M09/M13 A2999 RMK AO2 PK WND 31026/2230 SNE51 SLP188 P0000 T10891133",
      "metarObsTime": 1773787980
    },
    "KBTP": {
      "status": "OK",
      "delay": "—",
      "metarCat": "VFR",
      "metarRaw": "METAR KBTP 172156Z AUTO 28014G20KT 10SM FEW030 SCT041 BKN060 M04/M12 A3008 RMK AO2 PK WND 27026/2110 SNB12E23 SLPNO P0000 T10441122 FZRANO $",
      "metarObsTime": 1773784560
    },
    "KFKL": {
      "status": "OK",
      "delay": "—",
      "metarCat": "VFR",
      "metarRaw": "SPECI KFKL 172249Z AUTO 28006KT 9SM FEW009 BKN044 OVC055 M08/M11 A3008 RMK AO2 SNE48 P0000 FZRANO",
      "metarObsTime": 1773787740
    },
    "KIDI": {
      "status": "OK",
      "delay": "—",
      "metarCat": "VFR",
      "metarRaw": "METAR KIDI 172235Z AUTO 28013G22KT 10SM FEW025 SCT035 BKN055 M05/M11 A3007 RMK A01",
      "metarObsTime": 1773786900
    },
    "KMDT": {
      "status": "OK",
      "delay": "—",
      "metarCat": "VFR",
      "metarRaw": "SPECI KMDT 172221Z 31014G24KT 10SM BKN060 BKN070 01/M11 A3004 RMK AO2 PK WND 29026/2207 WSHFT 2201 T00061106",
      "metarObsTime": 1773786060
    },
    "KCXY": {
      "status": "OK",
      "delay": "—",
      "metarCat": "VFR",
      "metarRaw": "SPECI KCXY 172212Z 31015G23KT 10SM BKN065 OVC080 00/M11 A3004 RMK AO2 WSHFT 2152 T00001106",
      "metarObsTime": 1773785520
    },
    "KMUI": {
      "status": "OK",
      "delay": "—",
      "metarCat": "VFR",
      "metarRaw": "METAR KMUI 172155Z 28015G27KT 10SM SCT035 BKN080 01/M11 A2999 RMK AO2A PK WND 28027/52 SLP164 T00131112",
      "metarObsTime": 1773784500
    },
    "KUNV": {
      "status": "OK",
      "delay": "—",
      "metarCat": "VFR",
      "metarRaw": "METAR KUNV 172253Z COR 28012G21KT 10SM VCSH SCT034 SCT046 BKN065 M05/M10 A3004",
      "metarObsTime": 1773787980
    },
    "KAOO": {
      "status": "OK",
      "delay": "—",
      "metarCat": "VFR",
      "metarRaw": "METAR KAOO 172253Z AUTO 29014G20KT 9SM -SN SCT030 BKN039 BKN060 M06/M10 A3005 RMK AO2 PK WND 27028/2231 WSHFT 2227 SNE11B32 SLP200 P0000 T10561100",
      "metarObsTime": 1773787980
    },
    "KLNS": {
      "status": "OK",
      "delay": "—",
      "metarCat": "VFR",
      "metarRaw": "METAR KLNS 172253Z 30016G21KT 10SM SCT055 BKN080 01/M11 A3005 RMK AO2 PRESRR SLP180 T00061111",
      "metarObsTime": 1773787980
    },
    "KIPT": {
      "status": "OK",
      "delay": "—",
      "metarCat": "VFR",
      "metarRaw": "METAR KIPT 172154Z 28013G23KT 10SM FEW037 BKN049 BKN060 M01/M09 A3000 RMK AO2 WSHFT 2054 SLP164 T10111094",
      "metarObsTime": 1773784440
    },
    "KPHL": {
      "status": "OK",
      "delay": "—",
      "metarCat": "VFR",
      "metarRaw": "METAR KPHL 172154Z 31019G26KT 10SM BKN070 04/M12 A3002 RMK AO2 PK WND 27029/2125 SLP163 T00441122 $",
      "metarObsTime": 1773784440
    },
    "KABE": {
      "status": "OK",
      "delay": "—",
      "metarCat": "VFR",
      "metarRaw": "METAR KABE 172251Z 30012G18KT 10SM FEW048 FEW065 BKN085 M01/M08 A3002 RMK AO2 PK WND 29026/2210 SLP170 T10061083 $",
      "metarObsTime": 1773787860
    },
    "KAVP": {
      "status": "OK",
      "delay": "—",
      "metarCat": "MVFR",
      "metarRaw": "SPECI KAVP 172209Z 32007G15KT 10SM BKN030 OVC040 M02/M08 A2995 RMK AO2 SNE03 P0000 T10221078",
      "metarObsTime": 1773785340
    },
    "KHZL": {
      "status": "OK",
      "delay": "—",
      "metarCat": "VFR",
      "metarRaw": "METAR KHZL 172235Z AUTO 27004KT 10SM SCT020 SCT030 SCT040 M03/M08 RMK AO2",
      "metarObsTime": 1773786900
    }
  }
}