{
  "generatedAt": "2026-04-15T08:10:53.106Z",
  "airports": {
    "KPIT": {
      "status": "OK",
      "delay": "—",
      "metarCat": "VFR",
      "metarRaw": "METAR KPIT 150751Z 19003KT 10SM FEW070 BKN200 18/15 A2991 RMK AO2 SLP128 T01830150 $",
      "metarObsTime": 1776239460
    },
    "KAGC": {
      "status": "OK",
      "delay": "—",
      "metarCat": "VFR",
      "metarRaw": "METAR KAGC 150753Z 16004KT 10SM CLR 18/16 A2993 RMK AO2 SLP131 T01780161",
      "metarObsTime": 1776239580
    },
    "KLBE": {
      "status": "OK",
      "delay": "—",
      "metarCat": "VFR",
      "metarRaw": "METAR KLBE 150755Z AUTO 19006KT 10SM CLR 17/16 A2996 RMK AO2",
      "metarObsTime": 1776239700
    },
    "KJST": {
      "status": "OK",
      "delay": "—",
      "metarCat": "VFR",
      "metarRaw": "METAR KJST 150754Z AUTO 23007KT 10SM CLR 17/14 A2998 RMK AO2 SLP139 T01670139",
      "metarObsTime": 1776239640
    },
    "KERI": {
      "status": "OK",
      "delay": "—",
      "metarCat": "VFR",
      "metarRaw": "METAR KERI 150751Z AUTO 17012KT 10SM SCT075 19/16 A2981 RMK AO2 SLP093 T01890156 $",
      "metarObsTime": 1776239460
    },
    "KDUJ": {
      "status": "OK",
      "delay": "—",
      "metarCat": "VFR",
      "metarRaw": "METAR KDUJ 150753Z AUTO 16003KT 10SM CLR 15/14 A2993 RMK AO2 SLP125 T01500144",
      "metarObsTime": 1776239580
    },
    "KBFD": {
      "status": "OK",
      "delay": "—",
      "metarCat": "MVFR",
      "metarRaw": "SPECI KBFD 150802Z AUTO 16003KT 3SM BR CLR 13/13 A2993 RMK AO2 T01330133",
      "metarObsTime": 1776240120
    },
    "KBTP": {
      "status": "OK",
      "delay": "—",
      "metarCat": "VFR",
      "metarRaw": "METAR KBTP 150756Z AUTO 20006KT 10SM CLR 17/16 A2993 RMK AO2 SLP134 T01720161 PNO $",
      "metarObsTime": 1776239760
    },
    "KFKL": {
      "status": "OK",
      "delay": "—",
      "metarCat": "VFR",
      "metarRaw": "METAR KFKL 150756Z AUTO 19007KT 10SM CLR 16/15 A2992 RMK AO2 SLP124 T01610150",
      "metarObsTime": 1776239760
    },
    "KIDI": {
      "status": "OK",
      "delay": "—",
      "metarCat": "VFR",
      "metarRaw": "METAR KIDI 150755Z AUTO 00000KT 10SM FEW043 15/15 A2996 RMK A01",
      "metarObsTime": 1776239700
    },
    "KMDT": {
      "status": "OK",
      "delay": "—",
      "metarCat": "VFR",
      "metarRaw": "METAR KMDT 150756Z 14003KT 10SM FEW065 FEW085 16/16 A2992 RMK AO2 SLP132 T01610156",
      "metarObsTime": 1776239760
    },
    "KCXY": {
      "status": "OK",
      "delay": "—",
      "metarCat": "VFR",
      "metarRaw": "METAR KCXY 150756Z AUTO 24004KT 10SM CLR 16/15 A2994 RMK AO2 SLP137 T01560150",
      "metarObsTime": 1776239760
    },
    "KMUI": {
      "status": "OK",
      "delay": "—",
      "metarCat": "—",
      "metarRaw": "—",
      "metarObsTime": null
    },
    "KUNV": {
      "status": "OK",
      "delay": "—",
      "metarCat": "VFR",
      "metarRaw": "METAR KUNV 150755Z AUTO 22004KT 10SM SCT090 BKN110 16/16 A2995 RMK AO2 T01560156",
      "metarObsTime": 1776239700
    },
    "KAOO": {
      "status": "OK",
      "delay": "—",
      "metarCat": "VFR",
      "metarRaw": "METAR KAOO 150753Z AUTO 00000KT 10SM BKN065 OVC100 16/14 A2996 RMK AO2 SLP136 T01610144",
      "metarObsTime": 1776239580
    },
    "KLNS": {
      "status": "OK",
      "delay": "—",
      "metarCat": "LIFR",
      "metarRaw": "SPECI KLNS 150759Z AUTO 06003KT 3/4SM BR SCT060 14/14 A2994 RMK AO2 T01440144",
      "metarObsTime": 1776239940
    },
    "KIPT": {
      "status": "OK",
      "delay": "—",
      "metarCat": "LIFR",
      "metarRaw": "SPECI KIPT 150802Z AUTO 00000KT 1/4SM FG VV002 16/16 A2992 RMK AO2 T01560156 $",
      "metarObsTime": 1776240120
    },
    "KPHL": {
      "status": "OK",
      "delay": "—",
      "metarCat": "VFR",
      "metarRaw": "METAR KPHL 150754Z 21004KT 10SM FEW075 SCT120 BKN240 18/17 A2993 RMK AO2 SLP135 T01830167 $",
      "metarObsTime": 1776239640
    },
    "KABE": {
      "status": "OK",
      "delay": "—",
      "metarCat": "VFR",
      "metarRaw": "METAR KABE 150751Z 21004KT 10SM CLR 17/14 A2992 RMK AO2 SLP127 T01720144 $",
      "metarObsTime": 1776239460
    },
    "KAVP": {
      "status": "OK",
      "delay": "—",
      "metarCat": "VFR",
      "metarRaw": "METAR KAVP 150754Z 10006KT 10SM CLR 16/14 A2991 RMK AO2 SLP121 T01610144 $",
      "metarObsTime": 1776239640
    },
    "KHZL": {
      "status": "OK",
      "delay": "—",
      "metarCat": "IFR",
      "metarRaw": "METAR KHZL 150755Z AUTO 00000KT 1SM BR SCT002 13/12 A2998 RMK AO2",
      "metarObsTime": 1776239700
    }
  }
}