{
  "generatedAt": "2026-03-23T17:20:37.919Z",
  "airports": {
    "KPIT": {
      "status": "OK",
      "delay": "—",
      "metarCat": "MVFR",
      "metarRaw": "SPECI KPIT 231712Z 31014KT 10SM -RASN BKN015 BKN022 OVC039 03/01 A3013 RMK AO2 RAB11SNB11 P0000 T00280006",
      "metarObsTime": 1774285920
    },
    "KAGC": {
      "status": "OK",
      "delay": "—",
      "metarCat": "VFR",
      "metarRaw": "METAR KAGC 231653Z 32012G20KT 10SM FEW025 OVC033 03/M02 A3010 RMK AO2 SLP205 T00281017",
      "metarObsTime": 1774284780
    },
    "KLBE": {
      "status": "OK",
      "delay": "—",
      "metarCat": "MVFR",
      "metarRaw": "METAR KLBE 231647Z 32015KT 10SM BKN030 BKN034 04/M01 A3011",
      "metarObsTime": 1774284420
    },
    "KJST": {
      "status": "OK",
      "delay": "—",
      "metarCat": "MVFR",
      "metarRaw": "METAR KJST 231654Z AUTO 31022G32KT 10SM OVC020 01/M03 A2998 RMK AO2 PK WND 31033/1641 UPB10E13SNB00E10 SLP166 P0000 T00061028",
      "metarObsTime": 1774284840
    },
    "KERI": {
      "status": "OK",
      "delay": "—",
      "metarCat": "IFR",
      "metarRaw": "SPECI KERI 231716Z 28005KT 1 3/4SM -SN BR SCT006 BKN010 OVC026 01/M01 A3015 RMK AO2 SNB03 P0000 T00061011",
      "metarObsTime": 1774286160
    },
    "KDUJ": {
      "status": "OK",
      "delay": "—",
      "metarCat": "MVFR",
      "metarRaw": "METAR KDUJ 231653Z AUTO 33009G19KT 10SM BKN024 OVC032 01/M03 A3003 RMK AO2 SLP178 T00111033",
      "metarObsTime": 1774284780
    },
    "KBFD": {
      "status": "OK",
      "delay": "—",
      "metarCat": "MVFR",
      "metarRaw": "METAR KBFD 231653Z AUTO 32010KT 10SM BKN018 OVC038 M01/M04 A3002 RMK AO2 SNE02 SLP181 P0000 T10111039",
      "metarObsTime": 1774284780
    },
    "KBTP": {
      "status": "OK",
      "delay": "—",
      "metarCat": "MVFR",
      "metarRaw": "METAR KBTP 231656Z AUTO 30012G20KT 10SM BKN021 OVC029 03/M01 A3012 RMK AO2 SLP212 T00281011 $",
      "metarObsTime": 1774284960
    },
    "KFKL": {
      "status": "OK",
      "delay": "—",
      "metarCat": "MVFR",
      "metarRaw": "METAR KFKL 231656Z AUTO 31008G17KT 10SM BKN021 OVC027 02/M03 A3010 RMK AO2 SLP205 T00171028 FZRANO",
      "metarObsTime": 1774284960
    },
    "KIDI": {
      "status": "OK",
      "delay": "—",
      "metarCat": "MVFR",
      "metarRaw": "METAR KIDI 231715Z AUTO 29012G19KT 10SM BKN030 OVC036 03/M02 A3008 RMK A01",
      "metarObsTime": 1774286100
    },
    "KMDT": {
      "status": "OK",
      "delay": "—",
      "metarCat": "MVFR",
      "metarRaw": "METAR KMDT 231656Z 35014KT 10SM BKN018 BKN022 07/02 A2995 RMK AO2 SLP143 T00670017",
      "metarObsTime": 1774284960
    },
    "KCXY": {
      "status": "OK",
      "delay": "—",
      "metarCat": "MVFR",
      "metarRaw": "METAR KCXY 231656Z 33009KT 10SM BKN018 OVC025 06/01 A2996 RMK AO2 SLP147 T00610011",
      "metarObsTime": 1774284960
    },
    "KMUI": {
      "status": "OK",
      "delay": "—",
      "metarCat": "MVFR",
      "metarRaw": "METAR KMUI 231655Z 33007G15KT 280V350 7SM OVC017 05/02 A2994 RMK AO2A SLP143 T00530023",
      "metarObsTime": 1774284900
    },
    "KUNV": {
      "status": "OK",
      "delay": "—",
      "metarCat": "VFR",
      "metarRaw": "METAR KUNV 231653Z 34014G22KT 10SM SCT022 BKN042 04/M01 A3000",
      "metarObsTime": 1774284780
    },
    "KAOO": {
      "status": "OK",
      "delay": "—",
      "metarCat": "MVFR",
      "metarRaw": "METAR KAOO 231653Z AUTO 31013G26KT 10SM BKN022 OVC028 03/M01 A3000 RMK AO2 PK WND 32031/1632 RAE19 SLP165 P0001 T00281011",
      "metarObsTime": 1774284780
    },
    "KLNS": {
      "status": "OK",
      "delay": "—",
      "metarCat": "MVFR",
      "metarRaw": "METAR KLNS 231653Z 32015KT 10SM OVC016 07/03 A2993 RMK AO2 SLP135 T00670033",
      "metarObsTime": 1774284780
    },
    "KIPT": {
      "status": "OK",
      "delay": "—",
      "metarCat": "MVFR",
      "metarRaw": "METAR KIPT 231654Z 32013G20KT 10SM OVC022 02/M02 A3000 RMK AO2 SLP164 T00221022",
      "metarObsTime": 1774284840
    },
    "KPHL": {
      "status": "OK",
      "delay": "—",
      "metarCat": "MVFR",
      "metarRaw": "SPECI KPHL 231710Z 01010KT 10SM SCT008 BKN013 OVC028 08/06 A2989 RMK AO2 RAE08 P0000 T00830061 $",
      "metarObsTime": 1774285800
    },
    "KABE": {
      "status": "OK",
      "delay": "—",
      "metarCat": "MVFR",
      "metarRaw": "METAR KABE 231651Z 32007KT 10SM -RA SCT011 BKN016 OVC023 04/02 A2990 RMK AO2 RAB1553 SLP127 P0000 T00390022 $",
      "metarObsTime": 1774284660
    },
    "KAVP": {
      "status": "OK",
      "delay": "—",
      "metarCat": "MVFR",
      "metarRaw": "METAR KAVP 231654Z 34012KT 10SM OVC013 00/M03 A2994 RMK AO2 SLP145 T00001028",
      "metarObsTime": 1774284840
    },
    "KHZL": {
      "status": "OK",
      "delay": "—",
      "metarCat": "IFR",
      "metarRaw": "METAR KHZL 231715Z AUTO 32007KT 290V350 10SM OVC005 00/00 A2993 RMK AO2",
      "metarObsTime": 1774286100
    }
  }
}