{
  "generatedAt": "2026-03-12T00:00:15.609Z",
  "airports": {
    "KPIT": {
      "status": "OK",
      "delay": "—",
      "metarCat": "VFR",
      "metarRaw": "METAR KPIT 112351Z COR 24008KT 7SM -RA SCT017 BKN060 OVC090 17/16 A2966 RMK AO2 RAB02 SLP046 P0019 60051 T01670156 10206 20167 53000 $",
      "metarObsTime": 1773273060
    },
    "KAGC": {
      "status": "OK",
      "delay": "—",
      "metarCat": "MVFR",
      "metarRaw": "METAR KAGC 112353Z 29016G31KT 260V330 3SM RA BR FEW022 BKN047 OVC080 17/15 A2967 RMK AO2 PK WND 28031/2353 RAE2255B45 SLP046 P0004 60048 T01670150 10217 20167 50004",
      "metarObsTime": 1773273180
    },
    "KLBE": {
      "status": "OK",
      "delay": "—",
      "metarCat": "VFR",
      "metarRaw": "METAR KLBE 112350Z 00000KT 10SM VCTS FEW016 SCT022 BKN100 17/17 A2969 RMK LTG DSNT E",
      "metarObsTime": 1773273000
    },
    "KJST": {
      "status": "OK",
      "delay": "—",
      "metarCat": "MVFR",
      "metarRaw": "METAR KJST 112354Z AUTO 23007KT 4SM -TSRA BR BKN019 BKN033 OVC120 14/13 A2970 RMK AO2 PK WND 32051/2334 LTG DSNT E RAB2255E06B33 TSB31 SLP054 P0059 60093 T01440133 10211 20144 55009",
      "metarObsTime": 1773273240
    },
    "KERI": {
      "status": "OK",
      "delay": "—",
      "metarCat": "IFR",
      "metarRaw": "METAR KERI 112351Z 26016G26KT 10SM -RA BKN006 OVC014 12/11 A2959 RMK AO2 PK WND 25027/2336 SLP020 P0003 60006 T01170106 10222 20117 53005",
      "metarObsTime": 1773273060
    },
    "KDUJ": {
      "status": "OK",
      "delay": "—",
      "metarCat": "VFR",
      "metarRaw": "METAR KDUJ 112353Z AUTO 22005KT 10SM -RA FEW026 SCT070 OVC090 16/15 A2964 RMK AO2 SLP029 P0006 60013 T01560150 10189 20156 58003",
      "metarObsTime": 1773273180
    },
    "KBFD": {
      "status": "OK",
      "delay": "—",
      "metarCat": "VFR",
      "metarRaw": "METAR KBFD 112353Z AUTO VRB06G17KT 9SM -RA FEW018 BKN060 OVC085 16/13 A2962 RMK AO2 SLP022 P0002 60004 T01560133 10194 20156 51007",
      "metarObsTime": 1773273180
    },
    "KBTP": {
      "status": "OK",
      "delay": "—",
      "metarCat": "VFR",
      "metarRaw": "METAR KBTP 112356Z AUTO 23008KT 10SM -RA FEW017 BKN070 OVC095 16/ A2967 RMK AO2 SLP048 P0005 60013 T0161 10206 20161 53002 $",
      "metarObsTime": 1773273360
    },
    "KFKL": {
      "status": "OK",
      "delay": "—",
      "metarCat": "VFR",
      "metarRaw": "METAR KFKL 112356Z AUTO 20009KT 10SM -RA OVC075 A2962 RMK AO2 SLPNO P0001 60012 58003 FZRANO $",
      "metarObsTime": 1773273360
    },
    "KIDI": {
      "status": "OK",
      "delay": "—",
      "metarCat": "—",
      "metarRaw": "—",
      "metarObsTime": null
    },
    "KMDT": {
      "status": "OK",
      "delay": "—",
      "metarCat": "VFR",
      "metarRaw": "SPECI KMDT 112345Z 21010KT 10SM SCT045 SCT080 BKN120 17/14 A2968 RMK AO2 PK WND 24048/2308 LTG DSNT NE AND E RAE36 TSB02E39 TS MOVD E P0053 T01670139",
      "metarObsTime": 1773272700
    },
    "KCXY": {
      "status": "OK",
      "delay": "—",
      "metarCat": "VFR",
      "metarRaw": "METAR KCXY 112356Z 31003KT 10SM CLR 18/16 A2967 RMK AO2 PK WND 22046/2302 LTG DSNT E RAE30 TSB01E02B13E26 SLP048 P0031 60046 T01830161 10272 20178 50004",
      "metarObsTime": 1773273360
    },
    "KMUI": {
      "status": "OK",
      "delay": "—",
      "metarCat": "VFR",
      "metarRaw": "METAR KMUI 112355Z 00000KT 10SM FEW006 FEW023 SCT070 BKN130 BKN200 18/18 A2967 RMK AO2A LTG DSNT E-SE RAE55 TSE20B27E50 SLPNO 60041 T01820179 10228 20177 55000",
      "metarObsTime": 1773273300
    },
    "KUNV": {
      "status": "OK",
      "delay": "—",
      "metarCat": "MVFR",
      "metarRaw": "METAR KUNV 112353Z 29008KT 5SM +RA SCT032 SCT043 OVC075 18/15 A2970",
      "metarObsTime": 1773273180
    },
    "KAOO": {
      "status": "OK",
      "delay": "—",
      "metarCat": "VFR",
      "metarRaw": "METAR KAOO 112353Z AUTO 17005KT 10SM CLR 16/15 A2967 RMK AO2 LTG DSNT W-NE SLP045 60045 T01610150 10222 20161 58011",
      "metarObsTime": 1773273180
    },
    "KLNS": {
      "status": "OK",
      "delay": "—",
      "metarCat": "VFR",
      "metarRaw": "METAR KLNS 112353Z 33007KT 10SM -TSRA FEW020 SCT035 BKN060 18/17 A2971 RMK AO2 PK WND 31031/2337 LTG DSNT NE AND S RAB19 TSB39 SLP060 OCNL LTGCCG N MOV E P0011 60011 T01830167 10261 20183 53009",
      "metarObsTime": 1773273180
    },
    "KIPT": {
      "status": "OK",
      "delay": "—",
      "metarCat": "VFR",
      "metarRaw": "METAR KIPT 112354Z 00000KT 10SM FEW100 19/15 A2962 RMK AO2 RAE19 SLP030 P0000 60011 T01940150 10200 20172 56012 $",
      "metarObsTime": 1773273240
    },
    "KPHL": {
      "status": "OK",
      "delay": "—",
      "metarCat": "VFR",
      "metarRaw": "METAR KPHL 112354Z 18008KT 10SM FEW045 SCT100 BKN140 BKN260 23/14 A2970 RMK AO2 SLP057 T02330144 10283 20222 56005 $",
      "metarObsTime": 1773273240
    },
    "KABE": {
      "status": "OK",
      "delay": "—",
      "metarCat": "VFR",
      "metarRaw": "METAR KABE 112351Z 28009KT 10SM -RA FEW050 BKN060 OVC095 22/16 A2971 RMK AO2 LTG DSNT SW-NW RAB24 PRESRR SLP058 P0001 60001 T02170156 10256 20217 53003 $",
      "metarObsTime": 1773273060
    },
    "KAVP": {
      "status": "OK",
      "delay": "—",
      "metarCat": "VFR",
      "metarRaw": "METAR KAVP 112354Z 22016G31KT 6SM -RA BKN095 OVC110 18/15 A2970 RMK AO2 PK WND 22031/2345 LTG DSNT SW RAB39 SLP053 P0000 60028 T01830150 10211 20172 55001",
      "metarObsTime": 1773273240
    },
    "KHZL": {
      "status": "OK",
      "delay": "—",
      "metarCat": "VFR",
      "metarRaw": "METAR KHZL 112335Z AUTO 27004KT 7SM +RA SCT018 BKN037 OVC065 17/15 A2978 RMK AO2 P0005",
      "metarObsTime": 1773272100
    }
  }
}