{
  "generatedAt": "2026-03-23T22:40:21.358Z",
  "airports": {
    "KPIT": {
      "status": "OK",
      "delay": "—",
      "metarCat": "VFR",
      "metarRaw": "METAR KPIT 232151Z 31015G22KT 10SM -SN SCT025 OVC035 01/M04 A3026 RMK AO2 PK WND 33026/2059 SLP264 P0000 T00111044",
      "metarObsTime": 1774302660
    },
    "KAGC": {
      "status": "OK",
      "delay": "—",
      "metarCat": "VFR",
      "metarRaw": "METAR KAGC 232153Z 33015G28KT 10SM SCT029 OVC039 01/M05 A3025 RMK AO2 PK WND 34030/2137 SLP257 T00061050",
      "metarObsTime": 1774302780
    },
    "KLBE": {
      "status": "OK",
      "delay": "—",
      "metarCat": "VFR",
      "metarRaw": "METAR KLBE 232147Z 29021G29KT 10SM OVC034 02/M03 A3024",
      "metarObsTime": 1774302420
    },
    "KJST": {
      "status": "OK",
      "delay": "—",
      "metarCat": "MVFR",
      "metarRaw": "SPECI KJST 232214Z AUTO 29017G29KT 10SM SCT024 BKN030 OVC036 M01/M04 A3013 RMK AO2 PK WND 30029/2211 SNE00 P0000 T10061044",
      "metarObsTime": 1774304040
    },
    "KERI": {
      "status": "OK",
      "delay": "—",
      "metarCat": "VFR",
      "metarRaw": "METAR KERI 232151Z 32008G20KT 10SM SCT060 02/M06 A3028 RMK AO2 SLP263 T00171061",
      "metarObsTime": 1774302660
    },
    "KDUJ": {
      "status": "OK",
      "delay": "—",
      "metarCat": "MVFR",
      "metarRaw": "METAR KDUJ 232153Z AUTO 30016G24KT 10SM FEW018 BKN026 OVC046 01/M04 A3013 RMK AO2 SNB2057E45 SLP218 P0000 T00061039",
      "metarObsTime": 1774302780
    },
    "KBFD": {
      "status": "OK",
      "delay": "—",
      "metarCat": "MVFR",
      "metarRaw": "SPECI KBFD 232223Z AUTO 32013G24KT 4SM -SN BKN019 BKN025 OVC033 M02/M04 A3014 RMK AO2 P0000 T10171044",
      "metarObsTime": 1774304580
    },
    "KBTP": {
      "status": "OK",
      "delay": "—",
      "metarCat": "VFR",
      "metarRaw": "METAR KBTP 232156Z AUTO 30013G22KT 10SM -SN BKN036 OVC045 01/M06 A3026 RMK AO2 UPB03E14RAB50E52SNE03B52 SLP264 P0001 T00061056 FZRANO $",
      "metarObsTime": 1774302960
    },
    "KFKL": {
      "status": "OK",
      "delay": "—",
      "metarCat": "MVFR",
      "metarRaw": "METAR KFKL 232156Z AUTO 33013G19KT 300V360 10SM OVC030 00/M06 A3023 RMK AO2 UPB37E39SNE37 SLP253 P0000 T00001056 FZRANO",
      "metarObsTime": 1774302960
    },
    "KIDI": {
      "status": "OK",
      "delay": "—",
      "metarCat": "VFR",
      "metarRaw": "METAR KIDI 232235Z AUTO 30015G24KT 10SM FEW023 FEW029 OVC036 00/M03 A3024 RMK A01",
      "metarObsTime": 1774305300
    },
    "KMDT": {
      "status": "OK",
      "delay": "—",
      "metarCat": "VFR",
      "metarRaw": "METAR KMDT 232156Z 35011G25KT 10SM BKN047 OVC055 06/M04 A3012 RMK AO2 PK WND 34027/2058 SLP200 T00561039",
      "metarObsTime": 1774302960
    },
    "KCXY": {
      "status": "OK",
      "delay": "—",
      "metarCat": "VFR",
      "metarRaw": "METAR KCXY 232156Z 33013G22KT 10SM OVC055 06/M04 A3012 RMK AO2 PK WND 31028/2134 RAB25E47 SLP202 P0000 T00561044",
      "metarObsTime": 1774302960
    },
    "KMUI": {
      "status": "OK",
      "delay": "—",
      "metarCat": "—",
      "metarRaw": "—",
      "metarObsTime": null
    },
    "KUNV": {
      "status": "OK",
      "delay": "—",
      "metarCat": "VFR",
      "metarRaw": "METAR KUNV 232153Z 33012G19KT 10SM SCT041 OVC048 04/M04 A3012",
      "metarObsTime": 1774302780
    },
    "KAOO": {
      "status": "OK",
      "delay": "—",
      "metarCat": "VFR",
      "metarRaw": "METAR KAOO 232153Z AUTO 31017G22KT 10SM BKN041 OVC050 03/M04 A3011 RMK AO2 PK WND 32028/2125 SLP204 T00331044",
      "metarObsTime": 1774302780
    },
    "KLNS": {
      "status": "OK",
      "delay": "—",
      "metarCat": "VFR",
      "metarRaw": "METAR KLNS 232153Z 34020G29KT 10SM BKN043 04/M03 A3010 RMK AO2 PK WND 32033/2055 SLP196 T00441028",
      "metarObsTime": 1774302780
    },
    "KIPT": {
      "status": "OK",
      "delay": "—",
      "metarCat": "VFR",
      "metarRaw": "METAR KIPT 232154Z 33011G28KT 10SM BKN048 OVC055 03/M06 A3013 RMK AO2 PK WND 32028/2149 SLP207 T00331061",
      "metarObsTime": 1774302840
    },
    "KPHL": {
      "status": "OK",
      "delay": "—",
      "metarCat": "VFR",
      "metarRaw": "METAR KPHL 232154Z 33022G34KT 10SM OVC034 06/M02 A3006 RMK AO2 PK WND 30038/2113 SLP180 T00611022",
      "metarObsTime": 1774302840
    },
    "KABE": {
      "status": "OK",
      "delay": "—",
      "metarCat": "VFR",
      "metarRaw": "METAR KABE 232151Z 33015G25KT 10SM OVC033 03/M04 A3008 RMK AO2 PK WND 32026/2130 SLP187 T00281044 $",
      "metarObsTime": 1774302660
    },
    "KAVP": {
      "status": "OK",
      "delay": "—",
      "metarCat": "VFR",
      "metarRaw": "METAR KAVP 232154Z 34010G16KT 10SM OVC036 01/M06 A3009 RMK AO2 SLP196 T00061056",
      "metarObsTime": 1774302840
    },
    "KHZL": {
      "status": "OK",
      "delay": "—",
      "metarCat": "MVFR",
      "metarRaw": "METAR KHZL 232235Z AUTO 32010G19KT 10SM OVC027 00/M06 A3012 RMK AO2",
      "metarObsTime": 1774305300
    }
  }
}