{
  "generatedAt": "2026-03-21T00:50:17.199Z",
  "airports": {
    "KPIT": {
      "status": "OK",
      "delay": "—",
      "metarCat": "VFR",
      "metarRaw": "METAR KPIT 202351Z 25003KT 10SM BKN070 OVC120 16/08 A2975 RMK AO2 RAB29E48 SLP081 P0000 60001 T01560078 10172 20139 53006 $",
      "metarObsTime": 1774050660
    },
    "KAGC": {
      "status": "OK",
      "delay": "—",
      "metarCat": "VFR",
      "metarRaw": "SPECI KAGC 210046Z 23006KT 8SM VCTS -RA BKN060 BKN075 BKN095 14/08 A2975 RMK AO2 RAB31 P0001 T01440083",
      "metarObsTime": 1774053960
    },
    "KLBE": {
      "status": "OK",
      "delay": "—",
      "metarCat": "VFR",
      "metarRaw": "METAR KLBE 202350Z 26007KT 10SM FEW047 OVC070 15/09 A2977",
      "metarObsTime": 1774050600
    },
    "KJST": {
      "status": "OK",
      "delay": "—",
      "metarCat": "VFR",
      "metarRaw": "METAR KJST 202354Z AUTO 00000KT 9SM -RA OVC050 11/08 A2977 RMK AO2 RAB25 SLP084 P0002 60010 T01110078 10144 20106 53000",
      "metarObsTime": 1774050840
    },
    "KERI": {
      "status": "OK",
      "delay": "—",
      "metarCat": "VFR",
      "metarRaw": "METAR KERI 202351Z VRB04KT 8SM OVC037 08/06 A2977 RMK AO2 SLP086 60007 T00780056 10156 20061 53029",
      "metarObsTime": 1774050660
    },
    "KDUJ": {
      "status": "OK",
      "delay": "—",
      "metarCat": "VFR",
      "metarRaw": "METAR KDUJ 202353Z AUTO 23005KT 10SM OVC048 09/08 A2974 RMK AO2 SLP076 60019 T00940083 10122 20089 53001",
      "metarObsTime": 1774050780
    },
    "KBFD": {
      "status": "OK",
      "delay": "—",
      "metarCat": "VFR",
      "metarRaw": "METAR KBFD 202353Z AUTO 00000KT 7SM OVC032 08/08 A2974 RMK AO2 SLP077 60027 T00830078 10083 20072 51009",
      "metarObsTime": 1774050780
    },
    "KBTP": {
      "status": "OK",
      "delay": "—",
      "metarCat": "VFR",
      "metarRaw": "METAR KBTP 202356Z AUTO 24004KT 10SM OVC055 14/09 A2976 RMK AO2 RAE12 SLP084 P0001 60003 T01390089 10150 20128 53008 $",
      "metarObsTime": 1774050960
    },
    "KFKL": {
      "status": "OK",
      "delay": "—",
      "metarCat": "VFR",
      "metarRaw": "METAR KFKL 202356Z AUTO 23005KT 10SM BKN050 OVC065 11/09 A2975 RMK AO2 SLP081 60012 T01110094 10111 20094 53010",
      "metarObsTime": 1774050960
    },
    "KIDI": {
      "status": "OK",
      "delay": "—",
      "metarCat": "VFR",
      "metarRaw": "METAR KIDI 210035Z AUTO 00000KT 10SM OVC055 11/10 A2977 RMK A01",
      "metarObsTime": 1774053300
    },
    "KMDT": {
      "status": "OK",
      "delay": "—",
      "metarCat": "VFR",
      "metarRaw": "METAR KMDT 202356Z 00000KT 10SM -RA FEW049 OVC060 13/10 A2978 RMK AO2 SLP087 P0011 60024 T01280100 10194 20128 51012",
      "metarObsTime": 1774050960
    },
    "KCXY": {
      "status": "OK",
      "delay": "—",
      "metarCat": "VFR",
      "metarRaw": "METAR KCXY 202356Z 23005KT 10SM -RA OVC060 13/11 A2979 RMK AO2 SLP090 P0007 60022 T01280106 10211 20128 51012",
      "metarObsTime": 1774050960
    },
    "KMUI": {
      "status": "OK",
      "delay": "—",
      "metarCat": "MVFR",
      "metarRaw": "METAR KMUI 202356Z 00000KT 5SM -RA BR SCT004 BKN015 OVC034 12/12 A2976 RMK AO2A SLP083 60030 T01190116 10209 20117 50010",
      "metarObsTime": 1774050960
    },
    "KUNV": {
      "status": "OK",
      "delay": "—",
      "metarCat": "VFR",
      "metarRaw": "METAR KUNV 202353Z 21003KT 10SM BKN070 11/11 A2975",
      "metarObsTime": 1774050780
    },
    "KAOO": {
      "status": "OK",
      "delay": "—",
      "metarCat": "VFR",
      "metarRaw": "METAR KAOO 202353Z AUTO 19005KT 10SM SCT065 OVC085 11/08 A2977 RMK AO2 RAB21E47 SLP086 P0000 60004 T01060083 10178 20106 55001",
      "metarObsTime": 1774050780
    },
    "KLNS": {
      "status": "OK",
      "delay": "—",
      "metarCat": "MVFR",
      "metarRaw": "METAR KLNS 202353Z 19007KT 5SM RA BR BKN048 OVC060 11/09 A2980 RMK AO2 SLP092 P0012 60019 T01110089 10200 20111 50012",
      "metarObsTime": 1774050780
    },
    "KIPT": {
      "status": "OK",
      "delay": "—",
      "metarCat": "IFR",
      "metarRaw": "SPECI KIPT 210040Z 00000KT 2 1/2SM BR FEW005 BKN033 OVC044 08/07 A2976 RMK AO2 RAE16 P0001 T00780072 $",
      "metarObsTime": 1774053600
    },
    "KPHL": {
      "status": "OK",
      "delay": "—",
      "metarCat": "VFR",
      "metarRaw": "METAR KPHL 202354Z 20008KT 10SM -RA BKN065 OVC250 14/06 A2981 RMK AO2 SLP095 P0000 60000 T01440056 10194 20144 53003 $",
      "metarObsTime": 1774050840
    },
    "KABE": {
      "status": "OK",
      "delay": "—",
      "metarCat": "—",
      "metarRaw": "METAR KABE 202351Z 23005KT 9SM -RA 11/08 A2979 RMK AO2 RAB25RAEMMB43 SLP089 P0002 60002 T01060083 10189 20106 53012 $",
      "metarObsTime": 1774050660
    },
    "KAVP": {
      "status": "OK",
      "delay": "—",
      "metarCat": "MVFR",
      "metarRaw": "SPECI KAVP 210032Z 26009KT 3SM FEW006 OVC011 10/09 A2976 RMK AO2 SFC VIS 9 RAE17 P0000 T01000094",
      "metarObsTime": 1774053120
    },
    "KHZL": {
      "status": "OK",
      "delay": "—",
      "metarCat": "MVFR",
      "metarRaw": "METAR KHZL 210035Z AUTO 21003KT 5SM -RA SCT012 BKN025 OVC041 10/08 A2979 RMK AO2 P0005",
      "metarObsTime": 1774053300
    }
  }
}