{
  "generatedAt": "2026-03-14T00:50:14.959Z",
  "airports": {
    "KPIT": {
      "status": "OK",
      "delay": "—",
      "metarCat": "VFR",
      "metarRaw": "METAR KPIT 132351Z 28027G47KT 10SM FEW060 SCT110 SCT250 12/M14 A2967 RMK AO2 PK WND 28057/2303 SLP059 60000 T01171139 10144 20106 53046",
      "metarObsTime": 1773445860
    },
    "KAGC": {
      "status": "OK",
      "delay": "—",
      "metarCat": "VFR",
      "metarRaw": "METAR KAGC 132353Z 26025G50KT 10SM CLR 12/M16 A2966 RMK AO2 PK WND 26060/2303 PRESRR SLP055 T01171156 10139 20111 53039",
      "metarObsTime": 1773445980
    },
    "KLBE": {
      "status": "OK",
      "delay": "—",
      "metarCat": "—",
      "metarRaw": "—",
      "metarObsTime": null
    },
    "KJST": {
      "status": "OK",
      "delay": "—",
      "metarCat": "VFR",
      "metarRaw": "METAR KJST 132359Z COR 27019G55KT 10SM SQ FEW070 BKN090 BKN110 10/M07 A2960",
      "metarObsTime": 1773446340
    },
    "KERI": {
      "status": "OK",
      "delay": "—",
      "metarCat": "VFR",
      "metarRaw": "METAR KERI 132351Z 25017G40KT 10SM OVC037 04/M03 A2963 RMK AO2 PK WND 26056/2328 SLP039 60000 T00441033 10117 20039 51042",
      "metarObsTime": 1773445860
    },
    "KDUJ": {
      "status": "OK",
      "delay": "—",
      "metarCat": "VFR",
      "metarRaw": "SPECI KDUJ 140036Z AUTO 28009G20KT 10SM FEW022 02/M01 A2967 RMK AO2 T00171011",
      "metarObsTime": 1773448560
    },
    "KBFD": {
      "status": "OK",
      "delay": "—",
      "metarCat": "MVFR",
      "metarRaw": "SPECI KBFD 140023Z AUTO 25013G27KT 6SM -SN BR SCT011 BKN017 OVC036 00/M02 A2962 RMK AO2 PK WND 29028/0002 P0000 T00001017",
      "metarObsTime": 1773447780
    },
    "KBTP": {
      "status": "OK",
      "delay": "—",
      "metarCat": "VFR",
      "metarRaw": "METAR KBTP 132356Z AUTO 28022G29KT 10SM CLR 08/M04 A2967 RMK AO2 PK WND 25053/2259 SLP060 T00831039 10128 20083 53057 $",
      "metarObsTime": 1773446160
    },
    "KFKL": {
      "status": "OK",
      "delay": "—",
      "metarCat": "VFR",
      "metarRaw": "METAR KFKL 132356Z AUTO 27014G22KT 10SM BKN049 BKN055 OVC070 A2967 RMK AO2 PK WND 26031/2306 RAE26 SLPNO P0000 60004 52052 FZRANO $",
      "metarObsTime": 1773446160
    },
    "KIDI": {
      "status": "OK",
      "delay": "—",
      "metarCat": "VFR",
      "metarRaw": "METAR KIDI 140035Z AUTO 29013G28KT 10SM CLR 08/M02 A2970 RMK A01",
      "metarObsTime": 1773448500
    },
    "KMDT": {
      "status": "OK",
      "delay": "—",
      "metarCat": "VFR",
      "metarRaw": "METAR KMDT 132356Z 13014KT 10SM BKN100 07/00 A2967 RMK AO2 SLP051 T00720000 10106 20072 56016 $",
      "metarObsTime": 1773446160
    },
    "KCXY": {
      "status": "OK",
      "delay": "—",
      "metarCat": "VFR",
      "metarRaw": "METAR KCXY 132356Z 11012KT 10SM BKN110 07/M01 A2966 RMK AO2 SLP049 60000 T00721011 10117 20072 56016",
      "metarObsTime": 1773446160
    },
    "KMUI": {
      "status": "OK",
      "delay": "—",
      "metarCat": "VFR",
      "metarRaw": "METAR KMUI 132355Z AUTO 14005KT 10SM BKN100 BKN120 08/M01 A2967 RMK AO2 SLP054 T00751007 10108 20075 57016",
      "metarObsTime": 1773446100
    },
    "KUNV": {
      "status": "OK",
      "delay": "—",
      "metarCat": "VFR",
      "metarRaw": "METAR KUNV 132353Z 26025G40KT 7SM -RA SCT030 BKN065 BKN120 09/M01 A2960",
      "metarObsTime": 1773445980
    },
    "KAOO": {
      "status": "OK",
      "delay": "—",
      "metarCat": "VFR",
      "metarRaw": "METAR KAOO 132353Z AUTO 25026G40KT 10SM FEW065 SCT080 OVC090 12/M04 A2961 RMK AO2 PK WND 23056/2328 RAB30E39 SLP034 P0000 60000 T01221044 10139 20056 53015",
      "metarObsTime": 1773445980
    },
    "KLNS": {
      "status": "OK",
      "delay": "—",
      "metarCat": "VFR",
      "metarRaw": "METAR KLNS 132353Z 14010G17KT 10SM CLR 07/M01 A2971 RMK AO2 SLP064 T00671011 10094 20067 56016",
      "metarObsTime": 1773445980
    },
    "KIPT": {
      "status": "OK",
      "delay": "—",
      "metarCat": "MVFR",
      "metarRaw": "SPECI KIPT 140036Z 17007G28KT 140V210 5SM -RA BKN024 OVC037 06/01 A2968 RMK AO2 PK WND 15028/0028 WSHFT 2345 RAB16 P0002 T00560006 $",
      "metarObsTime": 1773448560
    },
    "KPHL": {
      "status": "OK",
      "delay": "—",
      "metarCat": "VFR",
      "metarRaw": "METAR KPHL 132354Z 16010G18KT 10SM FEW150 FEW250 07/M01 A2980 RMK AO2 SLP092 T00671011 10094 20067 56022 $",
      "metarObsTime": 1773446040
    },
    "KABE": {
      "status": "OK",
      "delay": "—",
      "metarCat": "VFR",
      "metarRaw": "METAR KABE 132351Z 14010KT 10SM CLR 06/M03 A2977 RMK AO2 SLP085 T00561028 10078 20056 56016",
      "metarObsTime": 1773445860
    },
    "KAVP": {
      "status": "OK",
      "delay": "—",
      "metarCat": "VFR",
      "metarRaw": "METAR KAVP 132354Z 16015G31KT 10SM CLR 06/M05 A2962 RMK AO2 PK WND 11031/2354 PRESFR SLP036 T00561050 10061 20033 58039",
      "metarObsTime": 1773446040
    },
    "KHZL": {
      "status": "OK",
      "delay": "—",
      "metarCat": "VFR",
      "metarRaw": "METAR KHZL 140035Z AUTO 15012G20KT 110V180 10SM SCT046 SCT070 BKN085 04/M04 A2966 RMK AO2",
      "metarObsTime": 1773448500
    }
  }
}