{
  "generatedAt": "2026-03-17T17:50:18.084Z",
  "airports": {
    "KPIT": {
      "status": "OK",
      "delay": "—",
      "metarCat": "VFR",
      "metarRaw": "METAR KPIT 171651Z 26012G18KT 10SM BKN031 BKN042 M03/M11 A2998 RMK AO2 SNE02B13E32 SLP176 P0000 T10331106 $",
      "metarObsTime": 1773766260
    },
    "KAGC": {
      "status": "OK",
      "delay": "—",
      "metarCat": "VFR",
      "metarRaw": "SPECI KAGC 171700Z 26011G23KT 7SM R28/3500VP6000FT -SN SCT024 BKN035 OVC065 M05/M08 A2997 RMK AO2 P0000 T10501083",
      "metarObsTime": 1773766800
    },
    "KLBE": {
      "status": "OK",
      "delay": "—",
      "metarCat": "MVFR",
      "metarRaw": "METAR KLBE 171647Z 26012G22KT 3SM -SN BKN025 M04/M07 A3000",
      "metarObsTime": 1773766020
    },
    "KJST": {
      "status": "OK",
      "delay": "—",
      "metarCat": "MVFR",
      "metarRaw": "SPECI KJST 171746Z AUTO 27016G28KT 5SM -SN FEW024 BKN035 OVC050 M07/M11 A2988 RMK AO2 PK WND 28028/1738 UPE1658SNB1658 P0000 T10671111",
      "metarObsTime": 1773769560
    },
    "KERI": {
      "status": "OK",
      "delay": "—",
      "metarCat": "IFR",
      "metarRaw": "SPECI KERI 171737Z 28016G26KT 1 1/2SM R06/4500VP6000FT -SN SCT022 BKN031 OVC049 M05/M10 A3000 RMK AO2 PK WND 26026/1737 SNE19B37 P0000 T10501100",
      "metarObsTime": 1773769020
    },
    "KDUJ": {
      "status": "OK",
      "delay": "—",
      "metarCat": "IFR",
      "metarRaw": "SPECI KDUJ 171746Z AUTO 25013G24KT 1 1/2SM -SN BKN024 OVC035 M07/M11 A2988 RMK AO2 PK WND 23026/1732 SNB21 P0000 T10671111",
      "metarObsTime": 1773769560
    },
    "KBFD": {
      "status": "OK",
      "delay": "—",
      "metarCat": "MVFR",
      "metarRaw": "METAR KBFD 171653Z AUTO 28018G27KT 4SM HZ SCT037 OVC050 M07/M14 A2983 RMK AO2 PK WND 28034/1558 UPB46E47SNB1554E46 SLP129 P0000 T10721139",
      "metarObsTime": 1773766380
    },
    "KBTP": {
      "status": "OK",
      "delay": "—",
      "metarCat": "VFR",
      "metarRaw": "SPECI KBTP 171716Z AUTO 28011G16KT 9SM -SN FEW011 BKN035 OVC043 M04/M08 A2998 RMK AO2 P0000 FZRANO $",
      "metarObsTime": 1773767760
    },
    "KFKL": {
      "status": "OK",
      "delay": "—",
      "metarCat": "VFR",
      "metarRaw": "SPECI KFKL 171745Z AUTO 28015G20KT 8SM -SN SCT028 BKN038 OVC055 M05/M11 A2994 RMK AO2 P0000 FZRANO",
      "metarObsTime": 1773769500
    },
    "KIDI": {
      "status": "OK",
      "delay": "—",
      "metarCat": "VFR",
      "metarRaw": "METAR KIDI 171735Z AUTO 29014KT 10SM FEW027 SCT040 BKN065 M03/M08 A2995 RMK A01",
      "metarObsTime": 1773768900
    },
    "KMDT": {
      "status": "OK",
      "delay": "—",
      "metarCat": "VFR",
      "metarRaw": "METAR KMDT 171656Z 28015G24KT 10SM BKN055 02/M08 A2995 RMK AO2 PK WND 25028/1610 SLP147 T00171083",
      "metarObsTime": 1773766560
    },
    "KCXY": {
      "status": "OK",
      "delay": "—",
      "metarCat": "VFR",
      "metarRaw": "METAR KCXY 171656Z 27010G21KT 10SM OVC060 01/M10 A2996 RMK AO2 SLP148 T00111100",
      "metarObsTime": 1773766560
    },
    "KMUI": {
      "status": "OK",
      "delay": "—",
      "metarCat": "VFR",
      "metarRaw": "SPECI KMUI 171745Z 27015G23KT 240V300 10SM -SN SCT046 BKN065 02/M09 A2992 RMK AO2A SNB45 SLP139",
      "metarObsTime": 1773769500
    },
    "KUNV": {
      "status": "OK",
      "delay": "—",
      "metarCat": "MVFR",
      "metarRaw": "SPECI KUNV 171740Z 28013G23KT 3SM -SN BKN024 BKN035 M03/M08 A2991",
      "metarObsTime": 1773769200
    },
    "KAOO": {
      "status": "OK",
      "delay": "—",
      "metarCat": "VFR",
      "metarRaw": "METAR KAOO 171653Z AUTO 26020G27KT 10SM BKN050 M03/M12 A2992 RMK AO2 PK WND 27028/1619 SNE31 SLP149 P0000 T10281122",
      "metarObsTime": 1773766380
    },
    "KLNS": {
      "status": "OK",
      "delay": "—",
      "metarCat": "VFR",
      "metarRaw": "METAR KLNS 171653Z 30016G24KT 10SM OVC055 02/M09 A2994 RMK AO2 PK WND 29028/1559 SLP142 T00221089",
      "metarObsTime": 1773766380
    },
    "KIPT": {
      "status": "OK",
      "delay": "—",
      "metarCat": "VFR",
      "metarRaw": "METAR KIPT 171654Z 25016G26KT 10SM BKN050 BKN060 M01/M10 A2991 RMK AO2 PK WND 24026/1654 SNB04E14 SLP133 P0000 T10061100",
      "metarObsTime": 1773766440
    },
    "KPHL": {
      "status": "OK",
      "delay": "—",
      "metarCat": "VFR",
      "metarRaw": "METAR KPHL 171654Z 26018G26KT 10SM SCT055 SCT250 05/M09 A2995 RMK AO2 PK WND 26028/1605 SLP140 T00501094 $",
      "metarObsTime": 1773766440
    },
    "KABE": {
      "status": "OK",
      "delay": "—",
      "metarCat": "VFR",
      "metarRaw": "METAR KABE 171651Z 29014G24KT 10SM BKN050 02/M10 A2991 RMK AO2 PK WND 26029/1610 SLP133 T00221100 $",
      "metarObsTime": 1773766260
    },
    "KAVP": {
      "status": "OK",
      "delay": "—",
      "metarCat": "VFR",
      "metarRaw": "METAR KAVP 171654Z 29010KT 6SM -SN BKN035 BKN044 OVC055 M02/M07 A2987 RMK AO2 PK WND 26026/1600 SNB46 SLP121 P0000 T10171072",
      "metarObsTime": 1773766440
    },
    "KHZL": {
      "status": "OK",
      "delay": "—",
      "metarCat": "VFR",
      "metarRaw": "METAR KHZL 171715Z AUTO 27008KT 220V310 10SM BKN031 BKN039 BKN049 M02/M10 RMK AO2",
      "metarObsTime": 1773767700
    }
  }
}