{
  "generatedAt": "2026-04-10T21:50:49.409Z",
  "airports": {
    "KPIT": {
      "status": "OK",
      "delay": "—",
      "metarCat": "VFR",
      "metarRaw": "METAR KPIT 102051Z 31016G27KT 10SM FEW055 BKN070 BKN110 22/08 A3012 RMK AO2 PK WND 23027/1953 RAB15E46 SLP202 P0000 60000 T02170078 55010",
      "metarObsTime": 1775854260
    },
    "KAGC": {
      "status": "OK",
      "delay": "—",
      "metarCat": "VFR",
      "metarRaw": "SPECI KAGC 102144Z 33014G25KT 10SM OVC080 19/09 A3013 RMK AO2 WSHFT 2124 T01890094",
      "metarObsTime": 1775857440
    },
    "KLBE": {
      "status": "OK",
      "delay": "—",
      "metarCat": "VFR",
      "metarRaw": "METAR KLBE 102047Z 21019G30KT 10SM FEW090 25/05 A3012",
      "metarObsTime": 1775854020
    },
    "KJST": {
      "status": "OK",
      "delay": "—",
      "metarCat": "VFR",
      "metarRaw": "METAR KJST 102054Z AUTO 27018G30KT 10SM CLR 22/01 A3013 RMK AO2 PK WND 23032/2041 SLP196 T02170006 56022",
      "metarObsTime": 1775854440
    },
    "KERI": {
      "status": "OK",
      "delay": "—",
      "metarCat": "MVFR",
      "metarRaw": "SPECI KERI 102104Z 26006KT 5SM BR OVC014 09/08 A3014 RMK AO2 T00890078 $",
      "metarObsTime": 1775855040
    },
    "KDUJ": {
      "status": "OK",
      "delay": "—",
      "metarCat": "MVFR",
      "metarRaw": "SPECI KDUJ 102148Z AUTO 30009KT 5SM -RA BR BKN014 OVC070 12/11 A3016 RMK AO2 PK WND 28028/2101 P0002",
      "metarObsTime": 1775857680
    },
    "KBFD": {
      "status": "OK",
      "delay": "—",
      "metarCat": "MVFR",
      "metarRaw": "SPECI KBFD 102119Z AUTO 28012KT 4SM -RA BR BKN012 BKN055 OVC070 11/10 A3014 RMK AO2 P0003 T01110100",
      "metarObsTime": 1775855940
    },
    "KBTP": {
      "status": "OK",
      "delay": "—",
      "metarCat": "VFR",
      "metarRaw": "METAR KBTP 102056Z AUTO 30014G17KT 10SM -RA OVC070 15/13 A3016 RMK AO2 PK WND 27030/1958 SLP218 P0002 60002 T01500133 53004 $",
      "metarObsTime": 1775854560
    },
    "KFKL": {
      "status": "OK",
      "delay": "—",
      "metarCat": "IFR",
      "metarRaw": "SPECI KFKL 102145Z AUTO 25008KT 1 3/4SM -RA BR OVC005 12/12 A3016 RMK AO2 CIG 004V009 P0001",
      "metarObsTime": 1775857500
    },
    "KIDI": {
      "status": "OK",
      "delay": "—",
      "metarCat": "VFR",
      "metarRaw": "METAR KIDI 102135Z AUTO 32015G27KT 9SM OVC085 18/11 A3014 RMK A01",
      "metarObsTime": 1775856900
    },
    "KMDT": {
      "status": "OK",
      "delay": "—",
      "metarCat": "VFR",
      "metarRaw": "METAR KMDT 102056Z 15010KT 10SM BKN250 22/07 A3008 RMK AO2 SLP189 T02220072 56039",
      "metarObsTime": 1775854560
    },
    "KCXY": {
      "status": "OK",
      "delay": "—",
      "metarCat": "VFR",
      "metarRaw": "METAR KCXY 102056Z 17011G16KT 10SM CLR 24/07 A3009 RMK AO2 SLP189 T02440067 56041 $",
      "metarObsTime": 1775854560
    },
    "KMUI": {
      "status": "OK",
      "delay": "—",
      "metarCat": "VFR",
      "metarRaw": "METAR KMUI 102055Z 17008KT 10SM FEW180 BKN250 24/06 A3008 RMK AO2A SLP189 T02380061 57039",
      "metarObsTime": 1775854500
    },
    "KUNV": {
      "status": "OK",
      "delay": "—",
      "metarCat": "VFR",
      "metarRaw": "METAR KUNV 102053Z 26020G25KT 10SM SCT095 24/02 A3007",
      "metarObsTime": 1775854380
    },
    "KAOO": {
      "status": "OK",
      "delay": "—",
      "metarCat": "VFR",
      "metarRaw": "METAR KAOO 102053Z AUTO 24022G31KT 10SM CLR 25/02 A3010 RMK AO2 PK WND 24031/2053 SLP187 T02500022 56023",
      "metarObsTime": 1775854380
    },
    "KLNS": {
      "status": "OK",
      "delay": "—",
      "metarCat": "VFR",
      "metarRaw": "METAR KLNS 102053Z 16010KT 10SM CLR 20/09 A3013 RMK AO2 SLP201 T02000094 56032",
      "metarObsTime": 1775854380
    },
    "KIPT": {
      "status": "OK",
      "delay": "—",
      "metarCat": "VFR",
      "metarRaw": "METAR KIPT 102054Z 15015G20KT 10SM SCT100 22/06 A3003 RMK AO2 SLP168 T02220061 56038",
      "metarObsTime": 1775854440
    },
    "KPHL": {
      "status": "OK",
      "delay": "—",
      "metarCat": "VFR",
      "metarRaw": "METAR KPHL 102054Z 21012KT 10SM BKN300 22/06 A3017 RMK AO2 SLP215 T02170061 56037 $",
      "metarObsTime": 1775854440
    },
    "KABE": {
      "status": "OK",
      "delay": "—",
      "metarCat": "VFR",
      "metarRaw": "METAR KABE 102051Z 20007G16KT 10SM CLR 22/07 A3012 RMK AO2 SLP200 T02170072 56038 $",
      "metarObsTime": 1775854260
    },
    "KAVP": {
      "status": "OK",
      "delay": "—",
      "metarCat": "VFR",
      "metarRaw": "METAR KAVP 102054Z AUTO 19008G22KT 10SM CLR 22/04 A3006 RMK AO2 SLP178 T02220039 56032",
      "metarObsTime": 1775854440
    },
    "KHZL": {
      "status": "OK",
      "delay": "—",
      "metarCat": "VFR",
      "metarRaw": "METAR KHZL 102135Z AUTO 17006KT 10SM CLR 19/05 A3013 RMK AO2",
      "metarObsTime": 1775856900
    }
  }
}