{
  "generatedAt": "2026-03-25T10:50:23.397Z",
  "airports": {
    "KPIT": {
      "status": "OK",
      "delay": "—",
      "metarCat": "VFR",
      "metarRaw": "METAR KPIT 250951Z 14003KT 10SM SCT090 BKN160 OVC250 02/M06 A3025 RMK AO2 SLP260 T00171056",
      "metarObsTime": 1774432260
    },
    "KAGC": {
      "status": "OK",
      "delay": "—",
      "metarCat": "VFR",
      "metarRaw": "METAR KAGC 250953Z 15004KT 10SM BKN110 02/M07 A3025 RMK AO2 SLP257 T00221067",
      "metarObsTime": 1774432380
    },
    "KLBE": {
      "status": "OK",
      "delay": "—",
      "metarCat": "VFR",
      "metarRaw": "METAR KLBE 251047Z 00000KT 10SM SCT100 00/M02 A3029",
      "metarObsTime": 1774435620
    },
    "KJST": {
      "status": "OK",
      "delay": "—",
      "metarCat": "VFR",
      "metarRaw": "METAR KJST 250954Z AUTO 00000KT 10SM OVC110 01/M09 A3023 RMK AO2 SLP254 T00111094 $",
      "metarObsTime": 1774432440
    },
    "KERI": {
      "status": "OK",
      "delay": "—",
      "metarCat": "VFR",
      "metarRaw": "METAR KERI 250951Z 13003KT 10SM CLR 00/M06 A3027 RMK AO2 SLP260 T00001056",
      "metarObsTime": 1774432260
    },
    "KDUJ": {
      "status": "OK",
      "delay": "—",
      "metarCat": "VFR",
      "metarRaw": "METAR KDUJ 250953Z AUTO 09006KT 10SM FEW070 M03/M08 A3025 RMK AO2 SLP260 T10281078",
      "metarObsTime": 1774432380
    },
    "KBFD": {
      "status": "OK",
      "delay": "—",
      "metarCat": "VFR",
      "metarRaw": "METAR KBFD 250953Z AUTO 12003KT 10SM CLR M05/M07 A3025 RMK AO2 SLP263 T10501072",
      "metarObsTime": 1774432380
    },
    "KBTP": {
      "status": "OK",
      "delay": "—",
      "metarCat": "VFR",
      "metarRaw": "METAR KBTP 250956Z AUTO 09003KT 10SM OVC100 02/M06 A3027 RMK AO2 SLP265 T00221061 FZRANO $",
      "metarObsTime": 1774432560
    },
    "KFKL": {
      "status": "OK",
      "delay": "—",
      "metarCat": "VFR",
      "metarRaw": "METAR KFKL 250956Z AUTO 10005KT 10SM CLR M01/M06 A3026 RMK AO2 SLP262 T10111056 FZRANO",
      "metarObsTime": 1774432560
    },
    "KIDI": {
      "status": "OK",
      "delay": "—",
      "metarCat": "VFR",
      "metarRaw": "METAR KIDI 251035Z AUTO 06005KT 10SM OVC070 00/M05 A3028 RMK A01",
      "metarObsTime": 1774434900
    },
    "KMDT": {
      "status": "OK",
      "delay": "—",
      "metarCat": "VFR",
      "metarRaw": "METAR KMDT 250956Z 13004KT 10SM FEW150 BKN200 02/M02 A3035 RMK AO2 SLP281 T00171022",
      "metarObsTime": 1774432560
    },
    "KCXY": {
      "status": "OK",
      "delay": "—",
      "metarCat": "VFR",
      "metarRaw": "METAR KCXY 250956Z AUTO 00000KT 10SM CLR 00/M03 A3035 RMK AO2 SLP282 T00001033",
      "metarObsTime": 1774432560
    },
    "KMUI": {
      "status": "OK",
      "delay": "—",
      "metarCat": "VFR",
      "metarRaw": "METAR KMUI 250955Z AUTO 00000KT 10SM CLR M00/M02 A3033 RMK AO2 SLP277 T10051021 $",
      "metarObsTime": 1774432500
    },
    "KUNV": {
      "status": "OK",
      "delay": "—",
      "metarCat": "VFR",
      "metarRaw": "METAR KUNV 250953Z 00000KT 10SM CLR M02/M06 A3031",
      "metarObsTime": 1774432380
    },
    "KAOO": {
      "status": "OK",
      "delay": "—",
      "metarCat": "VFR",
      "metarRaw": "METAR KAOO 250953Z AUTO 00000KT 10SM OVC100 00/M03 A3028 RMK AO2 SLP265 T00001033",
      "metarObsTime": 1774432380
    },
    "KLNS": {
      "status": "OK",
      "delay": "—",
      "metarCat": "VFR",
      "metarRaw": "METAR KLNS 250953Z COR 12004KT 10SM CLR 00/M02 A3036 RMK AO2 SLP284 T00001022",
      "metarObsTime": 1774432380
    },
    "KIPT": {
      "status": "OK",
      "delay": "—",
      "metarCat": "VFR",
      "metarRaw": "METAR KIPT 250954Z AUTO 00000KT 10SM CLR M02/M04 A3035 RMK AO2 SLP282 T10221044 $",
      "metarObsTime": 1774432440
    },
    "KPHL": {
      "status": "OK",
      "delay": "—",
      "metarCat": "VFR",
      "metarRaw": "METAR KPHL 250954Z 00000KT 10SM BKN180 BKN220 03/M01 A3040 RMK AO2 SLP294 T00331011 $",
      "metarObsTime": 1774432440
    },
    "KABE": {
      "status": "OK",
      "delay": "—",
      "metarCat": "VFR",
      "metarRaw": "METAR KABE 250951Z AUTO 00000KT 10SM CLR M01/M03 A3037 RMK AO2 SLP285 T10111033",
      "metarObsTime": 1774432260
    },
    "KAVP": {
      "status": "OK",
      "delay": "—",
      "metarCat": "VFR",
      "metarRaw": "METAR KAVP 250954Z 11004KT 10SM CLR M01/M07 A3034 RMK AO2 SLP278 T10111067",
      "metarObsTime": 1774432440
    },
    "KHZL": {
      "status": "OK",
      "delay": "—",
      "metarCat": "VFR",
      "metarRaw": "METAR KHZL 251035Z AUTO 00000KT 10SM CLR M03/M05 A3035 RMK AO2",
      "metarObsTime": 1774434900
    }
  }
}