{
  "generatedAt": "2026-04-06T03:10:36.683Z",
  "airports": {
    "KPIT": {
      "status": "OK",
      "delay": "—",
      "metarCat": "VFR",
      "metarRaw": "METAR KPIT 060251Z 29013G21KT 10SM FEW029 OVC043 06/M02 A3012 RMK AO2 SLP213 T00611017 51024 $",
      "metarObsTime": 1775443860
    },
    "KAGC": {
      "status": "OK",
      "delay": "—",
      "metarCat": "VFR",
      "metarRaw": "METAR KAGC 060253Z 28012G21KT 10SM FEW030 SCT036 OVC045 06/00 A3011 RMK AO2 SLP208 T00560000 51023",
      "metarObsTime": 1775443980
    },
    "KLBE": {
      "status": "OK",
      "delay": "—",
      "metarCat": "VFR",
      "metarRaw": "METAR KLBE 060255Z AUTO 24010G19KT 10SM SCT032 BKN039 OVC046 06/01 A3012 RMK AO2",
      "metarObsTime": 1775444100
    },
    "KJST": {
      "status": "OK",
      "delay": "—",
      "metarCat": "MVFR",
      "metarRaw": "METAR KJST 060254Z AUTO 27015G26KT 10SM FEW019 BKN025 OVC032 03/M01 A3002 RMK AO2 PK WND 28027/0244 SLP182 60000 T00331006 51009",
      "metarObsTime": 1775444040
    },
    "KERI": {
      "status": "OK",
      "delay": "—",
      "metarCat": "VFR",
      "metarRaw": "METAR KERI 060251Z 31007G17KT 10SM BKN042 OVC050 03/M02 A3013 RMK AO2 SLP209 T00281017 51023 $",
      "metarObsTime": 1775443860
    },
    "KDUJ": {
      "status": "OK",
      "delay": "—",
      "metarCat": "VFR",
      "metarRaw": "METAR KDUJ 060253Z AUTO 29015G27KT 10SM SCT029 OVC035 02/M05 A3005 RMK AO2 PK WND 30027/0218 SLP187 T00221050 51026",
      "metarObsTime": 1775443980
    },
    "KBFD": {
      "status": "OK",
      "delay": "—",
      "metarCat": "VFR",
      "metarRaw": "METAR KBFD 060253Z AUTO 28016G35KT 10SM OVC031 00/M06 A3002 RMK AO2 PK WND 29035/0246 SNB01E11 SLP180 P0000 60000 T00001056 51023",
      "metarObsTime": 1775443980
    },
    "KBTP": {
      "status": "OK",
      "delay": "—",
      "metarCat": "VFR",
      "metarRaw": "METAR KBTP 060256Z AUTO 30011G16KT 10SM BKN037 OVC047 04/M02 A3013 RMK AO2 SLP215 T00441022 51027 $",
      "metarObsTime": 1775444160
    },
    "KFKL": {
      "status": "OK",
      "delay": "—",
      "metarCat": "MVFR",
      "metarRaw": "METAR KFKL 060256Z AUTO 29007KT 10SM -RA BKN028 OVC034 03/M02 A3010 RMK AO2 RAB51 SLP204 P0000 60000 T00281022 51008",
      "metarObsTime": 1775444160
    },
    "KIDI": {
      "status": "OK",
      "delay": "—",
      "metarCat": "VFR",
      "metarRaw": "METAR KIDI 060255Z AUTO 30010G23KT 10SM FEW028 FEW035 OVC049 04/M01 A3009 RMK A01",
      "metarObsTime": 1775444100
    },
    "KMDT": {
      "status": "OK",
      "delay": "—",
      "metarCat": "VFR",
      "metarRaw": "METAR KMDT 060256Z 30019G27KT 10SM BKN055 10/00 A3000 RMK AO2 PK WND 29031/0213 SLP161 T01000000 51019 $",
      "metarObsTime": 1775444160
    },
    "KCXY": {
      "status": "OK",
      "delay": "—",
      "metarCat": "VFR",
      "metarRaw": "METAR KCXY 060256Z AUTO 29012G26KT 10SM OVC055 10/M02 A3001 RMK AO2 PK WND 29027/0216 SLP165 T01001017 51017 $",
      "metarObsTime": 1775444160
    },
    "KMUI": {
      "status": "OK",
      "delay": "—",
      "metarCat": "VFR",
      "metarRaw": "METAR KMUI 060255Z AUTO 29012G20KT 10SM OVC050 11/01 A2998 RMK AO2 SLP156 T01090006 51018",
      "metarObsTime": 1775444100
    },
    "KUNV": {
      "status": "OK",
      "delay": "—",
      "metarCat": "VFR",
      "metarRaw": "METAR KUNV 060255Z AUTO 30012G15KT 10SM BKN039 OVC047 06/M02 A3003 RMK AO2 T00601016",
      "metarObsTime": 1775444100
    },
    "KAOO": {
      "status": "OK",
      "delay": "—",
      "metarCat": "VFR",
      "metarRaw": "METAR KAOO 060253Z AUTO 28019G28KT 10SM OVC050 06/M03 A3004 RMK AO2 PK WND 28028/0251 SLP178 T00611028 51021",
      "metarObsTime": 1775443980
    },
    "KLNS": {
      "status": "OK",
      "delay": "—",
      "metarCat": "VFR",
      "metarRaw": "METAR KLNS 060253Z 30016G27KT 10SM OVC050 09/00 A2999 RMK AO2 PK WND 31027/0244 SLP157 T00940000 51023",
      "metarObsTime": 1775443980
    },
    "KIPT": {
      "status": "OK",
      "delay": "—",
      "metarCat": "VFR",
      "metarRaw": "METAR KIPT 060254Z AUTO 29016G27KT 10SM BKN045 OVC060 07/M01 A2998 RMK AO2 PK WND 29027/0253 SLP155 T00721011 51016",
      "metarObsTime": 1775444040
    },
    "KPHL": {
      "status": "OK",
      "delay": "—",
      "metarCat": "VFR",
      "metarRaw": "METAR KPHL 060254Z 31013G26KT 10SM SCT060 SCT180 BKN260 11/00 A2998 RMK AO2 PK WND 32026/0249 SLP152 T01110000 51023 $",
      "metarObsTime": 1775444040
    },
    "KABE": {
      "status": "OK",
      "delay": "—",
      "metarCat": "VFR",
      "metarRaw": "METAR KABE 060251Z 29011G21KT 260V330 10SM OVC048 09/M01 A2995 RMK AO2 PK WND 30031/0200 SLP144 T00891006 50020 $",
      "metarObsTime": 1775443860
    },
    "KAVP": {
      "status": "OK",
      "delay": "—",
      "metarCat": "VFR",
      "metarRaw": "METAR KAVP 060254Z 28007G17KT 10SM OVC048 06/M02 A2995 RMK AO2 SLP142 T00611022 50022",
      "metarObsTime": 1775444040
    },
    "KHZL": {
      "status": "OK",
      "delay": "—",
      "metarCat": "VFR",
      "metarRaw": "METAR KHZL 060255Z AUTO 31005G16KT 10SM OVC035 05/M01 A2997 RMK AO2",
      "metarObsTime": 1775444100
    }
  }
}