{
  "generatedAt": "2026-04-24T07:21:21.870Z",
  "airports": {
    "KPIT": {
      "status": "OK",
      "delay": "—",
      "metarCat": "VFR",
      "metarRaw": "METAR KPIT 240651Z 00000KT 10SM TS BKN065CB BKN085 17/11 A2987 RMK AO2 TSB03 SLP115 OCNL LTGICCG N TS N MOV E T01670111",
      "metarObsTime": 1777013460
    },
    "KAGC": {
      "status": "OK",
      "delay": "—",
      "metarCat": "VFR",
      "metarRaw": "METAR KAGC 240653Z 26004KT 10SM CLR 18/11 A2986 RMK AO2 LTG DSNT NW SLP108 T01830106",
      "metarObsTime": 1777013580
    },
    "KLBE": {
      "status": "OK",
      "delay": "—",
      "metarCat": "VFR",
      "metarRaw": "METAR KLBE 240715Z AUTO 00000KT 10SM CLR 13/12 A2988 RMK AO2",
      "metarObsTime": 1777014900
    },
    "KJST": {
      "status": "OK",
      "delay": "—",
      "metarCat": "VFR",
      "metarRaw": "METAR KJST 240654Z AUTO 25005KT 10SM FEW047 14/10 A2988 RMK AO2 SLP111 T01390100",
      "metarObsTime": 1777013640
    },
    "KERI": {
      "status": "OK",
      "delay": "—",
      "metarCat": "VFR",
      "metarRaw": "METAR KERI 240651Z AUTO 18003KT 10SM CLR 14/07 A2984 RMK AO2 SLP105 T01390072",
      "metarObsTime": 1777013460
    },
    "KDUJ": {
      "status": "OK",
      "delay": "—",
      "metarCat": "VFR",
      "metarRaw": "METAR KDUJ 240653Z AUTO 00000KT 10SM FEW065 13/00 A2986 RMK AO2 SLP104 T01330000",
      "metarObsTime": 1777013580
    },
    "KBFD": {
      "status": "OK",
      "delay": "—",
      "metarCat": "VFR",
      "metarRaw": "METAR KBFD 240653Z AUTO 00000KT 10SM CLR 07/03 A2987 RMK AO2 SLP109 T00720033",
      "metarObsTime": 1777013580
    },
    "KBTP": {
      "status": "OK",
      "delay": "—",
      "metarCat": "VFR",
      "metarRaw": "METAR KBTP 240656Z AUTO 00000KT 10SM CLR 14/10 A2988 RMK AO2 LTG DSNT W SLP117 T01390100 $",
      "metarObsTime": 1777013760
    },
    "KFKL": {
      "status": "OK",
      "delay": "—",
      "metarCat": "—",
      "metarRaw": "—",
      "metarObsTime": null
    },
    "KIDI": {
      "status": "OK",
      "delay": "—",
      "metarCat": "VFR",
      "metarRaw": "METAR KIDI 240715Z AUTO 00000KT 10SM FEW042 BKN055 OVC065 12/10 A2987 RMK A01",
      "metarObsTime": 1777014900
    },
    "KMDT": {
      "status": "OK",
      "delay": "—",
      "metarCat": "VFR",
      "metarRaw": "METAR KMDT 240656Z 01003KT 10SM FEW250 16/03 A2981 RMK AO2 SLP093 T01560028",
      "metarObsTime": 1777013760
    },
    "KCXY": {
      "status": "OK",
      "delay": "—",
      "metarCat": "VFR",
      "metarRaw": "METAR KCXY 240656Z AUTO 00000KT 10SM CLR 14/04 A2982 RMK AO2 SLP096 T01390044",
      "metarObsTime": 1777013760
    },
    "KMUI": {
      "status": "OK",
      "delay": "—",
      "metarCat": "VFR",
      "metarRaw": "METAR KMUI 240655Z AUTO 00000KT 10SM CLR 12/07 A2980 RMK AO2 SLP092 T01210070",
      "metarObsTime": 1777013700
    },
    "KUNV": {
      "status": "OK",
      "delay": "—",
      "metarCat": "VFR",
      "metarRaw": "METAR KUNV 240715Z AUTO 00000KT 10SM CLR 13/03 A2985 RMK AO2 T01270026",
      "metarObsTime": 1777014900
    },
    "KAOO": {
      "status": "OK",
      "delay": "—",
      "metarCat": "VFR",
      "metarRaw": "METAR KAOO 240653Z AUTO 25004KT 10SM SCT060 17/11 A2986 RMK AO2 SLP102 T01720106",
      "metarObsTime": 1777013580
    },
    "KLNS": {
      "status": "OK",
      "delay": "—",
      "metarCat": "VFR",
      "metarRaw": "METAR KLNS 240653Z AUTO 04004KT 10SM CLR 13/03 A2981 RMK AO2 SLP094 T01330028",
      "metarObsTime": 1777013580
    },
    "KIPT": {
      "status": "OK",
      "delay": "—",
      "metarCat": "VFR",
      "metarRaw": "METAR KIPT 240654Z AUTO 30003KT 10SM OVC070 09/04 A2983 RMK AO2 SLP100 T00940039 $",
      "metarObsTime": 1777013640
    },
    "KPHL": {
      "status": "OK",
      "delay": "—",
      "metarCat": "VFR",
      "metarRaw": "METAR KPHL 240654Z 04004KT 10SM SCT140 BKN280 14/11 A2979 RMK AO2 SLP088 T01440106 $",
      "metarObsTime": 1777013640
    },
    "KABE": {
      "status": "OK",
      "delay": "—",
      "metarCat": "VFR",
      "metarRaw": "METAR KABE 240651Z 00000KT 10SM CLR 11/04 A2981 RMK AO2 SLP095 T01060039",
      "metarObsTime": 1777013460
    },
    "KAVP": {
      "status": "OK",
      "delay": "—",
      "metarCat": "VFR",
      "metarRaw": "METAR KAVP 240654Z 11003KT 10SM CLR 09/01 A2983 RMK AO2 SLP096 T00940011",
      "metarObsTime": 1777013640
    },
    "KHZL": {
      "status": "OK",
      "delay": "—",
      "metarCat": "VFR",
      "metarRaw": "METAR KHZL 240715Z AUTO 00000KT 10SM SCT055 07/00 A2985 RMK AO2",
      "metarObsTime": 1777014900
    }
  }
}