{
  "generatedAt": "2026-04-26T15:41:05.600Z",
  "faaFlow": {
    "updatedAt": "2026-04-26T15:41:04.798Z",
    "source": "https://www.fly.faa.gov/adv/adv_spt",
    "terminal": [
      {
        "time": "—",
        "text": "AFTER",
        "code": "FLOW",
        "label": "FAA flow impact",
        "level": "yellow",
        "section": "Terminal Planned",
        "airports": []
      },
      {
        "time": "1900",
        "text": "JFK GROUND STOP/DELAY PROGRAM POSSIBLE",
        "code": "GS",
        "label": "Ground stop possible",
        "level": "yellow",
        "section": "Terminal Planned",
        "airports": []
      },
      {
        "time": "—",
        "text": "AFTER",
        "code": "FLOW",
        "label": "FAA flow impact",
        "level": "yellow",
        "section": "Terminal Planned",
        "airports": []
      },
      {
        "time": "1900",
        "text": "DEN GROUND STOP/DELAY PROGRAM POSSIBLE",
        "code": "GS",
        "label": "Ground stop possible",
        "level": "yellow",
        "section": "Terminal Planned",
        "airports": []
      },
      {
        "time": "—",
        "text": "AFTER",
        "code": "FLOW",
        "label": "FAA flow impact",
        "level": "yellow",
        "section": "Terminal Planned",
        "airports": []
      },
      {
        "time": "2200",
        "text": "SFO GROUND STOP/DELAY PROGRAM POSSIBLE",
        "code": "GS",
        "label": "Ground stop possible",
        "level": "yellow",
        "section": "Terminal Planned",
        "airports": []
      }
    ],
    "enroute": [
      {
        "time": "—",
        "text": "AFTER",
        "code": "FLOW",
        "label": "FAA flow impact",
        "level": "yellow",
        "section": "En Route Planned",
        "airports": []
      },
      {
        "time": "1600",
        "text": "Y494 NORTHBOUND CLOSURE POSSIBLE",
        "code": "CLOSURE",
        "label": "Closure possible",
        "level": "yellow",
        "section": "En Route Planned",
        "airports": []
      },
      {
        "time": "—",
        "text": "AFTER",
        "code": "FLOW",
        "label": "FAA flow impact",
        "level": "yellow",
        "section": "En Route Planned",
        "airports": []
      },
      {
        "time": "1800",
        "text": "DEN CDRS/SWAP/ARRIVAL ROUTES PROBABLE",
        "code": "ROUTE",
        "label": "Route impact possible",
        "level": "orange",
        "section": "En Route Planned",
        "airports": []
      },
      {
        "time": "—",
        "text": "AFTER",
        "code": "FLOW",
        "label": "FAA flow impact",
        "level": "yellow",
        "section": "En Route Planned",
        "airports": []
      },
      {
        "time": "2000",
        "text": "MSP ARRIVAL ROUTES POSSIBLE",
        "code": "ROUTE",
        "label": "Route impact possible",
        "level": "blue",
        "section": "En Route Planned",
        "airports": []
      },
      {
        "time": "—",
        "text": "UNTIL",
        "code": "FLOW",
        "label": "FAA flow impact",
        "level": "yellow",
        "section": "En Route Planned",
        "airports": []
      },
      {
        "time": "2300",
        "text": "AR/Y/OCEANIC ROUTE CLOSURES PROBABLE CDRS/SWAP/CAPPING/TUNNELING/HOTLINE/DIVERSION RECOVERY: NONE RUNWAY/EQUIPMENT/POSSIBLE SYSTEM IMPACT REPORTS(SIRs): DFW - TXY G CLOSURE UNTIL 4/30/26",
        "code": "CLOSURE",
        "label": "Closure possible",
        "level": "orange",
        "section": "En Route Planned",
        "airports": []
      },
      {
        "time": "—",
        "text": "2026",
        "code": "FLOW",
        "label": "FAA flow impact",
        "level": "yellow",
        "section": "En Route Planned",
        "airports": []
      },
      {
        "time": "2026",
        "text": "HOU - PROCEDURAL ADJUSTMENT UNTIL 05/31/26",
        "code": "FLOW",
        "label": "FAA flow impact",
        "level": "yellow",
        "section": "En Route Planned",
        "airports": []
      }
    ],
    "airports": {
      "KPIT": null,
      "KAGC": null,
      "KLBE": null,
      "KJST": null,
      "KERI": null,
      "KDUJ": null,
      "KBFD": null,
      "KBTP": null,
      "KFKL": null,
      "KIDI": null,
      "KMDT": null,
      "KCXY": null,
      "KMUI": null,
      "KUNV": null,
      "KAOO": null,
      "KLNS": null,
      "KIPT": null,
      "KPHL": null,
      "KABE": null,
      "KAVP": null,
      "KHZL": null
    }
  },
  "airports": {
    "KPIT": {
      "status": "OK",
      "delay": "—",
      "metarCat": "MVFR",
      "metarRaw": "METAR KPIT 261451Z 08006KT 10SM FEW009 BKN014 OVC020 10/07 A3011 RMK AO2 SLP207 60000 T01000067 51014",
      "metarObsTime": 1777215060,
      "faaFlow": null
    },
    "KAGC": {
      "status": "OK",
      "delay": "—",
      "metarCat": "MVFR",
      "metarRaw": "METAR KAGC 261453Z VRB04KT 10SM OVC017 10/06 A3010 RMK AO2 SLP201 T01000061 51013",
      "metarObsTime": 1777215180,
      "faaFlow": null
    },
    "KLBE": {
      "status": "OK",
      "delay": "—",
      "metarCat": "MVFR",
      "metarRaw": "METAR KLBE 261447Z 01010KT 10SM BKN016 OVC022 10/08 A3013",
      "metarObsTime": 1777214820,
      "faaFlow": null
    },
    "KJST": {
      "status": "OK",
      "delay": "—",
      "metarCat": "IFR",
      "metarRaw": "METAR KJST 261454Z AUTO 05006KT 10SM OVC006 06/04 A3009 RMK AO2 CIG 004V009 SLP201 60000 T00560039 51017",
      "metarObsTime": 1777215240,
      "faaFlow": null
    },
    "KERI": {
      "status": "OK",
      "delay": "—",
      "metarCat": "LIFR",
      "metarRaw": "SPECI KERI 261538Z 04009KT 5SM BR OVC003 08/07 A3016 RMK AO2 T00780067",
      "metarObsTime": 1777217880,
      "faaFlow": null
    },
    "KDUJ": {
      "status": "OK",
      "delay": "—",
      "metarCat": "MVFR",
      "metarRaw": "METAR KDUJ 261453Z AUTO 10005KT 10SM OVC010 06/04 A3013 RMK AO2 CIG 008V013 SLP210 T00610039 51018",
      "metarObsTime": 1777215180,
      "faaFlow": null
    },
    "KBFD": {
      "status": "OK",
      "delay": "—",
      "metarCat": "MVFR",
      "metarRaw": "METAR KBFD 261453Z AUTO VRB03KT 10SM OVC010 06/03 A3014 RMK AO2 SLP214 T00560028 51019 $",
      "metarObsTime": 1777215180,
      "faaFlow": null
    },
    "KBTP": {
      "status": "OK",
      "delay": "—",
      "metarCat": "MVFR",
      "metarRaw": "METAR KBTP 261456Z AUTO 05008KT 10SM OVC018 11/07 A3012 RMK AO2 SLP210 T01060072 50010 $",
      "metarObsTime": 1777215360,
      "faaFlow": null
    },
    "KFKL": {
      "status": "OK",
      "delay": "—",
      "metarCat": "—",
      "metarRaw": "—",
      "metarObsTime": null,
      "faaFlow": null
    },
    "KIDI": {
      "status": "OK",
      "delay": "—",
      "metarCat": "MVFR",
      "metarRaw": "METAR KIDI 261535Z AUTO 05009KT 10SM OVC013 08/06 A3014 RMK A01",
      "metarObsTime": 1777217700,
      "faaFlow": null
    },
    "KMDT": {
      "status": "OK",
      "delay": "—",
      "metarCat": "MVFR",
      "metarRaw": "METAR KMDT 261456Z VRB03KT 10SM OVC020 09/04 A3012 RMK AO2 SLP202 T00940044 53010",
      "metarObsTime": 1777215360,
      "faaFlow": null
    },
    "KCXY": {
      "status": "OK",
      "delay": "—",
      "metarCat": "MVFR",
      "metarRaw": "METAR KCXY 261456Z 05004KT 10SM OVC023 09/04 A3013 RMK AO2 SLP204 T00940039 52009",
      "metarObsTime": 1777215360,
      "faaFlow": null
    },
    "KMUI": {
      "status": "OK",
      "delay": "—",
      "metarCat": "MVFR",
      "metarRaw": "METAR KMUI 261455Z AUTO 36004KT 10SM OVC022 13/10 A3010 RMK AO2 SLP197 T01330095 52009",
      "metarObsTime": 1777215300,
      "faaFlow": null
    },
    "KUNV": {
      "status": "OK",
      "delay": "—",
      "metarCat": "MVFR",
      "metarRaw": "METAR KUNV 261453Z 03005KT 10SM OVC020 07/05 A3015",
      "metarObsTime": 1777215180,
      "faaFlow": null
    },
    "KAOO": {
      "status": "OK",
      "delay": "—",
      "metarCat": "MVFR",
      "metarRaw": "METAR KAOO 261453Z AUTO 02007KT 10SM OVC016 07/03 A3013 RMK AO2 SLP210 T00670033 53012",
      "metarObsTime": 1777215180,
      "faaFlow": null
    },
    "KLNS": {
      "status": "OK",
      "delay": "—",
      "metarCat": "MVFR",
      "metarRaw": "METAR KLNS 261453Z 04006KT 10SM OVC014 08/05 A3012 RMK AO2 SLP201 T00780050 53013",
      "metarObsTime": 1777215180,
      "faaFlow": null
    },
    "KIPT": {
      "status": "OK",
      "delay": "—",
      "metarCat": "MVFR",
      "metarRaw": "METAR KIPT 261454Z 35005KT 10SM BKN023 OVC044 11/05 A3013 RMK AO2 SLP206 T01060050 53004 $",
      "metarObsTime": 1777215240,
      "faaFlow": null
    },
    "KPHL": {
      "status": "OK",
      "delay": "—",
      "metarCat": "MVFR",
      "metarRaw": "METAR KPHL 261454Z 03013KT 10SM BKN016 OVC022 08/05 A3011 RMK AO2 SLP196 T00830050 53015 $",
      "metarObsTime": 1777215240,
      "faaFlow": null
    },
    "KABE": {
      "status": "OK",
      "delay": "—",
      "metarCat": "MVFR",
      "metarRaw": "SPECI KABE 261532Z 07008KT 10SM BKN030 OVC049 11/04 A3012 RMK AO2 T01110039 $",
      "metarObsTime": 1777217520,
      "faaFlow": null
    },
    "KAVP": {
      "status": "OK",
      "delay": "—",
      "metarCat": "VFR",
      "metarRaw": "SPECI KAVP 261524Z 04010KT 10SM OVC031 10/03 A3012 RMK AO2 T01000033",
      "metarObsTime": 1777217040,
      "faaFlow": null
    },
    "KHZL": {
      "status": "OK",
      "delay": "—",
      "metarCat": "MVFR",
      "metarRaw": "METAR KHZL 261535Z AUTO 33007KT 10SM OVC016 08/03 A3014 RMK AO2",
      "metarObsTime": 1777217700,
      "faaFlow": null
    }
  }
}