{
  "generatedAt": "2026-03-27T08:50:27.085Z",
  "airports": {
    "KPIT": {
      "status": "OK",
      "delay": "—",
      "metarCat": "MVFR",
      "metarRaw": "METAR KPIT 270751Z 34014KT 8SM RA SCT008 BKN012 OVC027 09/08 A2990 RMK AO2 SLP130 P0005 T00940083 $",
      "metarObsTime": 1774597860
    },
    "KAGC": {
      "status": "OK",
      "delay": "—",
      "metarCat": "MVFR",
      "metarRaw": "SPECI KAGC 270814Z 35009KT 5SM -RA BR FEW007 BKN012 10/09 A2987 RMK AO2 P0002 T01000089",
      "metarObsTime": 1774599240
    },
    "KLBE": {
      "status": "OK",
      "delay": "—",
      "metarCat": "MVFR",
      "metarRaw": "METAR KLBE 270835Z AUTO 31005G10KT 3SM RA BR FEW020 OVC037 10/10 A2990 RMK AO2",
      "metarObsTime": 1774600500
    },
    "KJST": {
      "status": "OK",
      "delay": "—",
      "metarCat": "IFR",
      "metarRaw": "SPECI KJST 270801Z AUTO 33007KT 8SM -RA BKN005 OVC016 09/08 A2982 RMK AO2 CIG 003V009 P0001 T00890083",
      "metarObsTime": 1774598460
    },
    "KERI": {
      "status": "OK",
      "delay": "—",
      "metarCat": "MVFR",
      "metarRaw": "SPECI KERI 270847Z AUTO 36014G26KT 10SM OVC019 01/M03 A3007 RMK AO2 PK WND 36026/0844 $",
      "metarObsTime": 1774601220
    },
    "KDUJ": {
      "status": "OK",
      "delay": "—",
      "metarCat": "IFR",
      "metarRaw": "SPECI KDUJ 270832Z AUTO 36016G23KT 10SM BKN008 BKN014 OVC025 06/05 A2987 RMK AO2 CIG 006V010 PRESRR T00610050",
      "metarObsTime": 1774600320
    },
    "KBFD": {
      "status": "OK",
      "delay": "—",
      "metarCat": "IFR",
      "metarRaw": "METAR KBFD 270753Z AUTO 33014G20KT 10SM OVC007 03/02 A2987 RMK AO2 RAE22 CIG 005V010 SLP115 P0000 T00280017",
      "metarObsTime": 1774597980
    },
    "KBTP": {
      "status": "OK",
      "delay": "—",
      "metarCat": "IFR",
      "metarRaw": "METAR KBTP 270756Z AUTO 29006KT 10SM RA OVC009 08/ A2992 RMK AO2 CIG 007V014 PRESRR SLP134 P0001 T0083 $",
      "metarObsTime": 1774598160
    },
    "KFKL": {
      "status": "OK",
      "delay": "—",
      "metarCat": "IFR",
      "metarRaw": "METAR KFKL 270756Z AUTO 33008G14KT 300V020 5SM BR OVC005 04/04 A2993 RMK AO2 RAE47 SLP135 P0001 T00390039",
      "metarObsTime": 1774598160
    },
    "KIDI": {
      "status": "OK",
      "delay": "—",
      "metarCat": "MVFR",
      "metarRaw": "METAR KIDI 270835Z AUTO 33005KT 3SM BR FEW008 BKN011 OVC027 10/09 A2988 RMK A01",
      "metarObsTime": 1774600500
    },
    "KMDT": {
      "status": "OK",
      "delay": "—",
      "metarCat": "VFR",
      "metarRaw": "METAR KMDT 270756Z 00000KT 10SM -RA FEW060 OVC090 13/12 A2975 RMK AO2 RAB11 PRESFR SLP073 P0004 T01330117 $",
      "metarObsTime": 1774598160
    },
    "KCXY": {
      "status": "OK",
      "delay": "—",
      "metarCat": "VFR",
      "metarRaw": "METAR KCXY 270756Z AUTO 00000KT 10SM -RA FEW060 BKN095 OVC110 13/11 A2975 RMK AO2 RAB08 SLP075 P0005 T01330111",
      "metarObsTime": 1774598160
    },
    "KMUI": {
      "status": "OK",
      "delay": "—",
      "metarCat": "—",
      "metarRaw": "—",
      "metarObsTime": null
    },
    "KUNV": {
      "status": "OK",
      "delay": "—",
      "metarCat": "MVFR",
      "metarRaw": "METAR KUNV 270835Z AUTO 00000KT 10SM -RA BKN019 OVC055 11/10 A2982 RMK AO2 P0001 T01100100",
      "metarObsTime": 1774600500
    },
    "KAOO": {
      "status": "OK",
      "delay": "—",
      "metarCat": "MVFR",
      "metarRaw": "SPECI KAOO 270843Z AUTO 31006KT 10SM BKN016 OVC021 11/09 A2983 RMK AO2 RAE39 P0005 T01110094",
      "metarObsTime": 1774600980
    },
    "KLNS": {
      "status": "OK",
      "delay": "—",
      "metarCat": "VFR",
      "metarRaw": "METAR KLNS 270753Z AUTO 31009KT 8SM -RA FEW070 BKN090 OVC110 14/13 A2977 RMK AO2 RAB30 PRESRR SLP077 P0002 T01440133",
      "metarObsTime": 1774597980
    },
    "KIPT": {
      "status": "OK",
      "delay": "—",
      "metarCat": "MVFR",
      "metarRaw": "SPECI KIPT 270846Z AUTO 31005KT 10SM SCT022 BKN027 OVC036 11/11 A2979 RMK AO2 T01110106 $",
      "metarObsTime": 1774601160
    },
    "KPHL": {
      "status": "OK",
      "delay": "—",
      "metarCat": "VFR",
      "metarRaw": "SPECI KPHL 270820Z 27008KT 6SM -RA BKN080 OVC110 19/15 A2973 RMK AO2 RAB19 P0000 T01890150",
      "metarObsTime": 1774599600
    },
    "KABE": {
      "status": "OK",
      "delay": "—",
      "metarCat": "VFR",
      "metarRaw": "METAR KABE 270751Z 27004KT 10SM -RA OVC095 13/11 A2973 RMK AO2 RAB44 SLP065 P0000 T01330111 $",
      "metarObsTime": 1774597860
    },
    "KAVP": {
      "status": "OK",
      "delay": "—",
      "metarCat": "MVFR",
      "metarRaw": "SPECI KAVP 270809Z AUTO 32011G21KT 10SM FEW006 BKN011 OVC019 10/08 A2976 RMK AO2 RAE06 P0000 T01000083",
      "metarObsTime": 1774598940
    },
    "KHZL": {
      "status": "OK",
      "delay": "—",
      "metarCat": "LIFR",
      "metarRaw": "METAR KHZL 270835Z AUTO 27003KT 1 1/4SM BR OVC002 10/09 A2978 RMK AO2",
      "metarObsTime": 1774600500
    }
  }
}