{
  "generatedAt": "2026-03-20T12:10:13.827Z",
  "airports": {
    "KPIT": {
      "status": "OK",
      "delay": "—",
      "metarCat": "VFR",
      "metarRaw": "METAR KPIT 201151Z 20005KT 10SM BKN200 08/01 A2996 RMK AO2 SLP155 T00830011 10083 20028 56014",
      "metarObsTime": 1774007460
    },
    "KAGC": {
      "status": "OK",
      "delay": "—",
      "metarCat": "VFR",
      "metarRaw": "METAR KAGC 201153Z 18010KT 10SM CLR 07/02 A2997 RMK AO2 SLP156 T00720017 10078 20056 56011",
      "metarObsTime": 1774007580
    },
    "KLBE": {
      "status": "OK",
      "delay": "—",
      "metarCat": "VFR",
      "metarRaw": "METAR KLBE 201155Z 23010KT 10SM CLR 06/03 A3001",
      "metarObsTime": 1774007700
    },
    "KJST": {
      "status": "OK",
      "delay": "—",
      "metarCat": "VFR",
      "metarRaw": "METAR KJST 201154Z AUTO 19008KT 10SM CLR 07/01 A2999 RMK AO2 SLP164 T00720006 10072 20044 56007",
      "metarObsTime": 1774007640
    },
    "KERI": {
      "status": "OK",
      "delay": "—",
      "metarCat": "VFR",
      "metarRaw": "METAR KERI 201151Z 18015KT 10SM CLR 08/02 A2984 RMK AO2 SLP108 T00780022 10078 21006 58040",
      "metarObsTime": 1774007460
    },
    "KDUJ": {
      "status": "OK",
      "delay": "—",
      "metarCat": "VFR",
      "metarRaw": "METAR KDUJ 201153Z AUTO 20003KT 10SM CLR 05/02 A2995 RMK AO2 SLP151 70001 T00500017 10050 20006 58013",
      "metarObsTime": 1774007580
    },
    "KBFD": {
      "status": "OK",
      "delay": "—",
      "metarCat": "VFR",
      "metarRaw": "METAR KBFD 201153Z AUTO VRB05KT 10SM FEW110 04/02 A2993 RMK AO2 SLP146 I6001 T00390017 10039 21044 56017",
      "metarObsTime": 1774007580
    },
    "KBTP": {
      "status": "OK",
      "delay": "—",
      "metarCat": "VFR",
      "metarRaw": "METAR KBTP 201156Z AUTO 19006KT 10SM CLR 07/02 A2997 RMK AO2 SLP157 T00670022 10067 20017 56014 $",
      "metarObsTime": 1774007760
    },
    "KFKL": {
      "status": "OK",
      "delay": "—",
      "metarCat": "VFR",
      "metarRaw": "METAR KFKL 201156Z AUTO 19007KT 10SM CLR 04/02 A2993 RMK AO2 SLP144 T00440022 10050 20011 58019",
      "metarObsTime": 1774007760
    },
    "KIDI": {
      "status": "OK",
      "delay": "—",
      "metarCat": "VFR",
      "metarRaw": "METAR KIDI 201155Z AUTO 21006KT 10SM CLR 07/02 A2999 RMK A01",
      "metarObsTime": 1774007700
    },
    "KMDT": {
      "status": "OK",
      "delay": "—",
      "metarCat": "VFR",
      "metarRaw": "METAR KMDT 201156Z 12005KT 10SM FEW070 SCT250 02/00 A3009 RMK AO2 SLP193 T00220000 10056 21006 53001",
      "metarObsTime": 1774007760
    },
    "KCXY": {
      "status": "OK",
      "delay": "—",
      "metarCat": "VFR",
      "metarRaw": "METAR KCXY 201156Z 00000KT 10SM CLR 01/M01 A3009 RMK AO2 SLP194 T00111006 10056 20006 53001",
      "metarObsTime": 1774007760
    },
    "KMUI": {
      "status": "OK",
      "delay": "—",
      "metarCat": "VFR",
      "metarRaw": "METAR KMUI 201155Z 00000KT 10SM SCT250 00/M00 A3007 RMK AO2A SLP189 T00021001 10045 21007 55001",
      "metarObsTime": 1774007700
    },
    "KUNV": {
      "status": "OK",
      "delay": "—",
      "metarCat": "VFR",
      "metarRaw": "METAR KUNV 201153Z 00000KT 10SM CLR 00/00 A3002",
      "metarObsTime": 1774007580
    },
    "KAOO": {
      "status": "OK",
      "delay": "—",
      "metarCat": "VFR",
      "metarRaw": "METAR KAOO 201153Z AUTO 00000KT 10SM CLR 03/01 A3003 RMK AO2 SLP176 T00280011 10056 20017 55005",
      "metarObsTime": 1774007580
    },
    "KLNS": {
      "status": "OK",
      "delay": "—",
      "metarCat": "VFR",
      "metarRaw": "METAR KLNS 201153Z 09003KT 8SM CLR 01/M01 A3010 RMK AO2 SLP196 T00061006 10028 20000 53002",
      "metarObsTime": 1774007580
    },
    "KIPT": {
      "status": "OK",
      "delay": "—",
      "metarCat": "VFR",
      "metarRaw": "METAR KIPT 201154Z 09003KT 9SM CLR M02/M03 A3005 RMK AO2 SLP178 T10171028 10011 21022 58006 $",
      "metarObsTime": 1774007640
    },
    "KPHL": {
      "status": "OK",
      "delay": "—",
      "metarCat": "VFR",
      "metarRaw": "METAR KPHL 201154Z 18005KT 10SM FEW230 SCT300 04/00 A3014 RMK AO2 SLP207 T00390000 10050 20033 53004 $",
      "metarObsTime": 1774007640
    },
    "KABE": {
      "status": "OK",
      "delay": "—",
      "metarCat": "VFR",
      "metarRaw": "METAR KABE 201151Z AUTO 00000KT 10SM CLR 00/M03 A3011 RMK AO2 SLP197 T00001028 10056 21011 53004 $",
      "metarObsTime": 1774007460
    },
    "KAVP": {
      "status": "OK",
      "delay": "—",
      "metarCat": "VFR",
      "metarRaw": "METAR KAVP 201154Z AUTO 00000KT 10SM CLR 01/M02 A3004 RMK AO2 SLP178 T00061017 10022 21006 58000",
      "metarObsTime": 1774007640
    },
    "KHZL": {
      "status": "OK",
      "delay": "—",
      "metarCat": "MVFR",
      "metarRaw": "METAR KHZL 201155Z AUTO 00000KT 4SM BR CLR 00/M01 A3006 RMK AO2",
      "metarObsTime": 1774007700
    }
  }
}