{
  "generatedAt": "2026-03-14T23:50:14.031Z",
  "airports": {
    "KPIT": {
      "status": "OK",
      "delay": "—",
      "metarCat": "VFR",
      "metarRaw": "METAR KPIT 142251Z 28004KT 10SM FEW090 OVC120 07/M12 A3020 RMK AO2 SLP245 T00671122",
      "metarObsTime": 1773528660
    },
    "KAGC": {
      "status": "OK",
      "delay": "—",
      "metarCat": "VFR",
      "metarRaw": "METAR KAGC 142253Z 28003KT 10SM SCT100 07/M11 A3020 RMK AO2 SLP241 T00671111",
      "metarObsTime": 1773528780
    },
    "KLBE": {
      "status": "OK",
      "delay": "—",
      "metarCat": "VFR",
      "metarRaw": "METAR KLBE 142255Z 28005KT 10SM BKN120 07/M11 A3023",
      "metarObsTime": 1773528900
    },
    "KJST": {
      "status": "OK",
      "delay": "—",
      "metarCat": "VFR",
      "metarRaw": "METAR KJST 142254Z AUTO 28008KT 10SM OVC090 04/M12 A3016 RMK AO2 SLP235 T00391122",
      "metarObsTime": 1773528840
    },
    "KERI": {
      "status": "OK",
      "delay": "—",
      "metarCat": "VFR",
      "metarRaw": "METAR KERI 142251Z 00000KT 10SM SCT120 M01/M08 A3028 RMK AO2 SLPNO T10061078 $",
      "metarObsTime": 1773528660
    },
    "KDUJ": {
      "status": "OK",
      "delay": "—",
      "metarCat": "VFR",
      "metarRaw": "METAR KDUJ 142253Z AUTO 31006KT 10SM CLR 04/M13 A3017 RMK AO2 SLP234 T00391128",
      "metarObsTime": 1773528780
    },
    "KBFD": {
      "status": "OK",
      "delay": "—",
      "metarCat": "VFR",
      "metarRaw": "METAR KBFD 142253Z AUTO 31008KT 10SM SCT110 M01/M11 A3019 RMK AO2 SLP244 T10061106",
      "metarObsTime": 1773528780
    },
    "KBTP": {
      "status": "OK",
      "delay": "—",
      "metarCat": "VFR",
      "metarRaw": "METAR KBTP 142256Z AUTO 31005KT 10SM BKN095 06/M09 A3022 RMK AO2 SLP252 T00561089 $",
      "metarObsTime": 1773528960
    },
    "KFKL": {
      "status": "OK",
      "delay": "—",
      "metarCat": "VFR",
      "metarRaw": "METAR KFKL 142256Z AUTO VRB04KT 10SM FEW100 A3022 RMK AO2 SLPNO FZRANO $",
      "metarObsTime": 1773528960
    },
    "KIDI": {
      "status": "OK",
      "delay": "—",
      "metarCat": "VFR",
      "metarRaw": "METAR KIDI 142335Z AUTO 31006KT 10SM SCT075 BKN085 OVC110 05/M09 A3022 RMK A01",
      "metarObsTime": 1773531300
    },
    "KMDT": {
      "status": "OK",
      "delay": "—",
      "metarCat": "VFR",
      "metarRaw": "METAR KMDT 142256Z 33009KT 10SM FEW120 SCT250 10/M12 A3019 RMK AO2 SLP225 T01001117 $",
      "metarObsTime": 1773528960
    },
    "KCXY": {
      "status": "OK",
      "delay": "—",
      "metarCat": "VFR",
      "metarRaw": "METAR KCXY 142256Z 32009KT 10SM CLR 11/M13 A3020 RMK AO2 SLP228 T01061128",
      "metarObsTime": 1773528960
    },
    "KMUI": {
      "status": "OK",
      "delay": "—",
      "metarCat": "VFR",
      "metarRaw": "METAR KMUI 142255Z AUTO 31006KT 10SM CLR 11/M13 A3018 RMK AO2 SLP225 T01061128 $",
      "metarObsTime": 1773528900
    },
    "KUNV": {
      "status": "OK",
      "delay": "—",
      "metarCat": "VFR",
      "metarRaw": "METAR KUNV 142253Z 30006KT 10SM CLR 07/M14 A3019",
      "metarObsTime": 1773528780
    },
    "KAOO": {
      "status": "OK",
      "delay": "—",
      "metarCat": "VFR",
      "metarRaw": "METAR KAOO 142253Z AUTO 30008KT 10SM BKN110 07/M12 A3018 RMK AO2 SLP232 T00671117",
      "metarObsTime": 1773528780
    },
    "KLNS": {
      "status": "OK",
      "delay": "—",
      "metarCat": "VFR",
      "metarRaw": "METAR KLNS 142253Z 31007KT 10SM CLR 08/M11 A3019 RMK AO2 SLP225 T00831106",
      "metarObsTime": 1773528780
    },
    "KIPT": {
      "status": "OK",
      "delay": "—",
      "metarCat": "VFR",
      "metarRaw": "METAR KIPT 142254Z 34008KT 10SM CLR 07/M12 A3020 RMK AO2 SLP231 T00671117",
      "metarObsTime": 1773528840
    },
    "KPHL": {
      "status": "OK",
      "delay": "—",
      "metarCat": "VFR",
      "metarRaw": "METAR KPHL 142254Z 30011KT 10SM BKN250 12/M12 A3021 RMK AO2 PK WND 30028/2222 SLP228 T01171117 $",
      "metarObsTime": 1773528840
    },
    "KABE": {
      "status": "OK",
      "delay": "—",
      "metarCat": "VFR",
      "metarRaw": "METAR KABE 142251Z AUTO 29005G15KT 10SM CLR 08/M12 A3019 RMK AO2 SLP226 T00781122 $",
      "metarObsTime": 1773528660
    },
    "KAVP": {
      "status": "OK",
      "delay": "—",
      "metarCat": "VFR",
      "metarRaw": "METAR KAVP 142254Z 34008KT 10SM CLR 04/M09 A3019 RMK AO2 SLP229 T00441089",
      "metarObsTime": 1773528840
    },
    "KHZL": {
      "status": "OK",
      "delay": "—",
      "metarCat": "VFR",
      "metarRaw": "METAR KHZL 142335Z AUTO 32003KT 10SM CLR 03/M13 A3022 RMK AO2",
      "metarObsTime": 1773531300
    }
  }
}