{
  "generatedAt": "2026-04-07T12:50:40.359Z",
  "airports": {
    "KPIT": {
      "status": "OK",
      "delay": "—",
      "metarCat": "VFR",
      "metarRaw": "METAR KPIT 071151Z 32014G22KT 10SM SCT031 M01/M08 A3032 RMK AO2 SLP283 70001 T10111078 10044 21011 53033",
      "metarObsTime": 1775562660
    },
    "KAGC": {
      "status": "OK",
      "delay": "—",
      "metarCat": "VFR",
      "metarRaw": "METAR KAGC 071153Z 32013G22KT 10SM CLR M01/M09 A3030 RMK AO2 SLP274 70001 T10061089 10044 21006 53034",
      "metarObsTime": 1775562780
    },
    "KLBE": {
      "status": "OK",
      "delay": "—",
      "metarCat": "VFR",
      "metarRaw": "METAR KLBE 071247Z 30014G24KT 10SM SCT033 01/M06 A3034",
      "metarObsTime": 1775566020
    },
    "KJST": {
      "status": "OK",
      "delay": "—",
      "metarCat": "MVFR",
      "metarRaw": "METAR KJST 071154Z AUTO 30013G19KT 10SM BKN027 BKN035 M02/M07 A3020 RMK AO2 PK WND 26028/1122 SLP247 60001 70007 T10171072 10022 21017 53020",
      "metarObsTime": 1775562840
    },
    "KERI": {
      "status": "OK",
      "delay": "—",
      "metarCat": "VFR",
      "metarRaw": "METAR KERI 071151Z 31014G25KT 10SM SCT026 BKN033 OVC046 M03/M09 A3038 RMK AO2 PK WND 31027/1056 SNB22E41 SLP294 P0000 60000 70002 T10281094 10011 21033 51040 $",
      "metarObsTime": 1775562660
    },
    "KDUJ": {
      "status": "OK",
      "delay": "—",
      "metarCat": "VFR",
      "metarRaw": "METAR KDUJ 071153Z AUTO 30012G22KT 10SM OVC032 M03/M08 A3021 RMK AO2 PK WND 32026/1132 SLP249 60001 70004 T10281083 10011 21028 53035",
      "metarObsTime": 1775562780
    },
    "KBFD": {
      "status": "OK",
      "delay": "—",
      "metarCat": "MVFR",
      "metarRaw": "SPECI KBFD 071245Z AUTO 30015G22KT 3SM -SN BKN022 BKN029 OVC036 M06/M10 A3023 RMK AO2 SNB1154 P0000 T10611100",
      "metarObsTime": 1775565900
    },
    "KBTP": {
      "status": "OK",
      "delay": "—",
      "metarCat": "MVFR",
      "metarRaw": "METAR KBTP 071156Z AUTO 34011G20KT 10SM OVC030 M02/M06 A3032 RMK AO2 SLP287 60000 70004 T10171061 10033 21028 53036 FZRANO $",
      "metarObsTime": 1775562960
    },
    "KFKL": {
      "status": "OK",
      "delay": "—",
      "metarCat": "VFR",
      "metarRaw": "SPECI KFKL 071224Z AUTO 31012G17KT 9SM -SN SCT024 OVC032 M04/M08 A3033 RMK AO2 P0000 FZRANO",
      "metarObsTime": 1775564640
    },
    "KIDI": {
      "status": "OK",
      "delay": "—",
      "metarCat": "VFR",
      "metarRaw": "METAR KIDI 071235Z AUTO 32014G21KT 300V360 10SM BKN033 M00/M06 A3030 RMK A01",
      "metarObsTime": 1775565300
    },
    "KMDT": {
      "status": "OK",
      "delay": "—",
      "metarCat": "VFR",
      "metarRaw": "METAR KMDT 071156Z 29015G22KT 10SM FEW055 FEW250 07/M01 A3019 RMK AO2 SLP224 T00671011 10083 20044 53025",
      "metarObsTime": 1775562960
    },
    "KCXY": {
      "status": "OK",
      "delay": "—",
      "metarCat": "VFR",
      "metarRaw": "METAR KCXY 071156Z 28014G22KT 10SM CLR 06/M02 A3019 RMK AO2 SLP225 T00611022 10072 20044 53024",
      "metarObsTime": 1775562960
    },
    "KMUI": {
      "status": "OK",
      "delay": "—",
      "metarCat": "VFR",
      "metarRaw": "METAR KMUI 071155Z 27007KT 10SM FEW038 SCT200 08/M00 A3015 RMK AO2A SLP214 60000 T00761001 10081 20055 52019",
      "metarObsTime": 1775562900
    },
    "KUNV": {
      "status": "OK",
      "delay": "—",
      "metarCat": "VFR",
      "metarRaw": "METAR KUNV 071153Z 29014KT 10SM BKN035 01/M05 A3019",
      "metarObsTime": 1775562780
    },
    "KAOO": {
      "status": "OK",
      "delay": "—",
      "metarCat": "VFR",
      "metarRaw": "METAR KAOO 071153Z AUTO 29017G27KT 10SM SCT034 01/M06 A3021 RMK AO2 PK WND 25030/1131 SLP243 70006 T00061056 10044 20006 53019 $",
      "metarObsTime": 1775562780
    },
    "KLNS": {
      "status": "OK",
      "delay": "—",
      "metarCat": "VFR",
      "metarRaw": "METAR KLNS 071153Z 27011KT 10SM FEW050 SCT060 06/00 A3017 RMK AO2 SLP218 T00610000 10067 20033 53019",
      "metarObsTime": 1775562780
    },
    "KIPT": {
      "status": "OK",
      "delay": "—",
      "metarCat": "VFR",
      "metarRaw": "METAR KIPT 071154Z 27012KT 10SM BKN050 OVC060 04/M03 A3017 RMK AO2 RAE03 SLP219 P0000 60000 70003 T00391028 10044 20028 53028",
      "metarObsTime": 1775562840
    },
    "KPHL": {
      "status": "OK",
      "delay": "—",
      "metarCat": "VFR",
      "metarRaw": "METAR KPHL 071154Z 29010G16KT 10SM SCT065 SCT085 SCT300 10/01 A3017 RMK AO2 SLP216 60000 T01000006 10128 20094 53023",
      "metarObsTime": 1775562840
    },
    "KABE": {
      "status": "OK",
      "delay": "—",
      "metarCat": "VFR",
      "metarRaw": "METAR KABE 071151Z 24008G17KT 190V260 10SM CLR 07/01 A3014 RMK AO2 SLP207 T00670006 10067 20028 53021 $",
      "metarObsTime": 1775562660
    },
    "KAVP": {
      "status": "OK",
      "delay": "—",
      "metarCat": "VFR",
      "metarRaw": "METAR KAVP 071154Z 26009KT 10SM FEW017 BKN031 OVC044 03/M01 A3013 RMK AO2 RAB36E37UPB37E46 SLP207 P0000 60000 T00281006 10039 20017 53026",
      "metarObsTime": 1775562840
    },
    "KHZL": {
      "status": "OK",
      "delay": "—",
      "metarCat": "MVFR",
      "metarRaw": "METAR KHZL 071235Z AUTO 30007KT 10SM SCT021 BKN026 BKN033 03/M02 A3015 RMK AO2",
      "metarObsTime": 1775565300
    }
  }
}