{
  "generatedAt": "2026-05-22T21:45:49.132Z",
  "faaFlow": {
    "updatedAt": "2026-05-22T21:45:48.944Z",
    "source": "https://www.fly.faa.gov/adv/adv_spt",
    "terminal": [
      {
        "time": "—",
        "text": "UNTIL",
        "code": "FLOW",
        "label": "FAA flow impact",
        "level": "yellow",
        "section": "Terminal Planned",
        "airports": []
      },
      {
        "time": "0000",
        "text": "CLT GROUND STOP POSSIBLE",
        "code": "GS",
        "label": "Ground stop possible",
        "level": "yellow",
        "section": "Terminal Planned",
        "airports": []
      },
      {
        "time": "—",
        "text": "UNTIL",
        "code": "FLOW",
        "label": "FAA flow impact",
        "level": "yellow",
        "section": "Terminal Planned",
        "airports": []
      },
      {
        "time": "0000",
        "text": "ATL GROUND DELAY PROGRAM EXPECTED",
        "code": "GDP",
        "label": "Ground delay possible",
        "level": "orange",
        "section": "Terminal Planned",
        "airports": []
      },
      {
        "time": "—",
        "text": "UNTIL",
        "code": "FLOW",
        "label": "FAA flow impact",
        "level": "yellow",
        "section": "Terminal Planned",
        "airports": []
      },
      {
        "time": "0200",
        "text": "DCA GROUND STOP/DELAY PROGRAM PROBABLE",
        "code": "GS",
        "label": "Ground stop possible",
        "level": "orange",
        "section": "Terminal Planned",
        "airports": []
      }
    ],
    "enroute": [
      {
        "time": "—",
        "text": "UNTIL",
        "code": "FLOW",
        "label": "FAA flow impact",
        "level": "yellow",
        "section": "En Route Planned",
        "airports": []
      },
      {
        "time": "0000",
        "text": "ATL/CLT SWAP/ARRIVAL ROUTES POSSIBLE",
        "code": "ROUTE",
        "label": "Route impact possible",
        "level": "blue",
        "section": "En Route Planned",
        "airports": []
      },
      {
        "time": "—",
        "text": "UNTIL",
        "code": "FLOW",
        "label": "FAA flow impact",
        "level": "yellow",
        "section": "En Route Planned",
        "airports": []
      },
      {
        "time": "0200",
        "text": "IAH/HOU CDRS/SWAP POSSIBLE",
        "code": "ROUTE",
        "label": "Route impact possible",
        "level": "blue",
        "section": "En Route Planned",
        "airports": []
      },
      {
        "time": "—",
        "text": "UNTIL",
        "code": "FLOW",
        "label": "FAA flow impact",
        "level": "yellow",
        "section": "En Route Planned",
        "airports": []
      },
      {
        "time": "0200",
        "text": "DFW/DAL CDRS/SWAP POSSIBLE CDRS/SWAP/CAPPING/TUNNELING/HOTLINE/DIVERSION RECOVERY:",
        "code": "ROUTE",
        "label": "Route impact possible",
        "level": "blue",
        "section": "En Route Planned",
        "airports": []
      },
      {
        "time": "—",
        "text": "UNTIL",
        "code": "FLOW",
        "label": "FAA flow impact",
        "level": "yellow",
        "section": "En Route Planned",
        "airports": []
      },
      {
        "time": "2300",
        "text": "ATL CLT CDRS",
        "code": "ROUTE",
        "label": "Route impact possible",
        "level": "blue",
        "section": "En Route Planned",
        "airports": []
      },
      {
        "time": "—",
        "text": "UNTIL",
        "code": "FLOW",
        "label": "FAA flow impact",
        "level": "yellow",
        "section": "En Route Planned",
        "airports": []
      },
      {
        "time": "0200",
        "text": "ZFW SWAP STATEMENT",
        "code": "ROUTE",
        "label": "Route impact possible",
        "level": "blue",
        "section": "En Route Planned",
        "airports": []
      },
      {
        "time": "—",
        "text": "UNTIL",
        "code": "FLOW",
        "label": "FAA flow impact",
        "level": "yellow",
        "section": "En Route Planned",
        "airports": []
      },
      {
        "time": "0400",
        "text": "ZDC SWAP STATEMENT RUNWAY/EQUIPMENT/POSSIBLE SYSTEM IMPACT REPORTS(SIRs): SAN - CONSTRUCTION PHASE 5.2 UNTIL 05/26/26",
        "code": "ROUTE",
        "label": "Route impact possible",
        "level": "blue",
        "section": "En Route Planned",
        "airports": []
      },
      {
        "time": "—",
        "text": "AFTER",
        "code": "FLOW",
        "label": "FAA flow impact",
        "level": "yellow",
        "section": "En Route Planned",
        "airports": []
      },
      {
        "time": "2200",
        "text": "ARR ADW NEXT PLANNING WEBINAR:",
        "code": "FLOW",
        "label": "FAA flow impact",
        "level": "yellow",
        "section": "En Route Planned",
        "airports": []
      }
    ],
    "airports": {
      "KPIT": null,
      "KAGC": null,
      "KLBE": null,
      "KJST": null,
      "KERI": null,
      "KDUJ": null,
      "KBFD": null,
      "KBTP": null,
      "KFKL": null,
      "KIDI": null,
      "KMDT": null,
      "KCXY": null,
      "KMUI": null,
      "KUNV": null,
      "KAOO": null,
      "KLNS": null,
      "KIPT": null,
      "KPHL": null,
      "KABE": null,
      "KAVP": null,
      "KHZL": null
    }
  },
  "airports": {
    "KPIT": {
      "status": "OK",
      "delay": "—",
      "metarCat": "MVFR",
      "metarRaw": "SPECI KPIT 222114Z 11013G21KT 5SM -RA BR SCT029 BKN050 OVC100 14/12 A3016 RMK AO2 P0002 T01390122 $",
      "metarObsTime": 1779484440,
      "faaFlow": null
    },
    "KAGC": {
      "status": "OK",
      "delay": "—",
      "metarCat": "MVFR",
      "metarRaw": "METAR KAGC 222053Z 12008KT 4SM -RA BR FEW012 SCT070 OVC095 13/12 A3018 RMK AO2 SLP226 P0006 60007 T01330122 58003",
      "metarObsTime": 1779483180,
      "faaFlow": null
    },
    "KLBE": {
      "status": "OK",
      "delay": "—",
      "metarCat": "VFR",
      "metarRaw": "METAR KLBE 222055Z 00000KT 6SM -RA BR SCT018 BKN 040 OVC050 14/12 A3021",
      "metarObsTime": 1779483300,
      "faaFlow": null
    },
    "KJST": {
      "status": "OK",
      "delay": "—",
      "metarCat": "MVFR",
      "metarRaw": "SPECI KJST 222139Z AUTO 14006G18KT 4SM RA BR SCT009 BKN013 OVC050 11/10 A3024 RMK AO2 P0011 T01060100",
      "metarObsTime": 1779485940,
      "faaFlow": null
    },
    "KERI": {
      "status": "OK",
      "delay": "—",
      "metarCat": "VFR",
      "metarRaw": "METAR KERI 222051Z 11010KT 10SM OVC050 18/07 A3019 RMK AO2 SLP225 T01780067 58011",
      "metarObsTime": 1779483060,
      "faaFlow": null
    },
    "KDUJ": {
      "status": "OK",
      "delay": "—",
      "metarCat": "VFR",
      "metarRaw": "METAR KDUJ 222053Z AUTO 12009G18KT 10SM FEW035 OVC046 16/08 A3023 RMK AO2 SLP238 T01560083 57012",
      "metarObsTime": 1779483180,
      "faaFlow": null
    },
    "KBFD": {
      "status": "OK",
      "delay": "—",
      "metarCat": "VFR",
      "metarRaw": "METAR KBFD 222053Z AUTO 13011KT 10SM OVC065 13/05 A3026 RMK AO2 SLP253 T01330050 56011",
      "metarObsTime": 1779483180,
      "faaFlow": null
    },
    "KBTP": {
      "status": "OK",
      "delay": "—",
      "metarCat": "VFR",
      "metarRaw": "METAR KBTP 222056Z AUTO 12012KT 10SM -RA FEW026 BKN049 OVC090 15/12 A3019 RMK AO2 RAB29 SLP230 P0000 60000 T01500122 56007 $",
      "metarObsTime": 1779483360,
      "faaFlow": null
    },
    "KFKL": {
      "status": "OK",
      "delay": "—",
      "metarCat": "VFR",
      "metarRaw": "METAR KFKL 222056Z AUTO 10009KT 10SM OVC042 17/08 A3020 RMK AO2 SLP230 T01670078 56013",
      "metarObsTime": 1779483360,
      "faaFlow": null
    },
    "KIDI": {
      "status": "OK",
      "delay": "—",
      "metarCat": "MVFR",
      "metarRaw": "METAR KIDI 222135Z AUTO 10008G16KT 4SM BR SCT019 13/12 A3023 RMK A01",
      "metarObsTime": 1779485700,
      "faaFlow": null
    },
    "KMDT": {
      "status": "OK",
      "delay": "—",
      "metarCat": "VFR",
      "metarRaw": "METAR KMDT 222056Z 16008KT 10SM -RA SCT060 OVC100 16/12 A3029 RMK AO2 SLP258 P0000 60000 T01610117 58004",
      "metarObsTime": 1779483360,
      "faaFlow": null
    },
    "KCXY": {
      "status": "OK",
      "delay": "—",
      "metarCat": "VFR",
      "metarRaw": "METAR KCXY 222056Z 15007KT 7SM -RA OVC100 16/12 A3030 RMK AO2 SLP261 P0001 60002 T01560117 56005",
      "metarObsTime": 1779483360,
      "faaFlow": null
    },
    "KMUI": {
      "status": "OK",
      "delay": "—",
      "metarCat": "VFR",
      "metarRaw": "METAR KMUI 222055Z AUTO 13007KT 10SM OVC080 19/08 A3027 RMK AO2 SLP253 T01930080 58006",
      "metarObsTime": 1779483300,
      "faaFlow": null
    },
    "KUNV": {
      "status": "OK",
      "delay": "—",
      "metarCat": "VFR",
      "metarRaw": "METAR KUNV 222053Z 15005KT 10SM OVC048 16/07 A3028",
      "metarObsTime": 1779483180,
      "faaFlow": null
    },
    "KAOO": {
      "status": "OK",
      "delay": "—",
      "metarCat": "MVFR",
      "metarRaw": "SPECI KAOO 222119Z AUTO 13006KT 4SM RA BR SCT010 BKN024 OVC055 12/11 A3028 RMK AO2 P0005 T01220111",
      "metarObsTime": 1779484740,
      "faaFlow": null
    },
    "KLNS": {
      "status": "OK",
      "delay": "—",
      "metarCat": "VFR",
      "metarRaw": "METAR KLNS 222053Z 13010KT 10SM -RA OVC100 15/11 A3031 RMK AO2 SLP262 P0000 60000 T01500111 58000",
      "metarObsTime": 1779483180,
      "faaFlow": null
    },
    "KIPT": {
      "status": "OK",
      "delay": "—",
      "metarCat": "VFR",
      "metarRaw": "METAR KIPT 222054Z 06005KT 10SM CLR 18/06 A3026 RMK AO2 SLP248 T01830061 58012 $",
      "metarObsTime": 1779483240,
      "faaFlow": null
    },
    "KPHL": {
      "status": "OK",
      "delay": "—",
      "metarCat": "VFR",
      "metarRaw": "METAR KPHL 222054Z 06010G19KT 10SM -RA FEW070 OVC110 17/08 A3034 RMK AO2 RAB24 SLP272 P0000 60000 T01670083 50003",
      "metarObsTime": 1779483240,
      "faaFlow": null
    },
    "KABE": {
      "status": "OK",
      "delay": "—",
      "metarCat": "VFR",
      "metarRaw": "METAR KABE 222051Z 15005G16KT 10SM FEW095 19/04 A3031 RMK AO2 SLP264 T01940039 56004",
      "metarObsTime": 1779483060,
      "faaFlow": null
    },
    "KAVP": {
      "status": "OK",
      "delay": "—",
      "metarCat": "VFR",
      "metarRaw": "METAR KAVP 222054Z 08004KT 10SM SCT080 18/04 A3030 RMK AO2 SLP261 T01780039 58007",
      "metarObsTime": 1779483240,
      "faaFlow": null
    },
    "KHZL": {
      "status": "OK",
      "delay": "—",
      "metarCat": "VFR",
      "metarRaw": "METAR KHZL 222135Z AUTO 13005KT 10SM BKN075 17/01 A3034 RMK AO2",
      "metarObsTime": 1779485700,
      "faaFlow": null
    }
  }
}