{
  "generatedAt": "2026-04-02T14:40:39.173Z",
  "airports": {
    "KPIT": {
      "status": "OK",
      "delay": "—",
      "metarCat": "LIFR",
      "metarRaw": "SPECI KPIT 021427Z 16006KT 2SM BR OVC003 13/13 A3017 RMK AO2 T01330128",
      "metarObsTime": 1775140020
    },
    "KAGC": {
      "status": "OK",
      "delay": "—",
      "metarCat": "MVFR",
      "metarRaw": "SPECI KAGC 021424Z 15006KT 5SM BR FEW006 14/14 A3017 RMK AO2 T01440139",
      "metarObsTime": 1775139840
    },
    "KLBE": {
      "status": "OK",
      "delay": "—",
      "metarCat": "VFR",
      "metarRaw": "METAR KLBE 021347Z 00000KT 10SM BKN045 14/14 A3020",
      "metarObsTime": 1775137620
    },
    "KJST": {
      "status": "OK",
      "delay": "—",
      "metarCat": "VFR",
      "metarRaw": "SPECI KJST 021423Z AUTO 15009KT 10SM SCT009 BKN038 13/12 A3023 RMK AO2 T01330117",
      "metarObsTime": 1775139780
    },
    "KERI": {
      "status": "OK",
      "delay": "—",
      "metarCat": "MVFR",
      "metarRaw": "METAR KERI 021351Z 05009KT 9SM OVC011 04/02 A3018 RMK AO2 RAB18E32 SLP227 P0000 T00390022 $",
      "metarObsTime": 1775137860
    },
    "KDUJ": {
      "status": "OK",
      "delay": "—",
      "metarCat": "IFR",
      "metarRaw": "SPECI KDUJ 021426Z AUTO 11007KT 10SM OVC005 10/09 A3021 RMK AO2 T01000089",
      "metarObsTime": 1775139960
    },
    "KBFD": {
      "status": "OK",
      "delay": "—",
      "metarCat": "LIFR",
      "metarRaw": "METAR KBFD 021353Z AUTO 13008KT 1 1/4SM BR OVC002 05/05 A3021 RMK AO2 SLP243 T00500050",
      "metarObsTime": 1775137980
    },
    "KBTP": {
      "status": "OK",
      "delay": "—",
      "metarCat": "LIFR",
      "metarRaw": "METAR KBTP 021356Z AUTO 12007KT 10SM OVC004 12/ A3018 RMK AO2 RAE23 SLP227 P0000 T0122 $",
      "metarObsTime": 1775138160
    },
    "KFKL": {
      "status": "OK",
      "delay": "—",
      "metarCat": "LIFR",
      "metarRaw": "SPECI KFKL 021438Z AUTO 14003KT 3SM -RA BR OVC003 09/09 A3019 RMK AO2 P0000",
      "metarObsTime": 1775140680
    },
    "KIDI": {
      "status": "OK",
      "delay": "—",
      "metarCat": "VFR",
      "metarRaw": "METAR KIDI 021435Z AUTO 14005KT 10SM SCT080 BKN090 18/13 A3020 RMK A01",
      "metarObsTime": 1775140500
    },
    "KMDT": {
      "status": "OK",
      "delay": "—",
      "metarCat": "IFR",
      "metarRaw": "METAR KMDT 021356Z 12011KT 9SM OVC009 09/08 A3034 RMK AO2 CIG 007V012 SLP275 T00890078",
      "metarObsTime": 1775138160
    },
    "KCXY": {
      "status": "OK",
      "delay": "—",
      "metarCat": "IFR",
      "metarRaw": "METAR KCXY 021356Z 10010KT 3SM BR OVC007 09/08 A3034 RMK AO2 SLP276 T00890078",
      "metarObsTime": 1775138160
    },
    "KMUI": {
      "status": "OK",
      "delay": "—",
      "metarCat": "IFR",
      "metarRaw": "METAR KMUI 021355Z 07009KT 4SM BR OVC005 09/09 A3033 RMK AO2A DZE44 SLP275 T00930090",
      "metarObsTime": 1775138100
    },
    "KUNV": {
      "status": "OK",
      "delay": "—",
      "metarCat": "LIFR",
      "metarRaw": "METAR KUNV 021353Z 00000KT 1SM R24/P6000FT -RA BR OVC002 07/07 A3028",
      "metarObsTime": 1775137980
    },
    "KAOO": {
      "status": "OK",
      "delay": "—",
      "metarCat": "LIFR",
      "metarRaw": "SPECI KAOO 021423Z AUTO 00000KT 1SM BR OVC002 08/08 A3029 RMK AO2 T00830078",
      "metarObsTime": 1775139780
    },
    "KLNS": {
      "status": "OK",
      "delay": "—",
      "metarCat": "IFR",
      "metarRaw": "METAR KLNS 021353Z 09012KT 8SM OVC008 08/07 A3035 RMK AO2 SLP276 T00830072",
      "metarObsTime": 1775137980
    },
    "KIPT": {
      "status": "OK",
      "delay": "—",
      "metarCat": "MVFR",
      "metarRaw": "METAR KIPT 021354Z 07011KT 10SM OVC011 09/07 A3030 RMK AO2 SLP264 T00890072 $",
      "metarObsTime": 1775138040
    },
    "KPHL": {
      "status": "OK",
      "delay": "—",
      "metarCat": "IFR",
      "metarRaw": "METAR KPHL 021354Z 08013G19KT 9SM OVC008 08/06 A3038 RMK AO2 SLP288 CIG 007V009 T00830061 $",
      "metarObsTime": 1775138040
    },
    "KABE": {
      "status": "OK",
      "delay": "—",
      "metarCat": "MVFR",
      "metarRaw": "SPECI KABE 021423Z 09011KT 4SM BR OVC010 07/06 A3039 RMK AO2 RAE1358 P0000 T00720061 $",
      "metarObsTime": 1775139780
    },
    "KAVP": {
      "status": "OK",
      "delay": "—",
      "metarCat": "MVFR",
      "metarRaw": "SPECI KAVP 021436Z 12005KT 10SM OVC014 08/05 A3035 RMK AO2 T00780050",
      "metarObsTime": 1775140560
    },
    "KHZL": {
      "status": "OK",
      "delay": "—",
      "metarCat": "LIFR",
      "metarRaw": "METAR KHZL 021435Z AUTO 12008G14KT 090V170 10SM OVC004 06/05 A3035 RMK AO2",
      "metarObsTime": 1775140500
    }
  }
}