{
  "generatedAt": "2026-03-20T22:00:22.308Z",
  "airports": {
    "KPIT": {
      "status": "OK",
      "delay": "—",
      "metarCat": "VFR",
      "metarRaw": "METAR KPIT 202151Z 22011G23KT 7SM -RA FEW055 OVC080 17/07 A2972 RMK AO2 RAB01 SLP071 P0000 T01670072",
      "metarObsTime": 1774043460
    },
    "KAGC": {
      "status": "OK",
      "delay": "—",
      "metarCat": "VFR",
      "metarRaw": "METAR KAGC 202153Z 22012KT 10SM FEW050 BKN075 OVC095 16/08 A2972 RMK AO2 SLP070 T01560078",
      "metarObsTime": 1774043580
    },
    "KLBE": {
      "status": "OK",
      "delay": "—",
      "metarCat": "VFR",
      "metarRaw": "METAR KLBE 202150Z 22010KT 10SM FEW036 SCT050 OVC070 15/10 A2976",
      "metarObsTime": 1774043400
    },
    "KJST": {
      "status": "OK",
      "delay": "—",
      "metarCat": "VFR",
      "metarRaw": "METAR KJST 202154Z AUTO 21011KT 10SM -RA OVC060 11/08 A2975 RMK AO2 SLP081 P0001 T01060078",
      "metarObsTime": 1774043640
    },
    "KERI": {
      "status": "OK",
      "delay": "—",
      "metarCat": "VFR",
      "metarRaw": "METAR KERI 202151Z 24006KT 10SM SCT055 16/09 A2969 RMK AO2 RAE2054 SLP057 P0001 T01560094",
      "metarObsTime": 1774043460
    },
    "KDUJ": {
      "status": "OK",
      "delay": "—",
      "metarCat": "VFR",
      "metarRaw": "METAR KDUJ 202153Z AUTO 22007KT 8SM -RA OVC060 09/08 A2972 RMK AO2 SLP071 P0004 T00940083",
      "metarObsTime": 1774043580
    },
    "KBFD": {
      "status": "OK",
      "delay": "—",
      "metarCat": "IFR",
      "metarRaw": "METAR KBFD 202153Z AUTO 26003KT 7SM -RA BKN009 BKN015 OVC028 08/07 A2971 RMK AO2 RAE35B45 CIG 006V011 SLP072 P0001 T00830072",
      "metarObsTime": 1774043580
    },
    "KBTP": {
      "status": "OK",
      "delay": "—",
      "metarCat": "VFR",
      "metarRaw": "METAR KBTP 202056Z AUTO 22007KT 10SM -RA FEW035 SCT060 OVC075 14/08 A2973 RMK AO2 RAE02B52 SLP077 P0000 60001 T01440083 56023 $",
      "metarObsTime": 1774040160
    },
    "KFKL": {
      "status": "OK",
      "delay": "—",
      "metarCat": "VFR",
      "metarRaw": "METAR KFKL 202056Z AUTO 20007KT 10SM -RA OVC060 11/09 A2972 RMK AO2 SLP072 P0002 60012 T01060089 56025",
      "metarObsTime": 1774040160
    },
    "KIDI": {
      "status": "OK",
      "delay": "—",
      "metarCat": "VFR",
      "metarRaw": "METAR KIDI 202135Z AUTO 22007G12KT 8SM OVC065 11/10 A2974 RMK A01",
      "metarObsTime": 1774042500
    },
    "KMDT": {
      "status": "OK",
      "delay": "—",
      "metarCat": "VFR",
      "metarRaw": "METAR KMDT 202056Z 22009G17KT 10SM -RA OVC070 19/04 A2975 RMK AO2 RAE13B51 SLP075 P0000 60000 T01890039 56036",
      "metarObsTime": 1774040160
    },
    "KCXY": {
      "status": "OK",
      "delay": "—",
      "metarCat": "MVFR",
      "metarRaw": "METAR KCXY 202056Z 20011G23KT 4SM -RA OVC075 17/06 A2975 RMK AO2 RAB48 SLP077 P0000 60000 T01720056 56034",
      "metarObsTime": 1774040160
    },
    "KMUI": {
      "status": "OK",
      "delay": "—",
      "metarCat": "MVFR",
      "metarRaw": "SPECI KMUI 202143Z 24009KT 5SM -RA FEW005 BKN040 OVC060 15/11 A2977 RMK AO2A SLP086",
      "metarObsTime": 1774042980
    },
    "KUNV": {
      "status": "OK",
      "delay": "—",
      "metarCat": "VFR",
      "metarRaw": "METAR KUNV 202153Z 22006KT 6SM -RA BR SCT045 OVC060 11/11 A2975",
      "metarObsTime": 1774043580
    },
    "KAOO": {
      "status": "OK",
      "delay": "—",
      "metarCat": "VFR",
      "metarRaw": "METAR KAOO 202153Z AUTO 23015G23KT 10SM OVC070 13/08 A2975 RMK AO2 RAE47 SLP079 P0001 T01280083",
      "metarObsTime": 1774043580
    },
    "KLNS": {
      "status": "OK",
      "delay": "—",
      "metarCat": "VFR",
      "metarRaw": "METAR KLNS 202153Z 23008G18KT 7SM -RA OVC070 14/06 A2979 RMK AO2 RAB37 SLP090 P0002 T01390056",
      "metarObsTime": 1774043580
    },
    "KIPT": {
      "status": "OK",
      "delay": "—",
      "metarCat": "IFR",
      "metarRaw": "METAR KIPT 202154Z 26005KT 1 3/4SM RA BR BKN041 BKN055 OVC070 07/07 A2973 RMK AO2 SLP072 P0006 T00720067 $",
      "metarObsTime": 1774043640
    },
    "KPHL": {
      "status": "OK",
      "delay": "—",
      "metarCat": "VFR",
      "metarRaw": "METAR KPHL 202154Z 20013G20KT 10SM -RA FEW055 BKN090 BKN260 18/03 A2978 RMK AO2 PK WND 19028/2135 RAB46 SLP083 P0000 T01830033 $",
      "metarObsTime": 1774043640
    },
    "KABE": {
      "status": "OK",
      "delay": "—",
      "metarCat": "VFR",
      "metarRaw": "METAR KABE 202151Z 22012G23KT 10SM BKN070 OVC100 16/03 A2974 RMK AO2 RAB2054E02 SLP073 P0000 T01610028 $",
      "metarObsTime": 1774043460
    },
    "KAVP": {
      "status": "OK",
      "delay": "—",
      "metarCat": "MVFR",
      "metarRaw": "METAR KAVP 202154Z 22006KT 3SM -RA BR SCT038 OVC050 11/08 A2973 RMK AO2 SLP071 P0007 T01060083",
      "metarObsTime": 1774043640
    },
    "KHZL": {
      "status": "OK",
      "delay": "—",
      "metarCat": "MVFR",
      "metarRaw": "METAR KHZL 202135Z AUTO 22005KT 5SM RA OVC046 11/07 A2980 RMK AO2 P0005",
      "metarObsTime": 1774042500
    }
  }
}