{
  "generatedAt": "2026-03-31T11:00:30.949Z",
  "airports": {
    "KPIT": {
      "status": "OK",
      "delay": "—",
      "metarCat": "VFR",
      "metarRaw": "METAR KPIT 311051Z 22013G25KT 10SM FEW090 BKN250 18/11 A3001 RMK AO2 SLP165 T01830111",
      "metarObsTime": 1774954260
    },
    "KAGC": {
      "status": "OK",
      "delay": "—",
      "metarCat": "VFR",
      "metarRaw": "METAR KAGC 311053Z 22014G21KT 10SM FEW034 BKN048 OVC090 18/11 A3004 RMK AO2 SLP170 T01780111",
      "metarObsTime": 1774954380
    },
    "KLBE": {
      "status": "OK",
      "delay": "—",
      "metarCat": "VFR",
      "metarRaw": "METAR KLBE 311047Z 21012G25KT 20SM BKN040 18/11 A3007",
      "metarObsTime": 1774954020
    },
    "KJST": {
      "status": "OK",
      "delay": "—",
      "metarCat": "MVFR",
      "metarRaw": "METAR KJST 311054Z AUTO 24012G23KT 10SM BKN027 BKN060 OVC075 16/10 A3006 RMK AO2 PK WND 26029/0955 SLP174 T01560100",
      "metarObsTime": 1774954440
    },
    "KERI": {
      "status": "OK",
      "delay": "—",
      "metarCat": "VFR",
      "metarRaw": "METAR KERI 311051Z 21018G29KT 10SM CLR 18/12 A2987 RMK AO2 PK WND 20029/1042 PRESRR SLP113 T01830122 $",
      "metarObsTime": 1774954260
    },
    "KDUJ": {
      "status": "OK",
      "delay": "—",
      "metarCat": "VFR",
      "metarRaw": "METAR KDUJ 311053Z AUTO 22012G22KT 10SM OVC031 16/10 A3000 RMK AO2 SLP152 T01610100",
      "metarObsTime": 1774954380
    },
    "KBFD": {
      "status": "OK",
      "delay": "—",
      "metarCat": "MVFR",
      "metarRaw": "METAR KBFD 311053Z AUTO 21007KT 10SM OVC026 15/11 A2996 RMK AO2 LTG DSNT NE SLP140 T01500106",
      "metarObsTime": 1774954380
    },
    "KBTP": {
      "status": "OK",
      "delay": "—",
      "metarCat": "VFR",
      "metarRaw": "METAR KBTP 311056Z AUTO 22010G18KT 10SM SCT034 BKN055 BKN095 18/12 A3002 RMK AO2 SLP166 T01780117 $",
      "metarObsTime": 1774954560
    },
    "KFKL": {
      "status": "OK",
      "delay": "—",
      "metarCat": "VFR",
      "metarRaw": "METAR KFKL 311056Z AUTO 22012G20KT 10SM CLR 17/12 A2996 RMK AO2 PK WND 21026/1046 SLP142 T01670117",
      "metarObsTime": 1774954560
    },
    "KIDI": {
      "status": "OK",
      "delay": "—",
      "metarCat": "VFR",
      "metarRaw": "METAR KIDI 311055Z AUTO 22009G17KT 10SM BKN037 OVC050 17/11 A3005 RMK A01",
      "metarObsTime": 1774954500
    },
    "KMDT": {
      "status": "OK",
      "delay": "—",
      "metarCat": "VFR",
      "metarRaw": "METAR KMDT 311056Z 21008KT 10SM FEW075 BKN250 15/10 A3005 RMK AO2 SLP175 T01500100",
      "metarObsTime": 1774954560
    },
    "KCXY": {
      "status": "OK",
      "delay": "—",
      "metarCat": "VFR",
      "metarRaw": "METAR KCXY 311056Z 28004KT 10SM CLR 12/09 A3005 RMK AO2 SLP176 T01220094",
      "metarObsTime": 1774954560
    },
    "KMUI": {
      "status": "OK",
      "delay": "—",
      "metarCat": "VFR",
      "metarRaw": "METAR KMUI 310955Z AUTO 00000KT 10SM CLR 11/11 A3003 RMK AO2 SLP171 T01090106",
      "metarObsTime": 1774950900
    },
    "KUNV": {
      "status": "OK",
      "delay": "—",
      "metarCat": "VFR",
      "metarRaw": "METAR KUNV 311053Z 24011G15KT 10SM BKN041 OVC048 18/10 A3001 RMK LTG DSNT N AND NE",
      "metarObsTime": 1774954380
    },
    "KAOO": {
      "status": "OK",
      "delay": "—",
      "metarCat": "VFR",
      "metarRaw": "METAR KAOO 311053Z AUTO 22012KT 10SM BKN039 BKN046 OVC080 17/10 A3005 RMK AO2 SLP170 T01720100",
      "metarObsTime": 1774954380
    },
    "KLNS": {
      "status": "OK",
      "delay": "—",
      "metarCat": "VFR",
      "metarRaw": "METAR KLNS 311053Z 21004KT 10SM CLR 15/10 A3006 RMK AO2 SLP179 T01500100",
      "metarObsTime": 1774954380
    },
    "KIPT": {
      "status": "OK",
      "delay": "—",
      "metarCat": "VFR",
      "metarRaw": "METAR KIPT 311054Z 00000KT 10SM SCT049 12/11 A2997 RMK AO2 SLP146 T01220106 $",
      "metarObsTime": 1774954440
    },
    "KPHL": {
      "status": "OK",
      "delay": "—",
      "metarCat": "VFR",
      "metarRaw": "METAR KPHL 311054Z 22010KT 10SM BKN090 BKN300 17/10 A3008 RMK AO2 SLP186 T01670100 $",
      "metarObsTime": 1774954440
    },
    "KABE": {
      "status": "OK",
      "delay": "—",
      "metarCat": "VFR",
      "metarRaw": "METAR KABE 311051Z AUTO 23008KT 10SM FEW090 14/10 A3003 RMK AO2 SLP169 T01440100 $",
      "metarObsTime": 1774954260
    },
    "KAVP": {
      "status": "OK",
      "delay": "—",
      "metarCat": "VFR",
      "metarRaw": "METAR KAVP 311054Z AUTO 21005KT 10SM FEW090 16/09 A2999 RMK AO2 SLP150 T01610094",
      "metarObsTime": 1774954440
    },
    "KHZL": {
      "status": "OK",
      "delay": "—",
      "metarCat": "VFR",
      "metarRaw": "METAR KHZL 311055Z AUTO 20005KT 10SM SCT044 SCT065 BKN090 15/08 A3005 RMK AO2",
      "metarObsTime": 1774954500
    }
  }
}