{
  "generatedAt": "2026-03-16T17:50:17.520Z",
  "airports": {
    "KPIT": {
      "status": "OK",
      "delay": "—",
      "metarCat": "MVFR",
      "metarRaw": "METAR KPIT 161651Z 26020G28KT 10SM -DZ BKN011 BKN021 OVC030 07/04 A2945 RMK AO2 RAE33DZB33 SLP980 T00720044 PNO VISNO SE $",
      "metarObsTime": 1773679860
    },
    "KAGC": {
      "status": "OK",
      "delay": "—",
      "metarCat": "MVFR",
      "metarRaw": "SPECI KAGC 161718Z 27018G30KT 10SM OVC010 07/04 A2943 RMK AO2 PK WND 26030/1717 T00670044",
      "metarObsTime": 1773681480
    },
    "KLBE": {
      "status": "OK",
      "delay": "—",
      "metarCat": "MVFR",
      "metarRaw": "METAR KLBE 161747Z 25012G25KT 10SM BKN030 OVC045 09/06 A2944",
      "metarObsTime": 1773683220
    },
    "KJST": {
      "status": "OK",
      "delay": "—",
      "metarCat": "VFR",
      "metarRaw": "METAR KJST 161654Z AUTO 18013G20KT 10SM OVC100 16/09 A2939 RMK AO2 SLP949 T01560094",
      "metarObsTime": 1773680040
    },
    "KERI": {
      "status": "OK",
      "delay": "—",
      "metarCat": "IFR",
      "metarRaw": "SPECI KERI 161746Z 26018G26KT 3SM -RA BR BKN007 BKN013 OVC018 02/01 A2943 RMK AO2 PK WND 27033/1711 P0001 $",
      "metarObsTime": 1773683160
    },
    "KDUJ": {
      "status": "OK",
      "delay": "—",
      "metarCat": "MVFR",
      "metarRaw": "SPECI KDUJ 161719Z AUTO 20008G19KT 10SM BKN028 OVC036 14/09 A2936 RMK AO2 T01390094",
      "metarObsTime": 1773681540
    },
    "KBFD": {
      "status": "OK",
      "delay": "—",
      "metarCat": "MVFR",
      "metarRaw": "SPECI KBFD 161739Z AUTO 20012G26KT 160V230 10SM BKN023 BKN032 BKN110 13/09 A2935 RMK AO2 PK WND 22026/1736 T01330089",
      "metarObsTime": 1773682740
    },
    "KBTP": {
      "status": "OK",
      "delay": "—",
      "metarCat": "—",
      "metarRaw": "—",
      "metarObsTime": null
    },
    "KFKL": {
      "status": "OK",
      "delay": "—",
      "metarCat": "MVFR",
      "metarRaw": "SPECI KFKL 161734Z AUTO 25012G24KT 6SM -RA BR SCT006 OVC012 06/04 A2942 RMK AO2 P0000",
      "metarObsTime": 1773682440
    },
    "KIDI": {
      "status": "OK",
      "delay": "—",
      "metarCat": "VFR",
      "metarRaw": "METAR KIDI 161735Z AUTO 24015G23KT 10SM SCT034 BKN044 BKN050 17/11 A2936 RMK A01",
      "metarObsTime": 1773682500
    },
    "KMDT": {
      "status": "OK",
      "delay": "—",
      "metarCat": "MVFR",
      "metarRaw": "SPECI KMDT 161701Z 18015G28KT 3SM RA BR FEW016 BKN031 OVC090 17/14 A2948 RMK AO2 PK WND 17028/1659 LTG DSNT N TSE01 TS MOVD NE P0001 T01670144",
      "metarObsTime": 1773680460
    },
    "KCXY": {
      "status": "OK",
      "delay": "—",
      "metarCat": "MVFR",
      "metarRaw": "SPECI KCXY 161658Z 15013KT 3SM RA BR FEW019 BKN031 OVC100 18/16 A2948 RMK AO2 LTG DSNT NE P0000 T01780161",
      "metarObsTime": 1773680280
    },
    "KMUI": {
      "status": "OK",
      "delay": "—",
      "metarCat": "MVFR",
      "metarRaw": "SPECI KMUI 161739Z 17010G17KT 10SM VCSH FEW006 BKN010 BKN017 18/18 A2946 RMK AO2A LTG DSNT NE RAE39 SLP979",
      "metarObsTime": 1773682740
    },
    "KUNV": {
      "status": "OK",
      "delay": "—",
      "metarCat": "VFR",
      "metarRaw": "METAR KUNV 161653Z 23008KT 10SM SCT025 SCT050 OVC110 16/13 A2942",
      "metarObsTime": 1773679980
    },
    "KAOO": {
      "status": "OK",
      "delay": "—",
      "metarCat": "VFR",
      "metarRaw": "METAR KAOO 161653Z AUTO 19019G30KT 10SM FEW120 17/12 A2942 RMK AO2 PK WND 18030/1652 RAE30 SLP958 P0001 T01720122",
      "metarObsTime": 1773679980
    },
    "KLNS": {
      "status": "OK",
      "delay": "—",
      "metarCat": "MVFR",
      "metarRaw": "METAR KLNS 161653Z 19018G34KT 10SM BKN017 OVC022 19/16 A2950 RMK AO2 PK WND 19034/1652 LTG DSNT NW PRESFR SLP990 T01890156",
      "metarObsTime": 1773679980
    },
    "KIPT": {
      "status": "OK",
      "delay": "—",
      "metarCat": "MVFR",
      "metarRaw": "METAR KIPT 161654Z 09006KT 9SM OVC021 18/15 A2942 RMK AO2 SLP963 T01830150",
      "metarObsTime": 1773680040
    },
    "KPHL": {
      "status": "OK",
      "delay": "—",
      "metarCat": "VFR",
      "metarRaw": "SPECI KPHL 161704Z 19016G28KT 10SM SCT019 BKN040 OVC100 20/15 A2960 RMK AO2 PK WND 18028/1659 CB DSNT N MOV NE VCSH T02000150 $",
      "metarObsTime": 1773680640
    },
    "KABE": {
      "status": "OK",
      "delay": "—",
      "metarCat": "MVFR",
      "metarRaw": "METAR KABE 161651Z 18018G28KT 10SM BKN020 OVC024 19/16 A2956 RMK AO2 PK WND 18028/1650 LTG DSNT E AND SE SLP011 T01890156 $",
      "metarObsTime": 1773679860
    },
    "KAVP": {
      "status": "OK",
      "delay": "—",
      "metarCat": "VFR",
      "metarRaw": "METAR KAVP 161654Z 20012G29KT 10SM FEW020 SCT030 BKN041 19/15 A2950 RMK AO2 PK WND 19031/1559 RAB20E37 SLP984 P0000 T01940150",
      "metarObsTime": 1773680040
    },
    "KHZL": {
      "status": "OK",
      "delay": "—",
      "metarCat": "IFR",
      "metarRaw": "METAR KHZL 161735Z AUTO 17007KT 3SM -VCTSRA OVC009 16/15 A2952 RMK AO2 LTG DSNT S P0004",
      "metarObsTime": 1773682500
    }
  }
}