{
  "generatedAt": "2026-04-01T02:00:31.509Z",
  "airports": {
    "KPIT": {
      "status": "OK",
      "delay": "—",
      "metarCat": "VFR",
      "metarRaw": "METAR KPIT 010151Z 23005KT 10SM -RA BKN060 OVC110 23/11 A2991 RMK AO2 RAB12 SLP126 OCNL LTG DSNT NW-NE P0000 T02330106",
      "metarObsTime": 1775008260
    },
    "KAGC": {
      "status": "OK",
      "delay": "—",
      "metarCat": "VFR",
      "metarRaw": "METAR KAGC 010153Z 21010KT 10SM CLR 23/10 A2990 RMK AO2 SLP121 T02280100",
      "metarObsTime": 1775008380
    },
    "KLBE": {
      "status": "OK",
      "delay": "—",
      "metarCat": "VFR",
      "metarRaw": "METAR KLBE 010053Z 21010KT 10SM CLR 21/10 A2991",
      "metarObsTime": 1775004780
    },
    "KJST": {
      "status": "OK",
      "delay": "—",
      "metarCat": "VFR",
      "metarRaw": "METAR KJST 010154Z AUTO 22007KT 10SM CLR 19/08 A2995 RMK AO2 SLP130 T01940083",
      "metarObsTime": 1775008440
    },
    "KERI": {
      "status": "OK",
      "delay": "—",
      "metarCat": "VFR",
      "metarRaw": "METAR KERI 010151Z 21011KT 10SM SCT029 16/14 A2986 RMK AO2 PK WND 24033/0059 RAE28 SLP112 P0009 T01610144 $",
      "metarObsTime": 1775008260
    },
    "KDUJ": {
      "status": "OK",
      "delay": "—",
      "metarCat": "IFR",
      "metarRaw": "METAR KDUJ 010153Z AUTO 29019G31KT 2 1/2SM VCTS +RA BR SCT035 BKN070 OVC090 16/14 A2995 RMK AO2 PK WND 28031/0152 LTG DSNT NW RAE0059B12 SLP136 P0016 T01560139",
      "metarObsTime": 1775008380
    },
    "KBFD": {
      "status": "OK",
      "delay": "—",
      "metarCat": "MVFR",
      "metarRaw": "METAR KBFD 010153Z AUTO 26006KT 3SM RA BR FEW017 BKN049 OVC060 14/13 A2995 RMK AO2 SLP135 P0011 T01440133",
      "metarObsTime": 1775008380
    },
    "KBTP": {
      "status": "OK",
      "delay": "—",
      "metarCat": "VFR",
      "metarRaw": "METAR KBTP 010156Z AUTO 35007G17KT 310V030 10SM BKN070 OVC090 19/12 A2996 RMK AO2 LTG DSNT N AND NW RAB05E15B31E41 PRESRR SLP144 P0000 T01940122 $",
      "metarObsTime": 1775008560
    },
    "KFKL": {
      "status": "OK",
      "delay": "—",
      "metarCat": "VFR",
      "metarRaw": "METAR KFKL 010156Z AUTO 21003KT 10SM VCTS RA FEW013 BKN055 OVC070 14/13 A2996 RMK AO2 PK WND 27035/0059 WSHFT 0052 LTG DSNT SW AND W SLP142 P0024 T01390128",
      "metarObsTime": 1775008560
    },
    "KIDI": {
      "status": "OK",
      "delay": "—",
      "metarCat": "VFR",
      "metarRaw": "METAR KIDI 010155Z AUTO 22005KT 10SM FEW060 BKN110 22/10 A2992 RMK A01",
      "metarObsTime": 1775008500
    },
    "KMDT": {
      "status": "OK",
      "delay": "—",
      "metarCat": "VFR",
      "metarRaw": "METAR KMDT 010156Z VRB04KT 10SM FEW100 OVC250 24/12 A2989 RMK AO2 SLP121 T02440117",
      "metarObsTime": 1775008560
    },
    "KCXY": {
      "status": "OK",
      "delay": "—",
      "metarCat": "VFR",
      "metarRaw": "METAR KCXY 010156Z AUTO 20011G18KT 10SM CLR 24/12 A2989 RMK AO2 SLP120 T02390122",
      "metarObsTime": 1775008560
    },
    "KMUI": {
      "status": "OK",
      "delay": "—",
      "metarCat": "VFR",
      "metarRaw": "METAR KMUI 010055Z 22004KT 10SM FEW090 BKN250 23/14 A2988 RMK AO2A SLP119 T02250141",
      "metarObsTime": 1775004900
    },
    "KUNV": {
      "status": "OK",
      "delay": "—",
      "metarCat": "VFR",
      "metarRaw": "METAR KUNV 010153Z 22006KT 10SM BKN100 22/10 A2990",
      "metarObsTime": 1775008380
    },
    "KAOO": {
      "status": "OK",
      "delay": "—",
      "metarCat": "VFR",
      "metarRaw": "METAR KAOO 010153Z AUTO 21010KT 10SM CLR 19/09 A2992 RMK AO2 SLP125 T01940094",
      "metarObsTime": 1775008380
    },
    "KLNS": {
      "status": "OK",
      "delay": "—",
      "metarCat": "VFR",
      "metarRaw": "METAR KLNS 010153Z 20008KT 10SM CLR 22/12 A2991 RMK AO2 SLP125 T02220122",
      "metarObsTime": 1775008380
    },
    "KIPT": {
      "status": "OK",
      "delay": "—",
      "metarCat": "VFR",
      "metarRaw": "METAR KIPT 010154Z 20009G17KT 180V270 10SM OVC090 24/11 A2983 RMK AO2 SLP099 T02440111",
      "metarObsTime": 1775008440
    },
    "KPHL": {
      "status": "OK",
      "delay": "—",
      "metarCat": "VFR",
      "metarRaw": "METAR KPHL 010154Z 20011KT 10SM SCT220 BKN280 22/13 A2993 RMK AO2 SLP136 T02220128 $",
      "metarObsTime": 1775008440
    },
    "KABE": {
      "status": "OK",
      "delay": "—",
      "metarCat": "VFR",
      "metarRaw": "METAR KABE 010151Z 21010KT 10SM CLR 22/12 A2989 RMK AO2 SLP121 T02170122 $",
      "metarObsTime": 1775008260
    },
    "KAVP": {
      "status": "OK",
      "delay": "—",
      "metarCat": "VFR",
      "metarRaw": "METAR KAVP 010154Z 22007G16KT 10SM CLR 22/12 A2987 RMK AO2 SLP108 T02220117",
      "metarObsTime": 1775008440
    },
    "KHZL": {
      "status": "OK",
      "delay": "—",
      "metarCat": "VFR",
      "metarRaw": "METAR KHZL 010155Z AUTO 18006KT 140V230 10SM CLR 21/11 A2995 RMK AO2",
      "metarObsTime": 1775008500
    }
  }
}