{
  "generatedAt": "2026-03-10T10:10:13.091Z",
  "airports": {
    "KPIT": {
      "status": "OK",
      "delay": "—",
      "metarCat": "VFR",
      "metarRaw": "METAR KPIT 100951Z 18004KT 10SM BKN032 BKN045 13/02 A2998 RMK AO2 SLP156 T01330017",
      "metarObsTime": 1773136260
    },
    "KAGC": {
      "status": "OK",
      "delay": "—",
      "metarCat": "VFR",
      "metarRaw": "METAR KAGC 100953Z 18008KT 10SM FEW032 BKN050 OVC070 13/01 A2999 RMK AO2 SLP156 T01330006",
      "metarObsTime": 1773136380
    },
    "KLBE": {
      "status": "OK",
      "delay": "—",
      "metarCat": "VFR",
      "metarRaw": "METAR KLBE 100955Z AUTO 21008KT 10SM BKN037 OVC043 14/04 A3002 RMK AO2",
      "metarObsTime": 1773136500
    },
    "KJST": {
      "status": "OK",
      "delay": "—",
      "metarCat": "VFR",
      "metarRaw": "METAR KJST 100954Z AUTO 22006KT 10SM FEW040 FEW060 13/00 A3002 RMK AO2 SLP160 T01330000",
      "metarObsTime": 1773136440
    },
    "KERI": {
      "status": "OK",
      "delay": "—",
      "metarCat": "VFR",
      "metarRaw": "METAR KERI 100951Z 21011KT 10SM BKN032 BKN040 17/09 A2990 RMK AO2 SLP121 T01720089",
      "metarObsTime": 1773136260
    },
    "KDUJ": {
      "status": "OK",
      "delay": "—",
      "metarCat": "MVFR",
      "metarRaw": "METAR KDUJ 100953Z AUTO 21007KT 10SM BKN027 BKN037 OVC060 14/02 A2998 RMK AO2 SLP145 T01390017",
      "metarObsTime": 1773136380
    },
    "KBFD": {
      "status": "OK",
      "delay": "—",
      "metarCat": "MVFR",
      "metarRaw": "METAR KBFD 100953Z AUTO VRB04KT 10SM BKN024 BKN030 OVC055 13/03 A2997 RMK AO2 SLP141 T01280033 $",
      "metarObsTime": 1773136380
    },
    "KBTP": {
      "status": "OK",
      "delay": "—",
      "metarCat": "VFR",
      "metarRaw": "METAR KBTP 100956Z AUTO 17006KT 10SM SCT027 BKN040 OVC065 14/02 A2999 RMK AO2 SLP157 T01390022 $",
      "metarObsTime": 1773136560
    },
    "KFKL": {
      "status": "OK",
      "delay": "—",
      "metarCat": "MVFR",
      "metarRaw": "METAR KFKL 100956Z AUTO 22008KT 10SM BKN024 OVC050 15/07 A2996 RMK AO2 SLP143 T01500072",
      "metarObsTime": 1773136560
    },
    "KIDI": {
      "status": "OK",
      "delay": "—",
      "metarCat": "VFR",
      "metarRaw": "METAR KIDI 100955Z AUTO 21007KT 10SM SCT037 BKN044 OVC070 13/02 A3000 RMK A01",
      "metarObsTime": 1773136500
    },
    "KMDT": {
      "status": "OK",
      "delay": "—",
      "metarCat": "VFR",
      "metarRaw": "METAR KMDT 100956Z 00000KT 10SM SCT250 06/04 A3002 RMK AO2 SLP165 T00610039",
      "metarObsTime": 1773136560
    },
    "KCXY": {
      "status": "OK",
      "delay": "—",
      "metarCat": "VFR",
      "metarRaw": "METAR KCXY 100956Z AUTO 00000KT 10SM CLR 05/03 A3002 RMK AO2 SLP167 T00500033",
      "metarObsTime": 1773136560
    },
    "KMUI": {
      "status": "OK",
      "delay": "—",
      "metarCat": "VFR",
      "metarRaw": "METAR KMUI 100955Z AUTO 00000KT 10SM CLR 04/04 A3000 RMK AO2 SLP162 T00430040",
      "metarObsTime": 1773136500
    },
    "KUNV": {
      "status": "OK",
      "delay": "—",
      "metarCat": "VFR",
      "metarRaw": "METAR KUNV 100953Z 00000KT 10SM CLR 10/M01 A3000",
      "metarObsTime": 1773136380
    },
    "KAOO": {
      "status": "OK",
      "delay": "—",
      "metarCat": "VFR",
      "metarRaw": "METAR KAOO 100953Z AUTO 22003KT 10SM CLR 08/M01 A3001 RMK AO2 SLP163 T00781006",
      "metarObsTime": 1773136380
    },
    "KLNS": {
      "status": "OK",
      "delay": "—",
      "metarCat": "VFR",
      "metarRaw": "METAR KLNS 100953Z 00000KT 10SM CLR 06/04 A3002 RMK AO2 SLP164 T00610039",
      "metarObsTime": 1773136380
    },
    "KIPT": {
      "status": "OK",
      "delay": "—",
      "metarCat": "VFR",
      "metarRaw": "METAR KIPT 100954Z AUTO 00000KT 10SM CLR 02/00 A3002 RMK AO2 SLP165 T00220000 $",
      "metarObsTime": 1773136440
    },
    "KPHL": {
      "status": "OK",
      "delay": "—",
      "metarCat": "LIFR",
      "metarRaw": "METAR KPHL 100954Z 17003KT 1/2SM FG FEW002 FEW250 05/04 A3003 RMK AO2 SLP169 VIS NE-E 5 T00500044 RVRNO $",
      "metarObsTime": 1773136440
    },
    "KABE": {
      "status": "OK",
      "delay": "—",
      "metarCat": "VFR",
      "metarRaw": "METAR KABE 100951Z 00000KT 10SM CLR 02/02 A3002 RMK AO2 SLP165 T00220017",
      "metarObsTime": 1773136260
    },
    "KAVP": {
      "status": "OK",
      "delay": "—",
      "metarCat": "VFR",
      "metarRaw": "METAR KAVP 100954Z 00000KT 10SM CLR 07/02 A3001 RMK AO2 SLP158 T00720017",
      "metarObsTime": 1773136440
    },
    "KHZL": {
      "status": "OK",
      "delay": "—",
      "metarCat": "VFR",
      "metarRaw": "METAR KHZL 100955Z AUTO 00000KT 10SM CLR 03/01 A3005 RMK AO2 LTG DSNT SE",
      "metarObsTime": 1773136500
    }
  }
}