{
  "generatedAt": "2026-03-16T19:50:13.966Z",
  "airports": {
    "KPIT": {
      "status": "OK",
      "delay": "—",
      "metarCat": "MVFR",
      "metarRaw": "SPECI KPIT 161931Z 27012G18KT 3SM -RA BR SCT009 OVC015 03/02 A2945 RMK AO2 PLB11E30 P0000 T00330017 $",
      "metarObsTime": 1773689460
    },
    "KAGC": {
      "status": "OK",
      "delay": "—",
      "metarCat": "VFR",
      "metarRaw": "SPECI KAGC 161943Z 27012G22KT 6SM -RA BR FEW010 BKN035 OVC048 03/02 A2945 RMK AO2 PK WND 26033/1854 P0001 T00330017",
      "metarObsTime": 1773690180
    },
    "KLBE": {
      "status": "OK",
      "delay": "—",
      "metarCat": "—",
      "metarRaw": "—",
      "metarObsTime": null
    },
    "KJST": {
      "status": "OK",
      "delay": "—",
      "metarCat": "LIFR",
      "metarRaw": "SPECI KJST 161947Z AUTO 28015G23KT 8SM -RA BKN004 BKN011 OVC065 06/05 A2937 RMK AO2 P0004 T00560050",
      "metarObsTime": 1773690420
    },
    "KERI": {
      "status": "OK",
      "delay": "—",
      "metarCat": "IFR",
      "metarRaw": "SPECI KERI 161937Z 26015G29KT 2SM -SN OVC025 01/M03 A2942 RMK AO2 PK WND 27029/1929 RAB10E25UPB25E28SNB28 P0000 T00111028 $",
      "metarObsTime": 1773689820
    },
    "KDUJ": {
      "status": "OK",
      "delay": "—",
      "metarCat": "MVFR",
      "metarRaw": "SPECI KDUJ 161944Z AUTO 25019G26KT 4SM BR SCT009 OVC016 06/04 A2938 RMK AO2 PK WND 25028/1908 T00560039",
      "metarObsTime": 1773690240
    },
    "KBFD": {
      "status": "OK",
      "delay": "—",
      "metarCat": "IFR",
      "metarRaw": "METAR KBFD 161853Z AUTO 29008G21KT 10SM -RA BKN007 BKN017 OVC021 08/07 A2933 RMK AO2 PK WND 19027/1836 WSHFT 1836 RAB15 CIG 005V012 SLP933 P0001 T00780067",
      "metarObsTime": 1773687180
    },
    "KBTP": {
      "status": "OK",
      "delay": "—",
      "metarCat": "—",
      "metarRaw": "—",
      "metarObsTime": null
    },
    "KFKL": {
      "status": "OK",
      "delay": "—",
      "metarCat": "IFR",
      "metarRaw": "SPECI KFKL 161926Z AUTO 26010G17KT 3SM RA BR BKN008 OVC011 03/02 A2943 RMK AO2 CIG 005V009 P0002",
      "metarObsTime": 1773689160
    },
    "KIDI": {
      "status": "OK",
      "delay": "—",
      "metarCat": "MVFR",
      "metarRaw": "METAR KIDI 161935Z AUTO 25015G20KT 6SM HZ FEW017 OVC023 06/03 A2943 RMK A01",
      "metarObsTime": 1773689700
    },
    "KMDT": {
      "status": "OK",
      "delay": "—",
      "metarCat": "VFR",
      "metarRaw": "METAR KMDT 161856Z 15011KT 9SM -RA FEW020 SCT080 OVC100 16/14 A2940 RMK AO2 RAB06 SLP956 P0002 T01610144",
      "metarObsTime": 1773687360
    },
    "KCXY": {
      "status": "OK",
      "delay": "—",
      "metarCat": "VFR",
      "metarRaw": "METAR KCXY 161856Z 15013G25KT 10SM -RA FEW019 OVC095 17/16 A2940 RMK AO2 RAB10 SLP955 P0002 T01720156",
      "metarObsTime": 1773687360
    },
    "KMUI": {
      "status": "OK",
      "delay": "—",
      "metarCat": "IFR",
      "metarRaw": "SPECI KMUI 161942Z VRB06KT 8SM -RA BR BKN007 OVC013 17/17 A2938 RMK AO2A LTG DSNT E SLP952",
      "metarObsTime": 1773690120
    },
    "KUNV": {
      "status": "OK",
      "delay": "—",
      "metarCat": "VFR",
      "metarRaw": "METAR KUNV 161853Z 20009G15KT 10SM SCT031 BKN085 OVC110 17/12 A2935",
      "metarObsTime": 1773687180
    },
    "KAOO": {
      "status": "OK",
      "delay": "—",
      "metarCat": "VFR",
      "metarRaw": "METAR KAOO 161853Z AUTO 19009KT 10SM FEW041 SCT120 17/12 A2934 RMK AO2 RAE1755 SLP933 P0000 T01720122",
      "metarObsTime": 1773687180
    },
    "KLNS": {
      "status": "OK",
      "delay": "—",
      "metarCat": "MVFR",
      "metarRaw": "SPECI KLNS 161937Z 20017G23KT 3SM VCTS RA BR SCT016 BKN046 OVC080 17/16 A2944 RMK AO2 PK WND 20028/1859 LTG DSNT N RAE03B23 P0009 T01720156",
      "metarObsTime": 1773689820
    },
    "KIPT": {
      "status": "OK",
      "delay": "—",
      "metarCat": "MVFR",
      "metarRaw": "SPECI KIPT 161946Z 11010G18KT 10SM BKN025 BKN036 OVC095 18/14 A2933 RMK AO2 PK WND 17027/1923 RAE00 P0000 T01830139",
      "metarObsTime": 1773690360
    },
    "KPHL": {
      "status": "OK",
      "delay": "—",
      "metarCat": "VFR",
      "metarRaw": "METAR KPHL 161854Z 18016G23KT 10SM -RA FEW020 SCT060 BKN100 OVC200 18/15 A2953 RMK AO2 PK WND 19029/1806 SLP999 P0001 T01830150 $",
      "metarObsTime": 1773687240
    },
    "KABE": {
      "status": "OK",
      "delay": "—",
      "metarCat": "MVFR",
      "metarRaw": "SPECI KABE 161918Z 17016G25KT 10SM -RA BKN026 BKN032 OVC039 19/15 A2946 RMK AO2 RAB11 P0000 T01890150",
      "metarObsTime": 1773688680
    },
    "KAVP": {
      "status": "OK",
      "delay": "—",
      "metarCat": "VFR",
      "metarRaw": "METAR KAVP 161854Z 20009G27KT 10SM -RA OVC095 17/14 A2942 RMK AO2 PK WND 19027/1846 SLP958 P0009 T01720139",
      "metarObsTime": 1773687240
    },
    "KHZL": {
      "status": "OK",
      "delay": "—",
      "metarCat": "MVFR",
      "metarRaw": "METAR KHZL 161935Z AUTO 16010G23KT 130V210 10SM -RA BKN010 OVC014 16/14 A2946 RMK AO2 LTG DSNT S",
      "metarObsTime": 1773689700
    }
  }
}