{
  "generatedAt": "2026-05-31T22:31:34.072Z",
  "faaFlow": {
    "updatedAt": "2026-05-31T22:31:33.887Z",
    "source": "https://www.fly.faa.gov/adv/adv_spt",
    "terminal": [
      {
        "time": "—",
        "text": "UNTIL",
        "code": "FLOW",
        "label": "FAA flow impact",
        "level": "yellow",
        "section": "Terminal Planned",
        "airports": []
      },
      {
        "time": "2300",
        "text": "MCO GROUND STOP POSSIBLE",
        "code": "GS",
        "label": "Ground stop possible",
        "level": "yellow",
        "section": "Terminal Planned",
        "airports": []
      }
    ],
    "enroute": [
      {
        "time": "—",
        "text": "UNTIL",
        "code": "FLOW",
        "label": "FAA flow impact",
        "level": "yellow",
        "section": "En Route Planned",
        "airports": []
      },
      {
        "time": "0100",
        "text": "ZBW SWAP STATEMENT",
        "code": "ROUTE",
        "label": "Route impact possible",
        "level": "blue",
        "section": "En Route Planned",
        "airports": []
      },
      {
        "time": "—",
        "text": "UNTIL",
        "code": "FLOW",
        "label": "FAA flow impact",
        "level": "yellow",
        "section": "En Route Planned",
        "airports": []
      },
      {
        "time": "0200",
        "text": "ZMA SWAP STATEMENT",
        "code": "ROUTE",
        "label": "Route impact possible",
        "level": "blue",
        "section": "En Route Planned",
        "airports": []
      },
      {
        "time": "—",
        "text": "UNTIL",
        "code": "FLOW",
        "label": "FAA flow impact",
        "level": "yellow",
        "section": "En Route Planned",
        "airports": []
      },
      {
        "time": "0200",
        "text": "ZTL CDRS RUNWAY/EQUIPMENT/POSSIBLE SYSTEM IMPACT REPORTS(SIRs): IAH - RWY 09/27 CLOSED UNTIL 06/05/26",
        "code": "CLOSURE",
        "label": "Closure possible",
        "level": "yellow",
        "section": "En Route Planned",
        "airports": []
      }
    ],
    "airports": {
      "KPIT": null,
      "KAGC": null,
      "KLBE": null,
      "KJST": null,
      "KERI": null,
      "KDUJ": null,
      "KBFD": null,
      "KBTP": null,
      "KFKL": null,
      "KIDI": null,
      "KMDT": null,
      "KCXY": null,
      "KMUI": null,
      "KUNV": null,
      "KAOO": null,
      "KLNS": null,
      "KIPT": null,
      "KPHL": null,
      "KABE": null,
      "KAVP": null,
      "KHZL": null
    }
  },
  "airports": {
    "KPIT": {
      "status": "OK",
      "delay": "—",
      "metarCat": "VFR",
      "metarRaw": "METAR KPIT 312151Z VRB03KT 10SM SCT250 23/04 A2997 RMK AO2 SLP154 T02330039",
      "metarObsTime": 1780264260,
      "faaFlow": null
    },
    "KAGC": {
      "status": "OK",
      "delay": "—",
      "metarCat": "VFR",
      "metarRaw": "METAR KAGC 312153Z VRB04KT 10SM CLR 23/03 A2997 RMK AO2 SLP149 T02280033",
      "metarObsTime": 1780264380,
      "faaFlow": null
    },
    "KLBE": {
      "status": "OK",
      "delay": "—",
      "metarCat": "VFR",
      "metarRaw": "METAR KLBE 312147Z 20005KT 10SM CLR 23/06 A2998",
      "metarObsTime": 1780264020,
      "faaFlow": null
    },
    "KJST": {
      "status": "OK",
      "delay": "—",
      "metarCat": "VFR",
      "metarRaw": "METAR KJST 312154Z AUTO 31009KT 10SM CLR 21/03 A2998 RMK AO2 SLP148 T02060028",
      "metarObsTime": 1780264440,
      "faaFlow": null
    },
    "KERI": {
      "status": "OK",
      "delay": "—",
      "metarCat": "VFR",
      "metarRaw": "METAR KERI 312151Z 27007KT 10SM CLR 21/02 A3000 RMK AO2 SLP158 T02110022 $",
      "metarObsTime": 1780264260,
      "faaFlow": null
    },
    "KDUJ": {
      "status": "OK",
      "delay": "—",
      "metarCat": "VFR",
      "metarRaw": "METAR KDUJ 312153Z AUTO 28010G16KT 250V330 10SM CLR 21/03 A2996 RMK AO2 SLP144 T02110033",
      "metarObsTime": 1780264380,
      "faaFlow": null
    },
    "KBFD": {
      "status": "OK",
      "delay": "—",
      "metarCat": "VFR",
      "metarRaw": "METAR KBFD 312153Z AUTO 30008G17KT 10SM CLR 19/01 A2999 RMK AO2 SLP158 T01940006",
      "metarObsTime": 1780264380,
      "faaFlow": null
    },
    "KBTP": {
      "status": "OK",
      "delay": "—",
      "metarCat": "VFR",
      "metarRaw": "METAR KBTP 312156Z AUTO 28008KT 10SM CLR A2998 RMK AO2 SLPNO FZRANO $",
      "metarObsTime": 1780264560,
      "faaFlow": null
    },
    "KFKL": {
      "status": "OK",
      "delay": "—",
      "metarCat": "VFR",
      "metarRaw": "METAR KFKL 312156Z AUTO 31007KT 10SM CLR 22/05 A2999 RMK AO2 SLP157 T02170050",
      "metarObsTime": 1780264560,
      "faaFlow": null
    },
    "KIDI": {
      "status": "OK",
      "delay": "—",
      "metarCat": "VFR",
      "metarRaw": "METAR KIDI 312215Z AUTO 29010KT 10SM CLR 22/04 A2997 RMK A01",
      "metarObsTime": 1780265700,
      "faaFlow": null
    },
    "KMDT": {
      "status": "OK",
      "delay": "—",
      "metarCat": "VFR",
      "metarRaw": "METAR KMDT 312156Z VRB06KT 10SM FEW250 24/05 A2992 RMK AO2 SLP130 T02390050 $",
      "metarObsTime": 1780264560,
      "faaFlow": null
    },
    "KCXY": {
      "status": "OK",
      "delay": "—",
      "metarCat": "VFR",
      "metarRaw": "METAR KCXY 312156Z AUTO 28007KT 10SM CLR 24/05 A2992 RMK AO2 SLP132 T02390050",
      "metarObsTime": 1780264560,
      "faaFlow": null
    },
    "KMUI": {
      "status": "OK",
      "delay": "—",
      "metarCat": "VFR",
      "metarRaw": "METAR KMUI 312155Z AUTO 31003KT 10SM CLR 27/07 A2989 RMK AO2 SLP123 T02710065",
      "metarObsTime": 1780264500,
      "faaFlow": null
    },
    "KUNV": {
      "status": "OK",
      "delay": "—",
      "metarCat": "VFR",
      "metarRaw": "METAR KUNV 312153Z 30010KT 10SM CLR 24/05 A2994",
      "metarObsTime": 1780264380,
      "faaFlow": null
    },
    "KAOO": {
      "status": "OK",
      "delay": "—",
      "metarCat": "VFR",
      "metarRaw": "METAR KAOO 312153Z AUTO 29008KT 10SM CLR 24/01 A2995 RMK AO2 SLP139 T02390011",
      "metarObsTime": 1780264380,
      "faaFlow": null
    },
    "KLNS": {
      "status": "OK",
      "delay": "—",
      "metarCat": "VFR",
      "metarRaw": "METAR KLNS 312153Z 31011G17KT 10SM CLR 23/06 A2993 RMK AO2 SLP135 T02330056",
      "metarObsTime": 1780264380,
      "faaFlow": null
    },
    "KIPT": {
      "status": "OK",
      "delay": "—",
      "metarCat": "VFR",
      "metarRaw": "METAR KIPT 312154Z 24008KT 10SM FEW045 25/06 A2987 RMK AO2 SLP115 T02500056 $",
      "metarObsTime": 1780264440,
      "faaFlow": null
    },
    "KPHL": {
      "status": "OK",
      "delay": "—",
      "metarCat": "VFR",
      "metarRaw": "METAR KPHL 312154Z 26010G24KT 10SM FEW065 FEW350 25/04 A2993 RMK AO2 PK WND 26028/2104 SLP135 T02500039 $",
      "metarObsTime": 1780264440,
      "faaFlow": null
    },
    "KABE": {
      "status": "OK",
      "delay": "—",
      "metarCat": "VFR",
      "metarRaw": "METAR KABE 312151Z 26006G15KT 10SM SCT095 24/06 A2989 RMK AO2 SLP121 T02390056",
      "metarObsTime": 1780264260,
      "faaFlow": null
    },
    "KAVP": {
      "status": "OK",
      "delay": "—",
      "metarCat": "VFR",
      "metarRaw": "METAR KAVP 312154Z 33012KT 10SM FEW095 23/04 A2990 RMK AO2 RAB01E06 SLP122 P0000 T02330039 $",
      "metarObsTime": 1780264440,
      "faaFlow": null
    },
    "KHZL": {
      "status": "OK",
      "delay": "—",
      "metarCat": "VFR",
      "metarRaw": "METAR KHZL 312215Z AUTO 25003KT 10SM SCT080 21/03 A2995 RMK AO2",
      "metarObsTime": 1780265700,
      "faaFlow": null
    }
  }
}