{
  "generatedAt": "2026-03-27T16:50:31.444Z",
  "airports": {
    "KPIT": {
      "status": "OK",
      "delay": "—",
      "metarCat": "MVFR",
      "metarRaw": "METAR KPIT 271551Z 35011KT 10SM BKN016 OVC022 02/M02 A3016 RMK AO2 SLP227 T00221017",
      "metarObsTime": 1774626660
    },
    "KAGC": {
      "status": "OK",
      "delay": "—",
      "metarCat": "MVFR",
      "metarRaw": "METAR KAGC 271553Z 35010G16KT 10SM OVC016 03/00 A3015 RMK AO2 SLP219 T00330000",
      "metarObsTime": 1774626780
    },
    "KLBE": {
      "status": "OK",
      "delay": "—",
      "metarCat": "MVFR",
      "metarRaw": "METAR KLBE 271553Z 02011KT 10SM OVC017 04/01 A3015",
      "metarObsTime": 1774626780
    },
    "KJST": {
      "status": "OK",
      "delay": "—",
      "metarCat": "MVFR",
      "metarRaw": "METAR KJST 271554Z AUTO 34008KT 10SM OVC010 02/00 A3006 RMK AO2 CIG 008V012 SLP190 T00220000",
      "metarObsTime": 1774626840
    },
    "KERI": {
      "status": "OK",
      "delay": "—",
      "metarCat": "MVFR",
      "metarRaw": "METAR KERI 271551Z 04010KT 10SM OVC019 M02/M07 A3028 RMK AO2 SLP261 T10221067 $",
      "metarObsTime": 1774626660
    },
    "KDUJ": {
      "status": "OK",
      "delay": "—",
      "metarCat": "MVFR",
      "metarRaw": "METAR KDUJ 271553Z AUTO 01008KT 10SM BKN016 OVC024 01/M03 A3011 RMK AO2 SLP207 T00061033",
      "metarObsTime": 1774626780
    },
    "KBFD": {
      "status": "OK",
      "delay": "—",
      "metarCat": "MVFR",
      "metarRaw": "SPECI KBFD 271610Z AUTO 36010KT 10SM OVC015 M02/M05 A3013 RMK AO2 T10171050",
      "metarObsTime": 1774627800
    },
    "KBTP": {
      "status": "OK",
      "delay": "—",
      "metarCat": "MVFR",
      "metarRaw": "METAR KBTP 271556Z AUTO 36004KT 10SM OVC020 02/M02 A3017 RMK AO2 SLP232 T00171017 FZRANO $",
      "metarObsTime": 1774626960
    },
    "KFKL": {
      "status": "OK",
      "delay": "—",
      "metarCat": "VFR",
      "metarRaw": "SPECI KFKL 271643Z AUTO 01010KT 10SM SCT022 02/M04 A3016 RMK AO2 FZRANO",
      "metarObsTime": 1774629780
    },
    "KIDI": {
      "status": "OK",
      "delay": "—",
      "metarCat": "MVFR",
      "metarRaw": "METAR KIDI 271635Z AUTO 33009KT 10SM SCT019 BKN023 OVC029 03/00 A3013 RMK A01",
      "metarObsTime": 1774629300
    },
    "KMDT": {
      "status": "OK",
      "delay": "—",
      "metarCat": "VFR",
      "metarRaw": "METAR KMDT 271556Z 33015G22KT 10SM SCT028 OVC035 08/00 A3008 RMK AO2 SLP188 T00780000",
      "metarObsTime": 1774626960
    },
    "KCXY": {
      "status": "OK",
      "delay": "—",
      "metarCat": "VFR",
      "metarRaw": "METAR KCXY 271556Z 36011KT 10SM FEW032 BKN100 07/M01 A3009 RMK AO2 SLP192 T00721006",
      "metarObsTime": 1774626960
    },
    "KMUI": {
      "status": "OK",
      "delay": "—",
      "metarCat": "—",
      "metarRaw": "—",
      "metarObsTime": null
    },
    "KUNV": {
      "status": "OK",
      "delay": "—",
      "metarCat": "MVFR",
      "metarRaw": "METAR KUNV 271553Z 03012G15KT 10SM BKN030 06/M01 A3010",
      "metarObsTime": 1774626780
    },
    "KAOO": {
      "status": "OK",
      "delay": "—",
      "metarCat": "MVFR",
      "metarRaw": "METAR KAOO 271553Z AUTO 35011KT 10SM OVC024 06/01 A3007 RMK AO2 SLP186 T00560006",
      "metarObsTime": 1774626780
    },
    "KLNS": {
      "status": "OK",
      "delay": "—",
      "metarCat": "VFR",
      "metarRaw": "SPECI KLNS 271627Z 01014KT 10SM BKN031 08/01 A3007 RMK AO2 T00830011",
      "metarObsTime": 1774628820
    },
    "KIPT": {
      "status": "OK",
      "delay": "—",
      "metarCat": "VFR",
      "metarRaw": "SPECI KIPT 271647Z 34009KT 10SM OVC031 03/M04 A3016 RMK AO2 T00281044",
      "metarObsTime": 1774630020
    },
    "KPHL": {
      "status": "OK",
      "delay": "—",
      "metarCat": "VFR",
      "metarRaw": "METAR KPHL 271554Z 01018G24KT 10SM FEW024 OVC044 11/03 A3002 RMK AO2 PK WND 36032/1538 SLP164 T01110028",
      "metarObsTime": 1774626840
    },
    "KABE": {
      "status": "OK",
      "delay": "—",
      "metarCat": "VFR",
      "metarRaw": "METAR KABE 271551Z 35012KT 10SM FEW031 08/M01 A3006 RMK AO2 SLP180 T00781006 $",
      "metarObsTime": 1774626660
    },
    "KAVP": {
      "status": "OK",
      "delay": "—",
      "metarCat": "VFR",
      "metarRaw": "SPECI KAVP 271627Z 34014G19KT 10SM BKN031 OVC037 03/M03 A3011 RMK AO2 T00281028",
      "metarObsTime": 1774628820
    },
    "KHZL": {
      "status": "OK",
      "delay": "—",
      "metarCat": "MVFR",
      "metarRaw": "METAR KHZL 271635Z AUTO 36008G17KT 320V030 10SM BKN024 BKN029 02/M04 A3010 RMK AO2",
      "metarObsTime": 1774629300
    }
  }
}