{
  "generatedAt": "2026-03-23T16:20:20.994Z",
  "airports": {
    "KPIT": {
      "status": "OK",
      "delay": "—",
      "metarCat": "MVFR",
      "metarRaw": "METAR KPIT 231551Z 31017G22KT 10SM BKN021 OVC032 03/M01 A3011 RMK AO2 SLP210 T00331011",
      "metarObsTime": 1774281060
    },
    "KAGC": {
      "status": "OK",
      "delay": "—",
      "metarCat": "MVFR",
      "metarRaw": "SPECI KAGC 231600Z 32010G16KT 10SM OVC025 03/M02 A3009 RMK AO2 T00281017",
      "metarObsTime": 1774281600
    },
    "KLBE": {
      "status": "OK",
      "delay": "—",
      "metarCat": "MVFR",
      "metarRaw": "METAR KLBE 231547Z 32011KT 10SM BKN024 OVC036 04/M01 A3010",
      "metarObsTime": 1774280820
    },
    "KJST": {
      "status": "OK",
      "delay": "—",
      "metarCat": "MVFR",
      "metarRaw": "SPECI KJST 231604Z AUTO 32013G27KT 7SM -SN OVC011 M01/M03 A2999 RMK AO2 PK WND 29027/1602 SNB00 P0000 T10061028",
      "metarObsTime": 1774281840
    },
    "KERI": {
      "status": "OK",
      "delay": "—",
      "metarCat": "MVFR",
      "metarRaw": "METAR KERI 231551Z 32008KT 9SM SCT012 BKN022 OVC030 01/M02 A3013 RMK AO2 SLP211 T00111017",
      "metarObsTime": 1774281060
    },
    "KDUJ": {
      "status": "OK",
      "delay": "—",
      "metarCat": "MVFR",
      "metarRaw": "METAR KDUJ 231553Z AUTO 31012G18KT 10SM BKN018 OVC025 01/M03 A3001 RMK AO2 SNB1459E24 SLP173 P0001 T00061033",
      "metarObsTime": 1774281180
    },
    "KBFD": {
      "status": "OK",
      "delay": "—",
      "metarCat": "MVFR",
      "metarRaw": "METAR KBFD 231553Z AUTO 34014KT 5SM -SN BR OVC013 M02/M04 A3000 RMK AO2 SNE02B50 SLP177 P0000 T10221044",
      "metarObsTime": 1774281180
    },
    "KBTP": {
      "status": "OK",
      "delay": "—",
      "metarCat": "MVFR",
      "metarRaw": "METAR KBTP 231556Z AUTO 30009KT 10SM BKN023 BKN029 OVC033 03/M01 A3010 RMK AO2 SLP207 T00281011 $",
      "metarObsTime": 1774281360
    },
    "KFKL": {
      "status": "OK",
      "delay": "—",
      "metarCat": "MVFR",
      "metarRaw": "METAR KFKL 231556Z AUTO 33007KT 10SM OVC021 02/M01 A3008 RMK AO2 SLP198 T00221011 FZRANO",
      "metarObsTime": 1774281360
    },
    "KIDI": {
      "status": "OK",
      "delay": "—",
      "metarCat": "MVFR",
      "metarRaw": "METAR KIDI 231615Z AUTO 30015G21KT 10SM OVC028 03/M01 A3007 RMK A01",
      "metarObsTime": 1774282500
    },
    "KMDT": {
      "status": "OK",
      "delay": "—",
      "metarCat": "MVFR",
      "metarRaw": "METAR KMDT 231556Z 01011G20KT 10SM BKN019 OVC025 06/02 A2992 RMK AO2 SLP135 T00610022",
      "metarObsTime": 1774281360
    },
    "KCXY": {
      "status": "OK",
      "delay": "—",
      "metarCat": "MVFR",
      "metarRaw": "METAR KCXY 231556Z 31012G22KT 10SM OVC017 06/02 A2993 RMK AO2 SLP139 T00610022",
      "metarObsTime": 1774281360
    },
    "KMUI": {
      "status": "OK",
      "delay": "—",
      "metarCat": "MVFR",
      "metarRaw": "METAR KMUI 231556Z 36010G17KT 330V030 7SM OVC015 06/03 A2990 RMK AO2A SLP129 T00560031",
      "metarObsTime": 1774281360
    },
    "KUNV": {
      "status": "OK",
      "delay": "—",
      "metarCat": "MVFR",
      "metarRaw": "METAR KUNV 231553Z 32011G17KT 10SM BKN016 OVC023 03/00 A2998",
      "metarObsTime": 1774281180
    },
    "KAOO": {
      "status": "OK",
      "delay": "—",
      "metarCat": "MVFR",
      "metarRaw": "METAR KAOO 231553Z AUTO 33015G23KT 6SM -RA BKN017 OVC026 04/01 A2996 RMK AO2 PK WND 33026/1542 RAB27 SLP150 P0000 T00390011",
      "metarObsTime": 1774281180
    },
    "KLNS": {
      "status": "OK",
      "delay": "—",
      "metarCat": "MVFR",
      "metarRaw": "METAR KLNS 231553Z 35009KT 10SM OVC013 07/04 A2989 RMK AO2 SLP122 T00670039",
      "metarObsTime": 1774281180
    },
    "KIPT": {
      "status": "OK",
      "delay": "—",
      "metarCat": "MVFR",
      "metarRaw": "METAR KIPT 231554Z 32013KT 10SM OVC024 02/M03 A2998 RMK AO2 SLP156 T00221028",
      "metarObsTime": 1774281240
    },
    "KPHL": {
      "status": "OK",
      "delay": "—",
      "metarCat": "MVFR",
      "metarRaw": "SPECI KPHL 231611Z 36009KT 4SM -RA BR SCT006 OVC014 08/07 A2986 RMK AO2 CIG 012V019 P0000 T00830067 $",
      "metarObsTime": 1774282260
    },
    "KABE": {
      "status": "OK",
      "delay": "—",
      "metarCat": "MVFR",
      "metarRaw": "SPECI KABE 231603Z 33014G18KT 10SM -RA BKN014 OVC022 04/02 A2989 RMK AO2 RAB1553 P0000 T00440022 $",
      "metarObsTime": 1774281780
    },
    "KAVP": {
      "status": "OK",
      "delay": "—",
      "metarCat": "MVFR",
      "metarRaw": "SPECI KAVP 231608Z 32011G20KT 10SM OVC011 00/M02 A2993 RMK AO2 T00001022",
      "metarObsTime": 1774282080
    },
    "KHZL": {
      "status": "OK",
      "delay": "—",
      "metarCat": "IFR",
      "metarRaw": "METAR KHZL 231615Z AUTO 34006KT 2 1/2SM BR OVC005 00/00 A2991 RMK AO2",
      "metarObsTime": 1774282500
    }
  }
}