{
  "generatedAt": "2026-04-05T19:20:34.160Z",
  "airports": {
    "KPIT": {
      "status": "OK",
      "delay": "—",
      "metarCat": "VFR",
      "metarRaw": "METAR KPIT 051851Z 24012G21KT 10SM OVC037 07/00 A3000 RMK AO2 SLP168 T00720000 $",
      "metarObsTime": 1775415060
    },
    "KAGC": {
      "status": "OK",
      "delay": "—",
      "metarCat": "VFR",
      "metarRaw": "METAR KAGC 051853Z 29013G23KT 10SM OVC038 07/M01 A2999 RMK AO2 PK WND 26027/1841 SLP161 T00721006",
      "metarObsTime": 1775415180
    },
    "KLBE": {
      "status": "OK",
      "delay": "—",
      "metarCat": "VFR",
      "metarRaw": "METAR KLBE 051847Z 26018G28KT 10SM BKN038 OVC039 09/01 A3000",
      "metarObsTime": 1775414820
    },
    "KJST": {
      "status": "OK",
      "delay": "—",
      "metarCat": "MVFR",
      "metarRaw": "METAR KJST 051854Z AUTO 29013G26KT 10SM BKN022 OVC028 05/01 A2992 RMK AO2 PK WND 26031/1815 SLP133 T00500011",
      "metarObsTime": 1775415240
    },
    "KERI": {
      "status": "OK",
      "delay": "—",
      "metarCat": "VFR",
      "metarRaw": "METAR KERI 051851Z 25016G27KT 10SM OVC055 06/M01 A2997 RMK AO2 PK WND 26031/1833 SLP151 T00611006 $",
      "metarObsTime": 1775415060
    },
    "KDUJ": {
      "status": "OK",
      "delay": "—",
      "metarCat": "MVFR",
      "metarRaw": "METAR KDUJ 051853Z AUTO 27018G24KT 10SM OVC026 05/M01 A2992 RMK AO2 PK WND 28027/1822 SLP133 T00501011",
      "metarObsTime": 1775415180
    },
    "KBFD": {
      "status": "OK",
      "delay": "—",
      "metarCat": "MVFR",
      "metarRaw": "SPECI KBFD 051915Z AUTO 28015G23KT 3SM -RA BR FEW008 BKN013 OVC020 02/01 A2989 RMK AO2 PK WND 25027/1857 RAE1859B10SNB1859E10 P0001 T00220006",
      "metarObsTime": 1775416500
    },
    "KBTP": {
      "status": "OK",
      "delay": "—",
      "metarCat": "MVFR",
      "metarRaw": "METAR KBTP 051856Z AUTO 25014G19KT 10SM OVC030 06/01 A3000 RMK AO2 SLP167 T00610006 $",
      "metarObsTime": 1775415360
    },
    "KFKL": {
      "status": "OK",
      "delay": "—",
      "metarCat": "MVFR",
      "metarRaw": "METAR KFKL 051856Z AUTO 31012G19KT 10SM BKN022 OVC028 03/00 A2997 RMK AO2 RAE12 SLP158 P0000 T00330000",
      "metarObsTime": 1775415360
    },
    "KIDI": {
      "status": "OK",
      "delay": "—",
      "metarCat": "MVFR",
      "metarRaw": "METAR KIDI 051915Z AUTO 28018G24KT 10SM OVC029 06/01 A2998 RMK A01",
      "metarObsTime": 1775416500
    },
    "KMDT": {
      "status": "OK",
      "delay": "—",
      "metarCat": "VFR",
      "metarRaw": "METAR KMDT 051856Z 30014KT 10SM SCT016 SCT024 BKN036 13/08 A2984 RMK AO2 SLP107 T01280078 $",
      "metarObsTime": 1775415360
    },
    "KCXY": {
      "status": "OK",
      "delay": "—",
      "metarCat": "VFR",
      "metarRaw": "METAR KCXY 051856Z 30014G21KT 10SM BKN037 OVC044 13/06 A2986 RMK AO2 SLP112 T01280061 $",
      "metarObsTime": 1775415360
    },
    "KMUI": {
      "status": "OK",
      "delay": "—",
      "metarCat": "VFR",
      "metarRaw": "METAR KMUI 051855Z AUTO 29016G24KT 10SM FEW041 BKN180 OVC210 14/08 A2983 RMK AO2 SLP105 T01410083",
      "metarObsTime": 1775415300
    },
    "KUNV": {
      "status": "OK",
      "delay": "—",
      "metarCat": "VFR",
      "metarRaw": "METAR KUNV 051853Z 27018G26KT 10SM OVC038 09/01 A2989",
      "metarObsTime": 1775415180
    },
    "KAOO": {
      "status": "OK",
      "delay": "—",
      "metarCat": "VFR",
      "metarRaw": "METAR KAOO 051853Z AUTO 28011KT 10SM OVC034 09/03 A2991 RMK AO2 PK WND 27028/1800 SLP128 T00890028",
      "metarObsTime": 1775415180
    },
    "KLNS": {
      "status": "OK",
      "delay": "—",
      "metarCat": "MVFR",
      "metarRaw": "METAR KLNS 051853Z 26007KT 10SM FEW007 SCT012 BKN025 13/12 A2983 RMK AO2 RAE23 SLP101 P0001 T01330122",
      "metarObsTime": 1775415180
    },
    "KIPT": {
      "status": "OK",
      "delay": "—",
      "metarCat": "MVFR",
      "metarRaw": "METAR KIPT 051854Z 30013G22KT 10SM BKN030 OVC045 11/04 A2984 RMK AO2 PK WND 26028/1809 SLP106 T01060044",
      "metarObsTime": 1775415240
    },
    "KPHL": {
      "status": "OK",
      "delay": "—",
      "metarCat": "IFR",
      "metarRaw": "SPECI KPHL 051908Z 29006KT 7SM RA BKN007 OVC016 16/13 A2981 RMK AO2 P0004 T01610133 $",
      "metarObsTime": 1775416080
    },
    "KABE": {
      "status": "OK",
      "delay": "—",
      "metarCat": "VFR",
      "metarRaw": "METAR KABE 051851Z 24008KT 10SM FEW075 SCT090 SCT120 13/11 A2981 RMK AO2 RAE44 SLP094 P0004 T01280111 $",
      "metarObsTime": 1775415060
    },
    "KAVP": {
      "status": "OK",
      "delay": "—",
      "metarCat": "VFR",
      "metarRaw": "METAR KAVP 051854Z 24013G22KT 10SM BKN043 12/07 A2978 RMK AO2 SLP085 T01220067",
      "metarObsTime": 1775415240
    },
    "KHZL": {
      "status": "OK",
      "delay": "—",
      "metarCat": "MVFR",
      "metarRaw": "METAR KHZL 051915Z AUTO 28007KT 240V310 10SM BKN020 08/06 A2983 RMK AO2",
      "metarObsTime": 1775416500
    }
  }
}