{
  "generatedAt": "2026-03-31T07:20:33.870Z",
  "airports": {
    "KPIT": {
      "status": "OK",
      "delay": "—",
      "metarCat": "VFR",
      "metarRaw": "METAR KPIT 310651Z 22010G21KT 10SM BKN050 18/10 A3000 RMK AO2 SLP161 T01830100",
      "metarObsTime": 1774939860
    },
    "KAGC": {
      "status": "OK",
      "delay": "—",
      "metarCat": "VFR",
      "metarRaw": "METAR KAGC 310653Z 20008KT 10SM SCT055 16/10 A3001 RMK AO2 SLP163 T01560100",
      "metarObsTime": 1774939980
    },
    "KLBE": {
      "status": "OK",
      "delay": "—",
      "metarCat": "VFR",
      "metarRaw": "METAR KLBE 310715Z AUTO 20011KT 10SM CLR 17/11 A3004 RMK AO2",
      "metarObsTime": 1774941300
    },
    "KJST": {
      "status": "OK",
      "delay": "—",
      "metarCat": "VFR",
      "metarRaw": "METAR KJST 310654Z AUTO 21006KT 10SM OVC041 16/09 A3005 RMK AO2 SLP170 T01560089",
      "metarObsTime": 1774940040
    },
    "KERI": {
      "status": "OK",
      "delay": "—",
      "metarCat": "VFR",
      "metarRaw": "METAR KERI 310651Z AUTO 20017G30KT 10SM CLR 19/12 A2986 RMK AO2 PK WND 20031/0628 SLP111 T01890122 $",
      "metarObsTime": 1774939860
    },
    "KDUJ": {
      "status": "OK",
      "delay": "—",
      "metarCat": "VFR",
      "metarRaw": "METAR KDUJ 310653Z AUTO 23013G23KT 10SM BKN040 OVC050 16/10 A2998 RMK AO2 PK WND 23026/0643 SLP147 T01610100",
      "metarObsTime": 1774939980
    },
    "KBFD": {
      "status": "OK",
      "delay": "—",
      "metarCat": "MVFR",
      "metarRaw": "METAR KBFD 310653Z AUTO 23006G17KT 10SM OVC030 14/11 A2997 RMK AO2 SLP140 T01440106",
      "metarObsTime": 1774939980
    },
    "KBTP": {
      "status": "OK",
      "delay": "—",
      "metarCat": "VFR",
      "metarRaw": "METAR KBTP 310656Z AUTO 23011G16KT 10SM OVC049 18/11 A3001 RMK AO2 SLP162 T01830111 $",
      "metarObsTime": 1774940160
    },
    "KFKL": {
      "status": "OK",
      "delay": "—",
      "metarCat": "VFR",
      "metarRaw": "METAR KFKL 310656Z AUTO 22011G18KT 10SM OVC040 17/11 A2997 RMK AO2 SLP145 T01720111",
      "metarObsTime": 1774940160
    },
    "KIDI": {
      "status": "OK",
      "delay": "—",
      "metarCat": "VFR",
      "metarRaw": "METAR KIDI 310715Z AUTO 22008G16KT 10SM OVC050 17/11 A3002 RMK A01",
      "metarObsTime": 1774941300
    },
    "KMDT": {
      "status": "OK",
      "delay": "—",
      "metarCat": "VFR",
      "metarRaw": "METAR KMDT 310656Z 21009KT 10SM FEW100 17/10 A3003 RMK AO2 SLP171 T01670100",
      "metarObsTime": 1774940160
    },
    "KCXY": {
      "status": "OK",
      "delay": "—",
      "metarCat": "VFR",
      "metarRaw": "METAR KCXY 310656Z AUTO VRB04KT 10SM CLR 16/10 A3004 RMK AO2 SLP172 T01610100",
      "metarObsTime": 1774940160
    },
    "KMUI": {
      "status": "OK",
      "delay": "—",
      "metarCat": "VFR",
      "metarRaw": "METAR KMUI 310655Z AUTO 00000KT 10SM FEW120 11/11 A3002 RMK AO2 LTG DSNT SE SLP168 T01130108",
      "metarObsTime": 1774940100
    },
    "KUNV": {
      "status": "OK",
      "delay": "—",
      "metarCat": "VFR",
      "metarRaw": "METAR KUNV 310715Z AUTO 22008KT 10SM BKN060 15/10 A3000 RMK AO2 LTG DSNT N T01540097",
      "metarObsTime": 1774941300
    },
    "KAOO": {
      "status": "OK",
      "delay": "—",
      "metarCat": "VFR",
      "metarRaw": "METAR KAOO 310653Z AUTO 19008KT 10SM CLR 16/09 A3004 RMK AO2 SLP168 T01560094",
      "metarObsTime": 1774939980
    },
    "KLNS": {
      "status": "OK",
      "delay": "—",
      "metarCat": "VFR",
      "metarRaw": "METAR KLNS 310653Z AUTO 20006KT 10SM BKN070 OVC100 17/10 A3005 RMK AO2 SLP175 T01720100",
      "metarObsTime": 1774939980
    },
    "KIPT": {
      "status": "OK",
      "delay": "—",
      "metarCat": "VFR",
      "metarRaw": "METAR KIPT 310654Z AUTO 00000KT 10SM OVC060 13/11 A2999 RMK AO2 SLP154 T01330111 $",
      "metarObsTime": 1774940040
    },
    "KPHL": {
      "status": "OK",
      "delay": "—",
      "metarCat": "VFR",
      "metarRaw": "METAR KPHL 310654Z 22013KT 10SM BKN080 18/11 A3008 RMK AO2 SLP185 T01830106 $",
      "metarObsTime": 1774940040
    },
    "KABE": {
      "status": "OK",
      "delay": "—",
      "metarCat": "VFR",
      "metarRaw": "METAR KABE 310651Z 25003KT 10SM OVC075 16/10 A3004 RMK AO2 SLP169 T01560100 $",
      "metarObsTime": 1774939860
    },
    "KAVP": {
      "status": "OK",
      "delay": "—",
      "metarCat": "VFR",
      "metarRaw": "METAR KAVP 310654Z 27007KT 10SM OVC060 16/09 A3001 RMK AO2 SLP157 T01560094",
      "metarObsTime": 1774940040
    },
    "KHZL": {
      "status": "OK",
      "delay": "—",
      "metarCat": "VFR",
      "metarRaw": "METAR KHZL 310715Z AUTO 19003KT 10SM BKN048 OVC060 15/09 A3006 RMK AO2",
      "metarObsTime": 1774941300
    }
  }
}