{
  "generatedAt": "2026-03-22T21:00:23.873Z",
  "airports": {
    "KPIT": {
      "status": "OK",
      "delay": "—",
      "metarCat": "VFR",
      "metarRaw": "METAR KPIT 222051Z 27009G16KT 10SM -TSRA BKN045 OVC100 27/09 A2959 RMK AO2 PK WND 27029/2008 RAB43 TSB43 SLP017 OCNL LTGICCG NW-NE TS NW-NE MOV E P0000 60000 T02720089 55023",
      "metarObsTime": 1774212660
    },
    "KAGC": {
      "status": "OK",
      "delay": "—",
      "metarCat": "VFR",
      "metarRaw": "METAR KAGC 222053Z 22017G26KT 10SM CLR 28/09 A2956 RMK AO2 PK WND 23033/1958 LTG DSNT NE AND NW SLP006 T02780089 56031",
      "metarObsTime": 1774212780
    },
    "KLBE": {
      "status": "OK",
      "delay": "—",
      "metarCat": "VFR",
      "metarRaw": "METAR KLBE 222047Z 21018G30KT 10SM FEW085 29/10 A2958 RMK LTG DSNT NW-NE",
      "metarObsTime": 1774212420
    },
    "KJST": {
      "status": "OK",
      "delay": "—",
      "metarCat": "VFR",
      "metarRaw": "METAR KJST 222054Z AUTO 23016G30KT 10SM FEW090 25/06 A2961 RMK AO2 PK WND 23032/2009 LTG DSNT NW SLP015 T02500056 56031",
      "metarObsTime": 1774212840
    },
    "KERI": {
      "status": "OK",
      "delay": "—",
      "metarCat": "MVFR",
      "metarRaw": "METAR KERI 222051Z 05013KT 4SM -RA BR FEW007 BKN015 OVC021 06/04 A2978 RMK AO2 RAB46 SLP087 P0000 60000 T00560039 53028",
      "metarObsTime": 1774212660
    },
    "KDUJ": {
      "status": "OK",
      "delay": "—",
      "metarCat": "MVFR",
      "metarRaw": "METAR KDUJ 222053Z AUTO 36007G15KT 4SM -RA SCT026 BKN070 BKN100 17/14 A2959 RMK AO2 LTG DSNT ALQDS RAE1955B13 PRESFR SLP016 P0013 60016 T01670139 56023",
      "metarObsTime": 1774212780
    },
    "KBFD": {
      "status": "OK",
      "delay": "—",
      "metarCat": "MVFR",
      "metarRaw": "METAR KBFD 222053Z AUTO 33012KT 4SM RA BKN039 BKN055 OVC070 12/09 A2968 RMK AO2 LTG DSNT SW RAB1958 SLP050 P0002 60002 T01220094 52005 $",
      "metarObsTime": 1774212780
    },
    "KBTP": {
      "status": "OK",
      "delay": "—",
      "metarCat": "VFR",
      "metarRaw": "METAR KBTP 222056Z AUTO 32012G17KT 10SM CLR 22/12 A2962 RMK AO2 PK WND 33027/2040 LTG DSNT ALQDS PRESRR SLP032 60000 T02170117 55010 $",
      "metarObsTime": 1774212960
    },
    "KFKL": {
      "status": "OK",
      "delay": "—",
      "metarCat": "VFR",
      "metarRaw": "METAR KFKL 222056Z AUTO 34008KT 10SM -TSRA FEW025 SCT030 BKN060 14/12 A2968 RMK AO2 LTG DSNT ALQDS TSB14 SLP050 P0009 60009 T01390122 53005",
      "metarObsTime": 1774212960
    },
    "KIDI": {
      "status": "OK",
      "delay": "—",
      "metarCat": "VFR",
      "metarRaw": "METAR KIDI 222055Z AUTO 31014KT 10SM FEW060 SCT075 BKN085 21/13 A2960 RMK A01 P0001",
      "metarObsTime": 1774212900
    },
    "KMDT": {
      "status": "OK",
      "delay": "—",
      "metarCat": "VFR",
      "metarRaw": "METAR KMDT 221956Z 18008G14KT 140V210 10SM FEW150 SCT250 26/09 A2959 RMK AO2 SLP019 T02560089",
      "metarObsTime": 1774209360
    },
    "KCXY": {
      "status": "OK",
      "delay": "—",
      "metarCat": "VFR",
      "metarRaw": "METAR KCXY 221956Z 19013G19KT 10SM CLR 27/09 A2959 RMK AO2 SLP019 T02720089",
      "metarObsTime": 1774209360
    },
    "KMUI": {
      "status": "OK",
      "delay": "—",
      "metarCat": "VFR",
      "metarRaw": "METAR KMUI 222055Z AUTO 15005KT 10SM CLR 26/11 A2955 RMK AO2 LTG DSNT SE SLP008 60000 T02630112 57047",
      "metarObsTime": 1774212900
    },
    "KUNV": {
      "status": "OK",
      "delay": "—",
      "metarCat": "VFR",
      "metarRaw": "METAR KUNV 222053Z 33007KT 10SM VCTS BKN090 24/10 A2958 RMK LTG DSNT NW AND E",
      "metarObsTime": 1774212780
    },
    "KAOO": {
      "status": "OK",
      "delay": "—",
      "metarCat": "VFR",
      "metarRaw": "METAR KAOO 222053Z AUTO 24019G29KT 10SM BKN100 27/06 A2959 RMK AO2 PK WND 22032/2043 SLP013 T02670056 56031",
      "metarObsTime": 1774212780
    },
    "KLNS": {
      "status": "OK",
      "delay": "—",
      "metarCat": "VFR",
      "metarRaw": "METAR KLNS 222053Z 18016G25KT 10SM CLR 24/10 A2959 RMK AO2 SLP018 T02440100 56041",
      "metarObsTime": 1774212780
    },
    "KIPT": {
      "status": "OK",
      "delay": "—",
      "metarCat": "MVFR",
      "metarRaw": "METAR KIPT 222054Z 14007KT 5SM VCTS -RA FEW060 BKN075 OVC110 15/12 A2960 RMK AO2 LTG DSNT SE-SW RAB12 TSB16E31 PRESFR SLP025 TS W MOV E P0005 60005 T01500122 55016 $",
      "metarObsTime": 1774212840
    },
    "KPHL": {
      "status": "OK",
      "delay": "—",
      "metarCat": "VFR",
      "metarRaw": "METAR KPHL 222054Z 21010KT 10SM FEW110 BKN290 24/12 A2964 RMK AO2 SLP038 T02390117 56036 $",
      "metarObsTime": 1774212840
    },
    "KABE": {
      "status": "OK",
      "delay": "—",
      "metarCat": "VFR",
      "metarRaw": "METAR KABE 222051Z 20008KT 10SM CLR 22/09 A2961 RMK AO2 SLP026 T02170094 56038 $",
      "metarObsTime": 1774212660
    },
    "KAVP": {
      "status": "OK",
      "delay": "—",
      "metarCat": "VFR",
      "metarRaw": "METAR KAVP 222054Z 02008KT 10SM -RA BKN090 OVC110 15/08 A2966 RMK AO2 RAB45 SLP043 P0000 60000 T01500083 55006",
      "metarObsTime": 1774212840
    },
    "KHZL": {
      "status": "OK",
      "delay": "—",
      "metarCat": "VFR",
      "metarRaw": "METAR KHZL 222035Z AUTO 16006KT 10SM CLR 20/07 A2965 RMK AO2",
      "metarObsTime": 1774211700
    }
  }
}