{
  "generatedAt": "2026-03-16T14:40:16.672Z",
  "airports": {
    "KPIT": {
      "status": "OK",
      "delay": "—",
      "metarCat": "VFR",
      "metarRaw": "METAR KPIT 161351Z 18007KT 10SM -RA FEW015 BKN045 OVC080 13/11 A2939 RMK AO2 SLP958 T01280111 PNO VISNO SE $",
      "metarObsTime": 1773669060
    },
    "KAGC": {
      "status": "OK",
      "delay": "—",
      "metarCat": "VFR",
      "metarRaw": "METAR KAGC 161353Z 17011G18KT 10SM OVC095 12/11 A2942 RMK AO2 RAE52 SLP966 P0001 T01220111",
      "metarObsTime": 1773669180
    },
    "KLBE": {
      "status": "OK",
      "delay": "—",
      "metarCat": "VFR",
      "metarRaw": "METAR KLBE 161345Z 17009KT 6SM BR FEW047 OVC065 13/12 A2948",
      "metarObsTime": 1773668700
    },
    "KJST": {
      "status": "OK",
      "delay": "—",
      "metarCat": "VFR",
      "metarRaw": "METAR KJST 161354Z AUTO 23009KT 7SM -RA FEW024 SCT029 OVC040 11/10 A2950 RMK AO2 PK WND 15032/1309 WSHFT 1310 RAB23 SLP992 P0007 T01110100",
      "metarObsTime": 1773669240
    },
    "KERI": {
      "status": "OK",
      "delay": "—",
      "metarCat": "IFR",
      "metarRaw": "SPECI KERI 161430Z 26015G27KT 10SM -RA BKN008 BKN018 OVC055 04/03 A2936 RMK AO2 PK WND 28035/1411 WSHFT 1358 RAE07B19 P0001 T00390028 $",
      "metarObsTime": 1773671400
    },
    "KDUJ": {
      "status": "OK",
      "delay": "—",
      "metarCat": "VFR",
      "metarRaw": "METAR KDUJ 161353Z AUTO 21010G18KT 10SM OVC049 13/09 A2944 RMK AO2 PK WND 22027/1318 RAB07E39 SLP969 P0001 T01280094",
      "metarObsTime": 1773669180
    },
    "KBFD": {
      "status": "OK",
      "delay": "—",
      "metarCat": "VFR",
      "metarRaw": "SPECI KBFD 161421Z AUTO 19013G24KT 10SM FEW015 SCT045 OVC055 13/09 A2941 RMK AO2 PK WND 19029/1401 RAE12 P0000 T01280094",
      "metarObsTime": 1773670860
    },
    "KBTP": {
      "status": "OK",
      "delay": "—",
      "metarCat": "—",
      "metarRaw": "—",
      "metarObsTime": null
    },
    "KFKL": {
      "status": "OK",
      "delay": "—",
      "metarCat": "MVFR",
      "metarRaw": "SPECI KFKL 161424Z AUTO 17015G21KT 10SM -RA BKN016 BKN050 OVC080 12/11 A2936 RMK AO2 P0000",
      "metarObsTime": 1773671040
    },
    "KIDI": {
      "status": "OK",
      "delay": "—",
      "metarCat": "VFR",
      "metarRaw": "METAR KIDI 161435Z AUTO 17006KT 10SM FEW047 FEW055 OVC065 13/11 A2945 RMK A01",
      "metarObsTime": 1773671700
    },
    "KMDT": {
      "status": "OK",
      "delay": "—",
      "metarCat": "MVFR",
      "metarRaw": "SPECI KMDT 161436Z 13009KT 10SM BKN014 OVC022 17/15 A2955 RMK AO2 T01670150",
      "metarObsTime": 1773671760
    },
    "KCXY": {
      "status": "OK",
      "delay": "—",
      "metarCat": "MVFR",
      "metarRaw": "METAR KCXY 161356Z 16011G25KT 6SM BR SCT017 BKN023 OVC043 18/16 A2956 RMK AO2 SLP009 T01780156",
      "metarObsTime": 1773669360
    },
    "KMUI": {
      "status": "OK",
      "delay": "—",
      "metarCat": "IFR",
      "metarRaw": "METAR KMUI 161355Z 15004KT 10SM OVC007 18/18 A2957 RMK AO2A CIG 006V008 SLP016 T01840181",
      "metarObsTime": 1773669300
    },
    "KUNV": {
      "status": "OK",
      "delay": "—",
      "metarCat": "MVFR",
      "metarRaw": "METAR KUNV 161353Z 19015G24KT 10SM SCT016 BKN025 17/14 A2947",
      "metarObsTime": 1773669180
    },
    "KAOO": {
      "status": "OK",
      "delay": "—",
      "metarCat": "VFR",
      "metarRaw": "METAR KAOO 161353Z AUTO 18017G28KT 10SM FEW043 BKN070 BKN090 16/13 A2948 RMK AO2 PK WND 17033/1304 SLP981 T01610128",
      "metarObsTime": 1773669180
    },
    "KLNS": {
      "status": "OK",
      "delay": "—",
      "metarCat": "MVFR",
      "metarRaw": "METAR KLNS 161353Z 18016G24KT 10SM OVC014 18/16 A2960 RMK AO2 PK WND 20033/1325 SLP021 T01780161",
      "metarObsTime": 1773669180
    },
    "KIPT": {
      "status": "OK",
      "delay": "—",
      "metarCat": "MVFR",
      "metarRaw": "SPECI KIPT 161414Z 12013G21KT 10SM BKN013 OVC021 16/14 A2951 RMK AO2 T01610139",
      "metarObsTime": 1773670440
    },
    "KPHL": {
      "status": "OK",
      "delay": "—",
      "metarCat": "MVFR",
      "metarRaw": "SPECI KPHL 161429Z 18014G22KT 10SM OVC010 18/16 A2967 RMK AO2 T01780156 $",
      "metarObsTime": 1773671340
    },
    "KABE": {
      "status": "OK",
      "delay": "—",
      "metarCat": "—",
      "metarRaw": "METAR KABE 161351Z 2SM 17/15 A2964 RMK AO2 RAE46 SLP038 P0010 T01670150 $",
      "metarObsTime": 1773669060
    },
    "KAVP": {
      "status": "OK",
      "delay": "—",
      "metarCat": "VFR",
      "metarRaw": "SPECI KAVP 161422Z 18010G24KT 10SM -RA SCT018 SCT034 BKN060 17/14 A2957 RMK AO2 PK WND 17026/1404 P0001 T01720139",
      "metarObsTime": 1773670920
    },
    "KHZL": {
      "status": "OK",
      "delay": "—",
      "metarCat": "LIFR",
      "metarRaw": "METAR KHZL 161435Z AUTO 15006KT 120V190 4SM -RA BKN003 OVC006 14/13 A2962 RMK AO2 P0002",
      "metarObsTime": 1773671700
    }
  }
}