{
  "generatedAt": "2026-03-07T06:50:10.680Z",
  "airports": {
    "KPIT": {
      "status": "OK",
      "delay": "—",
      "metarCat": "VFR",
      "metarRaw": "METAR KPIT 070551Z 15003KT 10SM SCT070 16/13 A3006 RMK AO2 SLP183 T01560133 10183 20156 58013",
      "metarObsTime": 1772862660
    },
    "KAGC": {
      "status": "OK",
      "delay": "—",
      "metarCat": "VFR",
      "metarRaw": "METAR KAGC 070553Z 17008KT 10SM FEW080 BKN090 16/13 A3007 RMK AO2 SLP183 T01610133 10189 20156 58014",
      "metarObsTime": 1772862780
    },
    "KLBE": {
      "status": "OK",
      "delay": "—",
      "metarCat": "VFR",
      "metarRaw": "METAR KLBE 070635Z AUTO 16005KT 10SM FEW080 19/13 A3010 RMK AO2",
      "metarObsTime": 1772865300
    },
    "KJST": {
      "status": "OK",
      "delay": "—",
      "metarCat": "LIFR",
      "metarRaw": "SPECI KJST 070608Z AUTO 14008KT 1SM BR VV002 08/08 A3017 RMK AO2 T00830083",
      "metarObsTime": 1772863680
    },
    "KERI": {
      "status": "OK",
      "delay": "—",
      "metarCat": "VFR",
      "metarRaw": "METAR KERI 070551Z AUTO 19018G27KT 10SM CLR 19/13 A2995 RMK AO2 PK WND 18030/0515 SLP144 T01940133 10194 20072 56024 $",
      "metarObsTime": 1772862660
    },
    "KDUJ": {
      "status": "OK",
      "delay": "—",
      "metarCat": "LIFR",
      "metarRaw": "SPECI KDUJ 070603Z AUTO 12010G17KT 3SM BR OVC002 10/09 A3010 RMK AO2 T01000094",
      "metarObsTime": 1772863380
    },
    "KBFD": {
      "status": "OK",
      "delay": "—",
      "metarCat": "LIFR",
      "metarRaw": "METAR KBFD 070553Z AUTO 15009KT 2SM BR OVC002 09/09 A3010 RMK AO2 SLP189 T00890089 10156 20089 58016",
      "metarObsTime": 1772862780
    },
    "KBTP": {
      "status": "OK",
      "delay": "—",
      "metarCat": "VFR",
      "metarRaw": "METAR KBTP 070556Z AUTO 16006KT 10SM SCT070 16/14 A3007 RMK AO2 SLP186 T01610144 10178 20161 58016 $",
      "metarObsTime": 1772862960
    },
    "KFKL": {
      "status": "OK",
      "delay": "—",
      "metarCat": "VFR",
      "metarRaw": "METAR KFKL 070556Z AUTO 18008KT 10SM CLR 15/13 A3006 RMK AO2 SLP178 T01500133 10172 20150 58016",
      "metarObsTime": 1772862960
    },
    "KIDI": {
      "status": "OK",
      "delay": "—",
      "metarCat": "VFR",
      "metarRaw": "METAR KIDI 070635Z AUTO 16008G15KT 10SM SCT095 14/12 A3011 RMK A01",
      "metarObsTime": 1772865300
    },
    "KMDT": {
      "status": "OK",
      "delay": "—",
      "metarCat": "LIFR",
      "metarRaw": "METAR KMDT 070556Z 12006KT 1 1/4SM -DZ BR OVC004 05/05 A3033 RMK AO2 TWR VIS 2 SLP272 P0000 60002 T00500050 10056 20050 56010",
      "metarObsTime": 1772862960
    },
    "KCXY": {
      "status": "OK",
      "delay": "—",
      "metarCat": "LIFR",
      "metarRaw": "METAR KCXY 070556Z AUTO 10006KT 1 1/2SM BR OVC004 05/04 A3033 RMK AO2 SLP273 T00500044 10056 20050 58010",
      "metarObsTime": 1772862960
    },
    "KMUI": {
      "status": "OK",
      "delay": "—",
      "metarCat": "LIFR",
      "metarRaw": "SPECI KMUI 070635Z AUTO 00000KT 2 1/4SM BR OVC002 05/05 A3032 RMK AO2 SLP274",
      "metarObsTime": 1772865300
    },
    "KUNV": {
      "status": "OK",
      "delay": "—",
      "metarCat": "LIFR",
      "metarRaw": "METAR KUNV 070635Z AUTO 21003KT 5SM BR OVC003 06/06 A3023 RMK AO2 T00570056",
      "metarObsTime": 1772865300
    },
    "KAOO": {
      "status": "OK",
      "delay": "—",
      "metarCat": "LIFR",
      "metarRaw": "SPECI KAOO 070638Z AUTO 16009KT 3/4SM BR VV002 07/06 A3022 RMK AO2 T00670061",
      "metarObsTime": 1772865480
    },
    "KLNS": {
      "status": "OK",
      "delay": "—",
      "metarCat": "LIFR",
      "metarRaw": "SPECI KLNS 070637Z AUTO 12007KT 1 3/4SM BR OVC003 04/04 A3033 RMK AO2 T00390039",
      "metarObsTime": 1772865420
    },
    "KIPT": {
      "status": "OK",
      "delay": "—",
      "metarCat": "IFR",
      "metarRaw": "METAR KIPT 070554Z AUTO 11008KT 4SM BR OVC007 05/04 A3028 RMK AO2 SLP259 T00500039 10067 20050 56007",
      "metarObsTime": 1772862840
    },
    "KPHL": {
      "status": "OK",
      "delay": "—",
      "metarCat": "IFR",
      "metarRaw": "METAR KPHL 070554Z 12005KT 10SM OVC009 04/02 A3038 RMK AO2 SLP289 60000 T00440022 10061 20044 55010 $",
      "metarObsTime": 1772862840
    },
    "KABE": {
      "status": "OK",
      "delay": "—",
      "metarCat": "LIFR",
      "metarRaw": "SPECI KABE 070626Z 10004KT 3SM BR OVC003 03/03 A3036 RMK AO2 T00330028",
      "metarObsTime": 1772864760
    },
    "KAVP": {
      "status": "OK",
      "delay": "—",
      "metarCat": "MVFR",
      "metarRaw": "METAR KAVP 070554Z AUTO 00000KT 10SM OVC010 04/02 A3029 RMK AO2 SLP262 T00390017 10039 20039 56012",
      "metarObsTime": 1772862840
    },
    "KHZL": {
      "status": "OK",
      "delay": "—",
      "metarCat": "LIFR",
      "metarRaw": "METAR KHZL 070635Z AUTO 14004KT 1 1/2SM BR OVC002 02/01 A3031 RMK AO2",
      "metarObsTime": 1772865300
    }
  }
}