{
  "generatedAt": "2026-04-06T01:30:39.213Z",
  "airports": {
    "KPIT": {
      "status": "OK",
      "delay": "—",
      "metarCat": "VFR",
      "metarRaw": "METAR KPIT 060051Z 27010G16KT 10SM FEW027 BKN041 OVC050 06/01 A3008 RMK AO2 SLP200 T00610011 $",
      "metarObsTime": 1775436660
    },
    "KAGC": {
      "status": "OK",
      "delay": "—",
      "metarCat": "VFR",
      "metarRaw": "METAR KAGC 060053Z AUTO 28009G19KT 10SM FEW033 BKN043 OVC055 06/01 A3007 RMK AO2 PK WND 28027/0035 SLP195 T00560011",
      "metarObsTime": 1775436780
    },
    "KLBE": {
      "status": "OK",
      "delay": "—",
      "metarCat": "VFR",
      "metarRaw": "METAR KLBE 060047Z 24012G24KT 10SM SCT033 BKN045 OVC050 06/02 A3008",
      "metarObsTime": 1775436420
    },
    "KJST": {
      "status": "OK",
      "delay": "—",
      "metarCat": "MVFR",
      "metarRaw": "METAR KJST 060054Z AUTO 27012G20KT 10SM BKN018 BKN027 OVC046 04/01 A3000 RMK AO2 PK WND 26028/0003 RAB09E19 SLP169 P0000 T00390006",
      "metarObsTime": 1775436840
    },
    "KERI": {
      "status": "OK",
      "delay": "—",
      "metarCat": "VFR",
      "metarRaw": "METAR KERI 060051Z 27010G18KT 10SM OVC047 03/M02 A3009 RMK AO2 SLP194 T00331017 $",
      "metarObsTime": 1775436660
    },
    "KDUJ": {
      "status": "OK",
      "delay": "—",
      "metarCat": "MVFR",
      "metarRaw": "SPECI KDUJ 060115Z AUTO 30013G28KT 10SM BKN029 OVC035 03/M02 A3001 RMK AO2 PK WND 30029/0056 T00331022",
      "metarObsTime": 1775438100
    },
    "KBFD": {
      "status": "OK",
      "delay": "—",
      "metarCat": "MVFR",
      "metarRaw": "METAR KBFD 060053Z AUTO 28012G29KT 260V330 10SM UP BKN018 OVC026 01/M02 A2998 RMK AO2 PK WND 27029/0045 UPB2356E07B48RAB07E48SNE2356 SLP165 P0000 T00061022",
      "metarObsTime": 1775436780
    },
    "KBTP": {
      "status": "OK",
      "delay": "—",
      "metarCat": "VFR",
      "metarRaw": "METAR KBTP 060056Z AUTO 27011G17KT 10SM SCT036 BKN045 OVC049 06/M01 A3008 RMK AO2 SLP198 T00611006 $",
      "metarObsTime": 1775436960
    },
    "KFKL": {
      "status": "OK",
      "delay": "—",
      "metarCat": "VFR",
      "metarRaw": "METAR KFKL 060056Z AUTO 29011KT 10SM BKN033 OVC041 03/M03 A3007 RMK AO2 SLP196 T00281028",
      "metarObsTime": 1775436960
    },
    "KIDI": {
      "status": "OK",
      "delay": "—",
      "metarCat": "VFR",
      "metarRaw": "METAR KIDI 060115Z AUTO 27013G21KT 10SM BKN044 OVC050 06/M00 A3005 RMK A01",
      "metarObsTime": 1775438100
    },
    "KMDT": {
      "status": "OK",
      "delay": "—",
      "metarCat": "VFR",
      "metarRaw": "METAR KMDT 060056Z 31011KT 10SM BKN045 11/01 A2998 RMK AO2 PK WND 30029/0007 SLP153 T01060006 $",
      "metarObsTime": 1775436960
    },
    "KCXY": {
      "status": "OK",
      "delay": "—",
      "metarCat": "VFR",
      "metarRaw": "METAR KCXY 060056Z 29011G18KT 10SM OVC055 11/M01 A2998 RMK AO2 SLP155 T01061006 $",
      "metarObsTime": 1775436960
    },
    "KMUI": {
      "status": "OK",
      "delay": "—",
      "metarCat": "VFR",
      "metarRaw": "METAR KMUI 060055Z AUTO 28011KT 10SM OVC049 11/00 A2995 RMK AO2 PK WND 28026/33 SLP146 T01070001",
      "metarObsTime": 1775436900
    },
    "KUNV": {
      "status": "OK",
      "delay": "—",
      "metarCat": "VFR",
      "metarRaw": "METAR KUNV 060053Z 29011G19KT 10SM OVC049 06/M01 A3000",
      "metarObsTime": 1775436780
    },
    "KAOO": {
      "status": "OK",
      "delay": "—",
      "metarCat": "VFR",
      "metarRaw": "METAR KAOO 060053Z AUTO 29017G22KT 10SM SCT033 OVC045 07/00 A3000 RMK AO2 PK WND 30027/0019 SLP164 T00670000",
      "metarObsTime": 1775436780
    },
    "KLNS": {
      "status": "OK",
      "delay": "—",
      "metarCat": "VFR",
      "metarRaw": "METAR KLNS 060053Z 32011G21KT 10SM BKN055 09/00 A2997 RMK AO2 PK WND 32026/0029 SLP149 T00940000",
      "metarObsTime": 1775436780
    },
    "KIPT": {
      "status": "OK",
      "delay": "—",
      "metarCat": "VFR",
      "metarRaw": "METAR KIPT 060054Z 29014G25KT 10SM OVC047 08/M01 A2996 RMK AO2 PK WND 26028/0041 SLP147 T00781011",
      "metarObsTime": 1775436840
    },
    "KPHL": {
      "status": "OK",
      "delay": "—",
      "metarCat": "VFR",
      "metarRaw": "METAR KPHL 060054Z 29012G17KT 10SM FEW025 SCT055 BKN260 BKN330 13/03 A2994 RMK AO2 SLP139 T01330033 $",
      "metarObsTime": 1775436840
    },
    "KABE": {
      "status": "OK",
      "delay": "—",
      "metarCat": "VFR",
      "metarRaw": "METAR KABE 060051Z 28010G18KT 10SM OVC050 10/01 A2993 RMK AO2 SLP137 T01000006 $",
      "metarObsTime": 1775436660
    },
    "KAVP": {
      "status": "OK",
      "delay": "—",
      "metarCat": "VFR",
      "metarRaw": "METAR KAVP 060054Z 32012G22KT 10SM OVC047 07/01 A2993 RMK AO2 SLP136 T00670006",
      "metarObsTime": 1775436840
    },
    "KHZL": {
      "status": "OK",
      "delay": "—",
      "metarCat": "VFR",
      "metarRaw": "METAR KHZL 060115Z AUTO 30007KT 260V340 10SM OVC033 06/M01 A2996 RMK AO2",
      "metarObsTime": 1775438100
    }
  }
}