{
  "generatedAt": "2026-04-28T16:21:12.509Z",
  "faaFlow": {
    "updatedAt": "2026-04-28T16:21:11.518Z",
    "source": "https://www.fly.faa.gov/adv/adv_spt",
    "terminal": [
      {
        "time": "—",
        "text": "AFTER",
        "code": "FLOW",
        "label": "FAA flow impact",
        "level": "yellow",
        "section": "Terminal Planned",
        "airports": []
      },
      {
        "time": "2000",
        "text": "BNA GROUND STOP POSSIBLE",
        "code": "GS",
        "label": "Ground stop possible",
        "level": "yellow",
        "section": "Terminal Planned",
        "airports": []
      },
      {
        "time": "—",
        "text": "AFTER",
        "code": "FLOW",
        "label": "FAA flow impact",
        "level": "yellow",
        "section": "Terminal Planned",
        "airports": []
      },
      {
        "time": "2200",
        "text": "JFK GROUND DELAY PROGRAM POSSIBLE",
        "code": "GDP",
        "label": "Ground delay possible",
        "level": "yellow",
        "section": "Terminal Planned",
        "airports": []
      },
      {
        "time": "—",
        "text": "AFTER",
        "code": "FLOW",
        "label": "FAA flow impact",
        "level": "yellow",
        "section": "Terminal Planned",
        "airports": []
      },
      {
        "time": "0200",
        "text": "MEM GROUND STOP/DELAY PROGRAM POSSIBLE",
        "code": "GS",
        "label": "Ground stop possible",
        "level": "yellow",
        "section": "Terminal Planned",
        "airports": []
      }
    ],
    "enroute": [],
    "airports": {
      "KPIT": null,
      "KAGC": null,
      "KLBE": null,
      "KJST": null,
      "KERI": null,
      "KDUJ": null,
      "KBFD": null,
      "KBTP": null,
      "KFKL": null,
      "KIDI": null,
      "KMDT": null,
      "KCXY": null,
      "KMUI": null,
      "KUNV": null,
      "KAOO": null,
      "KLNS": null,
      "KIPT": null,
      "KPHL": null,
      "KABE": null,
      "KAVP": null,
      "KHZL": null
    }
  },
  "airports": {
    "KPIT": {
      "status": "OK",
      "delay": "—",
      "metarCat": "MVFR",
      "metarRaw": "METAR KPIT 281551Z 20007KT 10SM -DZ OVC012 14/11 A2994 RMK AO2 DZB48 SLP143 P0000 T01440111",
      "metarObsTime": 1777391460,
      "faaFlow": null
    },
    "KAGC": {
      "status": "OK",
      "delay": "—",
      "metarCat": "MVFR",
      "metarRaw": "METAR KAGC 281553Z 18005KT 10SM OVC012 14/11 A2995 RMK AO2 SLP143 T01390111",
      "metarObsTime": 1777391580,
      "faaFlow": null
    },
    "KLBE": {
      "status": "OK",
      "delay": "—",
      "metarCat": "MVFR",
      "metarRaw": "METAR KLBE 281545Z 20007KT 10SM BKN026 15/11 A2998",
      "metarObsTime": 1777391100,
      "faaFlow": null
    },
    "KJST": {
      "status": "OK",
      "delay": "—",
      "metarCat": "IFR",
      "metarRaw": "METAR KJST 281554Z AUTO 16008KT 4SM BR BKN008 OVC018 09/08 A2999 RMK AO2 CIG 006V013 SLP160 T00890078",
      "metarObsTime": 1777391640,
      "faaFlow": null
    },
    "KERI": {
      "status": "OK",
      "delay": "—",
      "metarCat": "MVFR",
      "metarRaw": "METAR KERI 281551Z 17016G26KT 10SM BKN025 OVC032 16/11 A2987 RMK AO2 PK WND 18034/1505 SLP115 T01610106",
      "metarObsTime": 1777391460,
      "faaFlow": null
    },
    "KDUJ": {
      "status": "OK",
      "delay": "—",
      "metarCat": "MVFR",
      "metarRaw": "SPECI KDUJ 281612Z AUTO 13008G17KT 10SM BKN014 OVC022 10/08 A2997 RMK AO2 T01000078",
      "metarObsTime": 1777392720,
      "faaFlow": null
    },
    "KBFD": {
      "status": "OK",
      "delay": "—",
      "metarCat": "IFR",
      "metarRaw": "METAR KBFD 281553Z AUTO 14010G20KT 110V170 9SM OVC008 08/07 A2998 RMK AO2 RAB23E49 SLPNO P0000 T00830072 $",
      "metarObsTime": 1777391580,
      "faaFlow": null
    },
    "KBTP": {
      "status": "OK",
      "delay": "—",
      "metarCat": "MVFR",
      "metarRaw": "METAR KBTP 281556Z AUTO 16007KT 10SM OVC014 13/12 A2996 RMK AO2 SLP149 T01330122 $",
      "metarObsTime": 1777391760,
      "faaFlow": null
    },
    "KFKL": {
      "status": "OK",
      "delay": "—",
      "metarCat": "—",
      "metarRaw": "—",
      "metarObsTime": null,
      "faaFlow": null
    },
    "KIDI": {
      "status": "OK",
      "delay": "—",
      "metarCat": "MVFR",
      "metarRaw": "METAR KIDI 281615Z AUTO 14006G13KT 4SM BR OVC020 12/10 A2998 RMK A01",
      "metarObsTime": 1777392900,
      "faaFlow": null
    },
    "KMDT": {
      "status": "OK",
      "delay": "—",
      "metarCat": "VFR",
      "metarRaw": "METAR KMDT 281556Z 19015G24KT 10SM FEW060 BKN095 OVC250 14/05 A3012 RMK AO2 SLP202 T01390050",
      "metarObsTime": 1777391760,
      "faaFlow": null
    },
    "KCXY": {
      "status": "OK",
      "delay": "—",
      "metarCat": "VFR",
      "metarRaw": "METAR KCXY 281556Z 19009KT 10SM SCT060 OVC085 14/04 A3013 RMK AO2 SLP203 T01390044",
      "metarObsTime": 1777391760,
      "faaFlow": null
    },
    "KMUI": {
      "status": "OK",
      "delay": "—",
      "metarCat": "VFR",
      "metarRaw": "METAR KMUI 281559Z VRB03KT 10SM VCSH SCT060 OVC095 17/11 A3013 RMK AO2A RAB17E44 SLP206 T01740114",
      "metarObsTime": 1777391940,
      "faaFlow": null
    },
    "KUNV": {
      "status": "OK",
      "delay": "—",
      "metarCat": "MVFR",
      "metarRaw": "SPECI KUNV 281618Z 18005KT 4SM -RA BR OVC017 10/07 A3006",
      "metarObsTime": 1777393080,
      "faaFlow": null
    },
    "KAOO": {
      "status": "OK",
      "delay": "—",
      "metarCat": "MVFR",
      "metarRaw": "METAR KAOO 281553Z AUTO 17012G16KT 10SM SCT012 OVC020 09/08 A3004 RMK AO2 RAB21E42 SLP174 P0000 T00940078",
      "metarObsTime": 1777391580,
      "faaFlow": null
    },
    "KLNS": {
      "status": "OK",
      "delay": "—",
      "metarCat": "VFR",
      "metarRaw": "METAR KLNS 281553Z 20008KT 10SM BKN110 14/07 A3015 RMK AO2 SLP211 T01390072",
      "metarObsTime": 1777391580,
      "faaFlow": null
    },
    "KIPT": {
      "status": "OK",
      "delay": "—",
      "metarCat": "VFR",
      "metarRaw": "METAR KIPT 281554Z 11008G15KT 10SM FEW075 OVC095 14/06 A3009 RMK AO2 RAB12E38 SLP188 P0000 T01390061 $",
      "metarObsTime": 1777391640,
      "faaFlow": null
    },
    "KPHL": {
      "status": "OK",
      "delay": "—",
      "metarCat": "VFR",
      "metarRaw": "METAR KPHL 281554Z 21004KT 10SM BKN140 BKN250 16/03 A3017 RMK AO2 SLP216 VIRGA T01610033 $",
      "metarObsTime": 1777391640,
      "faaFlow": null
    },
    "KABE": {
      "status": "OK",
      "delay": "—",
      "metarCat": "VFR",
      "metarRaw": "METAR KABE 281551Z 23010KT 10SM CLR 14/02 A3015 RMK AO2 SLP211 T01440022",
      "metarObsTime": 1777391460,
      "faaFlow": null
    },
    "KAVP": {
      "status": "OK",
      "delay": "—",
      "metarCat": "VFR",
      "metarRaw": "METAR KAVP 281554Z 21010G19KT 10SM CLR 15/00 A3012 RMK AO2 SLP197 T01500000",
      "metarObsTime": 1777391640,
      "faaFlow": null
    },
    "KHZL": {
      "status": "OK",
      "delay": "—",
      "metarCat": "VFR",
      "metarRaw": "METAR KHZL 281615Z AUTO 15003KT 10SM -RA SCT050 BKN060 OVC075 11/03 A3016 RMK AO2",
      "metarObsTime": 1777392900,
      "faaFlow": null
    }
  }
}