{
  "generatedAt": "2026-03-31T08:30:28.203Z",
  "airports": {
    "KPIT": {
      "status": "OK",
      "delay": "—",
      "metarCat": "VFR",
      "metarRaw": "METAR KPIT 310751Z 22012G22KT 10SM BKN055 19/10 A3001 RMK AO2 SLP163 T01890100",
      "metarObsTime": 1774943460
    },
    "KAGC": {
      "status": "OK",
      "delay": "—",
      "metarCat": "VFR",
      "metarRaw": "METAR KAGC 310753Z 20007KT 10SM OVC060 16/10 A3002 RMK AO2 SLP167 T01610100",
      "metarObsTime": 1774943580
    },
    "KLBE": {
      "status": "OK",
      "delay": "—",
      "metarCat": "VFR",
      "metarRaw": "METAR KLBE 310815Z AUTO 20013KT 10SM BKN055 BKN065 17/11 A3005 RMK AO2",
      "metarObsTime": 1774944900
    },
    "KJST": {
      "status": "OK",
      "delay": "—",
      "metarCat": "VFR",
      "metarRaw": "METAR KJST 310754Z AUTO 21007KT 10SM OVC038 16/09 A3004 RMK AO2 SLP166 T01560089",
      "metarObsTime": 1774943640
    },
    "KERI": {
      "status": "OK",
      "delay": "—",
      "metarCat": "VFR",
      "metarRaw": "METAR KERI 310751Z AUTO 21016G25KT 10SM OVC080 19/12 A2988 RMK AO2 PK WND 19033/0653 SLP116 T01890122 $",
      "metarObsTime": 1774943460
    },
    "KDUJ": {
      "status": "OK",
      "delay": "—",
      "metarCat": "VFR",
      "metarRaw": "METAR KDUJ 310753Z AUTO 23013KT 10SM OVC037 16/10 A2999 RMK AO2 SLP147 T01610100",
      "metarObsTime": 1774943580
    },
    "KBFD": {
      "status": "OK",
      "delay": "—",
      "metarCat": "MVFR",
      "metarRaw": "SPECI KBFD 310814Z AUTO 21009G16KT 10SM BKN028 OVC034 15/11 A2996 RMK AO2 T01500106",
      "metarObsTime": 1774944840
    },
    "KBTP": {
      "status": "OK",
      "delay": "—",
      "metarCat": "VFR",
      "metarRaw": "METAR KBTP 310756Z AUTO 23011KT 10SM OVC055 18/11 A3001 RMK AO2 SLP163 T01780106 $",
      "metarObsTime": 1774943760
    },
    "KFKL": {
      "status": "OK",
      "delay": "—",
      "metarCat": "VFR",
      "metarRaw": "METAR KFKL 310756Z AUTO 23013G19KT 10SM OVC040 17/11 A2998 RMK AO2 SLP148 T01720111",
      "metarObsTime": 1774943760
    },
    "KIDI": {
      "status": "OK",
      "delay": "—",
      "metarCat": "VFR",
      "metarRaw": "METAR KIDI 310815Z AUTO 23011G21KT 10SM BKN050 OVC060 17/10 A3003 RMK A01",
      "metarObsTime": 1774944900
    },
    "KMDT": {
      "status": "OK",
      "delay": "—",
      "metarCat": "VFR",
      "metarRaw": "METAR KMDT 310756Z 21007KT 10SM FEW100 17/10 A3002 RMK AO2 SLP167 T01670100",
      "metarObsTime": 1774943760
    },
    "KCXY": {
      "status": "OK",
      "delay": "—",
      "metarCat": "VFR",
      "metarRaw": "METAR KCXY 310756Z AUTO 26003KT 10SM CLR 16/09 A3002 RMK AO2 SLP167 T01560094",
      "metarObsTime": 1774943760
    },
    "KMUI": {
      "status": "OK",
      "delay": "—",
      "metarCat": "VFR",
      "metarRaw": "METAR KMUI 310755Z AUTO 00000KT 10SM FEW070 10/10 A3001 RMK AO2 LTG DSNT SE SLP165 T01040101",
      "metarObsTime": 1774943700
    },
    "KUNV": {
      "status": "OK",
      "delay": "—",
      "metarCat": "VFR",
      "metarRaw": "METAR KUNV 310815Z AUTO 21009KT 10SM SCT060 16/10 A3000 RMK AO2 T01620096",
      "metarObsTime": 1774944900
    },
    "KAOO": {
      "status": "OK",
      "delay": "—",
      "metarCat": "VFR",
      "metarRaw": "METAR KAOO 310753Z AUTO 19011KT 10SM OVC050 16/09 A3003 RMK AO2 SLP164 T01560089",
      "metarObsTime": 1774943580
    },
    "KLNS": {
      "status": "OK",
      "delay": "—",
      "metarCat": "VFR",
      "metarRaw": "METAR KLNS 310753Z AUTO 21005KT 10SM FEW070 OVC095 17/10 A3004 RMK AO2 SLP171 T01670100",
      "metarObsTime": 1774943580
    },
    "KIPT": {
      "status": "OK",
      "delay": "—",
      "metarCat": "VFR",
      "metarRaw": "METAR KIPT 310754Z AUTO 00000KT 10SM BKN060 OVC080 13/11 A2996 RMK AO2 SLP143 T01330106 $",
      "metarObsTime": 1774943640
    },
    "KPHL": {
      "status": "OK",
      "delay": "—",
      "metarCat": "VFR",
      "metarRaw": "METAR KPHL 310754Z 22013KT 10SM BKN080 BKN100 18/11 A3006 RMK AO2 SLP179 T01830106 $",
      "metarObsTime": 1774943640
    },
    "KABE": {
      "status": "OK",
      "delay": "—",
      "metarCat": "VFR",
      "metarRaw": "METAR KABE 310751Z 27003KT 10SM OVC085 16/10 A3002 RMK AO2 SLP165 T01560100 $",
      "metarObsTime": 1774943460
    },
    "KAVP": {
      "status": "OK",
      "delay": "—",
      "metarCat": "VFR",
      "metarRaw": "METAR KAVP 310754Z 17003KT 10SM OVC045 14/10 A2999 RMK AO2 RAB26E38 PRESFR SLP152 P0000 T01440100",
      "metarObsTime": 1774943640
    },
    "KHZL": {
      "status": "OK",
      "delay": "—",
      "metarCat": "VFR",
      "metarRaw": "METAR KHZL 310815Z AUTO 00000KT 10SM OVC048 15/09 A3004 RMK AO2",
      "metarObsTime": 1774944900
    }
  }
}