{
  "generatedAt": "2026-04-12T07:50:44.408Z",
  "airports": {
    "KPIT": {
      "status": "OK",
      "delay": "—",
      "metarCat": "VFR",
      "metarRaw": "METAR KPIT 120651Z 00000KT 10SM OVC250 08/M02 A3033 RMK AO2 SLP280 T00781022 $",
      "metarObsTime": 1775976660
    },
    "KAGC": {
      "status": "OK",
      "delay": "—",
      "metarCat": "VFR",
      "metarRaw": "METAR KAGC 120653Z 05003KT 10SM CLR 08/M02 A3033 RMK AO2 SLP277 T00781022",
      "metarObsTime": 1775976780
    },
    "KLBE": {
      "status": "OK",
      "delay": "—",
      "metarCat": "VFR",
      "metarRaw": "METAR KLBE 120735Z AUTO VRB03KT 10SM CLR 05/02 A3035 RMK AO2",
      "metarObsTime": 1775979300
    },
    "KJST": {
      "status": "OK",
      "delay": "—",
      "metarCat": "VFR",
      "metarRaw": "METAR KJST 120654Z AUTO 12003KT 10SM CLR 06/M03 A3035 RMK AO2 SLP286 T00611033",
      "metarObsTime": 1775976840
    },
    "KERI": {
      "status": "OK",
      "delay": "—",
      "metarCat": "VFR",
      "metarRaw": "METAR KERI 120651Z AUTO 07003KT 10SM CLR 04/M04 A3035 RMK AO2 SLP283 T00441044 $",
      "metarObsTime": 1775976660
    },
    "KDUJ": {
      "status": "OK",
      "delay": "—",
      "metarCat": "VFR",
      "metarRaw": "METAR KDUJ 120653Z AUTO 08005KT 10SM CLR 03/M06 A3035 RMK AO2 SLP286 T00281056",
      "metarObsTime": 1775976780
    },
    "KBFD": {
      "status": "OK",
      "delay": "—",
      "metarCat": "VFR",
      "metarRaw": "METAR KBFD 120653Z AUTO 00000KT 10SM CLR M03/M06 A3036 RMK AO2 SLP294 T10281056",
      "metarObsTime": 1775976780
    },
    "KBTP": {
      "status": "OK",
      "delay": "—",
      "metarCat": "VFR",
      "metarRaw": "METAR KBTP 120656Z AUTO 07006KT 10SM CLR 06/M03 A3035 RMK AO2 SLP287 T00561028 $",
      "metarObsTime": 1775976960
    },
    "KFKL": {
      "status": "OK",
      "delay": "—",
      "metarCat": "VFR",
      "metarRaw": "METAR KFKL 120656Z AUTO 08005KT 10SM CLR 02/M04 A3035 RMK AO2 SLP287 T00221039 FZRANO",
      "metarObsTime": 1775976960
    },
    "KIDI": {
      "status": "OK",
      "delay": "—",
      "metarCat": "VFR",
      "metarRaw": "METAR KIDI 120735Z AUTO 11005KT 10SM CLR 02/M00 A3035 RMK A01",
      "metarObsTime": 1775979300
    },
    "KMDT": {
      "status": "OK",
      "delay": "—",
      "metarCat": "VFR",
      "metarRaw": "METAR KMDT 120656Z 09004KT 10SM CLR 09/M01 A3041 RMK AO2 SLP300 T00891011",
      "metarObsTime": 1775976960
    },
    "KCXY": {
      "status": "OK",
      "delay": "—",
      "metarCat": "VFR",
      "metarRaw": "METAR KCXY 120656Z AUTO 10005KT 10SM CLR 08/M01 A3042 RMK AO2 SLP302 T00781006 $",
      "metarObsTime": 1775976960
    },
    "KMUI": {
      "status": "OK",
      "delay": "—",
      "metarCat": "—",
      "metarRaw": "—",
      "metarObsTime": null
    },
    "KUNV": {
      "status": "OK",
      "delay": "—",
      "metarCat": "VFR",
      "metarRaw": "METAR KUNV 120735Z AUTO 03005KT 10SM CLR 04/M03 A3040 RMK AO2 T00401027",
      "metarObsTime": 1775979300
    },
    "KAOO": {
      "status": "OK",
      "delay": "—",
      "metarCat": "VFR",
      "metarRaw": "METAR KAOO 120653Z AUTO 00000KT 10SM CLR 04/M03 A3038 RMK AO2 SLP293 T00391028",
      "metarObsTime": 1775976780
    },
    "KLNS": {
      "status": "OK",
      "delay": "—",
      "metarCat": "VFR",
      "metarRaw": "METAR KLNS 120653Z AUTO 05006KT 10SM CLR 06/M01 A3041 RMK AO2 SLP300 T00561006",
      "metarObsTime": 1775976780
    },
    "KIPT": {
      "status": "OK",
      "delay": "—",
      "metarCat": "VFR",
      "metarRaw": "METAR KIPT 120654Z AUTO 00000KT 10SM CLR 04/M02 A3044 RMK AO2 SLP308 T00441022 $",
      "metarObsTime": 1775976840
    },
    "KPHL": {
      "status": "OK",
      "delay": "—",
      "metarCat": "VFR",
      "metarRaw": "METAR KPHL 120654Z 04008KT 10SM CLR 10/M02 A3043 RMK AO2 SLP303 T01001022 $",
      "metarObsTime": 1775976840
    },
    "KABE": {
      "status": "OK",
      "delay": "—",
      "metarCat": "VFR",
      "metarRaw": "METAR KABE 120651Z 04003KT 10SM CLR 06/M03 A3044 RMK AO2 SLP309 T00561033 $",
      "metarObsTime": 1775976660
    },
    "KAVP": {
      "status": "OK",
      "delay": "—",
      "metarCat": "VFR",
      "metarRaw": "METAR KAVP 120654Z 00000KT 10SM CLR 01/M03 A3043 RMK AO2 SLP309 T00111033",
      "metarObsTime": 1775976840
    },
    "KHZL": {
      "status": "OK",
      "delay": "—",
      "metarCat": "VFR",
      "metarRaw": "METAR KHZL 120735Z AUTO 00000KT 10SM CLR 03/M05 A3044 RMK AO2",
      "metarObsTime": 1775979300
    }
  }
}